{"type": "FeatureCollection", "features": [{"type": "Feature", "properties": {"type": "ward-outline", "name": "Appledore"}, "geometry": {"type": "Polygon", "coordinates": [[[-4.19492, 51.04078], [-4.19523, 51.04078], [-4.1973, 51.04145], [-4.20037, 51.04146], [-4.20104, 51.04106], [-4.20385, 51.04167], [-4.20668, 51.0415], [-4.20953, 51.04082], [-4.21028, 51.04105], [-4.21196, 51.04087], [-4.21209, 51.0412], [-4.21293, 51.04112], [-4.21339, 51.04166], [-4.21514, 51.04137], [-4.21643, 51.04203], [-4.21769, 51.04433], [-4.21939, 51.04636], [-4.22804, 51.05107], [-4.22943, 51.05243], [-4.23076, 51.05324], [-4.23075, 51.05324], [-4.22645, 51.06052], [-4.22384, 51.06322], [-4.22174, 51.0646], [-4.21933, 51.06502], [-4.2173, 51.06496], [-4.20891, 51.06224], [-4.20808, 51.06169], [-4.20809, 51.06164], [-4.20884, 51.06094], [-4.21012, 51.06075], [-4.21202, 51.06122], [-4.21308, 51.06068], [-4.21248, 51.06065], [-4.21339, 51.06032], [-4.2123, 51.06055], [-4.21254, 51.06022], [-4.21216, 51.06019], [-4.21205, 51.05944], [-4.21371, 51.05672], [-4.2101, 51.05279], [-4.2102, 51.05242], [-4.20929, 51.05285], [-4.20624, 51.05335], [-4.20519, 51.05413], [-4.20195, 51.05527], [-4.20165, 51.05608], [-4.2001, 51.05692], [-4.19955, 51.05759], [-4.19765, 51.05793], [-4.19476, 51.05695], [-4.1931, 51.05554], [-4.19227, 51.05558], [-4.19065, 51.05479], [-4.19115, 51.05466], [-4.19064, 51.05425], [-4.19058, 51.05215], [-4.19149, 51.05172], [-4.1911, 51.05124], [-4.19148, 51.0505], [-4.19102, 51.04995], [-4.19133, 51.04887], [-4.19047, 51.04643], [-4.19127, 51.04491], [-4.19217, 51.04426], [-4.19225, 51.04356], [-4.19343, 51.04291], [-4.19449, 51.04134], [-4.1951, 51.04104], [-4.19492, 51.04078]]]}}, {"type": "Feature", "properties": {"type": "postcode-cell", "postcode": "EX39 1XS", "postcodes": ["EX39 1XS"]}, "geometry": {"type": "Polygon", "coordinates": [[[-4.213865251044451, 51.062838962874714], [-4.2156679088653775, 51.05518522493294], [-4.21756659419724, 51.05265127583857], [-4.225653646302142, 51.04977077185435], [-4.228039990059969, 51.05106999500106], [-4.229429990060323, 51.05242999500217], [-4.230759990060885, 51.05323999500285], [-4.230749990060878, 51.05323999500285], [-4.22644999005472, 51.06051999500888], [-4.223839990051739, 51.06321999501114], [-4.2217399900496835, 51.06459999501227], [-4.219329990047843, 51.06501999501265], [-4.217299990046472, 51.06495999501259], [-4.213995234120031, 51.0638887191695], [-4.213865251044451, 51.062838962874714]]]}}, {"type": "Feature", "properties": {"type": "postcode-cell", "postcode": "EX39 1XR", "postcodes": ["EX39 1XR"]}, "geometry": {"type": "Polygon", "coordinates": [[[-4.21756659419724, 51.05265127583857], [-4.21539774022378, 51.05057281612544], [-4.214773595773953, 51.04932705329494], [-4.21673232216858, 51.04615870949247], [-4.217990794073536, 51.045649732912345], [-4.2188153738225935, 51.045673858792576], [-4.219389990056086, 51.04635999499722], [-4.225653646302142, 51.04977077185435], [-4.21756659419724, 51.05265127583857]]]}}, {"type": "Feature", "properties": {"type": "postcode-cell", "postcode": "EX39 1ST", "postcodes": ["EX39 1ST"]}, "geometry": {"type": "Polygon", "coordinates": [[[-4.217990794073536, 51.045649732912345], [-4.2174536739464346, 51.04518270890079], [-4.217943001566599, 51.044734842399876], [-4.218012713916926, 51.04471538118671], [-4.2188153738225935, 51.045673858792576], [-4.217990794073536, 51.045649732912345]]]}}, {"type": "Feature", "properties": {"type": "postcode-cell", "postcode": "EX39 1SS", "postcodes": ["EX39 1SS"]}, "geometry": {"type": "Polygon", "coordinates": [[[-4.2174536739464346, 51.04518270890079], [-4.216885544432001, 51.04518845118909], [-4.216345639809105, 51.04463106085068], [-4.216738935649486, 51.044546828251114], [-4.217943001566599, 51.044734842399876], [-4.2174536739464346, 51.04518270890079]]]}}, {"type": "Feature", "properties": {"type": "postcode-cell", "postcode": "EX39 1EZ", "postcodes": ["EX39 1EZ"]}, "geometry": {"type": "Polygon", "coordinates": [[[-4.21549272700864, 51.04289068780064], [-4.2153953476040495, 51.04239050599055], [-4.215841172302248, 51.04172874354932], [-4.216429990055957, 51.042029994993634], [-4.216931505053106, 51.042945488783324], [-4.21549272700864, 51.04289068780064]]]}}, {"type": "Feature", "properties": {"type": "postcode-cell", "postcode": "EX39 1SR", "postcodes": ["EX39 1SR"]}, "geometry": {"type": "Polygon", "coordinates": [[[-4.216615079296834, 51.0456451160681], [-4.216885544432001, 51.04518845118909], [-4.2174536739464346, 51.04518270890079], [-4.217990794073536, 51.045649732912345], [-4.21673232216858, 51.04615870949247], [-4.216615079296834, 51.0456451160681]]]}}, {"type": "Feature", "properties": {"type": "postcode-cell", "postcode": "EX39 1SW", "postcodes": ["EX39 1SW"]}, "geometry": {"type": "Polygon", "coordinates": [[[-4.21673232216858, 51.04615870949247], [-4.214773595773953, 51.04932705329494], [-4.214001108409385, 51.04840726842393], [-4.215272457044569, 51.045140462223365], [-4.215284986322914, 51.04513389418153], [-4.216615079296834, 51.0456451160681], [-4.21673232216858, 51.04615870949247]]]}}, {"type": "Feature", "properties": {"type": "postcode-cell", "postcode": "EX39 1HB", "postcodes": ["EX39 1HB"]}, "geometry": {"type": "Polygon", "coordinates": [[[-4.217943001566599, 51.044734842399876], [-4.216738935649486, 51.044546828251114], [-4.2175053867162795, 51.043993036252154], [-4.217689990055808, 51.04432999499553], [-4.218012713916926, 51.04471538118671], [-4.217943001566599, 51.044734842399876]]]}}, {"type": "Feature", "properties": {"type": "postcode-cell", "postcode": "EX39 1SP", "postcodes": ["EX39 1SP"]}, "geometry": {"type": "Polygon", "coordinates": [[[-4.216885544432001, 51.04518845118909], [-4.216615079296834, 51.0456451160681], [-4.215284986322914, 51.04513389418153], [-4.215843377658706, 51.04453117614301], [-4.216345639809105, 51.04463106085068], [-4.216885544432001, 51.04518845118909]]]}}, {"type": "Feature", "properties": {"type": "postcode-cell", "postcode": "EX39 1HA", "postcodes": ["EX39 1HA"]}, "geometry": {"type": "Polygon", "coordinates": [[[-4.21591326704427, 51.04390333985183], [-4.217221326936331, 51.043474527980614], [-4.2175053867162795, 51.043993036252154], [-4.216738935649486, 51.044546828251114], [-4.216345639809105, 51.04463106085068], [-4.215843377658706, 51.04453117614301], [-4.215639988483664, 51.04421847008672], [-4.21591326704427, 51.04390333985183]]]}}, {"type": "Feature", "properties": {"type": "postcode-cell", "postcode": "EX39 1EN", "postcodes": ["EX39 1EN"]}, "geometry": {"type": "Polygon", "coordinates": [[[-4.215639988483664, 51.04421847008672], [-4.214551596207509, 51.044019479415766], [-4.214217173731497, 51.04325920024629], [-4.215462170838752, 51.04292063361314], [-4.21591326704427, 51.04390333985183], [-4.215639988483664, 51.04421847008672]]]}}, {"type": "Feature", "properties": {"type": "postcode-cell", "postcode": "EX39 1HT", "postcodes": ["EX39 1HT"]}, "geometry": {"type": "Polygon", "coordinates": [[[-4.21591326704427, 51.04390333985183], [-4.215462170838752, 51.04292063361314], [-4.21549272700864, 51.04289068780064], [-4.216931505053106, 51.042945488783324], [-4.217221326936331, 51.043474527980614], [-4.21591326704427, 51.04390333985183]]]}}, {"type": "Feature", "properties": {"type": "postcode-cell", "postcode": "EX39 1SN", "postcodes": ["EX39 1SN"]}, "geometry": {"type": "Polygon", "coordinates": [[[-4.212732231703102, 51.041573918451945], [-4.211979964552769, 51.041455675916104], [-4.211859008476856, 51.04139358546795], [-4.2118532009956935, 51.04138049383208], [-4.211970544576409, 51.04089678743185], [-4.21208999005334, 51.041199994992986], [-4.2129299900539525, 51.04111999499291], [-4.213251986833044, 51.04149799275738], [-4.212732231703102, 51.041573918451945]]]}}, {"type": "Feature", "properties": {"type": "postcode-cell", "postcode": "EX39 1SZ", "postcodes": ["EX39 1SZ"]}, "geometry": {"type": "Polygon", "coordinates": [[[-4.213974961059603, 51.0483857578863], [-4.213334680216402, 51.045418065494644], [-4.213377607816515, 51.045352559382216], [-4.214063377787963, 51.04495556639284], [-4.215272457044569, 51.045140462223365], [-4.214001108409385, 51.04840726842393], [-4.213974961059603, 51.0483857578863]]]}}, {"type": "Feature", "properties": {"type": "postcode-cell", "postcode": "EX39 1NH", "postcodes": ["EX39 1NH"]}, "geometry": {"type": "Polygon", "coordinates": [[[-4.214001108409385, 51.04840726842393], [-4.214773595773953, 51.04932705329494], [-4.21539774022378, 51.05057281612544], [-4.209532571349472, 51.049260097041014], [-4.207306793392755, 51.048543569379376], [-4.208042499118496, 51.04680577061059], [-4.209418629942836, 51.04644532969103], [-4.211380346823976, 51.04700201590767], [-4.213974961059603, 51.0483857578863], [-4.214001108409385, 51.04840726842393]]]}}, {"type": "Feature", "properties": {"type": "postcode-cell", "postcode": "EX39 1TA", "postcodes": ["EX39 1TA"]}, "geometry": {"type": "Polygon", "coordinates": [[[-4.215843377658706, 51.04453117614301], [-4.215284986322914, 51.04513389418153], [-4.215272457044569, 51.045140462223365], [-4.214063377787963, 51.04495556639284], [-4.213958600812695, 51.04429423355368], [-4.214551596207509, 51.044019479415766], [-4.215639988483664, 51.04421847008672], [-4.215843377658706, 51.04453117614301]]]}}, {"type": "Feature", "properties": {"type": "postcode-cell", "postcode": "EX39 1EJ", "postcodes": ["EX39 1EJ"]}, "geometry": {"type": "Polygon", "coordinates": [[[-4.214217173731497, 51.04325920024629], [-4.214050263791363, 51.04320177895587], [-4.213831891914114, 51.0423431230442], [-4.2153953476040495, 51.04239050599055], [-4.21549272700864, 51.04289068780064], [-4.215462170838752, 51.04292063361314], [-4.214217173731497, 51.04325920024629]]]}}, {"type": "Feature", "properties": {"type": "postcode-cell", "postcode": "EX39 1EL", "postcodes": ["EX39 1EL"]}, "geometry": {"type": "Polygon", "coordinates": [[[-4.2153953476040495, 51.04239050599055], [-4.213831891914114, 51.0423431230442], [-4.213752859542062, 51.04228331559264], [-4.2136716440972455, 51.04178034079462], [-4.213716477003769, 51.041605893696016], [-4.215139990055363, 51.04136999499312], [-4.215841172302248, 51.04172874354932], [-4.2153953476040495, 51.04239050599055]]]}}, {"type": "Feature", "properties": {"type": "postcode-cell", "postcode": "EX39 1EW", "postcodes": ["EX39 1EW"]}, "geometry": {"type": "Polygon", "coordinates": [[[-4.214217173731497, 51.04325920024629], [-4.214551596207509, 51.044019479415766], [-4.213958600812695, 51.04429423355368], [-4.212588055143131, 51.04418211326373], [-4.21247656253862, 51.0441455526697], [-4.212351437816637, 51.044043420955006], [-4.2124758221394245, 51.043482246515204], [-4.212521129048036, 51.043446468706385], [-4.212672360838479, 51.04338559881248], [-4.214050263791363, 51.04320177895587], [-4.214217173731497, 51.04325920024629]]]}}, {"type": "Feature", "properties": {"type": "postcode-cell", "postcode": "EX39 1TB", "postcodes": ["EX39 1TB"]}, "geometry": {"type": "Polygon", "coordinates": [[[-4.213334680216402, 51.045418065494644], [-4.211990729146034, 51.045147142757116], [-4.21247656253862, 51.0441455526697], [-4.212588055143131, 51.04418211326373], [-4.213377607816515, 51.045352559382216], [-4.213334680216402, 51.045418065494644]]]}}, {"type": "Feature", "properties": {"type": "postcode-cell", "postcode": "EX39 1TD", "postcodes": ["EX39 1TD"]}, "geometry": {"type": "Polygon", "coordinates": [[[-4.213974961059603, 51.0483857578863], [-4.211380346823976, 51.04700201590767], [-4.211705294866691, 51.045245937565745], [-4.211990729146034, 51.045147142757116], [-4.213334680216402, 51.045418065494644], [-4.213974961059603, 51.0483857578863]]]}}, {"type": "Feature", "properties": {"type": "postcode-cell", "postcode": "EX39 1HZ", "postcodes": ["EX39 1HZ"]}, "geometry": {"type": "Polygon", "coordinates": [[[-4.214063377787963, 51.04495556639284], [-4.213377607816515, 51.045352559382216], [-4.212588055143131, 51.04418211326373], [-4.213958600812695, 51.04429423355368], [-4.214063377787963, 51.04495556639284]]]}}, {"type": "Feature", "properties": {"type": "postcode-cell", "postcode": "EX39 1EQ", "postcodes": ["EX39 1EQ"]}, "geometry": {"type": "Polygon", "coordinates": [[[-4.214050263791363, 51.04320177895587], [-4.212672360838479, 51.04338559881248], [-4.2129597242744214, 51.04251787190582], [-4.213752859542062, 51.04228331559264], [-4.213831891914114, 51.0423431230442], [-4.214050263791363, 51.04320177895587]]]}}, {"type": "Feature", "properties": {"type": "postcode-cell", "postcode": "EX39 1EU", "postcodes": ["EX39 1EU"]}, "geometry": {"type": "Polygon", "coordinates": [[[-4.2124039531730855, 51.04236837425603], [-4.21240542236805, 51.0421184611735], [-4.2136716440972455, 51.04178034079462], [-4.213752859542062, 51.04228331559264], [-4.2129597242744214, 51.04251787190582], [-4.2124039531730855, 51.04236837425603]]]}}, {"type": "Feature", "properties": {"type": "postcode-cell", "postcode": "EX39 1EG", "postcodes": ["EX39 1EG"]}, "geometry": {"type": "Polygon", "coordinates": [[[-4.2129597242744214, 51.04251787190582], [-4.212672360838479, 51.04338559881248], [-4.212521129048036, 51.043446468706385], [-4.2120009917956045, 51.04253792400441], [-4.2124039531730855, 51.04236837425603], [-4.2129597242744214, 51.04251787190582]]]}}, {"type": "Feature", "properties": {"type": "postcode-cell", "postcode": "EX39 1DT", "postcodes": ["EX39 1DT"]}, "geometry": {"type": "Polygon", "coordinates": [[[-4.212732231703102, 51.041573918451945], [-4.213251986833044, 51.04149799275738], [-4.213389990054031, 51.04165999499337], [-4.213716477003769, 51.041605893696016], [-4.2136716440972455, 51.04178034079462], [-4.21240542236805, 51.0421184611735], [-4.212260697928017, 51.042002519567134], [-4.212239815746675, 51.041936297649166], [-4.212732231703102, 51.041573918451945]]]}}, {"type": "Feature", "properties": {"type": "postcode-cell", "postcode": "EX39 1DS", "postcodes": ["EX39 1DS"]}, "geometry": {"type": "Polygon", "coordinates": [[[-4.212239815746675, 51.041936297649166], [-4.212143301412694, 51.04187710427022], [-4.211979964552769, 51.041455675916104], [-4.212732231703102, 51.041573918451945], [-4.212239815746675, 51.041936297649166]]]}}, {"type": "Feature", "properties": {"type": "postcode-cell", "postcode": "EX39 1ED", "postcodes": ["EX39 1ED"]}, "geometry": {"type": "Polygon", "coordinates": [[[-4.2120009917956045, 51.04253792400441], [-4.211550619082639, 51.04248078744042], [-4.2116509609411175, 51.04213896743878], [-4.212260697928017, 51.042002519567134], [-4.21240542236805, 51.0421184611735], [-4.2124039531730855, 51.04236837425603], [-4.2120009917956045, 51.04253792400441]]]}}, {"type": "Feature", "properties": {"type": "postcode-cell", "postcode": "EX39 1ET", "postcodes": ["EX39 1ET"]}, "geometry": {"type": "Polygon", "coordinates": [[[-4.212521129048036, 51.043446468706385], [-4.2124758221394245, 51.043482246515204], [-4.210578485086288, 51.04295023575501], [-4.21127609912731, 51.04254716481939], [-4.211550619082639, 51.04248078744042], [-4.2120009917956045, 51.04253792400441], [-4.212521129048036, 51.043446468706385]]]}}, {"type": "Feature", "properties": {"type": "postcode-cell", "postcode": "EX39 1DZ", "postcodes": ["EX39 1DZ"]}, "geometry": {"type": "Polygon", "coordinates": [[[-4.2118532009956935, 51.04138049383208], [-4.2112302593937665, 51.04138049495057], [-4.210697063488262, 51.04100531093096], [-4.211959990053395, 51.040869994992704], [-4.211970544576409, 51.04089678743185], [-4.2118532009956935, 51.04138049383208]]]}}, {"type": "Feature", "properties": {"type": "postcode-cell", "postcode": "EX39 1DU", "postcodes": ["EX39 1DU"]}, "geometry": {"type": "Polygon", "coordinates": [[[-4.212143301412694, 51.04187710427022], [-4.211443544205795, 51.041834810464344], [-4.211423814976771, 51.04182250715402], [-4.211859008476856, 51.04139358546795], [-4.211979964552769, 51.041455675916104], [-4.212143301412694, 51.04187710427022]]]}}, {"type": "Feature", "properties": {"type": "postcode-cell", "postcode": "EX39 1XZ", "postcodes": ["EX39 1XZ"]}, "geometry": {"type": "Polygon", "coordinates": [[[-4.211380346823976, 51.04700201590767], [-4.209418629942836, 51.04644532969103], [-4.2093771165403195, 51.045686281781094], [-4.210648587757123, 51.04486306964937], [-4.211705294866691, 51.045245937565745], [-4.211380346823976, 51.04700201590767]]]}}, {"type": "Feature", "properties": {"type": "postcode-cell", "postcode": "EX39 1EE", "postcodes": ["EX39 1EE"]}, "geometry": {"type": "Polygon", "coordinates": [[[-4.2116509609411175, 51.04213896743878], [-4.211443544205795, 51.041834810464344], [-4.212143301412694, 51.04187710427022], [-4.212239815746675, 51.041936297649166], [-4.212260697928017, 51.042002519567134], [-4.2116509609411175, 51.04213896743878]]]}}, {"type": "Feature", "properties": {"type": "postcode-cell", "postcode": "EX39 1TG", "postcodes": ["EX39 1TG"]}, "geometry": {"type": "Polygon", "coordinates": [[[-4.21247656253862, 51.0441455526697], [-4.211990729146034, 51.045147142757116], [-4.211705294866691, 51.045245937565745], [-4.210648587757123, 51.04486306964937], [-4.210680696614253, 51.044516220294064], [-4.2113966139385335, 51.04416331814362], [-4.212351437816637, 51.044043420955006], [-4.21247656253862, 51.0441455526697]]]}}, {"type": "Feature", "properties": {"type": "postcode-cell", "postcode": "EX39 1DX", "postcodes": ["EX39 1DX"]}, "geometry": {"type": "Polygon", "coordinates": [[[-4.211423814976771, 51.04182250715402], [-4.210910385574693, 51.041817274225515], [-4.2112302593937665, 51.04138049495057], [-4.2118532009956935, 51.04138049383208], [-4.211859008476856, 51.04139358546795], [-4.211423814976771, 51.04182250715402]]]}}, {"type": "Feature", "properties": {"type": "postcode-cell", "postcode": "EX39 1EA", "postcodes": ["EX39 1EA"]}, "geometry": {"type": "Polygon", "coordinates": [[[-4.211443544205795, 51.041834810464344], [-4.2116509609411175, 51.04213896743878], [-4.211550619082639, 51.04248078744042], [-4.21127609912731, 51.04254716481939], [-4.210898504760704, 51.04181955943857], [-4.210910385574693, 51.041817274225515], [-4.211423814976771, 51.04182250715402], [-4.211443544205795, 51.041834810464344]]]}}, {"type": "Feature", "properties": {"type": "postcode-cell", "postcode": "EX39 1TL", "postcodes": ["EX39 1TL"]}, "geometry": {"type": "Polygon", "coordinates": [[[-4.210680696614253, 51.044516220294064], [-4.2103012345839375, 51.04435168187971], [-4.209458326319234, 51.04363152177846], [-4.209493884733512, 51.043412680758955], [-4.209864724331697, 51.04309786329454], [-4.210012859676316, 51.04300226966169], [-4.210105944286918, 51.043008409915224], [-4.2113966139385335, 51.04416331814362], [-4.210680696614253, 51.044516220294064]]]}}, {"type": "Feature", "properties": {"type": "postcode-cell", "postcode": "EX39 1EH", "postcodes": ["EX39 1EH"]}, "geometry": {"type": "Polygon", "coordinates": [[[-4.212351437816637, 51.044043420955006], [-4.2113966139385335, 51.04416331814362], [-4.210105944286918, 51.043008409915224], [-4.210578485086288, 51.04295023575501], [-4.2124758221394245, 51.043482246515204], [-4.212351437816637, 51.044043420955006]]]}}, {"type": "Feature", "properties": {"type": "postcode-cell", "postcode": "EX39 1DY", "postcodes": ["EX39 1DY"]}, "geometry": {"type": "Polygon", "coordinates": [[[-4.210910385574693, 51.041817274225515], [-4.210898504760704, 51.04181955943857], [-4.209871979930564, 51.04174263583359], [-4.20955721943865, 51.041067965063924], [-4.209580488378905, 51.04083548137114], [-4.210279990052163, 51.04104999499286], [-4.210697063488262, 51.04100531093096], [-4.2112302593937665, 51.04138049495057], [-4.210910385574693, 51.041817274225515]]]}}, {"type": "Feature", "properties": {"type": "postcode-cell", "postcode": "EX39 1EF", "postcodes": ["EX39 1EF"]}, "geometry": {"type": "Polygon", "coordinates": [[[-4.210578485086288, 51.04295023575501], [-4.210105944286918, 51.043008409915224], [-4.210012859676316, 51.04300226966169], [-4.209643568299047, 51.042297794522916], [-4.209871979930564, 51.04174263583359], [-4.210898504760704, 51.04181955943857], [-4.21127609912731, 51.04254716481939], [-4.210578485086288, 51.04295023575501]]]}}, {"type": "Feature", "properties": {"type": "postcode-cell", "postcode": "EX39 1DE", "postcodes": ["EX39 1DE"]}, "geometry": {"type": "Polygon", "coordinates": [[[-4.20955721943865, 51.041067965063924], [-4.207954603135434, 51.041764420501224], [-4.20760309404421, 51.04127975535745], [-4.20952999005175, 51.04081999499267], [-4.209580488378905, 51.04083548137114], [-4.20955721943865, 51.041067965063924]]]}}, {"type": "Feature", "properties": {"type": "postcode-cell", "postcode": "EX39 1TT", "postcodes": ["EX39 1TT"]}, "geometry": {"type": "Polygon", "coordinates": [[[-4.210012859676316, 51.04300226966169], [-4.209864724331697, 51.04309786329454], [-4.207132338758781, 51.0424664062526], [-4.207653630779516, 51.042238962124244], [-4.209643568299047, 51.042297794522916], [-4.210012859676316, 51.04300226966169]]]}}, {"type": "Feature", "properties": {"type": "postcode-cell", "postcode": "EX39 1NL", "postcodes": ["EX39 1NL"]}, "geometry": {"type": "Polygon", "coordinates": [[[-4.21756659419724, 51.05265127583857], [-4.2156679088653775, 51.05518522493294], [-4.210770633190903, 51.053520145850875], [-4.2100999900468725, 51.05278999500256], [-4.210199990047103, 51.05241999500227], [-4.209289990046289, 51.05284999500262], [-4.208959306664442, 51.052904209743694], [-4.208238433032263, 51.05265906635999], [-4.2069618939906395, 51.05047955832506], [-4.209532571349472, 51.049260097041014], [-4.21539774022378, 51.05057281612544], [-4.21756659419724, 51.05265127583857]]]}}, {"type": "Feature", "properties": {"type": "postcode-cell", "postcode": "EX39 1NN", "postcodes": ["EX39 1NN"]}, "geometry": {"type": "Polygon", "coordinates": [[[-4.2103012345839375, 51.04435168187971], [-4.20840753492499, 51.044811150199585], [-4.20838856993851, 51.044799715304116], [-4.2086721813122505, 51.044230691419514], [-4.209458326319234, 51.04363152177846], [-4.2103012345839375, 51.04435168187971]]]}}, {"type": "Feature", "properties": {"type": "postcode-cell", "postcode": "EX39 1NJ", "postcodes": ["EX39 1NJ"]}, "geometry": {"type": "Polygon", "coordinates": [[[-4.210648587757123, 51.04486306964937], [-4.2093771165403195, 51.045686281781094], [-4.20840753492499, 51.044811150199585], [-4.2103012345839375, 51.04435168187971], [-4.210680696614253, 51.044516220294064], [-4.210648587757123, 51.04486306964937]]]}}, {"type": "Feature", "properties": {"type": "postcode-cell", "postcode": "EX39 1NW", "postcodes": ["EX39 1NW"]}, "geometry": {"type": "Polygon", "coordinates": [[[-4.209418629942836, 51.04644532969103], [-4.208042499118496, 51.04680577061059], [-4.205012628488902, 51.04572665082969], [-4.206884714624894, 51.044759094597985], [-4.20838856993851, 51.044799715304116], [-4.20840753492499, 51.044811150199585], [-4.2093771165403195, 51.045686281781094], [-4.209418629942836, 51.04644532969103]]]}}, {"type": "Feature", "properties": {"type": "postcode-cell", "postcode": "EX39 1TU", "postcodes": ["EX39 1TU"]}, "geometry": {"type": "Polygon", "coordinates": [[[-4.209493884733512, 51.043412680758955], [-4.206873146785139, 51.043194596580804], [-4.206827154205128, 51.04318468464674], [-4.206319169122051, 51.0427320470444], [-4.207132338758781, 51.0424664062526], [-4.209864724331697, 51.04309786329454], [-4.209493884733512, 51.043412680758955]]]}}, {"type": "Feature", "properties": {"type": "postcode-cell", "postcode": "EX39 1DG", "postcodes": ["EX39 1DG"]}, "geometry": {"type": "Polygon", "coordinates": [[[-4.209643568299047, 51.042297794522916], [-4.207653630779516, 51.042238962124244], [-4.207954603135434, 51.041764420501224], [-4.20955721943865, 51.041067965063924], [-4.209871979930564, 51.04174263583359], [-4.209643568299047, 51.042297794522916]]]}}, {"type": "Feature", "properties": {"type": "postcode-cell", "postcode": "EX39 1GQ", "postcodes": ["EX39 1GQ"]}, "geometry": {"type": "Polygon", "coordinates": [[[-4.20838856993851, 51.044799715304116], [-4.206884714624894, 51.044759094597985], [-4.206827154205128, 51.04318468464674], [-4.206873146785139, 51.043194596580804], [-4.2086721813122505, 51.044230691419514], [-4.20838856993851, 51.044799715304116]]]}}, {"type": "Feature", "properties": {"type": "postcode-cell", "postcode": "EX39 1DF", "postcodes": ["EX39 1DF"]}, "geometry": {"type": "Polygon", "coordinates": [[[-4.207954603135434, 51.041764420501224], [-4.207653630779516, 51.042238962124244], [-4.207132338758781, 51.0424664062526], [-4.206319169122051, 51.0427320470444], [-4.201470908775616, 51.04161530756188], [-4.201106432158771, 51.041074419341655], [-4.203849990047475, 51.041669994993406], [-4.206679990049493, 51.041499994993245], [-4.20760309404421, 51.04127975535745], [-4.207954603135434, 51.041764420501224]]]}}, {"type": "Feature", "properties": {"type": "postcode-cell", "postcode": "EX39 1GG", "postcodes": ["EX39 1GG"]}, "geometry": {"type": "Polygon", "coordinates": [[[-4.209458326319234, 51.04363152177846], [-4.2086721813122505, 51.044230691419514], [-4.206873146785139, 51.043194596580804], [-4.209493884733512, 51.043412680758955], [-4.209458326319234, 51.04363152177846]]]}}, {"type": "Feature", "properties": {"type": "postcode-cell", "postcode": "EX39 1NS", "postcodes": ["EX39 1NS"]}, "geometry": {"type": "Polygon", "coordinates": [[[-4.205012628488902, 51.04572665082969], [-4.204905709721296, 51.04573053015986], [-4.202165735519559, 51.04445248944621], [-4.201569154674083, 51.04395479218341], [-4.201470908775616, 51.04161530756188], [-4.206319169122051, 51.0427320470444], [-4.206827154205128, 51.04318468464674], [-4.206884714624894, 51.044759094597985], [-4.205012628488902, 51.04572665082969]]]}}, {"type": "Feature", "properties": {"type": "postcode-cell", "postcode": "EX39 1BT", "postcodes": ["EX39 1BT"]}, "geometry": {"type": "Polygon", "coordinates": [[[-4.207306793392755, 51.048543569379376], [-4.207263000865022, 51.0485527218112], [-4.204576448472749, 51.04661058961087], [-4.204905709721296, 51.04573053015986], [-4.205012628488902, 51.04572665082969], [-4.208042499118496, 51.04680577061059], [-4.207306793392755, 51.048543569379376]]]}}, {"type": "Feature", "properties": {"type": "postcode-cell", "postcode": "EX39 1NG", "postcodes": ["EX39 1NG"]}, "geometry": {"type": "MultiPolygon", "coordinates": [[[[-4.208959306664442, 51.052904209743694], [-4.206239990043973, 51.05334999500305], [-4.205189990042909, 51.054129995003706], [-4.203172426514311, 51.054839895476604], [-4.201795115073655, 51.053136276600135], [-4.202099436253389, 51.05239189957631], [-4.203099483890139, 51.05191111514218], [-4.203113178281701, 51.05191158065863], [-4.208238433032263, 51.05265906635999], [-4.208959306664442, 51.052904209743694]]], [[[-4.2156679088653775, 51.05518522493294], [-4.213865251044451, 51.062838962874714], [-4.210833603513263, 51.06092652522299], [-4.2120199900444835, 51.06121999500953], [-4.213079990045448, 51.06067999500906], [-4.21247999004505, 51.06064999500906], [-4.2133899900458225, 51.0603199950088], [-4.212299990044972, 51.06054999500897], [-4.212539990045282, 51.0602199950087], [-4.212159990045034, 51.060189995008685], [-4.212049990045287, 51.05943999500807], [-4.213709990047626, 51.056719995005814], [-4.210770633190903, 51.053520145850875], [-4.2156679088653775, 51.05518522493294]]]]}}, {"type": "Feature", "properties": {"type": "postcode-cell", "postcode": "EX39 1NF", "postcodes": ["EX39 1NF"]}, "geometry": {"type": "Polygon", "coordinates": [[[-4.209532571349472, 51.049260097041014], [-4.2069618939906395, 51.05047955832506], [-4.206357942944485, 51.04998148194786], [-4.206152785222467, 51.04895869330438], [-4.207263000865022, 51.0485527218112], [-4.207306793392755, 51.048543569379376], [-4.209532571349472, 51.049260097041014]]]}}, {"type": "Feature", "properties": {"type": "postcode-cell", "postcode": "EX39 1NQ", "postcodes": ["EX39 1NQ"]}, "geometry": {"type": "Polygon", "coordinates": [[[-4.208238433032263, 51.05265906635999], [-4.203113178281701, 51.05191158065863], [-4.206357942944485, 51.04998148194786], [-4.2069618939906395, 51.05047955832506], [-4.208238433032263, 51.05265906635999]]]}}, {"type": "Feature", "properties": {"type": "postcode-cell", "postcode": "EX39 1UZ", "postcodes": ["EX39 1UZ"]}, "geometry": {"type": "Polygon", "coordinates": [[[-4.195453790871947, 51.04545040794906], [-4.195145541598755, 51.04599998263636], [-4.194632569438401, 51.04647185565562], [-4.191027274259151, 51.04537116576927], [-4.191269990037415, 51.04490999499613], [-4.192169990038319, 51.04425999499558], [-4.1922499900386825, 51.04355999499501], [-4.193429990039778, 51.04290999499448], [-4.194223691714832, 51.04173442864509], [-4.195453790871947, 51.04545040794906]]]}}, {"type": "Feature", "properties": {"type": "postcode-cell", "postcode": "EX39 1NP", "postcodes": ["EX39 1NP"]}, "geometry": {"type": "Polygon", "coordinates": [[[-4.206152785222467, 51.04895869330438], [-4.203967372082023, 51.048864092716904], [-4.203224398407679, 51.04827772156999], [-4.204576448472749, 51.04661058961087], [-4.207263000865022, 51.0485527218112], [-4.206152785222467, 51.04895869330438]]]}}, {"type": "Feature", "properties": {"type": "postcode-cell", "postcode": "EX39 1GB", "postcodes": ["EX39 1GB"]}, "geometry": {"type": "Polygon", "coordinates": [[[-4.201712650176706, 51.04630882260573], [-4.200118227508521, 51.04691084648808], [-4.199785034548376, 51.04603008047701], [-4.19982649718278, 51.045484067096055], [-4.200444774777981, 51.044571641681], [-4.201569154674083, 51.04395479218341], [-4.202165735519559, 51.04445248944621], [-4.201712650176706, 51.04630882260573]]]}}, {"type": "Feature", "properties": {"type": "postcode-cell", "postcode": "EX39 1NR", "postcodes": ["EX39 1NR"]}, "geometry": {"type": "Polygon", "coordinates": [[[-4.202165735519559, 51.04445248944621], [-4.204905709721296, 51.04573053015986], [-4.204576448472749, 51.04661058961087], [-4.203224398407679, 51.04827772156999], [-4.20175569604658, 51.04809808579677], [-4.201712650176706, 51.04630882260573], [-4.202165735519559, 51.04445248944621]]]}}, {"type": "Feature", "properties": {"type": "postcode-cell", "postcode": "EX39 1ND", "postcodes": ["EX39 1ND"]}, "geometry": {"type": "Polygon", "coordinates": [[[-4.206357942944485, 51.04998148194786], [-4.203113178281701, 51.05191158065863], [-4.203099483890139, 51.05191111514218], [-4.2030025210433255, 51.05091728546312], [-4.203967372082023, 51.048864092716904], [-4.206152785222467, 51.04895869330438], [-4.206357942944485, 51.04998148194786]]]}}, {"type": "Feature", "properties": {"type": "postcode-cell", "postcode": "EX39 1PB", "postcodes": ["EX39 1PB"]}, "geometry": {"type": "Polygon", "coordinates": [[[-4.2030025210433255, 51.05091728546312], [-4.1997483142036565, 51.0490744354083], [-4.199818070126169, 51.04879453167424], [-4.2013192518596005, 51.04816466590676], [-4.20175569604658, 51.04809808579677], [-4.203224398407679, 51.04827772156999], [-4.203967372082023, 51.048864092716904], [-4.2030025210433255, 51.05091728546312]]]}}, {"type": "Feature", "properties": {"type": "postcode-cell", "postcode": "EX39 1FY", "postcodes": ["EX39 1FY"]}, "geometry": {"type": "Polygon", "coordinates": [[[-4.200419008151093, 51.05567518482531], [-4.199586567339598, 51.05454653973901], [-4.201496637636325, 51.05325117472963], [-4.201795115073655, 51.053136276600135], [-4.203172426514311, 51.054839895476604], [-4.20194999004018, 51.05526999500467], [-4.201649990039619, 51.05607999500533], [-4.201567266835732, 51.05612482692028], [-4.200419008151093, 51.05567518482531]]]}}, {"type": "Feature", "properties": {"type": "postcode-cell", "postcode": "EX39 1SB", "postcodes": ["EX39 1SB"]}, "geometry": {"type": "MultiPolygon", "coordinates": [[[[-4.213865251044451, 51.062838962874714], [-4.213995234120031, 51.0638887191695], [-4.208909990041894, 51.06223999501037], [-4.208079990041567, 51.06168999500993], [-4.208089990041595, 51.061639995009884], [-4.20883999004242, 51.06093999500933], [-4.210119990043385, 51.06074999500916], [-4.210833603513263, 51.06092652522299], [-4.213865251044451, 51.062838962874714]]], [[[-4.199134747443637, 51.05734187870258], [-4.200328622780483, 51.05673221639893], [-4.200428165624304, 51.05674214922434], [-4.200099990038182, 51.05691999500602], [-4.199549990037509, 51.057589995006566], [-4.1993338606462105, 51.0576286725928], [-4.199134747443637, 51.05734187870258]]]]}}, {"type": "Feature", "properties": {"type": "postcode-cell", "postcode": "EX39 1PA", "postcodes": ["EX39 1PA"]}, "geometry": {"type": "Polygon", "coordinates": [[[-4.202099436253389, 51.05239189957631], [-4.201275951038371, 51.05211204474102], [-4.2011347602771005, 51.052014497209534], [-4.199084980426609, 51.04974587297093], [-4.1997483142036565, 51.0490744354083], [-4.2030025210433255, 51.05091728546312], [-4.203099483890139, 51.05191111514218], [-4.202099436253389, 51.05239189957631]]]}}, {"type": "Feature", "properties": {"type": "postcode-cell", "postcode": "EX39 1GA", "postcodes": ["EX39 1GA"]}, "geometry": {"type": "Polygon", "coordinates": [[[-4.200104850608478, 51.047032166531025], [-4.200118227508521, 51.04691084648808], [-4.201712650176706, 51.04630882260573], [-4.20175569604658, 51.04809808579677], [-4.2013192518596005, 51.04816466590676], [-4.200104850608478, 51.047032166531025]]]}}, {"type": "Feature", "properties": {"type": "postcode-cell", "postcode": "EX39 1ZT", "postcodes": ["EX39 1ZT"]}, "geometry": {"type": "Polygon", "coordinates": [[[-4.2013192518596005, 51.04816466590676], [-4.199818070126169, 51.04879453167424], [-4.198568725246456, 51.0482367662303], [-4.198660326183056, 51.047519971523506], [-4.199550946720807, 51.047048127631285], [-4.200104850608478, 51.047032166531025], [-4.2013192518596005, 51.04816466590676]]]}}, {"type": "Feature", "properties": {"type": "postcode-cell", "postcode": "EX39 1GD", "postcodes": ["EX39 1GD"]}, "geometry": {"type": "Polygon", "coordinates": [[[-4.200118227508521, 51.04691084648808], [-4.200104850608478, 51.047032166531025], [-4.199550946720807, 51.047048127631285], [-4.199086932291835, 51.046763761651235], [-4.199785034548376, 51.04603008047701], [-4.200118227508521, 51.04691084648808]]]}}, {"type": "Feature", "properties": {"type": "postcode-cell", "postcode": "EX39 1GF", "postcodes": ["EX39 1GF"]}, "geometry": {"type": "Polygon", "coordinates": [[[-4.199785034548376, 51.04603008047701], [-4.199086932291835, 51.046763761651235], [-4.198428789541094, 51.04685479414761], [-4.198149755553076, 51.04640483480059], [-4.19982649718278, 51.045484067096055], [-4.199785034548376, 51.04603008047701]]]}}, {"type": "Feature", "properties": {"type": "postcode-cell", "postcode": "EX39 1SG", "postcodes": ["EX39 1SG"]}, "geometry": {"type": "Polygon", "coordinates": [[[-4.200419008151093, 51.05567518482531], [-4.198669623783485, 51.05602419102536], [-4.198540092616252, 51.05591427407772], [-4.198343912418697, 51.05478928128614], [-4.199586567339598, 51.05454653973901], [-4.200419008151093, 51.05567518482531]]]}}, {"type": "Feature", "properties": {"type": "postcode-cell", "postcode": "EX39 1RF", "postcodes": ["EX39 1RF"]}, "geometry": {"type": "Polygon", "coordinates": [[[-4.202099436253389, 51.05239189957631], [-4.201795115073655, 51.053136276600135], [-4.201496637636325, 51.05325117472963], [-4.197624693352471, 51.053303726999566], [-4.197943994552534, 51.05245987489846], [-4.200495434318199, 51.05213034518975], [-4.201275951038371, 51.05211204474102], [-4.202099436253389, 51.05239189957631]]]}}, {"type": "Feature", "properties": {"type": "postcode-cell", "postcode": "EX39 1PD", "postcodes": ["EX39 1PD"]}, "geometry": {"type": "Polygon", "coordinates": [[[-4.199084980426609, 51.04974587297093], [-4.2011347602771005, 51.052014497209534], [-4.198804945765549, 51.051245759613096], [-4.198462862305049, 51.05086308520085], [-4.1988313985641, 51.04983027784588], [-4.199084980426609, 51.04974587297093]]]}}, {"type": "Feature", "properties": {"type": "postcode-cell", "postcode": "EX39 1QB", "postcodes": ["EX39 1QB"]}, "geometry": {"type": "Polygon", "coordinates": [[[-4.1988313985641, 51.04983027784588], [-4.1982612731068345, 51.049876579210036], [-4.196249762488125, 51.04930704617946], [-4.195511719360399, 51.04872514165352], [-4.1954030164344704, 51.048033032446064], [-4.198568725246456, 51.0482367662303], [-4.199818070126169, 51.04879453167424], [-4.1997483142036565, 51.0490744354083], [-4.199084980426609, 51.04974587297093], [-4.1988313985641, 51.04983027784588]]]}}, {"type": "Feature", "properties": {"type": "postcode-cell", "postcode": "EX39 1GE", "postcodes": ["EX39 1GE"]}, "geometry": {"type": "Polygon", "coordinates": [[[-4.198660326183056, 51.047519971523506], [-4.198386316523011, 51.04697997867293], [-4.198428789541094, 51.04685479414761], [-4.199086932291835, 51.046763761651235], [-4.199550946720807, 51.047048127631285], [-4.198660326183056, 51.047519971523506]]]}}, {"type": "Feature", "properties": {"type": "postcode-cell", "postcode": "EX39 1NB", "postcodes": ["EX39 1NB"]}, "geometry": {"type": "Polygon", "coordinates": [[[-4.19982649718278, 51.045484067096055], [-4.198149755553076, 51.04640483480059], [-4.195145541598755, 51.04599998263636], [-4.195453790871947, 51.04545040794906], [-4.200444774777981, 51.044571641681], [-4.19982649718278, 51.045484067096055]]]}}, {"type": "Feature", "properties": {"type": "postcode-cell", "postcode": "EX39 1SF", "postcodes": ["EX39 1SF"]}, "geometry": {"type": "Polygon", "coordinates": [[[-4.201567266835732, 51.05612482692028], [-4.200428165624304, 51.05674214922434], [-4.200328622780483, 51.05673221639893], [-4.198923310207569, 51.056560960287115], [-4.1987647861440305, 51.05646215048704], [-4.198669623783485, 51.05602419102536], [-4.200419008151093, 51.05567518482531], [-4.201567266835732, 51.05612482692028]]]}}, {"type": "Feature", "properties": {"type": "postcode-cell", "postcode": "EX39 1SA", "postcodes": ["EX39 1SA"]}, "geometry": {"type": "Polygon", "coordinates": [[[-4.197973696232897, 51.05749929703895], [-4.198898917328271, 51.05706054215039], [-4.199134747443637, 51.05734187870258], [-4.1993338606462105, 51.0576286725928], [-4.197997198370689, 51.057867865656235], [-4.197973696232897, 51.05749929703895]]]}}, {"type": "Feature", "properties": {"type": "postcode-cell", "postcode": "EX39 1SL", "postcodes": ["EX39 1SL"]}, "geometry": {"type": "Polygon", "coordinates": [[[-4.200328622780483, 51.05673221639893], [-4.199134747443637, 51.05734187870258], [-4.198898917328271, 51.05706054215039], [-4.198923310207569, 51.056560960287115], [-4.200328622780483, 51.05673221639893]]]}}, {"type": "Feature", "properties": {"type": "postcode-cell", "postcode": "EX39 1SD", "postcodes": ["EX39 1SD"]}, "geometry": {"type": "Polygon", "coordinates": [[[-4.1987647861440305, 51.05646215048704], [-4.197790498449119, 51.05679217223347], [-4.196503310089239, 51.05640542344884], [-4.196441269096137, 51.056088536706596], [-4.198540092616252, 51.05591427407772], [-4.198669623783485, 51.05602419102536], [-4.1987647861440305, 51.05646215048704]]]}}, {"type": "Feature", "properties": {"type": "postcode-cell", "postcode": "EX39 1SE", "postcodes": ["EX39 1SE"]}, "geometry": {"type": "Polygon", "coordinates": [[[-4.198898917328271, 51.05706054215039], [-4.197973696232897, 51.05749929703895], [-4.197704029957111, 51.057170609993626], [-4.197790498449119, 51.05679217223347], [-4.1987647861440305, 51.05646215048704], [-4.198923310207569, 51.056560960287115], [-4.198898917328271, 51.05706054215039]]]}}, {"type": "Feature", "properties": {"type": "postcode-cell", "postcode": "EX39 1HF", "postcodes": ["EX39 1HF"]}, "geometry": {"type": "Polygon", "coordinates": [[[-4.198804945765549, 51.051245759613096], [-4.2011347602771005, 51.052014497209534], [-4.201275951038371, 51.05211204474102], [-4.200495434318199, 51.05213034518975], [-4.197864657227916, 51.05170030263751], [-4.197862714357153, 51.05155718083255], [-4.198804945765549, 51.051245759613096]]]}}, {"type": "Feature", "properties": {"type": "postcode-cell", "postcode": "EX39 1QN", "postcodes": ["EX39 1QN"]}, "geometry": {"type": "Polygon", "coordinates": [[[-4.197862714357153, 51.05155718083255], [-4.197466677827436, 51.051133650317006], [-4.198462862305049, 51.05086308520085], [-4.198804945765549, 51.051245759613096], [-4.197862714357153, 51.05155718083255]]]}}, {"type": "Feature", "properties": {"type": "postcode-cell", "postcode": "EX39 1NU", "postcodes": ["EX39 1NU"]}, "geometry": {"type": "Polygon", "coordinates": [[[-4.200444774777981, 51.044571641681], [-4.195453790871947, 51.04545040794906], [-4.194223691714832, 51.04173442864509], [-4.194489990041196, 51.04133999499318], [-4.195099990041749, 51.04103999499295], [-4.194919990041736, 51.0407799949927], [-4.19522999004195, 51.04077999499272], [-4.197299990043076, 51.041449994993265], [-4.200369990045179, 51.04145999499325], [-4.201039990045812, 51.04105999499292], [-4.201106432158771, 51.041074419341655], [-4.201470908775616, 51.04161530756188], [-4.201569154674083, 51.04395479218341], [-4.200444774777981, 51.044571641681]]]}}, {"type": "Feature", "properties": {"type": "postcode-cell", "postcode": "EX39 1RA", "postcodes": ["EX39 1RA"]}, "geometry": {"type": "Polygon", "coordinates": [[[-4.199586567339598, 51.05454653973901], [-4.198343912418697, 51.05478928128614], [-4.197769661934866, 51.0546512030881], [-4.197448845586925, 51.05338658304289], [-4.197624693352471, 51.053303726999566], [-4.201496637636325, 51.05325117472963], [-4.199586567339598, 51.05454653973901]]]}}, {"type": "Feature", "properties": {"type": "postcode-cell", "postcode": "EX39 1GJ", "postcodes": ["EX39 1GJ"]}, "geometry": {"type": "Polygon", "coordinates": [[[-4.198568725246456, 51.0482367662303], [-4.1954030164344704, 51.048033032446064], [-4.194614376555955, 51.04739819836226], [-4.198386316523011, 51.04697997867293], [-4.198660326183056, 51.047519971523506], [-4.198568725246456, 51.0482367662303]]]}}, {"type": "Feature", "properties": {"type": "postcode-cell", "postcode": "EX39 1RQ", "postcodes": ["EX39 1RQ"]}, "geometry": {"type": "Polygon", "coordinates": [[[-4.197943994552534, 51.05245987489846], [-4.1974988234481705, 51.05208027431793], [-4.197864657227916, 51.05170030263751], [-4.200495434318199, 51.05213034518975], [-4.197943994552534, 51.05245987489846]]]}}, {"type": "Feature", "properties": {"type": "postcode-cell", "postcode": "EX39 1RG", "postcodes": ["EX39 1RG"]}, "geometry": {"type": "Polygon", "coordinates": [[[-4.197624693352471, 51.053303726999566], [-4.197448845586925, 51.05338658304289], [-4.197062546806748, 51.053322874701315], [-4.196653878415543, 51.05312873488892], [-4.196699968658741, 51.0521847782826], [-4.197149769761546, 51.05207066283197], [-4.1974988234481705, 51.05208027431793], [-4.197943994552534, 51.05245987489846], [-4.197624693352471, 51.053303726999566]]]}}, {"type": "Feature", "properties": {"type": "postcode-cell", "postcode": "EX39 1GH", "postcodes": ["EX39 1GH"]}, "geometry": {"type": "Polygon", "coordinates": [[[-4.198386316523011, 51.04697997867293], [-4.194614376555955, 51.04739819836226], [-4.19458632336767, 51.04738000871677], [-4.194632569438401, 51.04647185565562], [-4.195145541598755, 51.04599998263636], [-4.198149755553076, 51.04640483480059], [-4.198428789541094, 51.04685479414761], [-4.198386316523011, 51.04697997867293]]]}}, {"type": "Feature", "properties": {"type": "postcode-cell", "postcode": "EX39 1RZ", "postcodes": ["EX39 1RZ"]}, "geometry": {"type": "Polygon", "coordinates": [[[-4.196726697135538, 51.05753413859315], [-4.196869210692607, 51.057262208208975], [-4.197704029957111, 51.057170609993626], [-4.197973696232897, 51.05749929703895], [-4.197997198370689, 51.057867865656235], [-4.197649990036056, 51.05792999500685], [-4.196725565547244, 51.05761653474457], [-4.196726697135538, 51.05753413859315]]]}}, {"type": "Feature", "properties": {"type": "postcode-cell", "postcode": "EX39 1NZ", "postcodes": ["EX39 1NZ"]}, "geometry": {"type": "Polygon", "coordinates": [[[-4.198343912418697, 51.05478928128614], [-4.198540092616252, 51.05591427407772], [-4.196441269096137, 51.056088536706596], [-4.196419215512122, 51.05606736945011], [-4.196523591751646, 51.054943680046144], [-4.197769661934866, 51.0546512030881], [-4.198343912418697, 51.05478928128614]]]}}, {"type": "Feature", "properties": {"type": "postcode-cell", "postcode": "EX39 1PE", "postcodes": ["EX39 1PE"]}, "geometry": {"type": "Polygon", "coordinates": [[[-4.197862714357153, 51.05155718083255], [-4.197864657227916, 51.05170030263751], [-4.1974988234481705, 51.05208027431793], [-4.197149769761546, 51.05207066283197], [-4.196555319721919, 51.051024326002135], [-4.19674553153978, 51.050904040557526], [-4.197466677827436, 51.051133650317006], [-4.197862714357153, 51.05155718083255]]]}}, {"type": "Feature", "properties": {"type": "postcode-cell", "postcode": "EX39 1PF", "postcodes": ["EX39 1PF"]}, "geometry": {"type": "Polygon", "coordinates": [[[-4.197466677827436, 51.051133650317006], [-4.19674553153978, 51.050904040557526], [-4.196766284845712, 51.050762278256265], [-4.1982612731068345, 51.049876579210036], [-4.1988313985641, 51.04983027784588], [-4.198462862305049, 51.05086308520085], [-4.197466677827436, 51.051133650317006]]]}}, {"type": "Feature", "properties": {"type": "postcode-cell", "postcode": "EX39 1QA", "postcodes": ["EX39 1QA"]}, "geometry": {"type": "Polygon", "coordinates": [[[-4.196249762488125, 51.04930704617946], [-4.1982612731068345, 51.049876579210036], [-4.196766284845712, 51.050762278256265], [-4.196260209493851, 51.05032562296683], [-4.196249762488125, 51.04930704617946]]]}}, {"type": "Feature", "properties": {"type": "postcode-cell", "postcode": "EX39 1PZ", "postcodes": ["EX39 1PZ"]}, "geometry": {"type": "Polygon", "coordinates": [[[-4.196260209493851, 51.05032562296683], [-4.195282499951611, 51.05034405341522], [-4.194758918022379, 51.04979429144836], [-4.194870719796995, 51.049441582484995], [-4.195511719360399, 51.04872514165352], [-4.196249762488125, 51.04930704617946], [-4.196260209493851, 51.05032562296683]]]}}, {"type": "Feature", "properties": {"type": "postcode-cell", "postcode": "EX39 1FJ", "postcodes": ["EX39 1FJ"]}, "geometry": {"type": "Polygon", "coordinates": [[[-4.197790498449119, 51.05679217223347], [-4.197704029957111, 51.057170609993626], [-4.196869210692607, 51.057262208208975], [-4.19653378444999, 51.05684113588253], [-4.196470974700705, 51.05645347160704], [-4.196503310089239, 51.05640542344884], [-4.197790498449119, 51.05679217223347]]]}}, {"type": "Feature", "properties": {"type": "postcode-cell", "postcode": "EX39 1RT", "postcodes": ["EX39 1RT"]}, "geometry": {"type": "Polygon", "coordinates": [[[-4.19653378444999, 51.05684113588253], [-4.196070123488938, 51.05726054242922], [-4.19583320280099, 51.05731393513475], [-4.195177574287232, 51.05709160501753], [-4.1952561593023345, 51.056984662295925], [-4.196470974700705, 51.05645347160704], [-4.19653378444999, 51.05684113588253]]]}}, {"type": "Feature", "properties": {"type": "postcode-cell", "postcode": "EX39 1PX", "postcodes": ["EX39 1PX"]}, "geometry": {"type": "Polygon", "coordinates": [[[-4.19674553153978, 51.050904040557526], [-4.196555319721919, 51.051024326002135], [-4.196300904164187, 51.05110987909196], [-4.195127220980148, 51.051163612108105], [-4.19495834682779, 51.05096259685164], [-4.195282499951611, 51.05034405341522], [-4.196260209493851, 51.05032562296683], [-4.196766284845712, 51.050762278256265], [-4.19674553153978, 51.050904040557526]]]}}, {"type": "Feature", "properties": {"type": "postcode-cell", "postcode": "EX39 1RE", "postcodes": ["EX39 1RE"]}, "geometry": {"type": "Polygon", "coordinates": [[[-4.197448845586925, 51.05338658304289], [-4.197769661934866, 51.0546512030881], [-4.196523591751646, 51.054943680046144], [-4.195000392272023, 51.05450481770139], [-4.197062546806748, 51.053322874701315], [-4.197448845586925, 51.05338658304289]]]}}, {"type": "Feature", "properties": {"type": "postcode-cell", "postcode": "EX39 1RU", "postcodes": ["EX39 1RU"]}, "geometry": {"type": "Polygon", "coordinates": [[[-4.196869210692607, 51.057262208208975], [-4.196726697135538, 51.05753413859315], [-4.196070123488938, 51.05726054242922], [-4.19653378444999, 51.05684113588253], [-4.196869210692607, 51.057262208208975]]]}}, {"type": "Feature", "properties": {"type": "postcode-cell", "postcode": "EX39 1PU", "postcodes": ["EX39 1PU"]}, "geometry": {"type": "Polygon", "coordinates": [[[-4.196134815900286, 51.05205446459062], [-4.194929016818718, 51.051417685832824], [-4.195127220980148, 51.051163612108105], [-4.196300904164187, 51.05110987909196], [-4.196134815900286, 51.05205446459062]]]}}, {"type": "Feature", "properties": {"type": "postcode-cell", "postcode": "EX39 1PG", "postcodes": ["EX39 1PG"]}, "geometry": {"type": "Polygon", "coordinates": [[[-4.196300904164187, 51.05110987909196], [-4.196555319721919, 51.051024326002135], [-4.197149769761546, 51.05207066283197], [-4.196699968658741, 51.0521847782826], [-4.196146059604765, 51.052081148491496], [-4.196134815900286, 51.05205446459062], [-4.196300904164187, 51.05110987909196]]]}}, {"type": "Feature", "properties": {"type": "postcode-cell", "postcode": "EX39 1FQ", "postcodes": ["EX39 1FQ"]}, "geometry": {"type": "Polygon", "coordinates": [[[-4.196419215512122, 51.05606736945011], [-4.196294330713515, 51.05606458897811], [-4.194849062979326, 51.05588685496402], [-4.194733466333655, 51.05574233272725], [-4.194531182065189, 51.05531998300177], [-4.194575486237534, 51.05450776330089], [-4.194617349025825, 51.05449057678173], [-4.194690875787959, 51.05447339584411], [-4.195000392272023, 51.05450481770139], [-4.196523591751646, 51.054943680046144], [-4.196419215512122, 51.05606736945011]]]}}, {"type": "Feature", "properties": {"type": "postcode-cell", "postcode": "EX39 1RS", "postcodes": ["EX39 1RS"]}, "geometry": {"type": "Polygon", "coordinates": [[[-4.196441269096137, 51.056088536706596], [-4.196503310089239, 51.05640542344884], [-4.196470974700705, 51.05645347160704], [-4.1952561593023345, 51.056984662295925], [-4.19496761556447, 51.05653213897986], [-4.196294330713515, 51.05606458897811], [-4.196419215512122, 51.05606736945011], [-4.196441269096137, 51.056088536706596]]]}}, {"type": "Feature", "properties": {"type": "postcode-cell", "postcode": "EX39 1RD", "postcodes": ["EX39 1RD"]}, "geometry": {"type": "Polygon", "coordinates": [[[-4.196653878415543, 51.05312873488892], [-4.195869725076683, 51.05304089220443], [-4.195244285185289, 51.05252684421679], [-4.195252354643934, 51.05250561833581], [-4.196146059604765, 51.052081148491496], [-4.196699968658741, 51.0521847782826], [-4.196653878415543, 51.05312873488892]]]}}, {"type": "Feature", "properties": {"type": "postcode-cell", "postcode": "EX39 1PQ", "postcodes": ["EX39 1PQ"]}, "geometry": {"type": "Polygon", "coordinates": [[[-4.196146059604765, 51.052081148491496], [-4.195252354643934, 51.05250561833581], [-4.19463858123007, 51.05175071359398], [-4.194707378156528, 51.05157274214608], [-4.194929016818718, 51.051417685832824], [-4.196134815900286, 51.05205446459062], [-4.196146059604765, 51.052081148491496]]]}}, {"type": "Feature", "properties": {"type": "postcode-cell", "postcode": "EX39 1RB", "postcodes": ["EX39 1RB"]}, "geometry": {"type": "Polygon", "coordinates": [[[-4.197062546806748, 51.053322874701315], [-4.195000392272023, 51.05450481770139], [-4.194690875787959, 51.05447339584411], [-4.1949140122320285, 51.05379108743271], [-4.195869725076683, 51.05304089220443], [-4.196653878415543, 51.05312873488892], [-4.197062546806748, 51.053322874701315]]]}}, {"type": "Feature", "properties": {"type": "postcode-cell", "postcode": "EX39 1RX", "postcodes": ["EX39 1RX"]}, "geometry": {"type": "Polygon", "coordinates": [[[-4.196070123488938, 51.05726054242922], [-4.196726697135538, 51.05753413859315], [-4.196725565547244, 51.05761653474457], [-4.19583320280099, 51.05731393513475], [-4.196070123488938, 51.05726054242922]]]}}, {"type": "Feature", "properties": {"type": "postcode-cell", "postcode": "EX39 1RR", "postcodes": ["EX39 1RR"]}, "geometry": {"type": "Polygon", "coordinates": [[[-4.194872682341541, 51.05648139978239], [-4.19496761556447, 51.05653213897986], [-4.1952561593023345, 51.056984662295925], [-4.195177574287232, 51.05709160501753], [-4.194759990034501, 51.056949995006065], [-4.194384258324556, 51.056630859145564], [-4.194872682341541, 51.05648139978239]]]}}, {"type": "Feature", "properties": {"type": "postcode-cell", "postcode": "EX39 1QG", "postcodes": ["EX39 1QG"]}, "geometry": {"type": "Polygon", "coordinates": [[[-4.194870719796995, 51.049441582484995], [-4.193034085602762, 51.049670187319755], [-4.193032066995528, 51.04966781992571], [-4.192886852724474, 51.04792284641972], [-4.19458632336767, 51.04738000871677], [-4.194614376555955, 51.04739819836226], [-4.1954030164344704, 51.048033032446064], [-4.195511719360399, 51.04872514165352], [-4.194870719796995, 51.049441582484995]]]}}, {"type": "Feature", "properties": {"type": "postcode-cell", "postcode": "EX39 1PY", "postcodes": ["EX39 1PY"]}, "geometry": {"type": "Polygon", "coordinates": [[[-4.19495834682779, 51.05096259685164], [-4.194320537500199, 51.05074460445594], [-4.19417836912443, 51.05044168350482], [-4.19453532730235, 51.04993718390484], [-4.194758918022379, 51.04979429144836], [-4.195282499951611, 51.05034405341522], [-4.19495834682779, 51.05096259685164]]]}}, {"type": "Feature", "properties": {"type": "postcode-cell", "postcode": "EX39 1QF", "postcodes": ["EX39 1QF"]}, "geometry": {"type": "Polygon", "coordinates": [[[-4.194758918022379, 51.04979429144836], [-4.19453532730235, 51.04993718390484], [-4.1932725522933225, 51.05004458669422], [-4.193029341842981, 51.04978326984594], [-4.193034085602762, 51.049670187319755], [-4.194870719796995, 51.049441582484995], [-4.194758918022379, 51.04979429144836]]]}}, {"type": "Feature", "properties": {"type": "postcode-cell", "postcode": "EX39 1QP", "postcodes": ["EX39 1QP"]}, "geometry": {"type": "Polygon", "coordinates": [[[-4.195869725076683, 51.05304089220443], [-4.1949140122320285, 51.05379108743271], [-4.194301683168023, 51.052811601841064], [-4.195244285185289, 51.05252684421679], [-4.195869725076683, 51.05304089220443]]]}}, {"type": "Feature", "properties": {"type": "postcode-cell", "postcode": "EX39 1FE", "postcodes": ["EX39 1FE"]}, "geometry": {"type": "Polygon", "coordinates": [[[-4.194929016818718, 51.051417685832824], [-4.194707378156528, 51.05157274214608], [-4.193113114072895, 51.0512010396083], [-4.193174188985765, 51.051083821675356], [-4.194320537500199, 51.05074460445594], [-4.19495834682779, 51.05096259685164], [-4.195127220980148, 51.051163612108105], [-4.194929016818718, 51.051417685832824]]]}}, {"type": "Feature", "properties": {"type": "postcode-cell", "postcode": "EX39 1SQ", "postcodes": ["EX39 1SQ"]}, "geometry": {"type": "Polygon", "coordinates": [[[-4.196294330713515, 51.05606458897811], [-4.19496761556447, 51.05653213897986], [-4.194872682341541, 51.05648139978239], [-4.194698137910191, 51.056079073712596], [-4.194849062979326, 51.05588685496402], [-4.196294330713515, 51.05606458897811]]]}}, {"type": "Feature", "properties": {"type": "postcode-cell", "postcode": "EX39 1PT", "postcodes": ["EX39 1PT"]}, "geometry": {"type": "Polygon", "coordinates": [[[-4.194301683168023, 51.052811601841064], [-4.193604000402065, 51.052748191981884], [-4.193375222994193, 51.05246771469506], [-4.1933868705410235, 51.05221618094338], [-4.19463858123007, 51.05175071359398], [-4.195252354643934, 51.05250561833581], [-4.195244285185289, 51.05252684421679], [-4.194301683168023, 51.052811601841064]]]}}, {"type": "Feature", "properties": {"type": "postcode-cell", "postcode": "EX39 1QZ", "postcodes": ["EX39 1QZ"]}, "geometry": {"type": "Polygon", "coordinates": [[[-4.194690875787959, 51.05447339584411], [-4.194617349025825, 51.05449057678173], [-4.193379120004829, 51.053034894500705], [-4.193604000402065, 51.052748191981884], [-4.194301683168023, 51.052811601841064], [-4.1949140122320285, 51.05379108743271], [-4.194690875787959, 51.05447339584411]]]}}, {"type": "Feature", "properties": {"type": "postcode-cell", "postcode": "EX39 1RY", "postcodes": ["EX39 1RY"]}, "geometry": {"type": "Polygon", "coordinates": [[[-4.194872682341541, 51.05648139978239], [-4.194384258324556, 51.056630859145564], [-4.1940021855364735, 51.056306331503684], [-4.194698137910191, 51.056079073712596], [-4.194872682341541, 51.05648139978239]]]}}, {"type": "Feature", "properties": {"type": "postcode-cell", "postcode": "EX39 1RP", "postcodes": ["EX39 1RP"]}, "geometry": {"type": "Polygon", "coordinates": [[[-4.194698137910191, 51.056079073712596], [-4.1940021855364735, 51.056306331503684], [-4.193647571459528, 51.05600512165504], [-4.194733466333655, 51.05574233272725], [-4.194849062979326, 51.05588685496402], [-4.194698137910191, 51.056079073712596]]]}}, {"type": "Feature", "properties": {"type": "postcode-cell", "postcode": "EX39 1QE", "postcodes": ["EX39 1QE"]}, "geometry": {"type": "Polygon", "coordinates": [[[-4.19417836912443, 51.05044168350482], [-4.1933021909726875, 51.05032057059638], [-4.1932725522933225, 51.05004458669422], [-4.19453532730235, 51.04993718390484], [-4.19417836912443, 51.05044168350482]]]}}, {"type": "Feature", "properties": {"type": "postcode-cell", "postcode": "EX39 1RH", "postcodes": ["EX39 1RH"]}, "geometry": {"type": "Polygon", "coordinates": [[[-4.1911428489971385, 51.053994052981835], [-4.191497676318739, 51.054007933827], [-4.191637397652941, 51.05419879766663], [-4.191074061763961, 51.05499680024827], [-4.190649990032632, 51.054789995004285], [-4.191149990033035, 51.05465999500419], [-4.190639990032865, 51.05424999500386], [-4.190634409635753, 51.05405469348218], [-4.1911428489971385, 51.053994052981835]]]}}, {"type": "Feature", "properties": {"type": "postcode-cell", "postcode": "EX39 1RN", "postcodes": ["EX39 1RN"]}, "geometry": {"type": "Polygon", "coordinates": [[[-4.193229249096114, 51.054704922895276], [-4.193805432763383, 51.05454487315366], [-4.194575486237534, 51.05450776330089], [-4.194531182065189, 51.05531998300177], [-4.19346550392617, 51.05585047118352], [-4.193099990033986, 51.05553999500491], [-4.192269990033395, 51.05557999500496], [-4.19198922568982, 51.055443082641794], [-4.193229249096114, 51.054704922895276]]]}}, {"type": "Feature", "properties": {"type": "postcode-cell", "postcode": "EX39 1PH", "postcodes": ["EX39 1PH"]}, "geometry": {"type": "Polygon", "coordinates": [[[-4.194707378156528, 51.05157274214608], [-4.19463858123007, 51.05175071359398], [-4.1933868705410235, 51.05221618094338], [-4.192643174925938, 51.05150278787345], [-4.193113114072895, 51.0512010396083], [-4.194707378156528, 51.05157274214608]]]}}, {"type": "Feature", "properties": {"type": "postcode-cell", "postcode": "EX39 1QD", "postcodes": ["EX39 1QD"]}, "geometry": {"type": "Polygon", "coordinates": [[[-4.193174188985765, 51.051083821675356], [-4.193013209703197, 51.05061027121574], [-4.1933021909726875, 51.05032057059638], [-4.19417836912443, 51.05044168350482], [-4.194320537500199, 51.05074460445594], [-4.193174188985765, 51.051083821675356]]]}}, {"type": "Feature", "properties": {"type": "postcode-cell", "postcode": "EX39 1RW", "postcodes": ["EX39 1RW"]}, "geometry": {"type": "Polygon", "coordinates": [[[-4.194733466333655, 51.05574233272725], [-4.193647571459528, 51.05600512165504], [-4.19346550392617, 51.05585047118352], [-4.194531182065189, 51.05531998300177], [-4.194733466333655, 51.05574233272725]]]}}, {"type": "Feature", "properties": {"type": "postcode-cell", "postcode": "EX39 1WH", "postcodes": ["EX39 1WH"]}, "geometry": {"type": "Polygon", "coordinates": [[[-4.1932725522933225, 51.05004458669422], [-4.1933021909726875, 51.05032057059638], [-4.193013209703197, 51.05061027121574], [-4.192479399287191, 51.050480920107496], [-4.19214068066432, 51.05016533030916], [-4.193029341842981, 51.04978326984594], [-4.1932725522933225, 51.05004458669422]]]}}, {"type": "Feature", "properties": {"type": "postcode-cell", "postcode": "EX39 1RJ", "postcodes": ["EX39 1RJ"]}, "geometry": {"type": "Polygon", "coordinates": [[[-4.192234798234719, 51.05418747186952], [-4.192232541203057, 51.053918506266946], [-4.19232554145809, 51.05376813382782], [-4.192629580315297, 51.05348648553586], [-4.193805432763383, 51.05454487315366], [-4.193229249096114, 51.054704922895276], [-4.192234798234719, 51.05418747186952]]]}}, {"type": "Feature", "properties": {"type": "postcode-cell", "postcode": "EX39 1RL", "postcodes": ["EX39 1RL"]}, "geometry": {"type": "Polygon", "coordinates": [[[-4.193229249096114, 51.054704922895276], [-4.19198922568982, 51.055443082641794], [-4.191074061763961, 51.05499680024827], [-4.191637397652941, 51.05419879766663], [-4.192234798234719, 51.05418747186952], [-4.193229249096114, 51.054704922895276]]]}}, {"type": "Feature", "properties": {"type": "postcode-cell", "postcode": "EX39 1PS", "postcodes": ["EX39 1PS"]}, "geometry": {"type": "Polygon", "coordinates": [[[-4.193379120004829, 51.053034894500705], [-4.192627467118923, 51.053377524714655], [-4.1920098906091745, 51.05298035286746], [-4.192590609586431, 51.0525322403413], [-4.193375222994193, 51.05246771469506], [-4.193604000402065, 51.052748191981884], [-4.193379120004829, 51.053034894500705]]]}}, {"type": "Feature", "properties": {"type": "postcode-cell", "postcode": "EX39 1QY", "postcodes": ["EX39 1QY"]}, "geometry": {"type": "Polygon", "coordinates": [[[-4.194575486237534, 51.05450776330089], [-4.193805432763383, 51.05454487315366], [-4.192629580315297, 51.05348648553586], [-4.192612698545105, 51.05341011045956], [-4.192627467118923, 51.053377524714655], [-4.193379120004829, 51.053034894500705], [-4.194617349025825, 51.05449057678173], [-4.194575486237534, 51.05450776330089]]]}}, {"type": "Feature", "properties": {"type": "postcode-cell", "postcode": "EX39 1QJ", "postcodes": ["EX39 1QJ"]}, "geometry": {"type": "Polygon", "coordinates": [[[-4.193113114072895, 51.0512010396083], [-4.192643174925938, 51.05150278787345], [-4.192336739824766, 51.05150489141144], [-4.192186825283264, 51.0506561902548], [-4.192479399287191, 51.050480920107496], [-4.193013209703197, 51.05061027121574], [-4.193174188985765, 51.051083821675356], [-4.193113114072895, 51.0512010396083]]]}}, {"type": "Feature", "properties": {"type": "postcode-cell", "postcode": "EX39 1QU", "postcodes": ["EX39 1QU"]}, "geometry": {"type": "Polygon", "coordinates": [[[-4.192232541203057, 51.053918506266946], [-4.191576641200036, 51.05387870070473], [-4.191586827519123, 51.053781719124984], [-4.19232554145809, 51.05376813382782], [-4.192232541203057, 51.053918506266946]]]}}, {"type": "Feature", "properties": {"type": "postcode-cell", "postcode": "EX39 1LZ", "postcodes": ["EX39 1LZ"]}, "geometry": {"type": "Polygon", "coordinates": [[[-4.194632569438401, 51.04647185565562], [-4.19458632336767, 51.04738000871677], [-4.192886852724474, 51.04792284641972], [-4.191079481185825, 51.04815927740798], [-4.190469990036196, 51.0464299949974], [-4.191027274259151, 51.04537116576927], [-4.194632569438401, 51.04647185565562]]]}}, {"type": "Feature", "properties": {"type": "postcode-cell", "postcode": "EX39 1QQ", "postcodes": ["EX39 1QQ"]}, "geometry": {"type": "Polygon", "coordinates": [[[-4.193034085602762, 51.049670187319755], [-4.193029341842981, 51.04978326984594], [-4.19214068066432, 51.05016533030916], [-4.191061954083451, 51.050000170036284], [-4.191019990035021, 51.049949995000304], [-4.191157016087919, 51.04947261989178], [-4.193032066995528, 51.04966781992571], [-4.193034085602762, 51.049670187319755]]]}}, {"type": "Feature", "properties": {"type": "postcode-cell", "postcode": "EX39 1QR", "postcodes": ["EX39 1QR"]}, "geometry": {"type": "Polygon", "coordinates": [[[-4.193375222994193, 51.05246771469506], [-4.192590609586431, 51.0525322403413], [-4.192063055249582, 51.05237114999504], [-4.191936158153366, 51.05224236272736], [-4.192290261333385, 51.05150965358318], [-4.192336739824766, 51.05150489141144], [-4.192643174925938, 51.05150278787345], [-4.1933868705410235, 51.05221618094338], [-4.193375222994193, 51.05246771469506]]]}}, {"type": "Feature", "properties": {"type": "postcode-cell", "postcode": "EX39 1QH", "postcodes": ["EX39 1QH"]}, "geometry": {"type": "Polygon", "coordinates": [[[-4.193032066995528, 51.04966781992571], [-4.191157016087919, 51.04947261989178], [-4.191329990035711, 51.04886999499942], [-4.191079481185825, 51.04815927740798], [-4.192886852724474, 51.04792284641972], [-4.193032066995528, 51.04966781992571]]]}}, {"type": "Feature", "properties": {"type": "postcode-cell", "postcode": "EX39 1PR", "postcodes": ["EX39 1PR"]}, "geometry": {"type": "Polygon", "coordinates": [[[-4.192627467118923, 51.053377524714655], [-4.192612698545105, 51.05341011045956], [-4.191529905030155, 51.05356499991859], [-4.191338354080341, 51.053473004170684], [-4.191418024758393, 51.0532977207436], [-4.191902389941094, 51.05296176391825], [-4.1920098906091745, 51.05298035286746], [-4.192627467118923, 51.053377524714655]]]}}, {"type": "Feature", "properties": {"type": "postcode-cell", "postcode": "EX39 1QX", "postcodes": ["EX39 1QX"]}, "geometry": {"type": "Polygon", "coordinates": [[[-4.192629580315297, 51.05348648553586], [-4.19232554145809, 51.05376813382782], [-4.191586827519123, 51.053781719124984], [-4.191529905030155, 51.05356499991859], [-4.192612698545105, 51.05341011045956], [-4.192629580315297, 51.05348648553586]]]}}, {"type": "Feature", "properties": {"type": "postcode-cell", "postcode": "EX39 1LU", "postcodes": ["EX39 1LU"]}, "geometry": {"type": "Polygon", "coordinates": [[[-4.192336739824766, 51.05150489141144], [-4.192290261333385, 51.05150965358318], [-4.191182274196962, 51.05134126877451], [-4.191099990034506, 51.051239995001374], [-4.191375368533171, 51.050703734017596], [-4.192186825283264, 51.0506561902548], [-4.192336739824766, 51.05150489141144]]]}}, {"type": "Feature", "properties": {"type": "postcode-cell", "postcode": "EX39 1PN", "postcodes": ["EX39 1PN"]}, "geometry": {"type": "Polygon", "coordinates": [[[-4.192590609586431, 51.0525322403413], [-4.1920098906091745, 51.05298035286746], [-4.191902389941094, 51.05296176391825], [-4.191829484959689, 51.05291196130421], [-4.191735210565932, 51.052768985462194], [-4.192063055249582, 51.05237114999504], [-4.192590609586431, 51.0525322403413]]]}}, {"type": "Feature", "properties": {"type": "postcode-cell", "postcode": "EX39 1QL", "postcodes": ["EX39 1QL"]}, "geometry": {"type": "Polygon", "coordinates": [[[-4.19214068066432, 51.05016533030916], [-4.192479399287191, 51.050480920107496], [-4.192186825283264, 51.0506561902548], [-4.191375368533171, 51.050703734017596], [-4.191479990035096, 51.050499995000756], [-4.191061954083451, 51.050000170036284], [-4.19214068066432, 51.05016533030916]]]}}, {"type": "Feature", "properties": {"type": "postcode-cell", "postcode": "EX39 1PL", "postcodes": ["EX39 1PL"]}, "geometry": {"type": "Polygon", "coordinates": [[[-4.191735210565932, 51.052768985462194], [-4.190897722166531, 51.05238301673116], [-4.191936158153366, 51.05224236272736], [-4.192063055249582, 51.05237114999504], [-4.191735210565932, 51.052768985462194]]]}}, {"type": "Feature", "properties": {"type": "postcode-cell", "postcode": "EX39 1PJ", "postcodes": ["EX39 1PJ"]}, "geometry": {"type": "Polygon", "coordinates": [[[-4.191936158153366, 51.05224236272736], [-4.190897722166531, 51.05238301673116], [-4.190585563246875, 51.05234506983144], [-4.19057999003375, 51.052149995002125], [-4.1914899900345635, 51.051719995001775], [-4.191182274196962, 51.05134126877451], [-4.192290261333385, 51.05150965358318], [-4.191936158153366, 51.05224236272736]]]}}, {"type": "Feature", "properties": {"type": "postcode-cell", "postcode": "EX39 1SJ", "postcodes": ["EX39 1SJ"]}, "geometry": {"type": "Polygon", "coordinates": [[[-4.192232541203057, 51.053918506266946], [-4.192234798234719, 51.05418747186952], [-4.191637397652941, 51.05419879766663], [-4.191497676318739, 51.054007933827], [-4.191576641200036, 51.05387870070473], [-4.192232541203057, 51.053918506266946]]]}}, {"type": "Feature", "properties": {"type": "postcode-cell", "postcode": "EX39 1PP", "postcodes": ["EX39 1PP"]}, "geometry": {"type": "Polygon", "coordinates": [[[-4.191586827519123, 51.053781719124984], [-4.191576641200036, 51.05387870070473], [-4.191497676318739, 51.054007933827], [-4.1911428489971385, 51.053994052981835], [-4.191118667888264, 51.0534913616323], [-4.191338354080341, 51.053473004170684], [-4.191529905030155, 51.05356499991859], [-4.191586827519123, 51.053781719124984]]]}}, {"type": "Feature", "properties": {"type": "postcode-cell", "postcode": "EX39 1PW", "postcodes": ["EX39 1PW"]}, "geometry": {"type": "Polygon", "coordinates": [[[-4.191418024758393, 51.0532977207436], [-4.191053513347483, 51.05296539249809], [-4.191829484959689, 51.05291196130421], [-4.191902389941094, 51.05296176391825], [-4.191418024758393, 51.0532977207436]]]}}, {"type": "Feature", "properties": {"type": "postcode-cell", "postcode": "EX39 1QW", "postcodes": ["EX39 1QW"]}, "geometry": {"type": "Polygon", "coordinates": [[[-4.191829484959689, 51.05291196130421], [-4.191053513347483, 51.05296539249809], [-4.190599708876729, 51.052840186900156], [-4.190585563246875, 51.05234506983144], [-4.190897722166531, 51.05238301673116], [-4.191735210565932, 51.052768985462194], [-4.191829484959689, 51.05291196130421]]]}}, {"type": "Feature", "properties": {"type": "postcode-cell", "postcode": "EX39 1QS", "postcodes": ["EX39 1QS"]}, "geometry": {"type": "Polygon", "coordinates": [[[-4.191053513347483, 51.05296539249809], [-4.191418024758393, 51.0532977207436], [-4.191338354080341, 51.053473004170684], [-4.191118667888264, 51.0534913616323], [-4.190618066768573, 51.053482714773594], [-4.190599708876729, 51.052840186900156], [-4.191053513347483, 51.05296539249809]]]}}, {"type": "Feature", "properties": {"type": "postcode-cell", "postcode": "EX39 1FR", "postcodes": ["EX39 1FR"]}, "geometry": {"type": "Polygon", "coordinates": [[[-4.191118667888264, 51.0534913616323], [-4.1911428489971385, 51.053994052981835], [-4.190634409635753, 51.05405469348218], [-4.190618066768573, 51.053482714773594], [-4.191118667888264, 51.0534913616323]]]}}]}