{"type": "FeatureCollection", "features": [{"type": "Feature", "properties": {"type": "ward-outline", "name": "Barnstaple with Westacott"}, "geometry": {"type": "Polygon", "coordinates": [[[-4.02403, 51.0808], [-4.02326, 51.08019], [-4.01856, 51.08107], [-4.0193, 51.07918], [-4.01624, 51.07894], [-4.01485, 51.07839], [-4.01626, 51.07827], [-4.01614, 51.07663], [-4.0147, 51.07579], [-4.01388, 51.07427], [-4.0139, 51.07337], [-4.00781, 51.07218], [-4.00637, 51.07244], [-4.00482, 51.07183], [-4.00345, 51.07245], [-4.00251, 51.07121], [-4.00404, 51.07169], [-4.00464, 51.07026], [-4.00511, 51.0702], [-4.00666, 51.07148], [-4.00766, 51.07028], [-4.00729, 51.06976], [-4.00813, 51.06921], [-4.00749, 51.06869], [-4.00858, 51.06774], [-4.02236, 51.07039], [-4.02261, 51.07127], [-4.02297, 51.07103], [-4.02456, 51.07189], [-4.02753, 51.07164], [-4.03136, 51.07244], [-4.03242, 51.07213], [-4.03358, 51.07288], [-4.04767, 51.07631], [-4.04962, 51.07608], [-4.05216, 51.07743], [-4.05305, 51.07834], [-4.05405, 51.07857], [-4.05473, 51.08233], [-4.05539, 51.08324], [-4.05355, 51.0839], [-4.04627, 51.08397], [-4.04087, 51.08236], [-4.04084, 51.08183], [-4.04267, 51.08151], [-4.04284, 51.08122], [-4.03951, 51.08112], [-4.03643, 51.08154], [-4.03347, 51.08073], [-4.027, 51.08081], [-4.02568, 51.08072], [-4.025, 51.08032], [-4.02403, 51.0808]]]}}, {"type": "Feature", "properties": {"type": "postcode-cell", "postcode": "EX32 7HA", "postcodes": ["EX32 7HA"]}, "geometry": {"type": "Polygon", "coordinates": [[[-4.053819040833669, 51.083214947133904], [-4.055214825949336, 51.082998485000985], [-4.055389989927652, 51.08323999502842], [-4.0541734248561765, 51.0836763769436], [-4.053819040833669, 51.083214947133904]]]}}, {"type": "Feature", "properties": {"type": "postcode-cell", "postcode": "EX32 7HB", "postcodes": ["EX32 7HB"]}, "geometry": {"type": "Polygon", "coordinates": [[[-4.0531198694124635, 51.0829015510767], [-4.053127498795603, 51.08289879296865], [-4.0534712799627535, 51.082971689572815], [-4.053819040833669, 51.083214947133904], [-4.0541734248561765, 51.0836763769436], [-4.053549989926104, 51.08389999502893], [-4.052117959971262, 51.083913800387116], [-4.0531198694124635, 51.0829015510767]]]}}, {"type": "Feature", "properties": {"type": "postcode-cell", "postcode": "EX32 7EP", "postcodes": ["EX32 7EP"]}, "geometry": {"type": "Polygon", "coordinates": [[[-4.053819040833669, 51.083214947133904], [-4.0534712799627535, 51.082971689572815], [-4.053953188202256, 51.082766062608286], [-4.054901068903346, 51.08256588052929], [-4.055214825949336, 51.082998485000985], [-4.053819040833669, 51.083214947133904]]]}}, {"type": "Feature", "properties": {"type": "postcode-cell", "postcode": "EX32 7DP", "postcodes": ["EX32 7DP"]}, "geometry": {"type": "Polygon", "coordinates": [[[-4.0534712799627535, 51.082971689572815], [-4.053127498795603, 51.08289879296865], [-4.053033510411076, 51.082316121253584], [-4.0534037736570845, 51.08202131290306], [-4.05342724744749, 51.082019844856255], [-4.054309513592668, 51.08212735097877], [-4.053953188202256, 51.082766062608286], [-4.0534712799627535, 51.082971689572815]]]}}, {"type": "Feature", "properties": {"type": "postcode-cell", "postcode": "EX32 8BA", "postcodes": ["EX32 8BA"]}, "geometry": {"type": "Polygon", "coordinates": [[[-4.053553510521633, 51.0805105338143], [-4.05331659790081, 51.08025494727175], [-4.05429255933252, 51.0799113375006], [-4.054393900559782, 51.08047170169571], [-4.053553510521633, 51.0805105338143]]]}}, {"type": "Feature", "properties": {"type": "postcode-cell", "postcode": "EX32 7DL", "postcodes": ["EX32 7DL"]}, "geometry": {"type": "Polygon", "coordinates": [[[-4.054539753512126, 51.08157246640584], [-4.053765497322585, 51.081440139417815], [-4.053815064977098, 51.081007477216055], [-4.054477187925824, 51.08093222637722], [-4.0545926325776165, 51.08157054331527], [-4.054539753512126, 51.08157246640584]]]}}, {"type": "Feature", "properties": {"type": "postcode-cell", "postcode": "EX32 7DW", "postcodes": ["EX32 7DW"]}, "geometry": {"type": "Polygon", "coordinates": [[[-4.054309513592668, 51.08212735097877], [-4.054679782459389, 51.08205240001546], [-4.054729989927608, 51.08232999502766], [-4.054901068903346, 51.08256588052929], [-4.053953188202256, 51.082766062608286], [-4.054309513592668, 51.08212735097877]]]}}, {"type": "Feature", "properties": {"type": "postcode-cell", "postcode": "EX32 7DT", "postcodes": ["EX32 7DT"]}, "geometry": {"type": "Polygon", "coordinates": [[[-4.054539753512126, 51.08157246640584], [-4.0545926325776165, 51.08157054331527], [-4.054679782459389, 51.08205240001546], [-4.054309513592668, 51.08212735097877], [-4.05342724744749, 51.082019844856255], [-4.054539753512126, 51.08157246640584]]]}}, {"type": "Feature", "properties": {"type": "postcode-cell", "postcode": "EX32 7EW", "postcodes": ["EX32 7EW"]}, "geometry": {"type": "Polygon", "coordinates": [[[-4.05342724744749, 51.082019844856255], [-4.0534037736570845, 51.08202131290306], [-4.0533577790315745, 51.08159723694953], [-4.053765497322585, 51.081440139417815], [-4.054539753512126, 51.08157246640584], [-4.05342724744749, 51.082019844856255]]]}}, {"type": "Feature", "properties": {"type": "postcode-cell", "postcode": "EX32 7DU", "postcodes": ["EX32 7DU"]}, "geometry": {"type": "Polygon", "coordinates": [[[-4.0534037736570845, 51.08202131290306], [-4.053033510411076, 51.082316121253584], [-4.052404474476061, 51.082049210988686], [-4.052316827509109, 51.08157511014895], [-4.052500056947437, 51.08144131458523], [-4.05326720962439, 51.081545514190964], [-4.0533577790315745, 51.08159723694953], [-4.0534037736570845, 51.08202131290306]]]}}, {"type": "Feature", "properties": {"type": "postcode-cell", "postcode": "EX32 7DS", "postcodes": ["EX32 7DS"]}, "geometry": {"type": "Polygon", "coordinates": [[[-4.053765497322585, 51.081440139417815], [-4.0533577790315745, 51.08159723694953], [-4.05326720962439, 51.081545514190964], [-4.053213228753393, 51.080935116990574], [-4.053406568132872, 51.080891666425245], [-4.053815064977098, 51.081007477216055], [-4.053765497322585, 51.081440139417815]]]}}, {"type": "Feature", "properties": {"type": "postcode-cell", "postcode": "EX32 7DJ", "postcodes": ["EX32 7DJ"]}, "geometry": {"type": "Polygon", "coordinates": [[[-4.053815064977098, 51.081007477216055], [-4.053406568132872, 51.080891666425245], [-4.053553510521633, 51.0805105338143], [-4.054393900559782, 51.08047170169571], [-4.054477187925824, 51.08093222637722], [-4.053815064977098, 51.081007477216055]]]}}, {"type": "Feature", "properties": {"type": "postcode-cell", "postcode": "EX32 7DH", "postcodes": ["EX32 7DH"]}, "geometry": {"type": "Polygon", "coordinates": [[[-4.053553510521633, 51.0805105338143], [-4.053406568132872, 51.080891666425245], [-4.053213228753393, 51.080935116990574], [-4.05250150125047, 51.08088490441877], [-4.052349675371802, 51.0807908551562], [-4.05305845618404, 51.08018492682431], [-4.05331659790081, 51.08025494727175], [-4.053553510521633, 51.0805105338143]]]}}, {"type": "Feature", "properties": {"type": "postcode-cell", "postcode": "EX32 8AZ", "postcodes": ["EX32 8AZ"]}, "geometry": {"type": "Polygon", "coordinates": [[[-4.05305845618404, 51.08018492682431], [-4.052803736458241, 51.07984751524087], [-4.054212473583209, 51.079468494569774], [-4.05429255933252, 51.0799113375006], [-4.05331659790081, 51.08025494727175], [-4.05305845618404, 51.08018492682431]]]}}, {"type": "Feature", "properties": {"type": "postcode-cell", "postcode": "EX32 8BJ", "postcodes": ["EX32 8BJ"]}, "geometry": {"type": "Polygon", "coordinates": [[[-4.052803736458241, 51.07984751524087], [-4.052512311789008, 51.0797422917102], [-4.052450644318541, 51.0793724824894], [-4.053488783348348, 51.078613658057556], [-4.0536015823876195, 51.07857239158687], [-4.053842434606096, 51.078522258197744], [-4.0540499899288225, 51.07856999502455], [-4.054212473583209, 51.079468494569774], [-4.052803736458241, 51.07984751524087]]]}}, {"type": "Feature", "properties": {"type": "postcode-cell", "postcode": "EX32 8BN", "postcodes": ["EX32 8BN"]}, "geometry": {"type": "Polygon", "coordinates": [[[-4.052349675371802, 51.0807908551562], [-4.051640205898784, 51.080667454678405], [-4.051448181157883, 51.080160441933025], [-4.052512311789008, 51.0797422917102], [-4.052803736458241, 51.07984751524087], [-4.05305845618404, 51.08018492682431], [-4.052349675371802, 51.0807908551562]]]}}, {"type": "Feature", "properties": {"type": "postcode-cell", "postcode": "EX32 8LJ", "postcodes": ["EX32 8LJ"]}, "geometry": {"type": "Polygon", "coordinates": [[[-4.0536015823876195, 51.07857239158687], [-4.051835983038099, 51.07804018475535], [-4.051625037418416, 51.07787946728096], [-4.052006521269176, 51.07734843088358], [-4.052159989928047, 51.07742999502365], [-4.053049989928246, 51.07833999502437], [-4.053842434606096, 51.078522258197744], [-4.0536015823876195, 51.07857239158687]]]}}, {"type": "Feature", "properties": {"type": "postcode-cell", "postcode": "EX32 7EA", "postcodes": ["EX32 7EA"]}, "geometry": {"type": "Polygon", "coordinates": [[[-4.052117959971262, 51.083913800387116], [-4.052009884702883, 51.08391484156488], [-4.05123881438874, 51.08300715310603], [-4.051438486412256, 51.08275478454966], [-4.0531198694124635, 51.0829015510767], [-4.052117959971262, 51.083913800387116]]]}}, {"type": "Feature", "properties": {"type": "postcode-cell", "postcode": "EX32 7DX", "postcodes": ["EX32 7DX"]}, "geometry": {"type": "Polygon", "coordinates": [[[-4.05250150125047, 51.08088490441877], [-4.052500056947437, 51.08144131458523], [-4.052316827509109, 51.08157511014895], [-4.051703754703344, 51.08150487275364], [-4.05115753261137, 51.081031347575944], [-4.051640205898784, 51.080667454678405], [-4.052349675371802, 51.0807908551562], [-4.05250150125047, 51.08088490441877]]]}}, {"type": "Feature", "properties": {"type": "postcode-cell", "postcode": "EX32 7DR", "postcodes": ["EX32 7DR"]}, "geometry": {"type": "Polygon", "coordinates": [[[-4.05326720962439, 51.081545514190964], [-4.052500056947437, 51.08144131458523], [-4.05250150125047, 51.08088490441877], [-4.053213228753393, 51.080935116990574], [-4.05326720962439, 51.081545514190964]]]}}, {"type": "Feature", "properties": {"type": "postcode-cell", "postcode": "EX32 7DZ", "postcodes": ["EX32 7DZ"]}, "geometry": {"type": "Polygon", "coordinates": [[[-4.053033510411076, 51.082316121253584], [-4.053127498795603, 51.08289879296865], [-4.0531198694124635, 51.0829015510767], [-4.051438486412256, 51.08275478454966], [-4.0511299059316555, 51.08224059659897], [-4.051206234198076, 51.08220967391977], [-4.052404474476061, 51.082049210988686], [-4.053033510411076, 51.082316121253584]]]}}, {"type": "Feature", "properties": {"type": "postcode-cell", "postcode": "EX32 8LB", "postcodes": ["EX32 8LB"]}, "geometry": {"type": "Polygon", "coordinates": [[[-4.050161954498887, 51.07742812699852], [-4.049511795886515, 51.07745177503888], [-4.0489153650617205, 51.076896714191626], [-4.049532207575332, 51.0760903495846], [-4.0496199899269225, 51.07607999502251], [-4.050750075588438, 51.07668064784263], [-4.050161954498887, 51.07742812699852]]]}}, {"type": "Feature", "properties": {"type": "postcode-cell", "postcode": "EX32 8LH", "postcodes": ["EX32 8LH"]}, "geometry": {"type": "Polygon", "coordinates": [[[-4.053488783348348, 51.078613658057556], [-4.0520215923307505, 51.07863875020054], [-4.051835983038099, 51.07804018475535], [-4.0536015823876195, 51.07857239158687], [-4.053488783348348, 51.078613658057556]]]}}, {"type": "Feature", "properties": {"type": "postcode-cell", "postcode": "EX32 8QQ", "postcodes": ["EX32 8QQ"]}, "geometry": {"type": "Polygon", "coordinates": [[[-4.051835983038099, 51.07804018475535], [-4.0520215923307505, 51.07863875020054], [-4.051940771313557, 51.07867354696349], [-4.050953303474971, 51.07840305424743], [-4.050804269192706, 51.07818114931946], [-4.051625037418416, 51.07787946728096], [-4.051835983038099, 51.07804018475535]]]}}, {"type": "Feature", "properties": {"type": "postcode-cell", "postcode": "EX32 8JZ", "postcodes": ["EX32 8JZ"]}, "geometry": {"type": "Polygon", "coordinates": [[[-4.052450644318541, 51.0793724824894], [-4.051658742627402, 51.07912969782918], [-4.051940771313557, 51.07867354696349], [-4.0520215923307505, 51.07863875020054], [-4.053488783348348, 51.078613658057556], [-4.052450644318541, 51.0793724824894]]]}}, {"type": "Feature", "properties": {"type": "postcode-cell", "postcode": "EX32 8BL", "postcodes": ["EX32 8BL"]}, "geometry": {"type": "Polygon", "coordinates": [[[-4.051448181157883, 51.080160441933025], [-4.0509603348848335, 51.07994519463544], [-4.050910351413165, 51.07926539249834], [-4.05098769199585, 51.079216160226686], [-4.051658742627402, 51.07912969782918], [-4.052450644318541, 51.0793724824894], [-4.052512311789008, 51.0797422917102], [-4.051448181157883, 51.080160441933025]]]}}, {"type": "Feature", "properties": {"type": "postcode-cell", "postcode": "EX32 7DY", "postcodes": ["EX32 7DY"]}, "geometry": {"type": "Polygon", "coordinates": [[[-4.0511299059316555, 51.08224059659897], [-4.0503015922683145, 51.08205577703134], [-4.049425241801688, 51.08143529640983], [-4.05115753261137, 51.081031347575944], [-4.051703754703344, 51.08150487275364], [-4.051206234198076, 51.08220967391977], [-4.0511299059316555, 51.08224059659897]]]}}, {"type": "Feature", "properties": {"type": "postcode-cell", "postcode": "EX32 7DG", "postcodes": ["EX32 7DG"]}, "geometry": {"type": "Polygon", "coordinates": [[[-4.052404474476061, 51.082049210988686], [-4.051206234198076, 51.08220967391977], [-4.051703754703344, 51.08150487275364], [-4.052316827509109, 51.08157511014895], [-4.052404474476061, 51.082049210988686]]]}}, {"type": "Feature", "properties": {"type": "postcode-cell", "postcode": "EX32 8DH", "postcodes": ["EX32 8DH"]}, "geometry": {"type": "Polygon", "coordinates": [[[-4.051640205898784, 51.080667454678405], [-4.05115753261137, 51.081031347575944], [-4.049425241801688, 51.08143529640983], [-4.0493716362324825, 51.0814237073733], [-4.048948981514667, 51.08080361862956], [-4.049211765415158, 51.080566897297864], [-4.049722697248173, 51.0802023231587], [-4.0509603348848335, 51.07994519463544], [-4.051448181157883, 51.080160441933025], [-4.051640205898784, 51.080667454678405]]]}}, {"type": "Feature", "properties": {"type": "postcode-cell", "postcode": "EX32 7EB", "postcodes": ["EX32 7EB"]}, "geometry": {"type": "Polygon", "coordinates": [[[-4.050171127241712, 51.08330873582482], [-4.05123881438874, 51.08300715310603], [-4.052009884702883, 51.08391484156488], [-4.05130261044634, 51.08392165285019], [-4.050171127241712, 51.08330873582482]]]}}, {"type": "Feature", "properties": {"type": "postcode-cell", "postcode": "EX32 7ED", "postcodes": ["EX32 7ED"]}, "geometry": {"type": "Polygon", "coordinates": [[[-4.051438486412256, 51.08275478454966], [-4.05123881438874, 51.08300715310603], [-4.050171127241712, 51.08330873582482], [-4.0498198668023875, 51.08330028840698], [-4.0503015922683145, 51.08205577703134], [-4.0511299059316555, 51.08224059659897], [-4.051438486412256, 51.08275478454966]]]}}, {"type": "Feature", "properties": {"type": "postcode-cell", "postcode": "EX32 8JY", "postcodes": ["EX32 8JY"]}, "geometry": {"type": "Polygon", "coordinates": [[[-4.050953303474971, 51.07840305424743], [-4.05098769199585, 51.079216160226686], [-4.050910351413165, 51.07926539249834], [-4.049722586380741, 51.079078661836206], [-4.049758534450576, 51.078343540218384], [-4.050392800522623, 51.07811852253711], [-4.050804269192706, 51.07818114931946], [-4.050953303474971, 51.07840305424743]]]}}, {"type": "Feature", "properties": {"type": "postcode-cell", "postcode": "EX32 8LQ", "postcodes": ["EX32 8LQ"]}, "geometry": {"type": "Polygon", "coordinates": [[[-4.051658742627402, 51.07912969782918], [-4.05098769199585, 51.079216160226686], [-4.050953303474971, 51.07840305424743], [-4.051940771313557, 51.07867354696349], [-4.051658742627402, 51.07912969782918]]]}}, {"type": "Feature", "properties": {"type": "postcode-cell", "postcode": "EX32 8NP", "postcodes": ["EX32 8NP"]}, "geometry": {"type": "Polygon", "coordinates": [[[-4.0489153650617205, 51.076896714191626], [-4.048405326086926, 51.07718103797636], [-4.0472749280378135, 51.07628587009445], [-4.047271688814646, 51.076213065084715], [-4.047669989925496, 51.07630999502272], [-4.049532207575332, 51.0760903495846], [-4.0489153650617205, 51.076896714191626]]]}}, {"type": "Feature", "properties": {"type": "postcode-cell", "postcode": "EX32 8JX", "postcodes": ["EX32 8JX"]}, "geometry": {"type": "Polygon", "coordinates": [[[-4.050804269192706, 51.07818114931946], [-4.050392800522623, 51.07811852253711], [-4.050161954498887, 51.07742812699852], [-4.050750075588438, 51.07668064784263], [-4.052006521269176, 51.07734843088358], [-4.051625037418416, 51.07787946728096], [-4.050804269192706, 51.07818114931946]]]}}, {"type": "Feature", "properties": {"type": "postcode-cell", "postcode": "EX32 7EF", "postcodes": ["EX32 7EF"]}, "geometry": {"type": "Polygon", "coordinates": [[[-4.048255743891961, 51.08381334922209], [-4.0498198668023875, 51.08330028840698], [-4.050171127241712, 51.08330873582482], [-4.05130261044634, 51.08392165285019], [-4.048239919470419, 51.08395109816528], [-4.048255743891961, 51.08381334922209]]]}}, {"type": "Feature", "properties": {"type": "postcode-cell", "postcode": "EX32 8BS", "postcodes": ["EX32 8BS"]}, "geometry": {"type": "Polygon", "coordinates": [[[-4.049722697248173, 51.0802023231587], [-4.049504398891331, 51.07918889467552], [-4.049722586380741, 51.079078661836206], [-4.050910351413165, 51.07926539249834], [-4.0509603348848335, 51.07994519463544], [-4.049722697248173, 51.0802023231587]]]}}, {"type": "Feature", "properties": {"type": "postcode-cell", "postcode": "EX32 8LA", "postcodes": ["EX32 8LA"]}, "geometry": {"type": "Polygon", "coordinates": [[[-4.049758534450576, 51.078343540218384], [-4.048361505423366, 51.07802289586449], [-4.049511795886515, 51.07745177503888], [-4.050161954498887, 51.07742812699852], [-4.050392800522623, 51.07811852253711], [-4.049758534450576, 51.078343540218384]]]}}, {"type": "Feature", "properties": {"type": "postcode-cell", "postcode": "EX32 7EE", "postcodes": ["EX32 7EE"]}, "geometry": {"type": "Polygon", "coordinates": [[[-4.049425241801688, 51.08143529640983], [-4.0503015922683145, 51.08205577703134], [-4.0498198668023875, 51.08330028840698], [-4.048255743891961, 51.08381334922209], [-4.047890663348877, 51.0833278581525], [-4.0476808262146555, 51.082533827507234], [-4.0493716362324825, 51.0814237073733], [-4.049425241801688, 51.08143529640983]]]}}, {"type": "Feature", "properties": {"type": "postcode-cell", "postcode": "EX32 7DQ", "postcodes": ["EX32 7DQ"]}, "geometry": {"type": "Polygon", "coordinates": [[[-4.047386367029872, 51.08242298770034], [-4.046844870640653, 51.08131513701895], [-4.047614856085091, 51.080764454138674], [-4.047926683953512, 51.08067053089536], [-4.048442784566363, 51.080650941826086], [-4.048948981514667, 51.08080361862956], [-4.0493716362324825, 51.0814237073733], [-4.0476808262146555, 51.082533827507234], [-4.047386367029872, 51.08242298770034]]]}}, {"type": "Feature", "properties": {"type": "postcode-cell", "postcode": "EX32 7JA", "postcodes": ["EX32 7JA"]}, "geometry": {"type": "Polygon", "coordinates": [[[-4.0476808262146555, 51.082533827507234], [-4.047890663348877, 51.0833278581525], [-4.047839962263651, 51.083327476118235], [-4.045191348942113, 51.08311986634138], [-4.045010312153384, 51.08253048276317], [-4.046061278621451, 51.08227587024233], [-4.047386367029872, 51.08242298770034], [-4.0476808262146555, 51.082533827507234]]]}}, {"type": "Feature", "properties": {"type": "postcode-cell", "postcode": "EX32 8DP", "postcodes": ["EX32 8DP"]}, "geometry": {"type": "Polygon", "coordinates": [[[-4.049211765415158, 51.080566897297864], [-4.048801415225011, 51.07935738172995], [-4.049213759070515, 51.07919561571435], [-4.049504398891331, 51.07918889467552], [-4.049722697248173, 51.0802023231587], [-4.049211765415158, 51.080566897297864]]]}}, {"type": "Feature", "properties": {"type": "postcode-cell", "postcode": "EX32 8LD", "postcodes": ["EX32 8LD"]}, "geometry": {"type": "Polygon", "coordinates": [[[-4.048361505423366, 51.07802289586449], [-4.048129516156145, 51.078020287015576], [-4.048027984982669, 51.07770471089408], [-4.048405326086926, 51.07718103797636], [-4.0489153650617205, 51.076896714191626], [-4.049511795886515, 51.07745177503888], [-4.048361505423366, 51.07802289586449]]]}}, {"type": "Feature", "properties": {"type": "postcode-cell", "postcode": "EX32 8BT", "postcodes": ["EX32 8BT"]}, "geometry": {"type": "Polygon", "coordinates": [[[-4.049504398891331, 51.07918889467552], [-4.049213759070515, 51.07919561571435], [-4.04804449455239, 51.078441330611746], [-4.047938386872315, 51.078169896754225], [-4.048129516156145, 51.078020287015576], [-4.048361505423366, 51.07802289586449], [-4.049758534450576, 51.078343540218384], [-4.049722586380741, 51.079078661836206], [-4.049504398891331, 51.07918889467552]]]}}, {"type": "Feature", "properties": {"type": "postcode-cell", "postcode": "EX32 8FL", "postcodes": ["EX32 8FL"]}, "geometry": {"type": "Polygon", "coordinates": [[[-4.048027984982669, 51.07770471089408], [-4.046994422992004, 51.0771146137395], [-4.0472749280378135, 51.07628587009445], [-4.048405326086926, 51.07718103797636], [-4.048027984982669, 51.07770471089408]]]}}, {"type": "Feature", "properties": {"type": "postcode-cell", "postcode": "EX32 8BU", "postcodes": ["EX32 8BU"]}, "geometry": {"type": "Polygon", "coordinates": [[[-4.048801415225011, 51.07935738172995], [-4.04818176764656, 51.07946897147212], [-4.047866448129788, 51.07929467435382], [-4.04804449455239, 51.078441330611746], [-4.049213759070515, 51.07919561571435], [-4.048801415225011, 51.07935738172995]]]}}, {"type": "Feature", "properties": {"type": "postcode-cell", "postcode": "EX32 8DD", "postcodes": ["EX32 8DD"]}, "geometry": {"type": "Polygon", "coordinates": [[[-4.048948981514667, 51.08080361862956], [-4.048442784566363, 51.080650941826086], [-4.0481512439333045, 51.08004353492966], [-4.04818176764656, 51.07946897147212], [-4.048801415225011, 51.07935738172995], [-4.049211765415158, 51.080566897297864], [-4.048948981514667, 51.08080361862956]]]}}, {"type": "Feature", "properties": {"type": "postcode-cell", "postcode": "EX32 8DE", "postcodes": ["EX32 8DE"]}, "geometry": {"type": "Polygon", "coordinates": [[[-4.0481512439333045, 51.08004353492966], [-4.046843754763667, 51.07965977242576], [-4.046924613205789, 51.07939209679729], [-4.047866448129788, 51.07929467435382], [-4.04818176764656, 51.07946897147212], [-4.0481512439333045, 51.08004353492966]]]}}, {"type": "Feature", "properties": {"type": "postcode-cell", "postcode": "EX32 8LG", "postcodes": ["EX32 8LG"]}, "geometry": {"type": "Polygon", "coordinates": [[[-4.047938386872315, 51.078169896754225], [-4.047191355950438, 51.0782865820684], [-4.046559205452818, 51.078214972383236], [-4.046181562268516, 51.07735413222288], [-4.04625123037602, 51.077288885172386], [-4.046994422992004, 51.0771146137395], [-4.048027984982669, 51.07770471089408], [-4.048129516156145, 51.078020287015576], [-4.047938386872315, 51.078169896754225]]]}}, {"type": "Feature", "properties": {"type": "postcode-cell", "postcode": "EX32 8PR", "postcodes": ["EX32 8PR"]}, "geometry": {"type": "Polygon", "coordinates": [[[-4.0443690069458595, 51.076164038310736], [-4.0439929046391105, 51.07608296891911], [-4.043088337847102, 51.075586478512385], [-4.043250825376516, 51.07523445459308], [-4.045284742233702, 51.07572949834008], [-4.0443690069458595, 51.076164038310736]]]}}, {"type": "Feature", "properties": {"type": "postcode-cell", "postcode": "EX32 8DT", "postcodes": ["EX32 8DT"]}, "geometry": {"type": "Polygon", "coordinates": [[[-4.0472749280378135, 51.07628587009445], [-4.046994422992004, 51.0771146137395], [-4.04625123037602, 51.077288885172386], [-4.045665615912213, 51.07658748469945], [-4.046203263943934, 51.07595304610358], [-4.047271688814646, 51.076213065084715], [-4.0472749280378135, 51.07628587009445]]]}}, {"type": "Feature", "properties": {"type": "postcode-cell", "postcode": "EX32 8BX", "postcodes": ["EX32 8BX"]}, "geometry": {"type": "Polygon", "coordinates": [[[-4.04804449455239, 51.078441330611746], [-4.047866448129788, 51.07929467435382], [-4.046924613205789, 51.07939209679729], [-4.046799994952518, 51.07928068330762], [-4.047191355950438, 51.0782865820684], [-4.047938386872315, 51.078169896754225], [-4.04804449455239, 51.078441330611746]]]}}, {"type": "Feature", "properties": {"type": "postcode-cell", "postcode": "EX32 8DQ", "postcodes": ["EX32 8DQ"]}, "geometry": {"type": "Polygon", "coordinates": [[[-4.0481512439333045, 51.08004353492966], [-4.048442784566363, 51.080650941826086], [-4.047926683953512, 51.08067053089536], [-4.046568744215368, 51.07994644739345], [-4.046843754763667, 51.07965977242576], [-4.0481512439333045, 51.08004353492966]]]}}, {"type": "Feature", "properties": {"type": "postcode-cell", "postcode": "EX32 7EG", "postcodes": ["EX32 7EG"]}, "geometry": {"type": "Polygon", "coordinates": [[[-4.047386367029872, 51.08242298770034], [-4.046061278621451, 51.08227587024233], [-4.045627883470769, 51.08122612056356], [-4.045736099857381, 51.08114249349793], [-4.046844870640653, 51.08131513701895], [-4.047386367029872, 51.08242298770034]]]}}, {"type": "Feature", "properties": {"type": "postcode-cell", "postcode": "EX32 8DN", "postcodes": ["EX32 8DN"]}, "geometry": {"type": "Polygon", "coordinates": [[[-4.046844870640653, 51.08131513701895], [-4.045736099857381, 51.08114249349793], [-4.045797499477359, 51.08058566379796], [-4.047614856085091, 51.080764454138674], [-4.046844870640653, 51.08131513701895]]]}}, {"type": "Feature", "properties": {"type": "postcode-cell", "postcode": "EX32 8DL", "postcodes": ["EX32 8DL"]}, "geometry": {"type": "Polygon", "coordinates": [[[-4.046843754763667, 51.07965977242576], [-4.046568744215368, 51.07994644739345], [-4.04627698523105, 51.08002630697309], [-4.045357229721522, 51.07897452582765], [-4.046799994952518, 51.07928068330762], [-4.046924613205789, 51.07939209679729], [-4.046843754763667, 51.07965977242576]]]}}, {"type": "Feature", "properties": {"type": "postcode-cell", "postcode": "EX32 8DG", "postcodes": ["EX32 8DG"]}, "geometry": {"type": "Polygon", "coordinates": [[[-4.047926683953512, 51.08067053089536], [-4.047614856085091, 51.080764454138674], [-4.045797499477359, 51.08058566379796], [-4.04568010527324, 51.08037248895263], [-4.04627698523105, 51.08002630697309], [-4.046568744215368, 51.07994644739345], [-4.047926683953512, 51.08067053089536]]]}}, {"type": "Feature", "properties": {"type": "postcode-cell", "postcode": "EX32 8LF", "postcodes": ["EX32 8LF"]}, "geometry": {"type": "Polygon", "coordinates": [[[-4.046559205452818, 51.078214972383236], [-4.046021742266636, 51.07835715374121], [-4.04536474214258, 51.07778598708195], [-4.045789705312856, 51.077414989872416], [-4.046181562268516, 51.07735413222288], [-4.046559205452818, 51.078214972383236]]]}}, {"type": "Feature", "properties": {"type": "postcode-cell", "postcode": "EX32 8BY", "postcodes": ["EX32 8BY"]}, "geometry": {"type": "Polygon", "coordinates": [[[-4.046799994952518, 51.07928068330762], [-4.045357229721522, 51.07897452582765], [-4.045336586710357, 51.07896650782365], [-4.0453626386074655, 51.07878580036936], [-4.046021742266636, 51.07835715374121], [-4.046559205452818, 51.078214972383236], [-4.047191355950438, 51.0782865820684], [-4.046799994952518, 51.07928068330762]]]}}, {"type": "Feature", "properties": {"type": "postcode-cell", "postcode": "EX32 8DF", "postcodes": ["EX32 8DF"]}, "geometry": {"type": "Polygon", "coordinates": [[[-4.04568010527324, 51.08037248895263], [-4.045421081459763, 51.08030207672638], [-4.045151406445381, 51.07907552982545], [-4.045336586710357, 51.07896650782365], [-4.045357229721522, 51.07897452582765], [-4.04627698523105, 51.08002630697309], [-4.04568010527324, 51.08037248895263]]]}}, {"type": "Feature", "properties": {"type": "postcode-cell", "postcode": "EX32 7JB", "postcodes": ["EX32 7JB"]}, "geometry": {"type": "Polygon", "coordinates": [[[-4.047839962263651, 51.083327476118235], [-4.047890663348877, 51.0833278581525], [-4.048255743891961, 51.08381334922209], [-4.048239919470419, 51.08395109816528], [-4.046269989921131, 51.08396999502902], [-4.045065410544901, 51.08361088349572], [-4.047839962263651, 51.083327476118235]]]}}, {"type": "Feature", "properties": {"type": "postcode-cell", "postcode": "EX32 7EH", "postcodes": ["EX32 7EH"]}, "geometry": {"type": "Polygon", "coordinates": [[[-4.045627883470769, 51.08122612056356], [-4.044961540804766, 51.081333717311686], [-4.044329252968374, 51.08052004084113], [-4.044571266767775, 51.080294646348214], [-4.045421081459763, 51.08030207672638], [-4.04568010527324, 51.08037248895263], [-4.045797499477359, 51.08058566379796], [-4.045736099857381, 51.08114249349793], [-4.045627883470769, 51.08122612056356]]]}}, {"type": "Feature", "properties": {"type": "postcode-cell", "postcode": "EX32 8DX", "postcodes": ["EX32 8DX"]}, "geometry": {"type": "Polygon", "coordinates": [[[-4.046021742266636, 51.07835715374121], [-4.0453626386074655, 51.07878580036936], [-4.044224254734198, 51.07805908971954], [-4.0445308789095, 51.077818046050126], [-4.04536474214258, 51.07778598708195], [-4.046021742266636, 51.07835715374121]]]}}, {"type": "Feature", "properties": {"type": "postcode-cell", "postcode": "EX32 8DS", "postcodes": ["EX32 8DS"]}, "geometry": {"type": "Polygon", "coordinates": [[[-4.046181562268516, 51.07735413222288], [-4.045789705312856, 51.077414989872416], [-4.044801090443542, 51.077125058169884], [-4.044830629019963, 51.0768228008796], [-4.045665615912213, 51.07658748469945], [-4.04625123037602, 51.077288885172386], [-4.046181562268516, 51.07735413222288]]]}}, {"type": "Feature", "properties": {"type": "postcode-cell", "postcode": "EX32 7JD", "postcodes": ["EX32 7JD"]}, "geometry": {"type": "Polygon", "coordinates": [[[-4.047839962263651, 51.083327476118235], [-4.045065410544901, 51.08361088349572], [-4.045023381750687, 51.083598353462946], [-4.045191348942113, 51.08311986634138], [-4.047839962263651, 51.083327476118235]]]}}, {"type": "Feature", "properties": {"type": "postcode-cell", "postcode": "EX32 7HU", "postcodes": ["EX32 7HU"]}, "geometry": {"type": "Polygon", "coordinates": [[[-4.044272985029692, 51.08245335627682], [-4.044484663706799, 51.08239326187849], [-4.045010312153384, 51.08253048276317], [-4.045191348942113, 51.08311986634138], [-4.045023381750687, 51.083598353462946], [-4.0439140193347844, 51.08326761157231], [-4.044272985029692, 51.08245335627682]]]}}, {"type": "Feature", "properties": {"type": "postcode-cell", "postcode": "EX32 7EL", "postcodes": ["EX32 7EL"]}, "geometry": {"type": "Polygon", "coordinates": [[[-4.044484663706799, 51.08239326187849], [-4.044321547448258, 51.08161450056615], [-4.044961540804766, 51.081333717311686], [-4.045627883470769, 51.08122612056356], [-4.046061278621451, 51.08227587024233], [-4.045010312153384, 51.08253048276317], [-4.044484663706799, 51.08239326187849]]]}}, {"type": "Feature", "properties": {"type": "postcode-cell", "postcode": "EX32 8AT", "postcodes": ["EX32 8AT"]}, "geometry": {"type": "Polygon", "coordinates": [[[-4.044801090443542, 51.077125058169884], [-4.044630498026752, 51.07727142466383], [-4.043944108332355, 51.077209900464496], [-4.043549595899609, 51.07702463608583], [-4.043511929359447, 51.07697885002979], [-4.043721671146649, 51.076783699574825], [-4.044527522866999, 51.07665687391332], [-4.044830629019963, 51.0768228008796], [-4.044801090443542, 51.077125058169884]]]}}, {"type": "Feature", "properties": {"type": "postcode-cell", "postcode": "EX32 8DU", "postcodes": ["EX32 8DU"]}, "geometry": {"type": "Polygon", "coordinates": [[[-4.044630498026752, 51.07727142466383], [-4.044801090443542, 51.077125058169884], [-4.045789705312856, 51.077414989872416], [-4.04536474214258, 51.07778598708195], [-4.0445308789095, 51.077818046050126], [-4.044630498026752, 51.07727142466383]]]}}, {"type": "Feature", "properties": {"type": "postcode-cell", "postcode": "EX32 8DY", "postcodes": ["EX32 8DY"]}, "geometry": {"type": "Polygon", "coordinates": [[[-4.0445308789095, 51.077818046050126], [-4.044224254734198, 51.07805908971954], [-4.043745263242388, 51.078093131741056], [-4.043632821962365, 51.077725134600406], [-4.043944108332355, 51.077209900464496], [-4.044630498026752, 51.07727142466383], [-4.0445308789095, 51.077818046050126]]]}}, {"type": "Feature", "properties": {"type": "postcode-cell", "postcode": "EX32 8BZ", "postcodes": ["EX32 8BZ"]}, "geometry": {"type": "Polygon", "coordinates": [[[-4.045336586710357, 51.07896650782365], [-4.045151406445381, 51.07907552982545], [-4.044355680819057, 51.07928291435427], [-4.043456200179219, 51.07921210516298], [-4.043370937619441, 51.0791257513392], [-4.043524329867489, 51.07817524660175], [-4.043745263242388, 51.078093131741056], [-4.044224254734198, 51.07805908971954], [-4.0453626386074655, 51.07878580036936], [-4.045336586710357, 51.07896650782365]]]}}, {"type": "Feature", "properties": {"type": "postcode-cell", "postcode": "EX32 7EQ", "postcodes": ["EX32 7EQ"]}, "geometry": {"type": "Polygon", "coordinates": [[[-4.044321547448258, 51.08161450056615], [-4.043516916165521, 51.08130473721749], [-4.043782169682636, 51.080757886901715], [-4.044329252968374, 51.08052004084113], [-4.044961540804766, 51.081333717311686], [-4.044321547448258, 51.08161450056615]]]}}, {"type": "Feature", "properties": {"type": "postcode-cell", "postcode": "EX32 8DW", "postcodes": ["EX32 8DW"]}, "geometry": {"type": "Polygon", "coordinates": [[[-4.045421081459763, 51.08030207672638], [-4.044571266767775, 51.080294646348214], [-4.044547510051854, 51.08027349638167], [-4.044355680819057, 51.07928291435427], [-4.045151406445381, 51.07907552982545], [-4.045421081459763, 51.08030207672638]]]}}, {"type": "Feature", "properties": {"type": "postcode-cell", "postcode": "EX32 8HB", "postcodes": ["EX32 8HB"]}, "geometry": {"type": "Polygon", "coordinates": [[[-4.044830629019963, 51.0768228008796], [-4.044527522866999, 51.07665687391332], [-4.0443690069458595, 51.076164038310736], [-4.045284742233702, 51.07572949834008], [-4.046203263943934, 51.07595304610358], [-4.045665615912213, 51.07658748469945], [-4.044830629019963, 51.0768228008796]]]}}, {"type": "Feature", "properties": {"type": "postcode-cell", "postcode": "EX32 8AQ", "postcodes": ["EX32 8AQ"]}, "geometry": {"type": "Polygon", "coordinates": [[[-4.044571266767775, 51.080294646348214], [-4.044329252968374, 51.08052004084113], [-4.043782169682636, 51.080757886901715], [-4.043006723546764, 51.08033628511339], [-4.043113504763708, 51.07986873099334], [-4.044547510051854, 51.08027349638167], [-4.044571266767775, 51.080294646348214]]]}}, {"type": "Feature", "properties": {"type": "postcode-cell", "postcode": "EX32 8EP", "postcodes": ["EX32 8EP"]}, "geometry": {"type": "Polygon", "coordinates": [[[-4.037810133324915, 51.07429894433073], [-4.036671169597902, 51.074274343585756], [-4.036348759536879, 51.07415347075955], [-4.036164378320985, 51.07350929217276], [-4.0384272827583665, 51.07406024676803], [-4.037810133324915, 51.07429894433073]]]}}, {"type": "Feature", "properties": {"type": "postcode-cell", "postcode": "EX32 8EU", "postcodes": ["EX32 8EU"]}, "geometry": {"type": "Polygon", "coordinates": [[[-4.043088337847102, 51.075586478512385], [-4.042700675642417, 51.0758156594419], [-4.042245014844302, 51.07580552491554], [-4.0410183242373705, 51.074691023266226], [-4.043250825376516, 51.07523445459308], [-4.043088337847102, 51.075586478512385]]]}}, {"type": "Feature", "properties": {"type": "postcode-cell", "postcode": "EX32 8AF", "postcodes": ["EX32 8AF"]}, "geometry": {"type": "Polygon", "coordinates": [[[-4.044355680819057, 51.07928291435427], [-4.044547510051854, 51.08027349638167], [-4.043113504763708, 51.07986873099334], [-4.0430774365704965, 51.07980842720927], [-4.043456200179219, 51.07921210516298], [-4.044355680819057, 51.07928291435427]]]}}, {"type": "Feature", "properties": {"type": "postcode-cell", "postcode": "EX32 7HX", "postcodes": ["EX32 7HX"]}, "geometry": {"type": "Polygon", "coordinates": [[[-4.043829171585053, 51.08247474936052], [-4.044272985029692, 51.08245335627682], [-4.0439140193347844, 51.08326761157231], [-4.043288172509734, 51.083081016743826], [-4.043829171585053, 51.08247474936052]]]}}, {"type": "Feature", "properties": {"type": "postcode-cell", "postcode": "EX32 7JE", "postcodes": ["EX32 7JE"]}, "geometry": {"type": "Polygon", "coordinates": [[[-4.044272985029692, 51.08245335627682], [-4.043829171585053, 51.08247474936052], [-4.043490290126483, 51.08243210682469], [-4.042976201475066, 51.08220713312094], [-4.043135548869921, 51.081356521500176], [-4.043516916165521, 51.08130473721749], [-4.044321547448258, 51.08161450056615], [-4.044484663706799, 51.08239326187849], [-4.044272985029692, 51.08245335627682]]]}}, {"type": "Feature", "properties": {"type": "postcode-cell", "postcode": "EX32 8HA", "postcodes": ["EX32 8HA"]}, "geometry": {"type": "Polygon", "coordinates": [[[-4.043721671146649, 51.076783699574825], [-4.0435428315972874, 51.07652894435995], [-4.0439929046391105, 51.07608296891911], [-4.0443690069458595, 51.076164038310736], [-4.044527522866999, 51.07665687391332], [-4.043721671146649, 51.076783699574825]]]}}, {"type": "Feature", "properties": {"type": "postcode-cell", "postcode": "EX32 8EA", "postcodes": ["EX32 8EA"]}, "geometry": {"type": "Polygon", "coordinates": [[[-4.043745263242388, 51.078093131741056], [-4.043524329867489, 51.07817524660175], [-4.042878118748045, 51.07806682519672], [-4.042401544510731, 51.07736866082489], [-4.042490110131141, 51.077315413991876], [-4.043401580344256, 51.07744680715276], [-4.043632821962365, 51.077725134600406], [-4.043745263242388, 51.078093131741056]]]}}, {"type": "Feature", "properties": {"type": "postcode-cell", "postcode": "EX32 8EY", "postcodes": ["EX32 8EY"]}, "geometry": {"type": "Polygon", "coordinates": [[[-4.0439929046391105, 51.07608296891911], [-4.0435428315972874, 51.07652894435995], [-4.0426863321009545, 51.07631246126712], [-4.042700675642417, 51.0758156594419], [-4.043088337847102, 51.075586478512385], [-4.0439929046391105, 51.07608296891911]]]}}, {"type": "Feature", "properties": {"type": "postcode-cell", "postcode": "EX32 8DZ", "postcodes": ["EX32 8DZ"]}, "geometry": {"type": "Polygon", "coordinates": [[[-4.043944108332355, 51.077209900464496], [-4.043632821962365, 51.077725134600406], [-4.043401580344256, 51.07744680715276], [-4.043549595899609, 51.07702463608583], [-4.043944108332355, 51.077209900464496]]]}}, {"type": "Feature", "properties": {"type": "postcode-cell", "postcode": "EX32 8EB", "postcodes": ["EX32 8EB"]}, "geometry": {"type": "Polygon", "coordinates": [[[-4.043511929359447, 51.07697885002979], [-4.042820575895356, 51.07696038772854], [-4.042556574129115, 51.07650985326774], [-4.0426863321009545, 51.07631246126712], [-4.0435428315972874, 51.07652894435995], [-4.043721671146649, 51.076783699574825], [-4.043511929359447, 51.07697885002979]]]}}, {"type": "Feature", "properties": {"type": "postcode-cell", "postcode": "EX32 8ED", "postcodes": ["EX32 8ED"]}, "geometry": {"type": "Polygon", "coordinates": [[[-4.043401580344256, 51.07744680715276], [-4.042490110131141, 51.077315413991876], [-4.042820575895356, 51.07696038772854], [-4.043511929359447, 51.07697885002979], [-4.043549595899609, 51.07702463608583], [-4.043401580344256, 51.07744680715276]]]}}, {"type": "Feature", "properties": {"type": "postcode-cell", "postcode": "EX32 7NG", "postcodes": ["EX32 7NG"]}, "geometry": {"type": "Polygon", "coordinates": [[[-4.026224176864041, 51.07918771612184], [-4.029923451708941, 51.07847396522308], [-4.0308130407807985, 51.079045878395334], [-4.0322625518655295, 51.08020908206849], [-4.032188835779117, 51.080745864646886], [-4.026999989909464, 51.08080999502651], [-4.025679989908608, 51.08071999502645], [-4.024999989908327, 51.08031999502612], [-4.02483490806295, 51.08040168627148], [-4.026224176864041, 51.07918771612184]]]}}, {"type": "Feature", "properties": {"type": "postcode-cell", "postcode": "EX32 7HY", "postcodes": ["EX32 7HY"]}, "geometry": {"type": "Polygon", "coordinates": [[[-4.043829171585053, 51.08247474936052], [-4.043288172509734, 51.083081016743826], [-4.04268836391641, 51.08290218056223], [-4.043490290126483, 51.08243210682469], [-4.043829171585053, 51.08247474936052]]]}}, {"type": "Feature", "properties": {"type": "postcode-cell", "postcode": "EX32 8EX", "postcodes": ["EX32 8EX"]}, "geometry": {"type": "Polygon", "coordinates": [[[-4.042556574129115, 51.07650985326774], [-4.04076109722787, 51.07682560773525], [-4.040378896775569, 51.07632110511843], [-4.040727041268102, 51.076026405325855], [-4.042245014844302, 51.07580552491554], [-4.042700675642417, 51.0758156594419], [-4.0426863321009545, 51.07631246126712], [-4.042556574129115, 51.07650985326774]]]}}, {"type": "Feature", "properties": {"type": "postcode-cell", "postcode": "EX32 8AG", "postcodes": ["EX32 8AG"]}, "geometry": {"type": "Polygon", "coordinates": [[[-4.043516916165521, 51.08130473721749], [-4.043135548869921, 51.081356521500176], [-4.042793545506693, 51.0812992241079], [-4.0428399899200285, 51.08121999502681], [-4.04231695456412, 51.081204294575414], [-4.04229409422998, 51.08068695984547], [-4.043006723546764, 51.08033628511339], [-4.043782169682636, 51.080757886901715], [-4.043516916165521, 51.08130473721749]]]}}, {"type": "Feature", "properties": {"type": "postcode-cell", "postcode": "EX32 8AR", "postcodes": ["EX32 8AR"]}, "geometry": {"type": "Polygon", "coordinates": [[[-4.043370937619441, 51.0791257513392], [-4.042100322995337, 51.07895294591203], [-4.04203627562468, 51.07831123472018], [-4.042878118748045, 51.07806682519672], [-4.043524329867489, 51.07817524660175], [-4.043370937619441, 51.0791257513392]]]}}, {"type": "Feature", "properties": {"type": "postcode-cell", "postcode": "EX32 8EE", "postcodes": ["EX32 8EE"]}, "geometry": {"type": "Polygon", "coordinates": [[[-4.042490110131141, 51.077315413991876], [-4.042401544510731, 51.07736866082489], [-4.040978583185771, 51.077322737249396], [-4.040798094880963, 51.07710296603035], [-4.04076109722787, 51.07682560773525], [-4.042556574129115, 51.07650985326774], [-4.042820575895356, 51.07696038772854], [-4.042490110131141, 51.077315413991876]]]}}, {"type": "Feature", "properties": {"type": "postcode-cell", "postcode": "EX32 8AH", "postcodes": ["EX32 8AH"]}, "geometry": {"type": "Polygon", "coordinates": [[[-4.0430774365704965, 51.07980842720927], [-4.041241294595085, 51.079814006238735], [-4.040831626420061, 51.0795661037306], [-4.042100322995337, 51.07895294591203], [-4.043370937619441, 51.0791257513392], [-4.043456200179219, 51.07921210516298], [-4.0430774365704965, 51.07980842720927]]]}}, {"type": "Feature", "properties": {"type": "postcode-cell", "postcode": "EX32 7HS", "postcodes": ["EX32 7HS"]}, "geometry": {"type": "Polygon", "coordinates": [[[-4.041846429339113, 51.081999225983495], [-4.041867642386687, 51.08201888012879], [-4.041762529381438, 51.08262612915393], [-4.04086998991818, 51.082359995027744], [-4.040865307091732, 51.082277266097634], [-4.041846429339113, 51.081999225983495]]]}}, {"type": "Feature", "properties": {"type": "postcode-cell", "postcode": "EX32 7HZ", "postcodes": ["EX32 7HZ"]}, "geometry": {"type": "Polygon", "coordinates": [[[-4.041867642386687, 51.08201888012879], [-4.042689285906943, 51.08223222040442], [-4.04229162604407, 51.08278388854579], [-4.041762529381438, 51.08262612915393], [-4.041867642386687, 51.08201888012879]]]}}, {"type": "Feature", "properties": {"type": "postcode-cell", "postcode": "EX32 8BR", "postcodes": ["EX32 8BR"]}, "geometry": {"type": "Polygon", "coordinates": [[[-4.042976201475066, 51.08220713312094], [-4.042689285906943, 51.08223222040442], [-4.041867642386687, 51.08201888012879], [-4.041846429339113, 51.081999225983495], [-4.041796443176345, 51.08166275047891], [-4.042669989919783, 51.081509995027034], [-4.042793545506693, 51.0812992241079], [-4.043135548869921, 51.081356521500176], [-4.042976201475066, 51.08220713312094]]]}}, {"type": "Feature", "properties": {"type": "postcode-cell", "postcode": "EX32 7JF", "postcodes": ["EX32 7JF"]}, "geometry": {"type": "Polygon", "coordinates": [[[-4.043490290126483, 51.08243210682469], [-4.04268836391641, 51.08290218056223], [-4.04229162604407, 51.08278388854579], [-4.042689285906943, 51.08223222040442], [-4.042976201475066, 51.08220713312094], [-4.043490290126483, 51.08243210682469]]]}}, {"type": "Feature", "properties": {"type": "postcode-cell", "postcode": "EX32 8DA", "postcodes": ["EX32 8DA"]}, "geometry": {"type": "Polygon", "coordinates": [[[-4.042878118748045, 51.07806682519672], [-4.04203627562468, 51.07831123472018], [-4.040894684270446, 51.07796850951195], [-4.040978583185771, 51.077322737249396], [-4.042401544510731, 51.07736866082489], [-4.042878118748045, 51.07806682519672]]]}}, {"type": "Feature", "properties": {"type": "postcode-cell", "postcode": "EX32 8AE", "postcodes": ["EX32 8AE"]}, "geometry": {"type": "Polygon", "coordinates": [[[-4.043113504763708, 51.07986873099334], [-4.043006723546764, 51.08033628511339], [-4.04229409422998, 51.08068695984547], [-4.041410251393749, 51.0801435201625], [-4.041241294595085, 51.079814006238735], [-4.0430774365704965, 51.07980842720927], [-4.043113504763708, 51.07986873099334]]]}}, {"type": "Feature", "properties": {"type": "postcode-cell", "postcode": "EX32 8AJ", "postcodes": ["EX32 8AJ"]}, "geometry": {"type": "Polygon", "coordinates": [[[-4.041410251393749, 51.0801435201625], [-4.040979417184965, 51.0808484577459], [-4.039045902301177, 51.08026405766992], [-4.038606459125235, 51.07932710472758], [-4.039058518861852, 51.07926995091438], [-4.040831626420061, 51.0795661037306], [-4.041241294595085, 51.079814006238735], [-4.041410251393749, 51.0801435201625]]]}}, {"type": "Feature", "properties": {"type": "postcode-cell", "postcode": "EX32 8AP", "postcodes": ["EX32 8AP"]}, "geometry": {"type": "Polygon", "coordinates": [[[-4.042100322995337, 51.07895294591203], [-4.040831626420061, 51.0795661037306], [-4.039058518861852, 51.07926995091438], [-4.040894684270446, 51.07796850951195], [-4.04203627562468, 51.07831123472018], [-4.042100322995337, 51.07895294591203]]]}}, {"type": "Feature", "properties": {"type": "postcode-cell", "postcode": "EX32 8AD", "postcodes": ["EX32 8AD"]}, "geometry": {"type": "Polygon", "coordinates": [[[-4.040979417184965, 51.0808484577459], [-4.041410251393749, 51.0801435201625], [-4.04229409422998, 51.08068695984547], [-4.04231695456412, 51.081204294575414], [-4.0410582029229145, 51.081166499777424], [-4.040979417184965, 51.0808484577459]]]}}, {"type": "Feature", "properties": {"type": "postcode-cell", "postcode": "EX32 8DB", "postcodes": ["EX32 8DB"]}, "geometry": {"type": "Polygon", "coordinates": [[[-4.040978583185771, 51.077322737249396], [-4.040894684270446, 51.07796850951195], [-4.039058518861852, 51.07926995091438], [-4.038606459125235, 51.07932710472758], [-4.037818380186668, 51.07915932777259], [-4.039058047835492, 51.077485864932825], [-4.040798094880963, 51.07710296603035], [-4.040978583185771, 51.077322737249396]]]}}, {"type": "Feature", "properties": {"type": "postcode-cell", "postcode": "EX32 8ER", "postcodes": ["EX32 8ER"]}, "geometry": {"type": "Polygon", "coordinates": [[[-4.039364114688882, 51.074930248414525], [-4.038522705745268, 51.07475738947715], [-4.038589260364242, 51.07409968163351], [-4.0398194159518495, 51.074399164191426], [-4.039364114688882, 51.074930248414525]]]}}, {"type": "Feature", "properties": {"type": "postcode-cell", "postcode": "EX32 8AN", "postcodes": ["EX32 8AN"]}, "geometry": {"type": "Polygon", "coordinates": [[[-4.041846429339113, 51.081999225983495], [-4.040865307091732, 51.082277266097634], [-4.040839989918399, 51.08182999502731], [-4.041796443176345, 51.08166275047891], [-4.041846429339113, 51.081999225983495]]]}}, {"type": "Feature", "properties": {"type": "postcode-cell", "postcode": "EX32 8EF", "postcodes": ["EX32 8EF"]}, "geometry": {"type": "Polygon", "coordinates": [[[-4.040798094880963, 51.07710296603035], [-4.039058047835492, 51.077485864932825], [-4.038622278762223, 51.07672321345742], [-4.0388766156583165, 51.076581602086286], [-4.040229721828779, 51.07630022886122], [-4.040378896775569, 51.07632110511843], [-4.04076109722787, 51.07682560773525], [-4.040798094880963, 51.07710296603035]]]}}, {"type": "Feature", "properties": {"type": "postcode-cell", "postcode": "EX32 8ET", "postcodes": ["EX32 8ET"]}, "geometry": {"type": "Polygon", "coordinates": [[[-4.0410157518673895, 51.07469039707248], [-4.0410183242373705, 51.074691023266226], [-4.042245014844302, 51.07580552491554], [-4.040727041268102, 51.076026405325855], [-4.040830512000719, 51.074956110124006], [-4.0410157518673895, 51.07469039707248]]]}}, {"type": "Feature", "properties": {"type": "postcode-cell", "postcode": "EX32 8FB", "postcodes": ["EX32 8FB"]}, "geometry": {"type": "Polygon", "coordinates": [[[-4.040830512000719, 51.074956110124006], [-4.039572565523887, 51.07522992389854], [-4.039400828930532, 51.075108864763855], [-4.039364114688882, 51.074930248414525], [-4.0398194159518495, 51.074399164191426], [-4.0410157518673895, 51.07469039707248], [-4.040830512000719, 51.074956110124006]]]}}, {"type": "Feature", "properties": {"type": "postcode-cell", "postcode": "EX32 8ES", "postcodes": ["EX32 8ES"]}, "geometry": {"type": "Polygon", "coordinates": [[[-4.040378896775569, 51.07632110511843], [-4.040229721828779, 51.07630022886122], [-4.039431077650027, 51.07571693469268], [-4.039572565523887, 51.07522992389854], [-4.040830512000719, 51.074956110124006], [-4.040727041268102, 51.076026405325855], [-4.040378896775569, 51.07632110511843]]]}}, {"type": "Feature", "properties": {"type": "postcode-cell", "postcode": "EX32 8AA", "postcodes": ["EX32 8AA"]}, "geometry": {"type": "Polygon", "coordinates": [[[-4.0322625518655295, 51.08020908206849], [-4.035476054506574, 51.079056164671435], [-4.037818380186668, 51.07915932777259], [-4.038606459125235, 51.07932710472758], [-4.039045902301177, 51.08026405766992], [-4.0392164500727965, 51.081160027002184], [-4.0364299899155345, 51.081539995027065], [-4.033469989913888, 51.080729995026424], [-4.032188835779117, 51.080745864646886], [-4.0322625518655295, 51.08020908206849]]]}}, {"type": "Feature", "properties": {"type": "postcode-cell", "postcode": "EX32 8AB", "postcodes": ["EX32 8AB"]}, "geometry": {"type": "Polygon", "coordinates": [[[-4.0410582029229145, 51.081166499777424], [-4.0395099899178115, 51.08111999502671], [-4.0392164500727965, 51.081160027002184], [-4.039045902301177, 51.08026405766992], [-4.040979417184965, 51.0808484577459], [-4.0410582029229145, 51.081166499777424]]]}}, {"type": "Feature", "properties": {"type": "postcode-cell", "postcode": "EX32 8DJ", "postcodes": ["EX32 8DJ"]}, "geometry": {"type": "Polygon", "coordinates": [[[-4.037818380186668, 51.07915932777259], [-4.035476054506574, 51.079056164671435], [-4.035721408775781, 51.07833449477385], [-4.036048932921473, 51.07789376734462], [-4.037658721371908, 51.07678030431248], [-4.038622278762223, 51.07672321345742], [-4.039058047835492, 51.077485864932825], [-4.037818380186668, 51.07915932777259]]]}}, {"type": "Feature", "properties": {"type": "postcode-cell", "postcode": "EX32 8FA", "postcodes": ["EX32 8FA"]}, "geometry": {"type": "Polygon", "coordinates": [[[-4.039572565523887, 51.07522992389854], [-4.039431077650027, 51.07571693469268], [-4.038330166347487, 51.07556172605427], [-4.0384392357995305, 51.07521752895851], [-4.039400828930532, 51.075108864763855], [-4.039572565523887, 51.07522992389854]]]}}, {"type": "Feature", "properties": {"type": "postcode-cell", "postcode": "EX32 8EN", "postcodes": ["EX32 8EN"]}, "geometry": {"type": "Polygon", "coordinates": [[[-4.039431077650027, 51.07571693469268], [-4.040229721828779, 51.07630022886122], [-4.0388766156583165, 51.076581602086286], [-4.038174601278405, 51.07563642717027], [-4.038330166347487, 51.07556172605427], [-4.039431077650027, 51.07571693469268]]]}}, {"type": "Feature", "properties": {"type": "postcode-cell", "postcode": "EX32 8EZ", "postcodes": ["EX32 8EZ"]}, "geometry": {"type": "Polygon", "coordinates": [[[-4.039400828930532, 51.075108864763855], [-4.0384392357995305, 51.07521752895851], [-4.038374625519683, 51.07497184656421], [-4.038522705745268, 51.07475738947715], [-4.039364114688882, 51.074930248414525], [-4.039400828930532, 51.075108864763855]]]}}, {"type": "Feature", "properties": {"type": "postcode-cell", "postcode": "EX32 8FE", "postcodes": ["EX32 8FE"]}, "geometry": {"type": "Polygon", "coordinates": [[[-4.038374625519683, 51.07497184656421], [-4.037710806262264, 51.074897183586685], [-4.0375023495152496, 51.07471439188939], [-4.037810133324915, 51.07429894433073], [-4.0384272827583665, 51.07406024676803], [-4.038589260364242, 51.07409968163351], [-4.038522705745268, 51.07475738947715], [-4.038374625519683, 51.07497184656421]]]}}, {"type": "Feature", "properties": {"type": "postcode-cell", "postcode": "EX32 8EG", "postcodes": ["EX32 8EG"]}, "geometry": {"type": "Polygon", "coordinates": [[[-4.0388766156583165, 51.076581602086286], [-4.038622278762223, 51.07672321345742], [-4.037658721371908, 51.07678030431248], [-4.037321187260264, 51.0757684860792], [-4.038174601278405, 51.07563642717027], [-4.0388766156583165, 51.076581602086286]]]}}, {"type": "Feature", "properties": {"type": "postcode-cell", "postcode": "EX32 8EQ", "postcodes": ["EX32 8EQ"]}, "geometry": {"type": "Polygon", "coordinates": [[[-4.038174601278405, 51.07563642717027], [-4.037321187260264, 51.0757684860792], [-4.037043008386197, 51.07568187095773], [-4.036972037698177, 51.07564713390506], [-4.03695843058204, 51.07561643794471], [-4.037710806262264, 51.074897183586685], [-4.038374625519683, 51.07497184656421], [-4.0384392357995305, 51.07521752895851], [-4.038330166347487, 51.07556172605427], [-4.038174601278405, 51.07563642717027]]]}}, {"type": "Feature", "properties": {"type": "postcode-cell", "postcode": "EX32 8EJ", "postcodes": ["EX32 8EJ"]}, "geometry": {"type": "Polygon", "coordinates": [[[-4.037658721371908, 51.07678030431248], [-4.036048932921473, 51.07789376734462], [-4.036050312104451, 51.07708071001401], [-4.037043008386197, 51.07568187095773], [-4.037321187260264, 51.0757684860792], [-4.037658721371908, 51.07678030431248]]]}}, {"type": "Feature", "properties": {"type": "postcode-cell", "postcode": "EX32 8FG", "postcodes": ["EX32 8FG"]}, "geometry": {"type": "Polygon", "coordinates": [[[-4.0375023495152496, 51.07471439188939], [-4.037089531621088, 51.07474306313723], [-4.036671169597902, 51.074274343585756], [-4.037810133324915, 51.07429894433073], [-4.0375023495152496, 51.07471439188939]]]}}, {"type": "Feature", "properties": {"type": "postcode-cell", "postcode": "EX32 8EW", "postcodes": ["EX32 8EW"]}, "geometry": {"type": "Polygon", "coordinates": [[[-4.037710806262264, 51.074897183586685], [-4.03695843058204, 51.07561643794471], [-4.036641797727623, 51.07525613584788], [-4.037089531621088, 51.07474306313723], [-4.0375023495152496, 51.07471439188939], [-4.037710806262264, 51.074897183586685]]]}}, {"type": "Feature", "properties": {"type": "postcode-cell", "postcode": "EX32 8AS", "postcodes": ["EX32 8AS"]}, "geometry": {"type": "Polygon", "coordinates": [[[-4.0308130407807985, 51.079045878395334], [-4.034129220320646, 51.07597076134242], [-4.034316093213765, 51.07601242172663], [-4.034355159051202, 51.07604379546397], [-4.035721408775781, 51.07833449477385], [-4.035476054506574, 51.079056164671435], [-4.0322625518655295, 51.08020908206849], [-4.0308130407807985, 51.079045878395334]]]}}, {"type": "Feature", "properties": {"type": "postcode-cell", "postcode": "EX32 8EH", "postcodes": ["EX32 8EH"]}, "geometry": {"type": "Polygon", "coordinates": [[[-4.037043008386197, 51.07568187095773], [-4.036050312104451, 51.07708071001401], [-4.035818376051885, 51.07624211297708], [-4.036112493841932, 51.075869010002016], [-4.036972037698177, 51.07564713390506], [-4.037043008386197, 51.07568187095773]]]}}, {"type": "Feature", "properties": {"type": "postcode-cell", "postcode": "EX32 8QD", "postcodes": ["EX32 8QD"]}, "geometry": {"type": "Polygon", "coordinates": [[[-4.032183614993596, 51.073648774860494], [-4.03082070216202, 51.0731011026958], [-4.030717222919621, 51.07230574635362], [-4.031359989916159, 51.07243999501959], [-4.032419989917014, 51.07212999501933], [-4.033525367450792, 51.072844679584385], [-4.032183614993596, 51.073648774860494]]]}}, {"type": "Feature", "properties": {"type": "postcode-cell", "postcode": "EX32 8EL", "postcodes": ["EX32 8EL"]}, "geometry": {"type": "Polygon", "coordinates": [[[-4.037089531621088, 51.07474306313723], [-4.036641797727623, 51.07525613584788], [-4.035731889560827, 51.074859921767185], [-4.036348759536879, 51.07415347075955], [-4.036671169597902, 51.074274343585756], [-4.037089531621088, 51.07474306313723]]]}}, {"type": "Feature", "properties": {"type": "postcode-cell", "postcode": "EX32 8NT", "postcodes": ["EX32 8NT"]}, "geometry": {"type": "Polygon", "coordinates": [[[-4.03695843058204, 51.07561643794471], [-4.036972037698177, 51.07564713390506], [-4.036112493841932, 51.075869010002016], [-4.035252790068767, 51.07559793764899], [-4.035435129724978, 51.074903244566705], [-4.035731889560827, 51.074859921767185], [-4.036641797727623, 51.07525613584788], [-4.03695843058204, 51.07561643794471]]]}}, {"type": "Feature", "properties": {"type": "postcode-cell", "postcode": "EX32 8PP", "postcodes": ["EX32 8PP"]}, "geometry": {"type": "Polygon", "coordinates": [[[-4.036048932921473, 51.07789376734462], [-4.035721408775781, 51.07833449477385], [-4.034355159051202, 51.07604379546397], [-4.035818376051885, 51.07624211297708], [-4.036050312104451, 51.07708071001401], [-4.036048932921473, 51.07789376734462]]]}}, {"type": "Feature", "properties": {"type": "postcode-cell", "postcode": "EX32 8PL", "postcodes": ["EX32 8PL"]}, "geometry": {"type": "Polygon", "coordinates": [[[-4.035731889560827, 51.074859921767185], [-4.035435129724978, 51.074903244566705], [-4.03437731988474, 51.074642277220455], [-4.034174399472051, 51.07410690169429], [-4.035154513161934, 51.07326339946183], [-4.036164378320985, 51.07350929217276], [-4.036348759536879, 51.07415347075955], [-4.035731889560827, 51.074859921767185]]]}}, {"type": "Feature", "properties": {"type": "postcode-cell", "postcode": "EX32 7SH", "postcodes": ["EX32 7SH"]}, "geometry": {"type": "Polygon", "coordinates": [[[-4.035818376051885, 51.07624211297708], [-4.034355159051202, 51.07604379546397], [-4.034316093213765, 51.07601242172663], [-4.035252790068767, 51.07559793764899], [-4.036112493841932, 51.075869010002016], [-4.035818376051885, 51.07624211297708]]]}}, {"type": "Feature", "properties": {"type": "postcode-cell", "postcode": "EX32 7RF", "postcodes": ["EX32 7RF"]}, "geometry": {"type": "Polygon", "coordinates": [[[-4.035252790068767, 51.07559793764899], [-4.034316093213765, 51.07601242172663], [-4.034129220320646, 51.07597076134242], [-4.033950016116765, 51.07584955191664], [-4.033667399566955, 51.0752378360447], [-4.03437731988474, 51.074642277220455], [-4.035435129724978, 51.074903244566705], [-4.035252790068767, 51.07559793764899]]]}}, {"type": "Feature", "properties": {"type": "postcode-cell", "postcode": "EX32 8RY", "postcodes": ["EX32 8RY"]}, "geometry": {"type": "Polygon", "coordinates": [[[-4.034174399472051, 51.07410690169429], [-4.032412414499273, 51.07390502149585], [-4.032183614993596, 51.073648774860494], [-4.033525367450792, 51.072844679584385], [-4.033579989917465, 51.07287999501994], [-4.035154513161934, 51.07326339946183], [-4.034174399472051, 51.07410690169429]]]}}, {"type": "Feature", "properties": {"type": "postcode-cell", "postcode": "EX32 8NW", "postcodes": ["EX32 8NW"]}, "geometry": {"type": "Polygon", "coordinates": [[[-4.033667399566955, 51.0752378360447], [-4.032199665653263, 51.07505654366712], [-4.032054226779123, 51.07470623603592], [-4.032412414499273, 51.07390502149585], [-4.034174399472051, 51.07410690169429], [-4.03437731988474, 51.074642277220455], [-4.033667399566955, 51.0752378360447]]]}}, {"type": "Feature", "properties": {"type": "postcode-cell", "postcode": "EX32 8PQ", "postcodes": ["EX32 8PQ"]}, "geometry": {"type": "Polygon", "coordinates": [[[-4.033950016116765, 51.07584955191664], [-4.031351252658989, 51.076276469691805], [-4.031555120951323, 51.07571334183904], [-4.032199665653263, 51.07505654366712], [-4.033667399566955, 51.0752378360447], [-4.033950016116765, 51.07584955191664]]]}}, {"type": "Feature", "properties": {"type": "postcode-cell", "postcode": "EX32 8PT", "postcodes": ["EX32 8PT"]}, "geometry": {"type": "Polygon", "coordinates": [[[-4.032054226779123, 51.07470623603592], [-4.0300337774956265, 51.07451965214301], [-4.030268239695967, 51.07348417431269], [-4.03082070216202, 51.0731011026958], [-4.032183614993596, 51.073648774860494], [-4.032412414499273, 51.07390502149585], [-4.032054226779123, 51.07470623603592]]]}}, {"type": "Feature", "properties": {"type": "postcode-cell", "postcode": "EX32 8PN", "postcodes": ["EX32 8PN"]}, "geometry": {"type": "Polygon", "coordinates": [[[-4.034129220320646, 51.07597076134242], [-4.0308130407807985, 51.079045878395334], [-4.029923451708941, 51.07847396522308], [-4.029710302602829, 51.078098946489284], [-4.031351252658989, 51.076276469691805], [-4.033950016116765, 51.07584955191664], [-4.034129220320646, 51.07597076134242]]]}}, {"type": "Feature", "properties": {"type": "postcode-cell", "postcode": "EX32 8NG", "postcodes": ["EX32 8NG"]}, "geometry": {"type": "Polygon", "coordinates": [[[-4.029710302602829, 51.078098946489284], [-4.02961626493551, 51.078029220439944], [-4.0294570047754785, 51.07517135059325], [-4.029874308111951, 51.074649026759396], [-4.029884668104525, 51.07464477070387], [-4.031555120951323, 51.07571334183904], [-4.031351252658989, 51.076276469691805], [-4.029710302602829, 51.078098946489284]]]}}, {"type": "Feature", "properties": {"type": "postcode-cell", "postcode": "EX32 8PS", "postcodes": ["EX32 8PS"]}, "geometry": {"type": "Polygon", "coordinates": [[[-4.031555120951323, 51.07571334183904], [-4.029884668104525, 51.07464477070387], [-4.0300337774956265, 51.07451965214301], [-4.032054226779123, 51.07470623603592], [-4.032199665653263, 51.07505654366712], [-4.031555120951323, 51.07571334183904]]]}}, {"type": "Feature", "properties": {"type": "postcode-cell", "postcode": "EX32 8PA", "postcodes": ["EX32 8PA"]}, "geometry": {"type": "MultiPolygon", "coordinates": [[[[-4.024965049683752, 51.07283706784357], [-4.009607651732694, 51.07142961998313], [-4.007073921666639, 51.0709832853341], [-4.0076599899010725, 51.07027999501794], [-4.007289989901057, 51.06975999501751], [-4.008129989901872, 51.069209995017054], [-4.0074899899016705, 51.06868999501663], [-4.008579989902833, 51.06773999501585], [-4.022359989910973, 51.07038999501797], [-4.022609989910752, 51.07126999501869], [-4.022969989911101, 51.0710299950185], [-4.024559989911795, 51.07188999501918], [-4.025509116878843, 51.071810110658525], [-4.024965049683752, 51.07283706784357]]], [[[-4.004524941781776, 51.07053419988186], [-4.004639989899041, 51.07025999501793], [-4.005109989899386, 51.070199995017894], [-4.005783112690478, 51.07075587555891], [-4.004524941781776, 51.07053419988186]]]]}}, {"type": "Feature", "properties": {"type": "postcode-cell", "postcode": "EX32 8AW", "postcodes": ["EX32 8AW"]}, "geometry": {"type": "Polygon", "coordinates": [[[-4.030268239695967, 51.07348417431269], [-4.029555044302382, 51.073511718121445], [-4.028070064121297, 51.072755565358754], [-4.028294966677026, 51.07179979360174], [-4.030717222919621, 51.07230574635362], [-4.03082070216202, 51.0731011026958], [-4.030268239695967, 51.07348417431269]]]}}, {"type": "Feature", "properties": {"type": "postcode-cell", "postcode": "EX32 8RG", "postcodes": ["EX32 8RG"]}, "geometry": {"type": "Polygon", "coordinates": [[[-4.029710302602829, 51.078098946489284], [-4.029923451708941, 51.07847396522308], [-4.026224176864041, 51.07918771612184], [-4.025542730136398, 51.07898905228222], [-4.025287803473175, 51.07879980695979], [-4.024633232035704, 51.07768811376896], [-4.024696910812101, 51.07762538092871], [-4.027331240034251, 51.07693380068984], [-4.02961626493551, 51.078029220439944], [-4.029710302602829, 51.078098946489284]]]}}, {"type": "Feature", "properties": {"type": "postcode-cell", "postcode": "EX32 8NZ", "postcodes": ["EX32 8NZ"]}, "geometry": {"type": "Polygon", "coordinates": [[[-4.029884668104525, 51.07464477070387], [-4.029874308111951, 51.074649026759396], [-4.028808845238932, 51.074421206580226], [-4.028423910581426, 51.07396653623748], [-4.028649187747982, 51.07370456113849], [-4.029555044302382, 51.073511718121445], [-4.030268239695967, 51.07348417431269], [-4.0300337774956265, 51.07451965214301], [-4.029884668104525, 51.07464477070387]]]}}, {"type": "Feature", "properties": {"type": "postcode-cell", "postcode": "EX32 8PF", "postcodes": ["EX32 8PF"]}, "geometry": {"type": "Polygon", "coordinates": [[[-4.02961626493551, 51.078029220439944], [-4.027331240034251, 51.07693380068984], [-4.026521910990983, 51.076167536104116], [-4.026475341630883, 51.07596749575681], [-4.027192664366308, 51.07503055814762], [-4.027468853475359, 51.074993917267086], [-4.0294570047754785, 51.07517135059325], [-4.02961626493551, 51.078029220439944]]]}}, {"type": "Feature", "properties": {"type": "postcode-cell", "postcode": "EX32 8PE", "postcodes": ["EX32 8PE"]}, "geometry": {"type": "Polygon", "coordinates": [[[-4.0294570047754785, 51.07517135059325], [-4.027468853475359, 51.074993917267086], [-4.028808845238932, 51.074421206580226], [-4.029874308111951, 51.074649026759396], [-4.0294570047754785, 51.07517135059325]]]}}, {"type": "Feature", "properties": {"type": "postcode-cell", "postcode": "EX32 8PD", "postcodes": ["EX32 8PD"]}, "geometry": {"type": "Polygon", "coordinates": [[[-4.028808845238932, 51.074421206580226], [-4.027468853475359, 51.074993917267086], [-4.027192664366308, 51.07503055814762], [-4.027040507124153, 51.074426952609805], [-4.027323259764904, 51.07413316049206], [-4.028423910581426, 51.07396653623748], [-4.028808845238932, 51.074421206580226]]]}}, {"type": "Feature", "properties": {"type": "postcode-cell", "postcode": "EX32 8NS", "postcodes": ["EX32 8NS"]}, "geometry": {"type": "Polygon", "coordinates": [[[-4.028070064121297, 51.072755565358754], [-4.027791775881917, 51.0731472658579], [-4.027223734589188, 51.07336719542032], [-4.0250609376869635, 51.072901822120535], [-4.024965835933579, 51.07283967871547], [-4.024965049683752, 51.07283706784357], [-4.025509116878843, 51.071810110658525], [-4.027529989913917, 51.07163999501898], [-4.028294966677026, 51.07179979360174], [-4.028070064121297, 51.072755565358754]]]}}, {"type": "Feature", "properties": {"type": "postcode-cell", "postcode": "EX32 8TA", "postcodes": ["EX32 8TA"]}, "geometry": {"type": "Polygon", "coordinates": [[[-4.028070064121297, 51.072755565358754], [-4.029555044302382, 51.073511718121445], [-4.028649187747982, 51.07370456113849], [-4.027791775881917, 51.0731472658579], [-4.028070064121297, 51.072755565358754]]]}}, {"type": "Feature", "properties": {"type": "postcode-cell", "postcode": "EX32 7RG", "postcodes": ["EX32 7RG"]}, "geometry": {"type": "Polygon", "coordinates": [[[-4.027223734589188, 51.07336719542032], [-4.027791775881917, 51.0731472658579], [-4.028649187747982, 51.07370456113849], [-4.028423910581426, 51.07396653623748], [-4.027323259764904, 51.07413316049206], [-4.027223734589188, 51.07336719542032]]]}}, {"type": "Feature", "properties": {"type": "postcode-cell", "postcode": "EX32 8PX", "postcodes": ["EX32 8PX"]}, "geometry": {"type": "Polygon", "coordinates": [[[-4.027323259764904, 51.07413316049206], [-4.027040507124153, 51.074426952609805], [-4.025756439083045, 51.07400662223925], [-4.0250609376869635, 51.072901822120535], [-4.027223734589188, 51.07336719542032], [-4.027323259764904, 51.07413316049206]]]}}, {"type": "Feature", "properties": {"type": "postcode-cell", "postcode": "EX32 8PY", "postcodes": ["EX32 8PY"]}, "geometry": {"type": "Polygon", "coordinates": [[[-4.025756439083045, 51.07400662223925], [-4.024767160934496, 51.07501967941055], [-4.023326886370728, 51.07479502676789], [-4.023044349731668, 51.07450757947696], [-4.024965835933579, 51.07283967871547], [-4.0250609376869635, 51.072901822120535], [-4.025756439083045, 51.07400662223925]]]}}, {"type": "Feature", "properties": {"type": "postcode-cell", "postcode": "EX32 8PU", "postcodes": ["EX32 8PU"]}, "geometry": {"type": "Polygon", "coordinates": [[[-4.027192664366308, 51.07503055814762], [-4.026475341630883, 51.07596749575681], [-4.024767160934496, 51.07501967941055], [-4.025756439083045, 51.07400662223925], [-4.027040507124153, 51.074426952609805], [-4.027192664366308, 51.07503055814762]]]}}, {"type": "Feature", "properties": {"type": "postcode-cell", "postcode": "EX32 8RB", "postcodes": ["EX32 8RB"]}, "geometry": {"type": "Polygon", "coordinates": [[[-4.02483490806295, 51.08040168627148], [-4.024029989907455, 51.080799995026545], [-4.023259989907205, 51.08018999502604], [-4.023140184833706, 51.08021242936506], [-4.023838594477536, 51.0790932916129], [-4.025542730136398, 51.07898905228222], [-4.026224176864041, 51.07918771612184], [-4.02483490806295, 51.08040168627148]]]}}, {"type": "Feature", "properties": {"type": "postcode-cell", "postcode": "EX32 8RA", "postcodes": ["EX32 8RA"]}, "geometry": {"type": "Polygon", "coordinates": [[[-4.025287803473175, 51.07879980695979], [-4.0235868056911475, 51.07820036114834], [-4.023607435639977, 51.078079471374885], [-4.024633232035704, 51.07768811376896], [-4.025287803473175, 51.07879980695979]]]}}, {"type": "Feature", "properties": {"type": "postcode-cell", "postcode": "EX32 8RE", "postcodes": ["EX32 8RE"]}, "geometry": {"type": "Polygon", "coordinates": [[[-4.027331240034251, 51.07693380068984], [-4.024696910812101, 51.07762538092871], [-4.023325974695531, 51.07661823890723], [-4.023357553924507, 51.07653736196759], [-4.026521910990983, 51.076167536104116], [-4.027331240034251, 51.07693380068984]]]}}, {"type": "Feature", "properties": {"type": "postcode-cell", "postcode": "EX32 8QX", "postcodes": ["EX32 8QX"]}, "geometry": {"type": "Polygon", "coordinates": [[[-4.023044349731668, 51.07450757947696], [-4.009607651732694, 51.07142961998313], [-4.024965049683752, 51.07283706784357], [-4.024965835933579, 51.07283967871547], [-4.023044349731668, 51.07450757947696]]]}}, {"type": "Feature", "properties": {"type": "postcode-cell", "postcode": "EX32 0EG", "postcodes": ["EX32 0EG"]}, "geometry": {"type": "Polygon", "coordinates": [[[-4.026521910990983, 51.076167536104116], [-4.023357553924507, 51.07653736196759], [-4.022848713331357, 51.075967488815785], [-4.023326886370728, 51.07479502676789], [-4.024767160934496, 51.07501967941055], [-4.026475341630883, 51.07596749575681], [-4.026521910990983, 51.076167536104116]]]}}, {"type": "Feature", "properties": {"type": "postcode-cell", "postcode": "EX32 8QY", "postcodes": ["EX32 8QY"]}, "geometry": {"type": "Polygon", "coordinates": [[[-4.023607435639977, 51.078079471374885], [-4.022793057419997, 51.07750335835654], [-4.022721389177539, 51.07715176963357], [-4.023325974695531, 51.07661823890723], [-4.024696910812101, 51.07762538092871], [-4.024633232035704, 51.07768811376896], [-4.023607435639977, 51.078079471374885]]]}}, {"type": "Feature", "properties": {"type": "postcode-cell", "postcode": "EX32 8RD", "postcodes": ["EX32 8RD"]}, "geometry": {"type": "Polygon", "coordinates": [[[-4.025287803473175, 51.07879980695979], [-4.025542730136398, 51.07898905228222], [-4.023838594477536, 51.0790932916129], [-4.023234428095324, 51.078582253157045], [-4.0235868056911475, 51.07820036114834], [-4.025287803473175, 51.07879980695979]]]}}, {"type": "Feature", "properties": {"type": "postcode-cell", "postcode": "EX32 0HE", "postcodes": ["EX32 0HE"]}, "geometry": {"type": "Polygon", "coordinates": [[[-4.023326886370728, 51.07479502676789], [-4.022848713331357, 51.075967488815785], [-4.019786400122055, 51.0760771468821], [-4.013882365664737, 51.07416308643569], [-4.013899989903915, 51.07336999502044], [-4.007809989900328, 51.07217999501952], [-4.007782309491803, 51.072184993065], [-4.004305453750499, 51.07105731707671], [-4.004524941781776, 51.07053419988186], [-4.005783112690478, 51.07075587555891], [-4.006659989899862, 51.07147999501893], [-4.007073921666639, 51.0709832853341], [-4.009607651732694, 51.07142961998313], [-4.023044349731668, 51.07450757947696], [-4.023326886370728, 51.07479502676789]]]}}, {"type": "Feature", "properties": {"type": "postcode-cell", "postcode": "EX32 8QN", "postcodes": ["EX32 8QN"]}, "geometry": {"type": "Polygon", "coordinates": [[[-4.020232478144033, 51.07932007779299], [-4.022493890298488, 51.078719607632664], [-4.023234428095324, 51.078582253157045], [-4.023838594477536, 51.0790932916129], [-4.023140184833706, 51.08021242936506], [-4.018559989903629, 51.081069995026766], [-4.018851606967325, 51.080325207599714], [-4.020232478144033, 51.07932007779299]]]}}, {"type": "Feature", "properties": {"type": "postcode-cell", "postcode": "EX32 8QR", "postcodes": ["EX32 8QR"]}, "geometry": {"type": "Polygon", "coordinates": [[[-4.023234428095324, 51.078582253157045], [-4.022493890298488, 51.078719607632664], [-4.022556212400463, 51.07766115497231], [-4.022793057419997, 51.07750335835654], [-4.023607435639977, 51.078079471374885], [-4.0235868056911475, 51.07820036114834], [-4.023234428095324, 51.078582253157045]]]}}, {"type": "Feature", "properties": {"type": "postcode-cell", "postcode": "EX32 8QH", "postcodes": ["EX32 8QH"]}, "geometry": {"type": "Polygon", "coordinates": [[[-4.023325974695531, 51.07661823890723], [-4.022721389177539, 51.07715176963357], [-4.021026945152265, 51.07710553371382], [-4.019786400122055, 51.0760771468821], [-4.022848713331357, 51.075967488815785], [-4.023357553924507, 51.07653736196759], [-4.023325974695531, 51.07661823890723]]]}}, {"type": "Feature", "properties": {"type": "postcode-cell", "postcode": "EX32 8QP", "postcodes": ["EX32 8QP"]}, "geometry": {"type": "Polygon", "coordinates": [[[-4.022556212400463, 51.07766115497231], [-4.020731806424882, 51.07856907596919], [-4.021026945152265, 51.07710553371382], [-4.022721389177539, 51.07715176963357], [-4.022793057419997, 51.07750335835654], [-4.022556212400463, 51.07766115497231]]]}}, {"type": "Feature", "properties": {"type": "postcode-cell", "postcode": "EX32 8QW", "postcodes": ["EX32 8QW"]}, "geometry": {"type": "Polygon", "coordinates": [[[-4.020731806424882, 51.07856907596919], [-4.022556212400463, 51.07766115497231], [-4.022493890298488, 51.078719607632664], [-4.020232478144033, 51.07932007779299], [-4.020731806424882, 51.07856907596919]]]}}, {"type": "Feature", "properties": {"type": "postcode-cell", "postcode": "EX32 7NF", "postcodes": ["EX32 7NF"]}, "geometry": {"type": "MultiPolygon", "coordinates": [[[[-4.007782309491803, 51.072184993065], [-4.006369989899235, 51.072439995019714], [-4.0048199898984596, 51.071829995019236], [-4.0034499898972555, 51.07244999501974], [-4.002509989897176, 51.07120999501872], [-4.004039989897999, 51.07168999501911], [-4.004305453750499, 51.07105731707671], [-4.007782309491803, 51.072184993065]]], [[[-4.019786400122055, 51.0760771468821], [-4.021026945152265, 51.07710553371382], [-4.020731806424882, 51.07856907596919], [-4.020232478144033, 51.07932007779299], [-4.018851606967325, 51.080325207599714], [-4.019299989904976, 51.079179995025214], [-4.01623998990301, 51.078939995025024], [-4.014849989902314, 51.07838999502459], [-4.016259989903322, 51.078269995024485], [-4.016139989903974, 51.07662999502313], [-4.014699989903375, 51.075789995022454], [-4.013879989903498, 51.07426999502119], [-4.013882365664737, 51.07416308643569], [-4.019786400122055, 51.0760771468821]]]]}}]}