{"type": "FeatureCollection", "features": [{"type": "Feature", "properties": {"type": "ward-outline", "name": "Barnstaple Central"}, "geometry": {"type": "Polygon", "coordinates": [[[-4.05539, 51.08324], [-4.05473, 51.08233], [-4.05405, 51.07857], [-4.05305, 51.07834], [-4.05216, 51.07743], [-4.04962, 51.07608], [-4.05288, 51.07475], [-4.0547, 51.07543], [-4.05534, 51.07499], [-4.06016, 51.07831], [-4.06688, 51.08111], [-4.0663, 51.08151], [-4.06323, 51.08219], [-4.06218, 51.08285], [-4.06217, 51.08286], [-4.06162, 51.08266], [-4.05943, 51.08394], [-4.05695, 51.0841], [-4.05539, 51.08324]]]}}, {"type": "Feature", "properties": {"type": "postcode-cell", "postcode": "EX31 1EA", "postcodes": ["EX31 1EA", "EX32 2SA", "EX32 2SB", "EX32 2SD", "EX32 2SE", "EX32 2SF", "EX32 2SG", "EX32 2SH", "EX32 2SJ", "EX32 2SL", "EX32 2SN", "EX32 2SP", "EX32 2SQ", "EX32 2SR", "EX32 2SS", "EX32 2ST", "EX32 2SU", "EX32 2SW", "EX32 2SX", "EX32 2SY", "EX32 2SZ", "EX32 2TB", "EX32 2TD", "EX32 2TE", "EX32 2TF", "EX32 2TH", "EX32 2TJ", "EX32 2TL"]}, "geometry": {"type": "Polygon", "coordinates": [[[-4.0652713395828926, 51.081622817791434], [-4.066080170944047, 51.08077677552242], [-4.066879989936412, 51.08110999502658], [-4.06629998993584, 51.08150999502693], [-4.065270268844361, 51.081738087727764], [-4.0652713395828926, 51.081622817791434]]]}}, {"type": "Feature", "properties": {"type": "postcode-cell", "postcode": "EX31 1TS", "postcodes": ["EX31 1TS"]}, "geometry": {"type": "Polygon", "coordinates": [[[-4.065012977105648, 51.08048807476484], [-4.0635023650137665, 51.080381087343945], [-4.063886795112287, 51.079862921004214], [-4.065171829914064, 51.080398331128634], [-4.065012977105648, 51.08048807476484]]]}}, {"type": "Feature", "properties": {"type": "postcode-cell", "postcode": "EX31 1DX", "postcodes": ["EX31 1DX", "EX31 1DY"]}, "geometry": {"type": "Polygon", "coordinates": [[[-4.065270268844361, 51.081738087727764], [-4.063868793315851, 51.08204850936553], [-4.063662037292883, 51.081886615719775], [-4.063671719520073, 51.08145033280109], [-4.064948644448367, 51.080565677520504], [-4.0652713395828926, 51.081622817791434], [-4.065270268844361, 51.081738087727764]]]}}, {"type": "Feature", "properties": {"type": "postcode-cell", "postcode": "EX31 1AU", "postcodes": ["EX31 1AU", "EX31 1EE", "EX31 1EG", "EX31 1UB"]}, "geometry": {"type": "Polygon", "coordinates": [[[-4.0652713395828926, 51.081622817791434], [-4.064948644448367, 51.080565677520504], [-4.065012977105648, 51.08048807476484], [-4.065171829914064, 51.080398331128634], [-4.066080170944047, 51.08077677552242], [-4.0652713395828926, 51.081622817791434]]]}}, {"type": "Feature", "properties": {"type": "postcode-cell", "postcode": "EX31 1DT", "postcodes": ["EX31 1DT"]}, "geometry": {"type": "Polygon", "coordinates": [[[-4.064948644448367, 51.080565677520504], [-4.063671719520073, 51.08145033280109], [-4.062664084282449, 51.08064627058058], [-4.062965005140097, 51.08042339687698], [-4.0635023650137665, 51.080381087343945], [-4.065012977105648, 51.08048807476484], [-4.064948644448367, 51.080565677520504]]]}}, {"type": "Feature", "properties": {"type": "postcode-cell", "postcode": "EX31 1AE", "postcodes": ["EX31 1AE"]}, "geometry": {"type": "Polygon", "coordinates": [[[-4.062234922677443, 51.08249624603092], [-4.062385655363425, 51.08196827915804], [-4.06256038365634, 51.08191149279163], [-4.063662037292883, 51.081886615719775], [-4.063868793315851, 51.08204850936553], [-4.06322998993345, 51.082189995027484], [-4.062573002359038, 51.08260296191892], [-4.062234922677443, 51.08249624603092]]]}}, {"type": "Feature", "properties": {"type": "postcode-cell", "postcode": "EX31 1ET", "postcodes": ["EX31 1ET"]}, "geometry": {"type": "Polygon", "coordinates": [[[-4.062409434140792, 51.079782023855955], [-4.062346247576606, 51.079776845316594], [-4.062288358121829, 51.07923169169215], [-4.062297248261933, 51.07920059878091], [-4.062901469690747, 51.079452366733975], [-4.062409434140792, 51.079782023855955]]]}}, {"type": "Feature", "properties": {"type": "postcode-cell", "postcode": "EX31 1DF", "postcodes": ["EX31 1DF"]}, "geometry": {"type": "Polygon", "coordinates": [[[-4.0635023650137665, 51.080381087343945], [-4.062965005140097, 51.08042339687698], [-4.06298542289581, 51.08026299164085], [-4.063491230968662, 51.07969810369602], [-4.063886795112287, 51.079862921004214], [-4.0635023650137665, 51.080381087343945]]]}}, {"type": "Feature", "properties": {"type": "postcode-cell", "postcode": "EX31 1DG", "postcodes": ["EX31 1DG"]}, "geometry": {"type": "Polygon", "coordinates": [[[-4.062690269334131, 51.07989872244619], [-4.063080826852126, 51.07952710042329], [-4.063491230968662, 51.07969810369602], [-4.06298542289581, 51.08026299164085], [-4.062690269334131, 51.07989872244619]]]}}, {"type": "Feature", "properties": {"type": "postcode-cell", "postcode": "EX31 1DR", "postcodes": ["EX31 1DR"]}, "geometry": {"type": "Polygon", "coordinates": [[[-4.06298542289581, 51.08026299164085], [-4.062965005140097, 51.08042339687698], [-4.062664084282449, 51.08064627058058], [-4.062622161936473, 51.08064700852745], [-4.062190066350265, 51.08055892597481], [-4.062105848782269, 51.07984526379216], [-4.062346247576606, 51.079776845316594], [-4.062409434140792, 51.079782023855955], [-4.062690269334131, 51.07989872244619], [-4.06298542289581, 51.08026299164085]]]}}, {"type": "Feature", "properties": {"type": "postcode-cell", "postcode": "EX31 1ER", "postcodes": ["EX31 1ER"]}, "geometry": {"type": "Polygon", "coordinates": [[[-4.062690269334131, 51.07989872244619], [-4.062409434140792, 51.079782023855955], [-4.062901469690747, 51.079452366733975], [-4.063080826852126, 51.07952710042329], [-4.062690269334131, 51.07989872244619]]]}}, {"type": "Feature", "properties": {"type": "postcode-cell", "postcode": "EX31 1EL", "postcodes": ["EX31 1EL"]}, "geometry": {"type": "Polygon", "coordinates": [[[-4.063662037292883, 51.081886615719775], [-4.06256038365634, 51.08191149279163], [-4.062049302431713, 51.081353271353926], [-4.062622161936473, 51.08064700852745], [-4.062664084282449, 51.08064627058058], [-4.063671719520073, 51.08145033280109], [-4.063662037292883, 51.081886615719775]]]}}, {"type": "Feature", "properties": {"type": "postcode-cell", "postcode": "EX31 1HB", "postcodes": ["EX31 1HB"]}, "geometry": {"type": "Polygon", "coordinates": [[[-4.059960601357071, 51.078627675521936], [-4.059468772749809, 51.07825042122597], [-4.059425257547323, 51.0781617665966], [-4.059655286032309, 51.077962388747046], [-4.060159989933092, 51.078309995024306], [-4.060568111753476, 51.07848006667972], [-4.059960601357071, 51.078627675521936]]]}}, {"type": "Feature", "properties": {"type": "postcode-cell", "postcode": "EX31 1EW", "postcodes": ["EX31 1EW"]}, "geometry": {"type": "Polygon", "coordinates": [[[-4.062288358121829, 51.07923169169215], [-4.06185048120898, 51.07976519158482], [-4.061434198177061, 51.079744168541275], [-4.0613266905845755, 51.07956964467367], [-4.061326734292825, 51.079568900927924], [-4.061769403569433, 51.078980650761245], [-4.062297248261933, 51.07920059878091], [-4.062288358121829, 51.07923169169215]]]}}, {"type": "Feature", "properties": {"type": "postcode-cell", "postcode": "EX31 1AF", "postcodes": ["EX31 1AF"]}, "geometry": {"type": "Polygon", "coordinates": [[[-4.062234922677443, 51.08249624603092], [-4.062573002359038, 51.08260296191892], [-4.062179989932443, 51.08284999502804], [-4.06216998993243, 51.08285999502806], [-4.06194567082615, 51.08277842497008], [-4.062234922677443, 51.08249624603092]]]}}, {"type": "Feature", "properties": {"type": "postcode-cell", "postcode": "EX31 1TP", "postcodes": ["EX31 1TP"]}, "geometry": {"type": "Polygon", "coordinates": [[[-4.062234922677443, 51.08249624603092], [-4.06194567082615, 51.08277842497008], [-4.061619989932145, 51.082659995027875], [-4.061556988889718, 51.08269681910139], [-4.06124780103401, 51.082367423427534], [-4.062285318533351, 51.081975234592534], [-4.062385655363425, 51.08196827915804], [-4.062234922677443, 51.08249624603092]]]}}, {"type": "Feature", "properties": {"type": "postcode-cell", "postcode": "EX31 1DP", "postcodes": ["EX31 1DP"]}, "geometry": {"type": "Polygon", "coordinates": [[[-4.062190066350265, 51.08055892597481], [-4.061822682386956, 51.080561584079774], [-4.0613487991331185, 51.08031519815345], [-4.061389373186636, 51.079815019326524], [-4.061434198177061, 51.079744168541275], [-4.06185048120898, 51.07976519158482], [-4.062105848782269, 51.07984526379216], [-4.062190066350265, 51.08055892597481]]]}}, {"type": "Feature", "properties": {"type": "postcode-cell", "postcode": "EX31 1ES", "postcodes": ["EX31 1ES"]}, "geometry": {"type": "Polygon", "coordinates": [[[-4.06185048120898, 51.07976519158482], [-4.062288358121829, 51.07923169169215], [-4.062346247576606, 51.079776845316594], [-4.062105848782269, 51.07984526379216], [-4.06185048120898, 51.07976519158482]]]}}, {"type": "Feature", "properties": {"type": "postcode-cell", "postcode": "EX31 1DH", "postcodes": ["EX31 1DH"]}, "geometry": {"type": "Polygon", "coordinates": [[[-4.062049302431713, 51.081353271353926], [-4.0613115245754035, 51.081311907987654], [-4.061162175147467, 51.081194129235804], [-4.061297799207811, 51.08097386745694], [-4.061822682386956, 51.080561584079774], [-4.062190066350265, 51.08055892597481], [-4.062622161936473, 51.08064700852745], [-4.062049302431713, 51.081353271353926]]]}}, {"type": "Feature", "properties": {"type": "postcode-cell", "postcode": "EX31 1EX", "postcodes": ["EX31 1EX"]}, "geometry": {"type": "Polygon", "coordinates": [[[-4.061326734292825, 51.079568900927924], [-4.0604902493147375, 51.07919060997771], [-4.061108278461789, 51.078705159643974], [-4.061769403569433, 51.078980650761245], [-4.061326734292825, 51.079568900927924]]]}}, {"type": "Feature", "properties": {"type": "postcode-cell", "postcode": "EX31 1BA", "postcodes": ["EX31 1BA"]}, "geometry": {"type": "Polygon", "coordinates": [[[-4.061389373186636, 51.079815019326524], [-4.060545440852004, 51.079919858735984], [-4.060809861579318, 51.07963160987198], [-4.0613266905845755, 51.07956964467367], [-4.061434198177061, 51.079744168541275], [-4.061389373186636, 51.079815019326524]]]}}, {"type": "Feature", "properties": {"type": "postcode-cell", "postcode": "EX31 1DJ", "postcodes": ["EX31 1DJ"]}, "geometry": {"type": "Polygon", "coordinates": [[[-4.062385655363425, 51.08196827915804], [-4.062285318533351, 51.081975234592534], [-4.061388505970867, 51.08168538572983], [-4.061326946935025, 51.08153194483026], [-4.0613115245754035, 51.081311907987654], [-4.062049302431713, 51.081353271353926], [-4.06256038365634, 51.08191149279163], [-4.062385655363425, 51.08196827915804]]]}}, {"type": "Feature", "properties": {"type": "postcode-cell", "postcode": "EX31 1TG", "postcodes": ["EX31 1TG"]}, "geometry": {"type": "Polygon", "coordinates": [[[-4.060545380659259, 51.08263879614918], [-4.0606680739310175, 51.0824277187311], [-4.0611460216632125, 51.08234550002082], [-4.06124780103401, 51.082367423427534], [-4.061556988889718, 51.08269681910139], [-4.06086391264753, 51.08310191572378], [-4.060545380659259, 51.08263879614918]]]}}, {"type": "Feature", "properties": {"type": "postcode-cell", "postcode": "EX31 1HJ", "postcodes": ["EX31 1HJ"]}, "geometry": {"type": "Polygon", "coordinates": [[[-4.061326946935025, 51.08153194483026], [-4.060649455019416, 51.08172466764088], [-4.060519905264412, 51.08167648080934], [-4.060479522454667, 51.08160646952432], [-4.060843263338622, 51.08121647862164], [-4.061162175147467, 51.081194129235804], [-4.0613115245754035, 51.081311907987654], [-4.061326946935025, 51.08153194483026]]]}}, {"type": "Feature", "properties": {"type": "postcode-cell", "postcode": "EX31 1DW", "postcodes": ["EX31 1DW"]}, "geometry": {"type": "Polygon", "coordinates": [[[-4.061822682386956, 51.080561584079774], [-4.061297799207811, 51.08097386745694], [-4.060610128259508, 51.08063086237619], [-4.060554981560755, 51.08040476186866], [-4.060638504602885, 51.080333354244914], [-4.0613487991331185, 51.08031519815345], [-4.061822682386956, 51.080561584079774]]]}}, {"type": "Feature", "properties": {"type": "postcode-cell", "postcode": "EX31 1JB", "postcodes": ["EX31 1JB"]}, "geometry": {"type": "Polygon", "coordinates": [[[-4.061388505970867, 51.08168538572983], [-4.062285318533351, 51.081975234592534], [-4.06124780103401, 51.082367423427534], [-4.0611460216632125, 51.08234550002082], [-4.061069322674595, 51.08194217535122], [-4.061388505970867, 51.08168538572983]]]}}, {"type": "Feature", "properties": {"type": "postcode-cell", "postcode": "EX31 1BZ", "postcodes": ["EX31 1BZ"]}, "geometry": {"type": "Polygon", "coordinates": [[[-4.061069322674595, 51.08194217535122], [-4.060855364938724, 51.081868206219404], [-4.060649455019416, 51.08172466764088], [-4.061326946935025, 51.08153194483026], [-4.061388505970867, 51.08168538572983], [-4.061069322674595, 51.08194217535122]]]}}, {"type": "Feature", "properties": {"type": "postcode-cell", "postcode": "EX31 1EF", "postcodes": ["EX31 1EF"]}, "geometry": {"type": "Polygon", "coordinates": [[[-4.0613487991331185, 51.08031519815345], [-4.060638504602885, 51.080333354244914], [-4.06039141840777, 51.07998472947911], [-4.060545440852004, 51.079919858735984], [-4.061389373186636, 51.079815019326524], [-4.0613487991331185, 51.08031519815345]]]}}, {"type": "Feature", "properties": {"type": "postcode-cell", "postcode": "EX31 1HX", "postcodes": ["EX31 1HX"]}, "geometry": {"type": "Polygon", "coordinates": [[[-4.061162175147467, 51.081194129235804], [-4.060843263338622, 51.08121647862164], [-4.0603573614596105, 51.08105594236916], [-4.060610128259508, 51.08063086237619], [-4.061297799207811, 51.08097386745694], [-4.061162175147467, 51.081194129235804]]]}}, {"type": "Feature", "properties": {"type": "postcode-cell", "postcode": "EX31 1RL", "postcodes": ["EX31 1RL"]}, "geometry": {"type": "Polygon", "coordinates": [[[-4.059589412024388, 51.08326071083438], [-4.059592316438005, 51.08319545906122], [-4.060270278403214, 51.08309749919497], [-4.060832896052036, 51.083120044376415], [-4.059781131573908, 51.08373476900817], [-4.059589412024388, 51.08326071083438]]]}}, {"type": "Feature", "properties": {"type": "postcode-cell", "postcode": "EX31 1TD", "postcodes": ["EX31 1TD"]}, "geometry": {"type": "Polygon", "coordinates": [[[-4.060545380659259, 51.08263879614918], [-4.060383110419114, 51.082694623310836], [-4.059616264509165, 51.08285507968308], [-4.059754997939511, 51.08221018540662], [-4.060153777445181, 51.08218414763145], [-4.0606680739310175, 51.0824277187311], [-4.060545380659259, 51.08263879614918]]]}}, {"type": "Feature", "properties": {"type": "postcode-cell", "postcode": "EX31 1UL", "postcodes": ["EX31 1UL"]}, "geometry": {"type": "Polygon", "coordinates": [[[-4.061069322674595, 51.08194217535122], [-4.0611460216632125, 51.08234550002082], [-4.0606680739310175, 51.0824277187311], [-4.060153777445181, 51.08218414763145], [-4.060164991508953, 51.08216469867408], [-4.060855364938724, 51.081868206219404], [-4.061069322674595, 51.08194217535122]]]}}, {"type": "Feature", "properties": {"type": "postcode-cell", "postcode": "EX31 1BN", "postcodes": ["EX31 1BN"]}, "geometry": {"type": "Polygon", "coordinates": [[[-4.060610128259508, 51.08063086237619], [-4.0603573614596105, 51.08105594236916], [-4.060323897003242, 51.08105622968485], [-4.059818229383616, 51.080860524847544], [-4.059670449217514, 51.08058670707224], [-4.059676363799771, 51.08058011525086], [-4.060554981560755, 51.08040476186866], [-4.060610128259508, 51.08063086237619]]]}}, {"type": "Feature", "properties": {"type": "postcode-cell", "postcode": "EX31 1BE", "postcodes": ["EX31 1BE"]}, "geometry": {"type": "Polygon", "coordinates": [[[-4.0613266905845755, 51.07956964467367], [-4.060809861579318, 51.07963160987198], [-4.060306017555813, 51.07943824417945], [-4.060280309735266, 51.07925953616816], [-4.0604902493147375, 51.07919060997771], [-4.061326734292825, 51.079568900927924], [-4.0613266905845755, 51.07956964467367]]]}}, {"type": "Feature", "properties": {"type": "postcode-cell", "postcode": "EX31 1UG", "postcodes": ["EX31 1UG"]}, "geometry": {"type": "Polygon", "coordinates": [[[-4.060855364938724, 51.081868206219404], [-4.060164991508953, 51.08216469867408], [-4.060211386292801, 51.082008947847214], [-4.060519905264412, 51.08167648080934], [-4.060649455019416, 51.08172466764088], [-4.060855364938724, 51.081868206219404]]]}}, {"type": "Feature", "properties": {"type": "postcode-cell", "postcode": "EX31 1BD", "postcodes": ["EX31 1BD"]}, "geometry": {"type": "Polygon", "coordinates": [[[-4.06039141840777, 51.07998472947911], [-4.060110521220696, 51.079872875480596], [-4.060306017555813, 51.07943824417945], [-4.060809861579318, 51.07963160987198], [-4.060545440852004, 51.079919858735984], [-4.06039141840777, 51.07998472947911]]]}}, {"type": "Feature", "properties": {"type": "postcode-cell", "postcode": "EX31 1HR", "postcodes": ["EX31 1HR"]}, "geometry": {"type": "Polygon", "coordinates": [[[-4.060306017555813, 51.07943824417945], [-4.060110521220696, 51.079872875480596], [-4.059783180833061, 51.079905440380784], [-4.059672973247628, 51.07936065008262], [-4.059770124717342, 51.079245218212556], [-4.0600039618683805, 51.079194592871886], [-4.060280309735266, 51.07925953616816], [-4.060306017555813, 51.07943824417945]]]}}, {"type": "Feature", "properties": {"type": "postcode-cell", "postcode": "EX31 1UH", "postcodes": ["EX31 1UH"]}, "geometry": {"type": "Polygon", "coordinates": [[[-4.060843263338622, 51.08121647862164], [-4.060479522454667, 51.08160646952432], [-4.06005652432585, 51.081544638948195], [-4.059984273014242, 51.08136161659677], [-4.060323897003242, 51.08105622968485], [-4.0603573614596105, 51.08105594236916], [-4.060843263338622, 51.08121647862164]]]}}, {"type": "Feature", "properties": {"type": "postcode-cell", "postcode": "EX31 1BL", "postcodes": ["EX31 1BL"]}, "geometry": {"type": "Polygon", "coordinates": [[[-4.060554981560755, 51.08040476186866], [-4.059676363799771, 51.08058011525086], [-4.0595164622555755, 51.07999787397938], [-4.059559396186361, 51.07996836907133], [-4.059783180833061, 51.079905440380784], [-4.060110521220696, 51.079872875480596], [-4.06039141840777, 51.07998472947911], [-4.060638504602885, 51.080333354244914], [-4.060554981560755, 51.08040476186866]]]}}, {"type": "Feature", "properties": {"type": "postcode-cell", "postcode": "EX31 1RJ", "postcodes": ["EX31 1RJ"]}, "geometry": {"type": "Polygon", "coordinates": [[[-4.060545380659259, 51.08263879614918], [-4.06086391264753, 51.08310191572378], [-4.060832896052036, 51.083120044376415], [-4.060270278403214, 51.08309749919497], [-4.060383110419114, 51.082694623310836], [-4.060545380659259, 51.08263879614918]]]}}, {"type": "Feature", "properties": {"type": "postcode-cell", "postcode": "EX31 1EU", "postcodes": ["EX31 1EU"]}, "geometry": {"type": "Polygon", "coordinates": [[[-4.0600039618683805, 51.079194592871886], [-4.059839404319889, 51.078740719798354], [-4.059960601357071, 51.078627675521936], [-4.060568111753476, 51.07848006667972], [-4.061108278461789, 51.078705159643974], [-4.0604902493147375, 51.07919060997771], [-4.060280309735266, 51.07925953616816], [-4.0600039618683805, 51.079194592871886]]]}}, {"type": "Feature", "properties": {"type": "postcode-cell", "postcode": "EX31 1TZ", "postcodes": ["EX31 1TZ"]}, "geometry": {"type": "Polygon", "coordinates": [[[-4.060270278403214, 51.08309749919497], [-4.059592316438005, 51.08319545906122], [-4.059476581016119, 51.08296828975629], [-4.059616264509165, 51.08285507968308], [-4.060383110419114, 51.082694623310836], [-4.060270278403214, 51.08309749919497]]]}}, {"type": "Feature", "properties": {"type": "postcode-cell", "postcode": "EX31 1BP", "postcodes": ["EX31 1BP"]}, "geometry": {"type": "Polygon", "coordinates": [[[-4.059984273014242, 51.08136161659677], [-4.05950680543252, 51.081276695367926], [-4.059461170835294, 51.08122998934697], [-4.059442635842385, 51.08118381617145], [-4.059818229383616, 51.080860524847544], [-4.060323897003242, 51.08105622968485], [-4.059984273014242, 51.08136161659677]]]}}, {"type": "Feature", "properties": {"type": "postcode-cell", "postcode": "EX31 1UJ", "postcodes": ["EX31 1UJ"]}, "geometry": {"type": "Polygon", "coordinates": [[[-4.060519905264412, 51.08167648080934], [-4.060211386292801, 51.082008947847214], [-4.059907576963517, 51.08163481577002], [-4.06005652432585, 51.081544638948195], [-4.060479522454667, 51.08160646952432], [-4.060519905264412, 51.08167648080934]]]}}, {"type": "Feature", "properties": {"type": "postcode-cell", "postcode": "EX31 1UQ", "postcodes": ["EX31 1UQ"]}, "geometry": {"type": "Polygon", "coordinates": [[[-4.060153777445181, 51.08218414763145], [-4.059754997939511, 51.08221018540662], [-4.059619956627689, 51.0821624801356], [-4.059287898300735, 51.081822522305764], [-4.059400822060526, 51.08174578042432], [-4.059907576963517, 51.08163481577002], [-4.060211386292801, 51.082008947847214], [-4.060164991508953, 51.08216469867408], [-4.060153777445181, 51.08218414763145]]]}}, {"type": "Feature", "properties": {"type": "postcode-cell", "postcode": "EX32 7AY", "postcodes": ["EX32 7AY"]}, "geometry": {"type": "Polygon", "coordinates": [[[-4.058573050689316, 51.08338992824565], [-4.059589412024388, 51.08326071083438], [-4.059781131573908, 51.08373476900817], [-4.059429989930088, 51.08393999502895], [-4.05851936032964, 51.083998751557935], [-4.058573050689316, 51.08338992824565]]]}}, {"type": "Feature", "properties": {"type": "postcode-cell", "postcode": "EX31 1RW", "postcodes": ["EX31 1RW"]}, "geometry": {"type": "Polygon", "coordinates": [[[-4.059476581016119, 51.08296828975629], [-4.059373833763643, 51.0829397727732], [-4.05873690865051, 51.082517356519745], [-4.059619956627689, 51.0821624801356], [-4.059754997939511, 51.08221018540662], [-4.059616264509165, 51.08285507968308], [-4.059476581016119, 51.08296828975629]]]}}, {"type": "Feature", "properties": {"type": "postcode-cell", "postcode": "EX31 1DD", "postcodes": ["EX31 1DD"]}, "geometry": {"type": "Polygon", "coordinates": [[[-4.06005652432585, 51.081544638948195], [-4.059907576963517, 51.08163481577002], [-4.059400822060526, 51.08174578042432], [-4.05950680543252, 51.081276695367926], [-4.059984273014242, 51.08136161659677], [-4.06005652432585, 51.081544638948195]]]}}, {"type": "Feature", "properties": {"type": "postcode-cell", "postcode": "EX32 8NJ", "postcodes": ["EX32 8NJ"]}, "geometry": {"type": "Polygon", "coordinates": [[[-4.0570898821685315, 51.07677595086262], [-4.057013157506378, 51.0767391339931], [-4.056959072180547, 51.07645921788736], [-4.057257778048204, 51.07631104313202], [-4.057978403543955, 51.07680741038221], [-4.0570898821685315, 51.07677595086262]]]}}, {"type": "Feature", "properties": {"type": "postcode-cell", "postcode": "EX32 8NN", "postcodes": ["EX32 8NN"]}, "geometry": {"type": "Polygon", "coordinates": [[[-4.056959072180547, 51.07645921788736], [-4.056532694710354, 51.07649591264023], [-4.055885077578258, 51.0762664215046], [-4.056072311386598, 51.075494459723714], [-4.057257778048204, 51.07631104313202], [-4.056959072180547, 51.07645921788736]]]}}, {"type": "Feature", "properties": {"type": "postcode-cell", "postcode": "EX31 1AS", "postcodes": ["EX31 1AS"]}, "geometry": {"type": "Polygon", "coordinates": [[[-4.059400822060526, 51.08174578042432], [-4.059287898300735, 51.081822522305764], [-4.058974489979727, 51.081790739877015], [-4.058974489938254, 51.08144035288812], [-4.059461170835294, 51.08122998934697], [-4.05950680543252, 51.081276695367926], [-4.059400822060526, 51.08174578042432]]]}}, {"type": "Feature", "properties": {"type": "postcode-cell", "postcode": "EX31 1EZ", "postcodes": ["EX31 1EZ"]}, "geometry": {"type": "Polygon", "coordinates": [[[-4.059770124717342, 51.079245218212556], [-4.059294768013084, 51.07913667810919], [-4.059341206945042, 51.07883526650448], [-4.059601529341867, 51.07875432984926], [-4.059839404319889, 51.078740719798354], [-4.0600039618683805, 51.079194592871886], [-4.059770124717342, 51.079245218212556]]]}}, {"type": "Feature", "properties": {"type": "postcode-cell", "postcode": "EX31 1BX", "postcodes": ["EX31 1BX"]}, "geometry": {"type": "Polygon", "coordinates": [[[-4.059818229383616, 51.080860524847544], [-4.059442635842385, 51.08118381617145], [-4.059283468658107, 51.08114200463904], [-4.0589136982892615, 51.080921937450555], [-4.058854028771698, 51.08072730479797], [-4.059656652261382, 51.08058823523333], [-4.059670449217514, 51.08058670707224], [-4.059818229383616, 51.080860524847544]]]}}, {"type": "Feature", "properties": {"type": "postcode-cell", "postcode": "EX31 1BG", "postcodes": ["EX31 1BG"]}, "geometry": {"type": "Polygon", "coordinates": [[[-4.059783180833061, 51.079905440380784], [-4.059559396186361, 51.07996836907133], [-4.0594876891523, 51.079862527370445], [-4.059344070634664, 51.07951301391151], [-4.059672973247628, 51.07936065008262], [-4.059783180833061, 51.079905440380784]]]}}, {"type": "Feature", "properties": {"type": "postcode-cell", "postcode": "EX31 1BQ", "postcodes": ["EX31 1BQ"]}, "geometry": {"type": "Polygon", "coordinates": [[[-4.059770124717342, 51.079245218212556], [-4.059672973247628, 51.07936065008262], [-4.059344070634664, 51.07951301391151], [-4.058872697579929, 51.07941985071882], [-4.058824501897238, 51.079240442780005], [-4.059294768013084, 51.07913667810919], [-4.059770124717342, 51.079245218212556]]]}}, {"type": "Feature", "properties": {"type": "postcode-cell", "postcode": "EX31 1DE", "postcodes": ["EX31 1DE"]}, "geometry": {"type": "Polygon", "coordinates": [[[-4.059670449217514, 51.08058670707224], [-4.059656652261382, 51.08058823523333], [-4.05899827221094, 51.0803106819435], [-4.059026755672177, 51.0800149564637], [-4.0595164622555755, 51.07999787397938], [-4.059676363799771, 51.08058011525086], [-4.059670449217514, 51.08058670707224]]]}}, {"type": "Feature", "properties": {"type": "postcode-cell", "postcode": "EX31 1AH", "postcodes": ["EX31 1AH"]}, "geometry": {"type": "Polygon", "coordinates": [[[-4.059839404319889, 51.078740719798354], [-4.059601529341867, 51.07875432984926], [-4.0593084634684775, 51.078532011101025], [-4.059468772749809, 51.07825042122597], [-4.059960601357071, 51.078627675521936], [-4.059839404319889, 51.078740719798354]]]}}, {"type": "Feature", "properties": {"type": "postcode-cell", "postcode": "EX31 1EH", "postcodes": ["EX31 1EH"]}, "geometry": {"type": "Polygon", "coordinates": [[[-4.059559396186361, 51.07996836907133], [-4.0595164622555755, 51.07999787397938], [-4.059026755672177, 51.0800149564637], [-4.058671071577661, 51.07995669810376], [-4.058606472834957, 51.07992483287288], [-4.058600747179877, 51.07990870871157], [-4.058594442012601, 51.07976791381795], [-4.05884070194338, 51.07947942813572], [-4.0594876891523, 51.079862527370445], [-4.059559396186361, 51.07996836907133]]]}}, {"type": "Feature", "properties": {"type": "postcode-cell", "postcode": "EX32 8LW", "postcodes": ["EX32 8LW"]}, "geometry": {"type": "Polygon", "coordinates": [[[-4.059468772749809, 51.07825042122597], [-4.0593084634684775, 51.078532011101025], [-4.059008143524103, 51.078624248834885], [-4.058682503245525, 51.07822749839831], [-4.059425257547323, 51.0781617665966], [-4.059468772749809, 51.07825042122597]]]}}, {"type": "Feature", "properties": {"type": "postcode-cell", "postcode": "EX31 1HA", "postcodes": ["EX31 1HA"]}, "geometry": {"type": "Polygon", "coordinates": [[[-4.058990032272733, 51.07874190402842], [-4.059008143524103, 51.078624248834885], [-4.0593084634684775, 51.078532011101025], [-4.059601529341867, 51.07875432984926], [-4.059341206945042, 51.07883526650448], [-4.058990032272733, 51.07874190402842]]]}}, {"type": "Feature", "properties": {"type": "postcode-cell", "postcode": "EX31 1HP", "postcodes": ["EX31 1HP"]}, "geometry": {"type": "Polygon", "coordinates": [[[-4.059341206945042, 51.07883526650448], [-4.059294768013084, 51.07913667810919], [-4.058824501897238, 51.079240442780005], [-4.058736038864975, 51.07919438887216], [-4.058592700372019, 51.07906152238806], [-4.058527332326085, 51.078945781526954], [-4.058990032272733, 51.07874190402842], [-4.059341206945042, 51.07883526650448]]]}}, {"type": "Feature", "properties": {"type": "postcode-cell", "postcode": "EX31 1BH", "postcodes": ["EX31 1BH"]}, "geometry": {"type": "Polygon", "coordinates": [[[-4.059344070634664, 51.07951301391151], [-4.0594876891523, 51.079862527370445], [-4.05884070194338, 51.07947942813572], [-4.058872697579929, 51.07941985071882], [-4.059344070634664, 51.07951301391151]]]}}, {"type": "Feature", "properties": {"type": "postcode-cell", "postcode": "EX32 7BA", "postcodes": ["EX32 7BA"]}, "geometry": {"type": "Polygon", "coordinates": [[[-4.059592316438005, 51.08319545906122], [-4.059589412024388, 51.08326071083438], [-4.058573050689316, 51.08338992824565], [-4.05832526521884, 51.083137687583566], [-4.059373833763643, 51.0829397727732], [-4.059476581016119, 51.08296828975629], [-4.059592316438005, 51.08319545906122]]]}}, {"type": "Feature", "properties": {"type": "postcode-cell", "postcode": "EX31 1HG", "postcodes": ["EX31 1HG"]}, "geometry": {"type": "Polygon", "coordinates": [[[-4.059008143524103, 51.078624248834885], [-4.058990032272733, 51.07874190402842], [-4.058527332326085, 51.078945781526954], [-4.058437034932187, 51.078905344891645], [-4.058236214467217, 51.0785274317562], [-4.058579947752586, 51.07820930775684], [-4.058682503245525, 51.07822749839831], [-4.059008143524103, 51.078624248834885]]]}}, {"type": "Feature", "properties": {"type": "postcode-cell", "postcode": "EX31 1SR", "postcodes": ["EX31 1SR"]}, "geometry": {"type": "Polygon", "coordinates": [[[-4.05884070194338, 51.07947942813572], [-4.058594442012601, 51.07976791381795], [-4.058086734974755, 51.079500120826935], [-4.058736038864975, 51.07919438887216], [-4.058824501897238, 51.079240442780005], [-4.058872697579929, 51.07941985071882], [-4.05884070194338, 51.07947942813572]]]}}, {"type": "Feature", "properties": {"type": "postcode-cell", "postcode": "EX31 1BS", "postcodes": ["EX31 1BS"]}, "geometry": {"type": "Polygon", "coordinates": [[[-4.059461170835294, 51.08122998934697], [-4.058974489938254, 51.08144035288812], [-4.058855055619482, 51.081305128096204], [-4.059283468658107, 51.08114200463904], [-4.059442635842385, 51.08118381617145], [-4.059461170835294, 51.08122998934697]]]}}, {"type": "Feature", "properties": {"type": "postcode-cell", "postcode": "EX32 7ES", "postcodes": ["EX32 7ES"]}, "geometry": {"type": "Polygon", "coordinates": [[[-4.059619956627689, 51.0821624801356], [-4.05873690865051, 51.082517356519745], [-4.05837993169708, 51.082446542398316], [-4.058100595121, 51.08228257387], [-4.058512728775979, 51.0818862127436], [-4.058689985701526, 51.08183401674499], [-4.058974489979727, 51.081790739877015], [-4.059287898300735, 51.081822522305764], [-4.059619956627689, 51.0821624801356]]]}}, {"type": "Feature", "properties": {"type": "postcode-cell", "postcode": "EX31 1BW", "postcodes": ["EX31 1BW"]}, "geometry": {"type": "Polygon", "coordinates": [[[-4.059656652261382, 51.08058823523333], [-4.058854028771698, 51.08072730479797], [-4.058711287664414, 51.08067925327969], [-4.05899827221094, 51.0803106819435], [-4.059656652261382, 51.08058823523333]]]}}, {"type": "Feature", "properties": {"type": "postcode-cell", "postcode": "EX32 8LN", "postcodes": ["EX32 8LN"]}, "geometry": {"type": "Polygon", "coordinates": [[[-4.059425257547323, 51.0781617665966], [-4.058682503245525, 51.07822749839831], [-4.058579947752586, 51.07820930775684], [-4.058577241928626, 51.07820604203427], [-4.058359686018812, 51.07766497464621], [-4.058418569837884, 51.077520500466655], [-4.0586627921453, 51.0772788034689], [-4.059655286032309, 51.077962388747046], [-4.059425257547323, 51.0781617665966]]]}}, {"type": "Feature", "properties": {"type": "postcode-cell", "postcode": "EX31 1BJ", "postcodes": ["EX31 1BJ"]}, "geometry": {"type": "Polygon", "coordinates": [[[-4.058711287664414, 51.08067925327969], [-4.05866637358022, 51.080671861238095], [-4.058545180291085, 51.08059525700665], [-4.058671071577661, 51.07995669810376], [-4.059026755672177, 51.0800149564637], [-4.05899827221094, 51.0803106819435], [-4.058711287664414, 51.08067925327969]]]}}, {"type": "Feature", "properties": {"type": "postcode-cell", "postcode": "EX31 1BU", "postcodes": ["EX31 1BU"]}, "geometry": {"type": "Polygon", "coordinates": [[[-4.058855055619482, 51.081305128096204], [-4.0586480334496455, 51.08122797807102], [-4.0589136982892615, 51.080921937450555], [-4.059283468658107, 51.08114200463904], [-4.058855055619482, 51.081305128096204]]]}}, {"type": "Feature", "properties": {"type": "postcode-cell", "postcode": "EX31 1SY", "postcodes": ["EX31 1SY"]}, "geometry": {"type": "Polygon", "coordinates": [[[-4.0589136982892615, 51.080921937450555], [-4.0586480334496455, 51.08122797807102], [-4.0585622705725735, 51.08124438405332], [-4.058192613019943, 51.081220647942764], [-4.058110059615217, 51.08105335367556], [-4.05866637358022, 51.080671861238095], [-4.058711287664414, 51.08067925327969], [-4.058854028771698, 51.08072730479797], [-4.0589136982892615, 51.080921937450555]]]}}, {"type": "Feature", "properties": {"type": "postcode-cell", "postcode": "EX31 1TA", "postcodes": ["EX31 1TA"]}, "geometry": {"type": "Polygon", "coordinates": [[[-4.058689985701526, 51.08183401674499], [-4.0585622705725735, 51.08124438405332], [-4.0586480334496455, 51.08122797807102], [-4.058855055619482, 51.081305128096204], [-4.058974489938254, 51.08144035288812], [-4.058974489979727, 51.081790739877015], [-4.058689985701526, 51.08183401674499]]]}}, {"type": "Feature", "properties": {"type": "postcode-cell", "postcode": "EX32 7BD", "postcodes": ["EX32 7BD"]}, "geometry": {"type": "Polygon", "coordinates": [[[-4.059373833763643, 51.0829397727732], [-4.05832526521884, 51.083137687583566], [-4.0583166387145235, 51.08313498602323], [-4.05837993169708, 51.082446542398316], [-4.05873690865051, 51.082517356519745], [-4.059373833763643, 51.0829397727732]]]}}, {"type": "Feature", "properties": {"type": "postcode-cell", "postcode": "EX31 1SL", "postcodes": ["EX31 1SL"]}, "geometry": {"type": "Polygon", "coordinates": [[[-4.058527332326085, 51.078945781526954], [-4.058592700372019, 51.07906152238806], [-4.057929882836071, 51.07933944776292], [-4.0577656438873255, 51.079261955162785], [-4.058001853709447, 51.07897564783502], [-4.058437034932187, 51.078905344891645], [-4.058527332326085, 51.078945781526954]]]}}, {"type": "Feature", "properties": {"type": "postcode-cell", "postcode": "EX32 7AZ", "postcodes": ["EX32 7AZ"]}, "geometry": {"type": "Polygon", "coordinates": [[[-4.057672186027702, 51.08350952040659], [-4.058003302156157, 51.08317972893765], [-4.0583166387145235, 51.08313498602323], [-4.05832526521884, 51.083137687583566], [-4.058573050689316, 51.08338992824565], [-4.05851936032964, 51.083998751557935], [-4.05755559427743, 51.08406092873093], [-4.057672186027702, 51.08350952040659]]]}}, {"type": "Feature", "properties": {"type": "postcode-cell", "postcode": "EX32 7BU", "postcodes": ["EX32 7BU"]}, "geometry": {"type": "Polygon", "coordinates": [[[-4.058192613019943, 51.081220647942764], [-4.058010207405771, 51.08142984522882], [-4.057203473738703, 51.08151495085625], [-4.057196710914314, 51.08151277417795], [-4.057723432406829, 51.080916336320804], [-4.058110059615217, 51.08105335367556], [-4.058192613019943, 51.081220647942764]]]}}, {"type": "Feature", "properties": {"type": "postcode-cell", "postcode": "EX31 1RP", "postcodes": ["EX31 1RP"]}, "geometry": {"type": "Polygon", "coordinates": [[[-4.058512728775979, 51.0818862127436], [-4.058010207405771, 51.08142984522882], [-4.058192613019943, 51.081220647942764], [-4.0585622705725735, 51.08124438405332], [-4.058689985701526, 51.08183401674499], [-4.058512728775979, 51.0818862127436]]]}}, {"type": "Feature", "properties": {"type": "postcode-cell", "postcode": "EX31 1SX", "postcodes": ["EX31 1SX"]}, "geometry": {"type": "Polygon", "coordinates": [[[-4.058671071577661, 51.07995669810376], [-4.058545180291085, 51.08059525700665], [-4.058207516353816, 51.0805246451042], [-4.058116697206761, 51.080086927627015], [-4.058606472834957, 51.07992483287288], [-4.058671071577661, 51.07995669810376]]]}}, {"type": "Feature", "properties": {"type": "postcode-cell", "postcode": "EX31 1SQ", "postcodes": ["EX31 1SQ"]}, "geometry": {"type": "Polygon", "coordinates": [[[-4.058594442012601, 51.07976791381795], [-4.058600747179877, 51.07990870871157], [-4.057731202253963, 51.07970575550423], [-4.0580596241934, 51.07949599583289], [-4.058086734974755, 51.079500120826935], [-4.058594442012601, 51.07976791381795]]]}}, {"type": "Feature", "properties": {"type": "postcode-cell", "postcode": "EX31 1SH", "postcodes": ["EX31 1SH"]}, "geometry": {"type": "Polygon", "coordinates": [[[-4.058736038864975, 51.07919438887216], [-4.058086734974755, 51.079500120826935], [-4.0580596241934, 51.07949599583289], [-4.057929882836071, 51.07933944776292], [-4.058592700372019, 51.07906152238806], [-4.058736038864975, 51.07919438887216]]]}}, {"type": "Feature", "properties": {"type": "postcode-cell", "postcode": "EX31 1RX", "postcodes": ["EX31 1RX"]}, "geometry": {"type": "Polygon", "coordinates": [[[-4.058545180291085, 51.08059525700665], [-4.05866637358022, 51.080671861238095], [-4.058110059615217, 51.08105335367556], [-4.057723432406829, 51.080916336320804], [-4.057453837227414, 51.08062110779276], [-4.058207516353816, 51.0805246451042], [-4.058545180291085, 51.08059525700665]]]}}, {"type": "Feature", "properties": {"type": "postcode-cell", "postcode": "EX32 7BE", "postcodes": ["EX32 7BE"]}, "geometry": {"type": "Polygon", "coordinates": [[[-4.05837993169708, 51.082446542398316], [-4.0583166387145235, 51.08313498602323], [-4.058003302156157, 51.08317972893765], [-4.0574522155201285, 51.082820598308025], [-4.058093752491807, 51.082282895055016], [-4.058100595121, 51.08228257387], [-4.05837993169708, 51.082446542398316]]]}}, {"type": "Feature", "properties": {"type": "postcode-cell", "postcode": "EX31 1SE", "postcodes": ["EX31 1SE"]}, "geometry": {"type": "Polygon", "coordinates": [[[-4.058606472834957, 51.07992483287288], [-4.058116697206761, 51.080086927627015], [-4.058060013738466, 51.08008447675366], [-4.057519502944908, 51.07990894921587], [-4.057459816469734, 51.079848902304185], [-4.057450647459096, 51.07983329412773], [-4.057545676145733, 51.07976379706126], [-4.057731202253963, 51.07970575550423], [-4.058600747179877, 51.07990870871157], [-4.058606472834957, 51.07992483287288]]]}}, {"type": "Feature", "properties": {"type": "postcode-cell", "postcode": "EX31 1AL", "postcodes": ["EX31 1AL"]}, "geometry": {"type": "Polygon", "coordinates": [[[-4.057731202253963, 51.07970575550423], [-4.057545676145733, 51.07976379706126], [-4.057522051860023, 51.07926698211071], [-4.0575236520689835, 51.07926631961717], [-4.0577656438873255, 51.079261955162785], [-4.057929882836071, 51.07933944776292], [-4.0580596241934, 51.07949599583289], [-4.057731202253963, 51.07970575550423]]]}}, {"type": "Feature", "properties": {"type": "postcode-cell", "postcode": "EX32 8RJ", "postcodes": ["EX32 8RJ"]}, "geometry": {"type": "Polygon", "coordinates": [[[-4.058579947752586, 51.07820930775684], [-4.058236214467217, 51.0785274317562], [-4.058096984690992, 51.07852677432985], [-4.0570028435796655, 51.078292478235916], [-4.0569173935413785, 51.07817455506059], [-4.057054682038769, 51.07814210689902], [-4.058577241928626, 51.07820604203427], [-4.058579947752586, 51.07820930775684]]]}}, {"type": "Feature", "properties": {"type": "postcode-cell", "postcode": "EX32 7BG", "postcodes": ["EX32 7BG"]}, "geometry": {"type": "Polygon", "coordinates": [[[-4.058003302156157, 51.08317972893765], [-4.057672186027702, 51.08350952040659], [-4.0568435182249765, 51.08292282061481], [-4.0574522155201285, 51.082820598308025], [-4.058003302156157, 51.08317972893765]]]}}, {"type": "Feature", "properties": {"type": "postcode-cell", "postcode": "EX31 1RR", "postcodes": ["EX31 1RR"]}, "geometry": {"type": "Polygon", "coordinates": [[[-4.058100595121, 51.08228257387], [-4.058093752491807, 51.082282895055016], [-4.057775940968543, 51.08217833023899], [-4.057203473738703, 51.08151495085625], [-4.058010207405771, 51.08142984522882], [-4.058512728775979, 51.0818862127436], [-4.058100595121, 51.08228257387]]]}}, {"type": "Feature", "properties": {"type": "postcode-cell", "postcode": "EX31 1SB", "postcodes": ["EX31 1SB"]}, "geometry": {"type": "Polygon", "coordinates": [[[-4.058207516353816, 51.0805246451042], [-4.057453837227414, 51.08062110779276], [-4.0573892650169805, 51.080600022800844], [-4.0573921020167685, 51.08059478644406], [-4.058060013738466, 51.08008447675366], [-4.058116697206761, 51.080086927627015], [-4.058207516353816, 51.0805246451042]]]}}, {"type": "Feature", "properties": {"type": "postcode-cell", "postcode": "EX32 8LS", "postcodes": ["EX32 8LS"]}, "geometry": {"type": "Polygon", "coordinates": [[[-4.058359686018812, 51.07766497464621], [-4.058577241928626, 51.07820604203427], [-4.057054682038769, 51.07814210689902], [-4.058359686018812, 51.07766497464621]]]}}, {"type": "Feature", "properties": {"type": "postcode-cell", "postcode": "EX32 8LU", "postcodes": ["EX32 8LU"]}, "geometry": {"type": "Polygon", "coordinates": [[[-4.057054682038769, 51.07814210689902], [-4.0569173935413785, 51.07817455506059], [-4.056821705793566, 51.07813063156768], [-4.056912990701233, 51.07766711176003], [-4.0571494459124775, 51.077499886623436], [-4.058418569837884, 51.077520500466655], [-4.058359686018812, 51.07766497464621], [-4.057054682038769, 51.07814210689902]]]}}, {"type": "Feature", "properties": {"type": "postcode-cell", "postcode": "EX32 8HU", "postcodes": ["EX32 8HU"]}, "geometry": {"type": "Polygon", "coordinates": [[[-4.058437034932187, 51.078905344891645], [-4.058001853709447, 51.07897564783502], [-4.057644931307573, 51.078852192057305], [-4.058096984690992, 51.07852677432985], [-4.058236214467217, 51.0785274317562], [-4.058437034932187, 51.078905344891645]]]}}, {"type": "Feature", "properties": {"type": "postcode-cell", "postcode": "EX32 8NA", "postcodes": ["EX32 8NA"]}, "geometry": {"type": "Polygon", "coordinates": [[[-4.057644931307573, 51.078852192057305], [-4.057459704364885, 51.078847136370534], [-4.05704402102275, 51.07866745672996], [-4.0570028435796655, 51.078292478235916], [-4.058096984690992, 51.07852677432985], [-4.057644931307573, 51.078852192057305]]]}}, {"type": "Feature", "properties": {"type": "postcode-cell", "postcode": "EX32 8HT", "postcodes": ["EX32 8HT"]}, "geometry": {"type": "Polygon", "coordinates": [[[-4.0577656438873255, 51.079261955162785], [-4.0575236520689835, 51.07926631961717], [-4.057459704364885, 51.078847136370534], [-4.057644931307573, 51.078852192057305], [-4.058001853709447, 51.07897564783502], [-4.0577656438873255, 51.079261955162785]]]}}, {"type": "Feature", "properties": {"type": "postcode-cell", "postcode": "EX32 7DB", "postcodes": ["EX32 7DB"]}, "geometry": {"type": "Polygon", "coordinates": [[[-4.057196710914314, 51.08151277417795], [-4.056762514643045, 51.0814669468941], [-4.056763973591211, 51.08144212316785], [-4.057190757447682, 51.080611074053316], [-4.0573892650169805, 51.080600022800844], [-4.057453837227414, 51.08062110779276], [-4.057723432406829, 51.080916336320804], [-4.057196710914314, 51.08151277417795]]]}}, {"type": "Feature", "properties": {"type": "postcode-cell", "postcode": "EX32 7BT", "postcodes": ["EX32 7BT"]}, "geometry": {"type": "Polygon", "coordinates": [[[-4.0574522155201285, 51.082820598308025], [-4.0568435182249765, 51.08292282061481], [-4.056821441514956, 51.0829222085545], [-4.056682280475424, 51.08257650492886], [-4.057078787661234, 51.082243756174506], [-4.057775940968543, 51.08217833023899], [-4.058093752491807, 51.082282895055016], [-4.0574522155201285, 51.082820598308025]]]}}, {"type": "Feature", "properties": {"type": "postcode-cell", "postcode": "EX32 8BB", "postcodes": ["EX32 8BB"]}, "geometry": {"type": "Polygon", "coordinates": [[[-4.0570028435796655, 51.078292478235916], [-4.05704402102275, 51.07866745672996], [-4.056661311992412, 51.07907138466729], [-4.056565352878011, 51.079093969668406], [-4.05612745252984, 51.07893884280199], [-4.055841684731793, 51.07859659142836], [-4.055841233576578, 51.07840753363038], [-4.056552046996879, 51.07814069026027], [-4.056821705793566, 51.07813063156768], [-4.0569173935413785, 51.07817455506059], [-4.0570028435796655, 51.078292478235916]]]}}, {"type": "Feature", "properties": {"type": "postcode-cell", "postcode": "EX31 1SA", "postcodes": ["EX31 1SA"]}, "geometry": {"type": "Polygon", "coordinates": [[[-4.058060013738466, 51.08008447675366], [-4.0573921020167685, 51.08059478644406], [-4.057519502944908, 51.07990894921587], [-4.058060013738466, 51.08008447675366]]]}}, {"type": "Feature", "properties": {"type": "postcode-cell", "postcode": "EX32 8NR", "postcodes": ["EX32 8NR"]}, "geometry": {"type": "Polygon", "coordinates": [[[-4.057545676145733, 51.07976379706126], [-4.057450647459096, 51.07983329412773], [-4.057075421854996, 51.07975564926317], [-4.057035192523415, 51.079710616608324], [-4.05710512809908, 51.07929128738088], [-4.057522051860023, 51.07926698211071], [-4.057545676145733, 51.07976379706126]]]}}, {"type": "Feature", "properties": {"type": "postcode-cell", "postcode": "EX32 8HR", "postcodes": ["EX32 8HR"]}, "geometry": {"type": "Polygon", "coordinates": [[[-4.0575236520689835, 51.07926631961717], [-4.057522051860023, 51.07926698211071], [-4.05710512809908, 51.07929128738088], [-4.056661311992412, 51.07907138466729], [-4.05704402102275, 51.07866745672996], [-4.057459704364885, 51.078847136370534], [-4.0575236520689835, 51.07926631961717]]]}}, {"type": "Feature", "properties": {"type": "postcode-cell", "postcode": "EX32 8NB", "postcodes": ["EX32 8NB"]}, "geometry": {"type": "Polygon", "coordinates": [[[-4.057233255176299, 51.07719665394079], [-4.058008067358702, 51.07682784250666], [-4.0586627921453, 51.0772788034689], [-4.058418569837884, 51.077520500466655], [-4.0571494459124775, 51.077499886623436], [-4.057233255176299, 51.07719665394079]]]}}, {"type": "Feature", "properties": {"type": "postcode-cell", "postcode": "EX32 8QB", "postcodes": ["EX32 8QB"]}, "geometry": {"type": "Polygon", "coordinates": [[[-4.0571494459124775, 51.077499886623436], [-4.056912990701233, 51.07766711176003], [-4.0565978297433665, 51.07745211171069], [-4.056739577802665, 51.07704852017863], [-4.056858719675901, 51.07705328387852], [-4.057233255176299, 51.07719665394079], [-4.0571494459124775, 51.077499886623436]]]}}, {"type": "Feature", "properties": {"type": "postcode-cell", "postcode": "EX32 7BW", "postcodes": ["EX32 7BW"]}, "geometry": {"type": "Polygon", "coordinates": [[[-4.057203473738703, 51.08151495085625], [-4.057775940968543, 51.08217833023899], [-4.057078787661234, 51.082243756174506], [-4.056325045890292, 51.0817123844281], [-4.056324841490249, 51.08169848980304], [-4.056489373128892, 51.08156650556345], [-4.056762514643045, 51.0814669468941], [-4.057196710914314, 51.08151277417795], [-4.057203473738703, 51.08151495085625]]]}}, {"type": "Feature", "properties": {"type": "postcode-cell", "postcode": "EX32 8HY", "postcodes": ["EX32 8HY"]}, "geometry": {"type": "Polygon", "coordinates": [[[-4.057519502944908, 51.07990894921587], [-4.0573921020167685, 51.08059478644406], [-4.0573892650169805, 51.080600022800844], [-4.057190757447682, 51.080611074053316], [-4.056697184269938, 51.08046464981746], [-4.057459816469734, 51.079848902304185], [-4.057519502944908, 51.07990894921587]]]}}, {"type": "Feature", "properties": {"type": "postcode-cell", "postcode": "EX32 7BJ", "postcodes": ["EX32 7BJ"]}, "geometry": {"type": "Polygon", "coordinates": [[[-4.056695611021348, 51.08299456171691], [-4.056821441514956, 51.0829222085545], [-4.0568435182249765, 51.08292282061481], [-4.057672186027702, 51.08350952040659], [-4.05755559427743, 51.08406092873093], [-4.056949989928329, 51.08409999502912], [-4.0565294214889995, 51.08386814845859], [-4.056695611021348, 51.08299456171691]]]}}, {"type": "Feature", "properties": {"type": "postcode-cell", "postcode": "EX32 8NL", "postcodes": ["EX32 8NL"]}, "geometry": {"type": "Polygon", "coordinates": [[[-4.056858719675901, 51.07705328387852], [-4.0570898821685315, 51.07677595086262], [-4.057978403543955, 51.07680741038221], [-4.058008067358702, 51.07682784250666], [-4.057233255176299, 51.07719665394079], [-4.056858719675901, 51.07705328387852]]]}}, {"type": "Feature", "properties": {"type": "postcode-cell", "postcode": "EX32 8LT", "postcodes": ["EX32 8LT"]}, "geometry": {"type": "Polygon", "coordinates": [[[-4.056959072180547, 51.07645921788736], [-4.057013157506378, 51.0767391339931], [-4.056650277527501, 51.07675520884626], [-4.056532694710354, 51.07649591264023], [-4.056959072180547, 51.07645921788736]]]}}, {"type": "Feature", "properties": {"type": "postcode-cell", "postcode": "EX32 8HG", "postcodes": ["EX32 8HG"]}, "geometry": {"type": "Polygon", "coordinates": [[[-4.057459816469734, 51.079848902304185], [-4.056697184269938, 51.08046464981746], [-4.056361191655906, 51.080402815677445], [-4.056403757067272, 51.080163652429626], [-4.057075421854996, 51.07975564926317], [-4.057450647459096, 51.07983329412773], [-4.057459816469734, 51.079848902304185]]]}}, {"type": "Feature", "properties": {"type": "postcode-cell", "postcode": "EX32 8NQ", "postcodes": ["EX32 8NQ"]}, "geometry": {"type": "Polygon", "coordinates": [[[-4.0570898821685315, 51.07677595086262], [-4.056858719675901, 51.07705328387852], [-4.056739577802665, 51.07704852017863], [-4.056498130892433, 51.076960757548775], [-4.056650277527501, 51.07675520884626], [-4.057013157506378, 51.0767391339931], [-4.0570898821685315, 51.07677595086262]]]}}, {"type": "Feature", "properties": {"type": "postcode-cell", "postcode": "EX32 8HQ", "postcodes": ["EX32 8HQ"]}, "geometry": {"type": "Polygon", "coordinates": [[[-4.057035192523415, 51.079710616608324], [-4.05640916073926, 51.0795271199961], [-4.05634238246418, 51.07936651980683], [-4.056565352878011, 51.079093969668406], [-4.056661311992412, 51.07907138466729], [-4.05710512809908, 51.07929128738088], [-4.057035192523415, 51.079710616608324]]]}}, {"type": "Feature", "properties": {"type": "postcode-cell", "postcode": "EX32 7DA", "postcodes": ["EX32 7DA"]}, "geometry": {"type": "Polygon", "coordinates": [[[-4.057190757447682, 51.080611074053316], [-4.056763973591211, 51.08144212316785], [-4.056316889429019, 51.08078965165124], [-4.056209245937773, 51.08045733432193], [-4.056361191655906, 51.080402815677445], [-4.056697184269938, 51.08046464981746], [-4.057190757447682, 51.080611074053316]]]}}, {"type": "Feature", "properties": {"type": "postcode-cell", "postcode": "EX32 7BH", "postcodes": ["EX32 7BH"]}, "geometry": {"type": "Polygon", "coordinates": [[[-4.056695611021348, 51.08299456171691], [-4.0565294214889995, 51.08386814845859], [-4.055389989927652, 51.08323999502842], [-4.055181101754058, 51.08295198692134], [-4.056695611021348, 51.08299456171691]]]}}, {"type": "Feature", "properties": {"type": "postcode-cell", "postcode": "EX32 7BN", "postcodes": ["EX32 7BN"]}, "geometry": {"type": "Polygon", "coordinates": [[[-4.056682280475424, 51.08257650492886], [-4.056467899546853, 51.082478530388784], [-4.056129746776781, 51.08206330680342], [-4.056325045890292, 51.0817123844281], [-4.057078787661234, 51.082243756174506], [-4.056682280475424, 51.08257650492886]]]}}, {"type": "Feature", "properties": {"type": "postcode-cell", "postcode": "EX32 8GP", "postcodes": ["EX32 8GP"]}, "geometry": {"type": "Polygon", "coordinates": [[[-4.056821705793566, 51.07813063156768], [-4.056552046996879, 51.07814069026027], [-4.056197987824311, 51.07792001523643], [-4.055852850543082, 51.07735813609106], [-4.056173348735797, 51.07732716605203], [-4.0565978297433665, 51.07745211171069], [-4.056912990701233, 51.07766711176003], [-4.056821705793566, 51.07813063156768]]]}}, {"type": "Feature", "properties": {"type": "postcode-cell", "postcode": "EX32 8ND", "postcodes": ["EX32 8ND"]}, "geometry": {"type": "Polygon", "coordinates": [[[-4.056498130892433, 51.076960757548775], [-4.056495823337446, 51.07696101016057], [-4.055854449054535, 51.07677798410229], [-4.055635478486291, 51.07650085561242], [-4.055885077578258, 51.0762664215046], [-4.056532694710354, 51.07649591264023], [-4.056650277527501, 51.07675520884626], [-4.056498130892433, 51.076960757548775]]]}}, {"type": "Feature", "properties": {"type": "postcode-cell", "postcode": "EX32 8AY", "postcodes": ["EX32 8AY"]}, "geometry": {"type": "Polygon", "coordinates": [[[-4.0565978297433665, 51.07745211171069], [-4.056173348735797, 51.07732716605203], [-4.056495823337446, 51.07696101016057], [-4.056498130892433, 51.076960757548775], [-4.056739577802665, 51.07704852017863], [-4.0565978297433665, 51.07745211171069]]]}}, {"type": "Feature", "properties": {"type": "postcode-cell", "postcode": "EX32 8HJ", "postcodes": ["EX32 8HJ"]}, "geometry": {"type": "Polygon", "coordinates": [[[-4.057075421854996, 51.07975564926317], [-4.056403757067272, 51.080163652429626], [-4.05616400492155, 51.07983415985134], [-4.05640916073926, 51.0795271199961], [-4.057035192523415, 51.079710616608324], [-4.057075421854996, 51.07975564926317]]]}}, {"type": "Feature", "properties": {"type": "postcode-cell", "postcode": "EX32 9AB", "postcodes": ["EX32 9AB"]}, "geometry": {"type": "Polygon", "coordinates": [[[-4.054312655935901, 51.07606548599539], [-4.053938778086797, 51.07608513274152], [-4.053652882874336, 51.0760543127569], [-4.053492393213795, 51.07588752069349], [-4.054309097107319, 51.075283951267096], [-4.054699989930661, 51.07542999502194], [-4.0553399899312925, 51.07498999502161], [-4.056031036528975, 51.07546602767277], [-4.054312655935901, 51.07606548599539]]]}}, {"type": "Feature", "properties": {"type": "postcode-cell", "postcode": "EX32 7BS", "postcodes": ["EX32 7BS"]}, "geometry": {"type": "Polygon", "coordinates": [[[-4.056762514643045, 51.0814669468941], [-4.056489373128892, 51.08156650556345], [-4.056251019358244, 51.081379181570554], [-4.056092916162037, 51.08109644667308], [-4.056316889429019, 51.08078965165124], [-4.056763973591211, 51.08144212316785], [-4.056762514643045, 51.0814669468941]]]}}, {"type": "Feature", "properties": {"type": "postcode-cell", "postcode": "EX32 7FF", "postcodes": ["EX32 7FF", "EX32 7FG"]}, "geometry": {"type": "Polygon", "coordinates": [[[-4.056316889429019, 51.08078965165124], [-4.056092916162037, 51.08109644667308], [-4.055608311461147, 51.08080890099798], [-4.055560054868056, 51.08052744333993], [-4.056209245937773, 51.08045733432193], [-4.056316889429019, 51.08078965165124]]]}}, {"type": "Feature", "properties": {"type": "postcode-cell", "postcode": "EX32 8HD", "postcodes": ["EX32 8HD"]}, "geometry": {"type": "Polygon", "coordinates": [[[-4.05640916073926, 51.0795271199961], [-4.05616400492155, 51.07983415985134], [-4.055656347669838, 51.07973470657023], [-4.055335073499955, 51.07951919132091], [-4.055311941590143, 51.07941408502166], [-4.05634238246418, 51.07936651980683], [-4.05640916073926, 51.0795271199961]]]}}, {"type": "Feature", "properties": {"type": "postcode-cell", "postcode": "EX31 1YN", "postcodes": ["EX31 1YN", "EX31 2JA", "EX32 2BQ", "EX32 2GJ", "EX32 2GR", "EX32 2HA", "EX32 2HE", "EX32 2HL", "EX32 2HP", "EX32 2HR", "EX32 2HY", "EX32 2JE", "EX32 2JJ", "EX32 2JP", "EX32 2JZ", "EX32 2LA", "EX32 2LD", "EX32 2LH", "EX32 2LL", "EX32 2LN", "EX32 2LP", "EX32 2LQ", "EX32 2LR", "EX32 8XX", "EX37 9YU"]}, "geometry": {"type": "Polygon", "coordinates": [[[-4.056209245937773, 51.08045733432193], [-4.055560054868056, 51.08052744333993], [-4.055482195914959, 51.08050974495273], [-4.055656347669838, 51.07973470657023], [-4.05616400492155, 51.07983415985134], [-4.056403757067272, 51.080163652429626], [-4.056361191655906, 51.080402815677445], [-4.056209245937773, 51.08045733432193]]]}}, {"type": "Feature", "properties": {"type": "postcode-cell", "postcode": "EX32 7BL", "postcodes": ["EX32 7BL"]}, "geometry": {"type": "Polygon", "coordinates": [[[-4.056682280475424, 51.08257650492886], [-4.056821441514956, 51.0829222085545], [-4.056695611021348, 51.08299456171691], [-4.055181101754058, 51.08295198692134], [-4.0550451603700095, 51.08276455325945], [-4.055087267816561, 51.08273080841019], [-4.056467899546853, 51.082478530388784], [-4.056682280475424, 51.08257650492886]]]}}, {"type": "Feature", "properties": {"type": "postcode-cell", "postcode": "EX32 8QL", "postcodes": ["EX32 8QL"]}, "geometry": {"type": "Polygon", "coordinates": [[[-4.055635478486291, 51.07650085561242], [-4.0554420393059685, 51.07653809661796], [-4.054312655935901, 51.07606548599539], [-4.056031036528975, 51.07546602767277], [-4.056072311386598, 51.075494459723714], [-4.055885077578258, 51.0762664215046], [-4.055635478486291, 51.07650085561242]]]}}, {"type": "Feature", "properties": {"type": "postcode-cell", "postcode": "EX32 8FH", "postcodes": ["EX32 8FH"]}, "geometry": {"type": "Polygon", "coordinates": [[[-4.056565352878011, 51.079093969668406], [-4.05634238246418, 51.07936651980683], [-4.055311941590143, 51.07941408502166], [-4.0552507854028255, 51.079355554920085], [-4.055256681488057, 51.079306136927684], [-4.05612745252984, 51.07893884280199], [-4.056565352878011, 51.079093969668406]]]}}, {"type": "Feature", "properties": {"type": "postcode-cell", "postcode": "EX32 8NH", "postcodes": ["EX32 8NH"]}, "geometry": {"type": "Polygon", "coordinates": [[[-4.056173348735797, 51.07732716605203], [-4.055852850543082, 51.07735813609106], [-4.055733007040188, 51.07733058663571], [-4.055854449054535, 51.07677798410229], [-4.056495823337446, 51.07696101016057], [-4.056173348735797, 51.07732716605203]]]}}, {"type": "Feature", "properties": {"type": "postcode-cell", "postcode": "EX32 8JB", "postcodes": ["EX32 8JB"]}, "geometry": {"type": "Polygon", "coordinates": [[[-4.055854449054535, 51.07677798410229], [-4.055733007040188, 51.07733058663571], [-4.055666602291352, 51.077343412491196], [-4.055305017629643, 51.077300952515614], [-4.05520089922966, 51.0766663134261], [-4.0554420393059685, 51.07653809661796], [-4.055635478486291, 51.07650085561242], [-4.055854449054535, 51.07677798410229]]]}}, {"type": "Feature", "properties": {"type": "postcode-cell", "postcode": "EX32 7BX", "postcodes": ["EX32 7BX"]}, "geometry": {"type": "Polygon", "coordinates": [[[-4.056489373128892, 51.08156650556345], [-4.056324841490249, 51.08169848980304], [-4.055887945901737, 51.081659833159016], [-4.055277227570057, 51.08131901647987], [-4.055558830357204, 51.08108452389142], [-4.056251019358244, 51.081379181570554], [-4.056489373128892, 51.08156650556345]]]}}, {"type": "Feature", "properties": {"type": "postcode-cell", "postcode": "EX32 7BZ", "postcodes": ["EX32 7BZ"]}, "geometry": {"type": "Polygon", "coordinates": [[[-4.056251019358244, 51.081379181570554], [-4.055558830357204, 51.08108452389142], [-4.055608311461147, 51.08080890099798], [-4.056092916162037, 51.08109644667308], [-4.056251019358244, 51.081379181570554]]]}}, {"type": "Feature", "properties": {"type": "postcode-cell", "postcode": "EX32 7ET", "postcodes": ["EX32 7ET"]}, "geometry": {"type": "Polygon", "coordinates": [[[-4.056467899546853, 51.082478530388784], [-4.055087267816561, 51.08273080841019], [-4.055367717425051, 51.08238957631782], [-4.056129746776781, 51.08206330680342], [-4.056467899546853, 51.082478530388784]]]}}, {"type": "Feature", "properties": {"type": "postcode-cell", "postcode": "EX32 8HX", "postcodes": ["EX32 8HX"]}, "geometry": {"type": "Polygon", "coordinates": [[[-4.056552046996879, 51.07814069026027], [-4.055841233576578, 51.07840753363038], [-4.0551981162927095, 51.078294523630845], [-4.055193633924107, 51.078287513295116], [-4.0554571381473306, 51.07778600086185], [-4.0554697585592985, 51.07778084065948], [-4.056197987824311, 51.07792001523643], [-4.056552046996879, 51.07814069026027]]]}}, {"type": "Feature", "properties": {"type": "postcode-cell", "postcode": "EX32 8JD", "postcodes": ["EX32 8JD"]}, "geometry": {"type": "Polygon", "coordinates": [[[-4.056197987824311, 51.07792001523643], [-4.0554697585592985, 51.07778084065948], [-4.055666602291352, 51.077343412491196], [-4.055733007040188, 51.07733058663571], [-4.055852850543082, 51.07735813609106], [-4.056197987824311, 51.07792001523643]]]}}, {"type": "Feature", "properties": {"type": "postcode-cell", "postcode": "EX32 7DN", "postcodes": ["EX32 7DN"]}, "geometry": {"type": "Polygon", "coordinates": [[[-4.055188433973376, 51.081854817876305], [-4.055367717425051, 51.08238957631782], [-4.055087267816561, 51.08273080841019], [-4.0550451603700095, 51.08276455325945], [-4.054729989927608, 51.08232999502766], [-4.054613520430619, 51.081686034449774], [-4.055188433973376, 51.081854817876305]]]}}, {"type": "Feature", "properties": {"type": "postcode-cell", "postcode": "EX32 7FA", "postcodes": ["EX32 7FA"]}, "geometry": {"type": "Polygon", "coordinates": [[[-4.056129746776781, 51.08206330680342], [-4.055367717425051, 51.08238957631782], [-4.055188433973376, 51.081854817876305], [-4.055887945901737, 51.081659833159016], [-4.056324841490249, 51.08169848980304], [-4.056325045890292, 51.0817123844281], [-4.056129746776781, 51.08206330680342]]]}}, {"type": "Feature", "properties": {"type": "postcode-cell", "postcode": "EX32 8HZ", "postcodes": ["EX32 8HZ"]}, "geometry": {"type": "Polygon", "coordinates": [[[-4.0554697585592985, 51.07778084065948], [-4.0554571381473306, 51.07778600086185], [-4.0548986567670315, 51.07765948716838], [-4.0550935714375695, 51.0773322502705], [-4.055305017629643, 51.077300952515614], [-4.055666602291352, 51.077343412491196], [-4.0554697585592985, 51.07778084065948]]]}}, {"type": "Feature", "properties": {"type": "postcode-cell", "postcode": "EX32 8JN", "postcodes": ["EX32 8JN"]}, "geometry": {"type": "Polygon", "coordinates": [[[-4.05612745252984, 51.07893884280199], [-4.055256681488057, 51.079306136927684], [-4.055211111861643, 51.07918907587214], [-4.055279633865807, 51.079000692733025], [-4.055841684731793, 51.07859659142836], [-4.05612745252984, 51.07893884280199]]]}}, {"type": "Feature", "properties": {"type": "postcode-cell", "postcode": "EX32 8BQ", "postcodes": ["EX32 8BQ"]}, "geometry": {"type": "Polygon", "coordinates": [[[-4.055335073499955, 51.07951919132091], [-4.054487645603241, 51.08044014727935], [-4.054390710084923, 51.0804540602571], [-4.054240391856606, 51.0796228727714], [-4.055175210069044, 51.07936204746642], [-4.0552507854028255, 51.079355554920085], [-4.055311941590143, 51.07941408502166], [-4.055335073499955, 51.07951919132091]]]}}, {"type": "Feature", "properties": {"type": "postcode-cell", "postcode": "EX32 7DD", "postcodes": ["EX32 7DD"]}, "geometry": {"type": "Polygon", "coordinates": [[[-4.055608311461147, 51.08080890099798], [-4.055558830357204, 51.08108452389142], [-4.055277227570057, 51.08131901647987], [-4.054554803531883, 51.08136138094736], [-4.054390710084923, 51.0804540602571], [-4.054487645603241, 51.08044014727935], [-4.055482195914959, 51.08050974495273], [-4.055560054868056, 51.08052744333993], [-4.055608311461147, 51.08080890099798]]]}}, {"type": "Feature", "properties": {"type": "postcode-cell", "postcode": "EX32 8JL", "postcodes": ["EX32 8JL"]}, "geometry": {"type": "Polygon", "coordinates": [[[-4.055841233576578, 51.07840753363038], [-4.055841684731793, 51.07859659142836], [-4.055279633865807, 51.079000692733025], [-4.0549179144522, 51.07848479234814], [-4.0551981162927095, 51.078294523630845], [-4.055841233576578, 51.07840753363038]]]}}, {"type": "Feature", "properties": {"type": "postcode-cell", "postcode": "EX32 2ZZ", "postcodes": ["EX32 2ZZ"]}, "geometry": {"type": "Polygon", "coordinates": [[[-4.055656347669838, 51.07973470657023], [-4.055482195914959, 51.08050974495273], [-4.054487645603241, 51.08044014727935], [-4.055335073499955, 51.07951919132091], [-4.055656347669838, 51.07973470657023]]]}}, {"type": "Feature", "properties": {"type": "postcode-cell", "postcode": "EX32 8FJ", "postcodes": ["EX32 8FJ"]}, "geometry": {"type": "Polygon", "coordinates": [[[-4.0552507854028255, 51.079355554920085], [-4.055175210069044, 51.07936204746642], [-4.054156519244867, 51.079159083443386], [-4.054139528425509, 51.07906512828959], [-4.054745474815103, 51.07896606403348], [-4.055211111861643, 51.07918907587214], [-4.055256681488057, 51.079306136927684], [-4.0552507854028255, 51.079355554920085]]]}}, {"type": "Feature", "properties": {"type": "postcode-cell", "postcode": "EX32 7FE", "postcodes": ["EX32 7FE"]}, "geometry": {"type": "Polygon", "coordinates": [[[-4.055887945901737, 51.081659833159016], [-4.055188433973376, 51.081854817876305], [-4.054613520430619, 51.081686034449774], [-4.054554803531883, 51.08136138094736], [-4.055277227570057, 51.08131901647987], [-4.055887945901737, 51.081659833159016]]]}}, {"type": "Feature", "properties": {"type": "postcode-cell", "postcode": "EX32 8JA", "postcodes": ["EX32 8JA"]}, "geometry": {"type": "Polygon", "coordinates": [[[-4.0550935714375695, 51.0773322502705], [-4.054817029598568, 51.07722904301353], [-4.054819386052165, 51.076761486218274], [-4.05520089922966, 51.0766663134261], [-4.055305017629643, 51.077300952515614], [-4.0550935714375695, 51.0773322502705]]]}}, {"type": "Feature", "properties": {"type": "postcode-cell", "postcode": "EX32 8JP", "postcodes": ["EX32 8JP"]}, "geometry": {"type": "Polygon", "coordinates": [[[-4.055211111861643, 51.07918907587214], [-4.054745474815103, 51.07896606403348], [-4.054683890598671, 51.078759292224355], [-4.05466610729782, 51.07855838951546], [-4.0549179144522, 51.07848479234814], [-4.055279633865807, 51.079000692733025], [-4.055211111861643, 51.07918907587214]]]}}, {"type": "Feature", "properties": {"type": "postcode-cell", "postcode": "EX32 8JE", "postcodes": ["EX32 8JE"]}, "geometry": {"type": "Polygon", "coordinates": [[[-4.055193633924107, 51.078287513295116], [-4.054857908606512, 51.0780783116044], [-4.054826349890482, 51.0776927333354], [-4.0548986567670315, 51.07765948716838], [-4.0554571381473306, 51.07778600086185], [-4.055193633924107, 51.078287513295116]]]}}, {"type": "Feature", "properties": {"type": "postcode-cell", "postcode": "EX32 8JJ", "postcodes": ["EX32 8JJ"]}, "geometry": {"type": "Polygon", "coordinates": [[[-4.0551981162927095, 51.078294523630845], [-4.0549179144522, 51.07848479234814], [-4.05466610729782, 51.07855838951546], [-4.053936312247702, 51.07852962468541], [-4.054086918525165, 51.07827314664591], [-4.05436197086902, 51.07805754199936], [-4.054857908606512, 51.0780783116044], [-4.055193633924107, 51.078287513295116], [-4.0551981162927095, 51.078294523630845]]]}}, {"type": "Feature", "properties": {"type": "postcode-cell", "postcode": "EX32 8JF", "postcodes": ["EX32 8JF"]}, "geometry": {"type": "Polygon", "coordinates": [[[-4.0550935714375695, 51.0773322502705], [-4.0548986567670315, 51.07765948716838], [-4.054826349890482, 51.0776927333354], [-4.054377311040139, 51.077639191156905], [-4.054161918487776, 51.07729387958832], [-4.054817029598568, 51.07722904301353], [-4.0550935714375695, 51.0773322502705]]]}}, {"type": "Feature", "properties": {"type": "postcode-cell", "postcode": "EX32 9HG", "postcodes": ["EX32 9HG"]}, "geometry": {"type": "Polygon", "coordinates": [[[-4.054312655935901, 51.07606548599539], [-4.0554420393059685, 51.07653809661796], [-4.05520089922966, 51.0766663134261], [-4.054819386052165, 51.076761486218274], [-4.054774715767846, 51.076757523458], [-4.053938778086797, 51.07608513274152], [-4.054312655935901, 51.07606548599539]]]}}, {"type": "Feature", "properties": {"type": "postcode-cell", "postcode": "EX32 8JH", "postcodes": ["EX32 8JH"]}, "geometry": {"type": "Polygon", "coordinates": [[[-4.054857908606512, 51.0780783116044], [-4.05436197086902, 51.07805754199936], [-4.054200034978444, 51.07780907427173], [-4.054377311040139, 51.077639191156905], [-4.054826349890482, 51.0776927333354], [-4.054857908606512, 51.0780783116044]]]}}, {"type": "Feature", "properties": {"type": "postcode-cell", "postcode": "EX32 9HQ", "postcodes": ["EX32 9HQ"]}, "geometry": {"type": "Polygon", "coordinates": [[[-4.054819386052165, 51.076761486218274], [-4.054817029598568, 51.07722904301353], [-4.054161918487776, 51.07729387958832], [-4.053842420519251, 51.07716581642716], [-4.053798360884553, 51.07699580504825], [-4.054774715767846, 51.076757523458], [-4.054819386052165, 51.076761486218274]]]}}, {"type": "Feature", "properties": {"type": "postcode-cell", "postcode": "EX32 9HN", "postcodes": ["EX32 9HN"]}, "geometry": {"type": "Polygon", "coordinates": [[[-4.051682961025597, 51.07665676563599], [-4.052045181596385, 51.07676720192592], [-4.051841965528117, 51.07726097373118], [-4.051169091579016, 51.07690335257923], [-4.051682961025597, 51.07665676563599]]]}}, {"type": "Feature", "properties": {"type": "postcode-cell", "postcode": "EX32 9HF", "postcodes": ["EX32 9HF"]}, "geometry": {"type": "Polygon", "coordinates": [[[-4.050675442152403, 51.07605480180589], [-4.050622934258183, 51.07661307218254], [-4.0496199899269225, 51.07607999502251], [-4.050241070496586, 51.075826622191975], [-4.050675442152403, 51.07605480180589]]]}}, {"type": "Feature", "properties": {"type": "postcode-cell", "postcode": "EX32 9AE", "postcodes": ["EX32 9AE"]}, "geometry": {"type": "Polygon", "coordinates": [[[-4.053492393213795, 51.07588752069349], [-4.053104195598728, 51.07575423117668], [-4.053103693758715, 51.07567463875414], [-4.053576016893746, 51.07501005481233], [-4.054309097107319, 51.075283951267096], [-4.053492393213795, 51.07588752069349]]]}}, {"type": "Feature", "properties": {"type": "postcode-cell", "postcode": "EX32 8JR", "postcodes": ["EX32 8JR"]}, "geometry": {"type": "Polygon", "coordinates": [[[-4.053936312247702, 51.07852962468541], [-4.05466610729782, 51.07855838951546], [-4.054683890598671, 51.078759292224355], [-4.054133840604721, 51.07903367591269], [-4.0540499899288225, 51.07856999502455], [-4.053911561303505, 51.07853815709149], [-4.053936312247702, 51.07852962468541]]]}}, {"type": "Feature", "properties": {"type": "postcode-cell", "postcode": "EX32 8JQ", "postcodes": ["EX32 8JQ"]}, "geometry": {"type": "Polygon", "coordinates": [[[-4.054377311040139, 51.077639191156905], [-4.054200034978444, 51.07780907427173], [-4.05373845171312, 51.07783830260719], [-4.053623269690221, 51.07782020187969], [-4.05356528804854, 51.07776233731821], [-4.053754375965745, 51.07723474968135], [-4.053842420519251, 51.07716581642716], [-4.054161918487776, 51.07729387958832], [-4.054377311040139, 51.077639191156905]]]}}, {"type": "Feature", "properties": {"type": "postcode-cell", "postcode": "EX32 9HH", "postcodes": ["EX32 9HH"]}, "geometry": {"type": "Polygon", "coordinates": [[[-4.054774715767846, 51.076757523458], [-4.053798360884553, 51.07699580504825], [-4.053424918805161, 51.076665050185476], [-4.053652882874336, 51.0760543127569], [-4.053938778086797, 51.07608513274152], [-4.054774715767846, 51.076757523458]]]}}, {"type": "Feature", "properties": {"type": "postcode-cell", "postcode": "EX32 8JU", "postcodes": ["EX32 8JU"]}, "geometry": {"type": "Polygon", "coordinates": [[[-4.05436197086902, 51.07805754199936], [-4.054086918525165, 51.07827314664591], [-4.05373845171312, 51.07783830260719], [-4.054200034978444, 51.07780907427173], [-4.05436197086902, 51.07805754199936]]]}}, {"type": "Feature", "properties": {"type": "postcode-cell", "postcode": "EX32 8BH", "postcodes": ["EX32 8BH"]}, "geometry": {"type": "Polygon", "coordinates": [[[-4.055175210069044, 51.07936204746642], [-4.054240391856606, 51.0796228727714], [-4.054156519244867, 51.079159083443386], [-4.055175210069044, 51.07936204746642]]]}}, {"type": "Feature", "properties": {"type": "postcode-cell", "postcode": "EX32 8FD", "postcodes": ["EX32 8FD"]}, "geometry": {"type": "Polygon", "coordinates": [[[-4.054745474815103, 51.07896606403348], [-4.054139528425509, 51.07906512828959], [-4.054133840604721, 51.07903367591269], [-4.054683890598671, 51.078759292224355], [-4.054745474815103, 51.07896606403348]]]}}, {"type": "Feature", "properties": {"type": "postcode-cell", "postcode": "EX32 8JS", "postcodes": ["EX32 8JS"]}, "geometry": {"type": "Polygon", "coordinates": [[[-4.053936312247702, 51.07852962468541], [-4.053911561303505, 51.07853815709149], [-4.053250671340068, 51.07838615262435], [-4.053623269690221, 51.07782020187969], [-4.05373845171312, 51.07783830260719], [-4.054086918525165, 51.07827314664591], [-4.053936312247702, 51.07852962468541]]]}}, {"type": "Feature", "properties": {"type": "postcode-cell", "postcode": "EX32 8JT", "postcodes": ["EX32 8JT"]}, "geometry": {"type": "Polygon", "coordinates": [[[-4.05356528804854, 51.07776233731821], [-4.053623269690221, 51.07782020187969], [-4.053250671340068, 51.07838615262435], [-4.053049989928246, 51.07833999502437], [-4.0523908787501295, 51.07766607652387], [-4.05356528804854, 51.07776233731821]]]}}, {"type": "Feature", "properties": {"type": "postcode-cell", "postcode": "EX32 9HE", "postcodes": ["EX32 9HE"]}, "geometry": {"type": "Polygon", "coordinates": [[[-4.053652882874336, 51.0760543127569], [-4.053424918805161, 51.076665050185476], [-4.0528598688696125, 51.076790745217515], [-4.052349370527329, 51.076694655660575], [-4.052190194493822, 51.07579582186992], [-4.053104195598728, 51.07575423117668], [-4.053492393213795, 51.07588752069349], [-4.053652882874336, 51.0760543127569]]]}}, {"type": "Feature", "properties": {"type": "postcode-cell", "postcode": "EX32 9HJ", "postcodes": ["EX32 9HJ"]}, "geometry": {"type": "Polygon", "coordinates": [[[-4.053842420519251, 51.07716581642716], [-4.053754375965745, 51.07723474968135], [-4.05252687824667, 51.07751609348531], [-4.0528598688696125, 51.076790745217515], [-4.053424918805161, 51.076665050185476], [-4.053798360884553, 51.07699580504825], [-4.053842420519251, 51.07716581642716]]]}}, {"type": "Feature", "properties": {"type": "postcode-cell", "postcode": "EX32 9AF", "postcodes": ["EX32 9AF"]}, "geometry": {"type": "Polygon", "coordinates": [[[-4.053103693758715, 51.07567463875414], [-4.052973960608241, 51.07530603749582], [-4.053250644035889, 51.07488848512656], [-4.053576016893746, 51.07501005481233], [-4.053103693758715, 51.07567463875414]]]}}, {"type": "Feature", "properties": {"type": "postcode-cell", "postcode": "EX32 9AG", "postcodes": ["EX32 9AG"]}, "geometry": {"type": "Polygon", "coordinates": [[[-4.052973960608241, 51.07530603749582], [-4.052577680487706, 51.07487333683857], [-4.052879989929728, 51.0747499950214], [-4.053250644035889, 51.07488848512656], [-4.052973960608241, 51.07530603749582]]]}}, {"type": "Feature", "properties": {"type": "postcode-cell", "postcode": "EX32 8JG", "postcodes": ["EX32 8JG"]}, "geometry": {"type": "Polygon", "coordinates": [[[-4.05356528804854, 51.07776233731821], [-4.0523908787501295, 51.07766607652387], [-4.052367008922766, 51.07764167000051], [-4.05252687824667, 51.07751609348531], [-4.053754375965745, 51.07723474968135], [-4.05356528804854, 51.07776233731821]]]}}, {"type": "Feature", "properties": {"type": "postcode-cell", "postcode": "EX32 9HL", "postcodes": ["EX32 9HL"]}, "geometry": {"type": "Polygon", "coordinates": [[[-4.05252687824667, 51.07751609348531], [-4.052367008922766, 51.07764167000051], [-4.052159989928047, 51.07742999502365], [-4.051841965528117, 51.07726097373118], [-4.052045181596385, 51.07676720192592], [-4.052349370527329, 51.076694655660575], [-4.0528598688696125, 51.076790745217515], [-4.05252687824667, 51.07751609348531]]]}}, {"type": "Feature", "properties": {"type": "postcode-cell", "postcode": "EX32 9HS", "postcodes": ["EX32 9HS"]}, "geometry": {"type": "Polygon", "coordinates": [[[-4.052973960608241, 51.07530603749582], [-4.053103693758715, 51.07567463875414], [-4.053104195598728, 51.07575423117668], [-4.052190194493822, 51.07579582186992], [-4.052108599590862, 51.07578196600662], [-4.051570582552373, 51.07528422104684], [-4.052577680487706, 51.07487333683857], [-4.052973960608241, 51.07530603749582]]]}}, {"type": "Feature", "properties": {"type": "postcode-cell", "postcode": "EX32 9FN", "postcodes": ["EX32 9FN"]}, "geometry": {"type": "Polygon", "coordinates": [[[-4.052349370527329, 51.076694655660575], [-4.052045181596385, 51.07676720192592], [-4.051682961025597, 51.07665676563599], [-4.051469714901715, 51.07636702610043], [-4.051518192669368, 51.07610638797039], [-4.052108599590862, 51.07578196600662], [-4.052190194493822, 51.07579582186992], [-4.052349370527329, 51.076694655660575]]]}}, {"type": "Feature", "properties": {"type": "postcode-cell", "postcode": "EX32 9HW", "postcodes": ["EX32 9HW"]}, "geometry": {"type": "Polygon", "coordinates": [[[-4.051682961025597, 51.07665676563599], [-4.051169091579016, 51.07690335257923], [-4.050704852737439, 51.076656611920924], [-4.051469714901715, 51.07636702610043], [-4.051682961025597, 51.07665676563599]]]}}, {"type": "Feature", "properties": {"type": "postcode-cell", "postcode": "EX32 9HP", "postcodes": ["EX32 9HP"]}, "geometry": {"type": "Polygon", "coordinates": [[[-4.052108599590862, 51.07578196600662], [-4.051518192669368, 51.07610638797039], [-4.050675442152403, 51.07605480180589], [-4.050241070496586, 51.075826622191975], [-4.051570582552373, 51.07528422104684], [-4.052108599590862, 51.07578196600662]]]}}, {"type": "Feature", "properties": {"type": "postcode-cell", "postcode": "EX32 9HD", "postcodes": ["EX32 9HD"]}, "geometry": {"type": "Polygon", "coordinates": [[[-4.051469714901715, 51.07636702610043], [-4.050704852737439, 51.076656611920924], [-4.050622934258183, 51.07661307218254], [-4.050675442152403, 51.07605480180589], [-4.051518192669368, 51.07610638797039], [-4.051469714901715, 51.07636702610043]]]}}]}