{"type": "FeatureCollection", "features": [{"type": "Feature", "properties": {"type": "ward-outline", "name": "Bickington"}, "geometry": {"type": "MultiPolygon", "coordinates": [[[[-4.11715, 51.07416], [-4.11467, 51.07383], [-4.11455, 51.07404], [-4.11422, 51.07347], [-4.11854, 51.07429], [-4.11665, 51.07438], [-4.11715, 51.07416]]], [[[-4.07012, 51.07823], [-4.07019, 51.07819], [-4.07013, 51.07822], [-4.07012, 51.07823]]], [[[-4.06976, 51.07839], [-4.06978, 51.07838], [-4.06897, 51.07876], [-4.0683, 51.07907], [-4.06799, 51.07921], [-4.06795, 51.07922], [-4.06784, 51.07927], [-4.06781, 51.07928], [-4.06976, 51.07839]]], [[[-4.11425, 51.08991], [-4.11448, 51.08968], [-4.11422, 51.08978], [-4.11421, 51.08989], [-4.11422, 51.08991], [-4.1143, 51.08995], [-4.11317, 51.08968], [-4.11301, 51.08928], [-4.11426, 51.08935], [-4.1136, 51.08928], [-4.11386, 51.08877], [-4.11354, 51.08924], [-4.11296, 51.08924], [-4.1128, 51.08929], [-4.11138, 51.08851], [-4.11196, 51.0881], [-4.1124, 51.08827], [-4.11284, 51.08833], [-4.11291, 51.08824], [-4.11284, 51.08804], [-4.11324, 51.08803], [-4.11341, 51.0879], [-4.11246, 51.08743], [-4.11223, 51.08632], [-4.11242, 51.08745], [-4.11332, 51.08793], [-4.11282, 51.088], [-4.11277, 51.0881], [-4.11283, 51.08825], [-4.11269, 51.08829], [-4.112, 51.08804], [-4.11105, 51.0883], [-4.11045, 51.08776], [-4.11114, 51.08738], [-4.11034, 51.08771], [-4.1099, 51.0871], [-4.11039, 51.08676], [-4.10988, 51.08704], [-4.10778, 51.08506], [-4.1089, 51.0851], [-4.11073, 51.08599], [-4.11104, 51.08608], [-4.11075, 51.08524], [-4.11082, 51.08598], [-4.10946, 51.08527], [-4.10961, 51.08502], [-4.10914, 51.08515], [-4.10827, 51.0844], [-4.10777, 51.08436], [-4.10746, 51.08422], [-4.10766, 51.08387], [-4.10741, 51.08421], [-4.10746, 51.08425], [-4.10775, 51.08438], [-4.10826, 51.08443], [-4.10873, 51.085], [-4.10776, 51.0848], [-4.10764, 51.085], [-4.10778, 51.08534], [-4.10545, 51.08431], [-4.10641, 51.08383], [-4.10648, 51.08367], [-4.10612, 51.08311], [-4.10587, 51.08299], [-4.10556, 51.08285], [-4.10567, 51.08275], [-4.10632, 51.08235], [-4.10661, 51.08243], [-4.10778, 51.08288], [-4.10703, 51.08247], [-4.10659, 51.08237], [-4.10633, 51.08232], [-4.10621, 51.08236], [-4.10566, 51.08271], [-4.10534, 51.0828], [-4.10426, 51.08156], [-4.10313, 51.0812], [-4.10299, 51.08137], [-4.10418, 51.08155], [-4.10503, 51.08275], [-4.10439, 51.08226], [-4.10341, 51.08199], [-4.10318, 51.08192], [-4.10294, 51.08185], [-4.10223, 51.08172], [-4.10144, 51.08164], [-4.10099, 51.08159], [-4.10051, 51.08159], [-4.10139, 51.08169], [-4.10129, 51.08194], [-4.10149, 51.0817], [-4.10203, 51.08175], [-4.10309, 51.08193], [-4.10437, 51.08229], [-4.10455, 51.08261], [-4.10451, 51.0829], [-4.10595, 51.0831], [-4.10606, 51.08328], [-4.10636, 51.08373], [-4.10523, 51.08422], [-4.10285, 51.08334], [-4.10314, 51.08293], [-4.10272, 51.08329], [-4.09885, 51.08294], [-4.09937, 51.08231], [-4.09856, 51.08294], [-4.09781, 51.08281], [-4.09789, 51.08251], [-4.09769, 51.0828], [-4.09451, 51.08251], [-4.09529, 51.08255], [-4.09511, 51.08231], [-4.09598, 51.08218], [-4.09683, 51.08131], [-4.0977, 51.08146], [-4.09676, 51.08121], [-4.09554, 51.08115], [-4.09662, 51.08134], [-4.09594, 51.08212], [-4.09488, 51.08214], [-4.09511, 51.0825], [-4.09187, 51.08206], [-4.09211, 51.08178], [-4.09219, 51.08179], [-4.09233, 51.08193], [-4.09249, 51.082], [-4.09295, 51.08197], [-4.09271, 51.0818], [-4.0926, 51.08189], [-4.0925, 51.08197], [-4.09193, 51.08151], [-4.09088, 51.08156], [-4.09058, 51.08121], [-4.09025, 51.08147], [-4.0897, 51.08119], [-4.08982, 51.08149], [-4.0873, 51.08023], [-4.08714, 51.07993], [-4.0894, 51.08023], [-4.0869, 51.07986], [-4.08511, 51.07855], [-4.08235, 51.07788], [-4.07624, 51.07685], [-4.07342, 51.0772], [-4.07328, 51.07679], [-4.07334, 51.07722], [-4.07102, 51.07783], [-4.07097, 51.07784], [-4.07618, 51.07547], [-4.07775, 51.07344], [-4.07894, 51.07272], [-4.07906, 51.07183], [-4.08552, 51.07211], [-4.08588, 51.06824], [-4.08526, 51.06685], [-4.08398, 51.06546], [-4.08487, 51.06252], [-4.0859, 51.06009], [-4.08584, 51.05878], [-4.08668, 51.0575], [-4.08898, 51.05664], [-4.09421, 51.05543], [-4.09961, 51.05329], [-4.1013, 51.05509], [-4.10196, 51.05496], [-4.10272, 51.05568], [-4.10389, 51.05571], [-4.10347, 51.05686], [-4.10515, 51.05667], [-4.10537, 51.05686], [-4.10482, 51.05907], [-4.10536, 51.05906], [-4.10528, 51.05973], [-4.10618, 51.05978], [-4.10621, 51.06042], [-4.10518, 51.06552], [-4.10929, 51.06583], [-4.11687, 51.06919], [-4.11543, 51.06967], [-4.11769, 51.07069], [-4.11628, 51.0716], [-4.11644, 51.07192], [-4.11429, 51.07264], [-4.11424, 51.0732], [-4.11389, 51.07345], [-4.11315, 51.07293], [-4.11206, 51.0732], [-4.11198, 51.07302], [-4.11187, 51.07293], [-4.1109, 51.07285], [-4.11189, 51.07298], [-4.11197, 51.07324], [-4.11294, 51.07311], [-4.1146, 51.07457], [-4.11882, 51.07546], [-4.11975, 51.07646], [-4.1219, 51.07766], [-4.12187, 51.07849], [-4.1223, 51.07871], [-4.1205, 51.08025], [-4.11808, 51.08153], [-4.11795, 51.08292], [-4.11888, 51.08766], [-4.11867, 51.08889], [-4.11785, 51.08988], [-4.11772, 51.08963], [-4.11775, 51.08948], [-4.11752, 51.0893], [-4.11721, 51.08894], [-4.11597, 51.08838], [-4.11768, 51.08948], [-4.11767, 51.0896], [-4.11765, 51.08975], [-4.11637, 51.08967], [-4.11766, 51.08984], [-4.11465, 51.09002], [-4.11425, 51.08991]]]]}}, {"type": "Feature", "properties": {"type": "postcode-cell", "postcode": "EX31 2QF", "postcodes": ["EX31 2QF"]}, "geometry": {"type": "Polygon", "coordinates": [[[-4.117097900565293, 51.07915588567453], [-4.117832697667518, 51.075251791432095], [-4.118819989974325, 51.07545999502171], [-4.119749989974515, 51.076459995022525], [-4.1218999899754545, 51.077659995023495], [-4.121869989975065, 51.07848999502419], [-4.122299989975261, 51.07870999502438], [-4.12049998997335, 51.080249995025646], [-4.119873540068269, 51.08058135191365], [-4.117097900565293, 51.07915588567453]]]}}, {"type": "Feature", "properties": {"type": "postcode-cell", "postcode": "EX31 2NQ", "postcodes": ["EX31 2NQ"]}, "geometry": {"type": "MultiPolygon", "coordinates": [[[[-4.11015530023404, 51.07632524461686], [-4.10853743085248, 51.074068016343396], [-4.115603486252791, 51.06953038885681], [-4.1166606544507625, 51.06909721578153], [-4.116869989975768, 51.06918999501653], [-4.115429989974576, 51.069669995016945], [-4.117689989975665, 51.07068999501775], [-4.1162799899742994, 51.07159999501851], [-4.116439989974266, 51.071919995018796], [-4.114289989972479, 51.07263999501938], [-4.114239989972197, 51.07319999501985], [-4.113889989971846, 51.07344999502006], [-4.113149989971575, 51.07292999501962], [-4.11205998997071, 51.07319999501985], [-4.111979989970736, 51.07301999501971], [-4.111869989970699, 51.07292999501964], [-4.110899989970072, 51.072849995019574], [-4.111889989970693, 51.072979995019686], [-4.11196998997063, 51.073239995019875], [-4.112939989971353, 51.07310999501978], [-4.114599989971836, 51.07456999502099], [-4.116707761184212, 51.07501454843973], [-4.11015530023404, 51.07632524461686]]], [[[-4.114669989972211, 51.073829995020375], [-4.114549989972036, 51.07403999502054], [-4.114219989972064, 51.07346999502009], [-4.11853998997465, 51.07428999502074], [-4.116649989973319, 51.07437999502081], [-4.1171499899737585, 51.074159995020636], [-4.114669989972211, 51.073829995020375]]]]}}, {"type": "Feature", "properties": {"type": "postcode-cell", "postcode": "EX31 2NH", "postcodes": ["EX31 2NH"]}, "geometry": {"type": "MultiPolygon", "coordinates": [[[[-4.107538017418827, 51.08403587836559], [-4.1074099899626555, 51.084209995028985], [-4.107459989962671, 51.084249995029], [-4.107749989962812, 51.08437999502912], [-4.108259989963137, 51.084429995029154], [-4.108729989963206, 51.08499999502963], [-4.107759989962631, 51.084799995029464], [-4.107639989962462, 51.08499999502965], [-4.107779989962405, 51.08533999502992], [-4.106281049509332, 51.08467738398993], [-4.107538017418827, 51.08403587836559]]], [[[-4.117097900565293, 51.07915588567453], [-4.119873540068269, 51.08058135191365], [-4.118079989971131, 51.08152999502673], [-4.117949989970426, 51.08291999502787], [-4.118879989968962, 51.08765999503178], [-4.118669989968273, 51.0888899950328], [-4.117849989967274, 51.08987999503362], [-4.117719989967295, 51.08962999503341], [-4.117749989967382, 51.089479995033294], [-4.117519989967306, 51.08929999503314], [-4.117209989967252, 51.08893999503284], [-4.115969989966653, 51.08837999503239], [-4.1176799899673355, 51.0894799950333], [-4.117669989967276, 51.089599995033396], [-4.117649989967196, 51.08974999503353], [-4.116369989966355, 51.08966999503346], [-4.117659989967161, 51.089839995033586], [-4.114649989965026, 51.09001999503377], [-4.114249989964801, 51.089909995033665], [-4.11447998996506, 51.089679995033464], [-4.114219989964838, 51.08977999503354], [-4.114209989964781, 51.08988999503363], [-4.11421998996478, 51.08990999503366], [-4.114299989964818, 51.0899499950337], [-4.113169989964165, 51.089679995033485], [-4.113009989964231, 51.08927999503315], [-4.114259989965057, 51.0893499950332], [-4.113599989964636, 51.08927999503315], [-4.113859989965039, 51.08876999503272], [-4.113539989964613, 51.089239995033104], [-4.112959989964216, 51.08923999503312], [-4.112799989964083, 51.089289995033155], [-4.11137998996346, 51.088509995032524], [-4.111959989964038, 51.08809999503216], [-4.112399989964263, 51.08826999503231], [-4.112839989964539, 51.08832999503237], [-4.112909989964626, 51.088239995032275], [-4.112839989964666, 51.08803999503211], [-4.113239989964945, 51.088029995032116], [-4.113409989965118, 51.08789999503199], [-4.112459989964675, 51.087429995031606], [-4.112229989965012, 51.086319995030706], [-4.11241998996464, 51.087449995031626], [-4.113319989965041, 51.08792999503202], [-4.112819989964671, 51.0879999950321], [-4.112769989964591, 51.088099995032145], [-4.112829989964567, 51.08824999503229], [-4.112689989964454, 51.08828999503232], [-4.111999989964091, 51.08803999503212], [-4.111049989963328, 51.08829999503233], [-4.110449989963157, 51.08775999503191], [-4.111139989963798, 51.087379995031576], [-4.110339989963104, 51.08770999503185], [-4.109899989963075, 51.08709999503136], [-4.11038998996356, 51.08675999503106], [-4.109879989963088, 51.08703999503132], [-4.107779989962529, 51.08505999502966], [-4.108899989963279, 51.08509999502971], [-4.110729989964133, 51.08598999503046], [-4.111039989964305, 51.08607999503052], [-4.11074998996448, 51.08523999502981], [-4.110819989964198, 51.08597999503041], [-4.109459989963587, 51.085269995029854], [-4.109609989963797, 51.08501999502963], [-4.109139989963421, 51.08514999502975], [-4.108269989963158, 51.08439999502914], [-4.107769989962834, 51.08435999502908], [-4.107459989962685, 51.08421999502899], [-4.107576391265424, 51.08401629341735], [-4.117097900565293, 51.07915588567453]]]]}}, {"type": "Feature", "properties": {"type": "postcode-cell", "postcode": "EX31 2NG", "postcodes": ["EX31 2NG"]}, "geometry": {"type": "MultiPolygon", "coordinates": [[[[-4.105291613900692, 51.0830085563348], [-4.10594998996215, 51.083099995028086], [-4.106059989962146, 51.083279995028214], [-4.10635998996215, 51.08372999502859], [-4.105229989961162, 51.08421999502902], [-4.10465087559521, 51.08400587632415], [-4.105291613900692, 51.0830085563348]]], [[[-4.1089610661019895, 51.07729611681806], [-4.11015530023404, 51.07632524461686], [-4.116707761184212, 51.07501454843973], [-4.117832697667518, 51.075251791432095], [-4.117097900565293, 51.07915588567453], [-4.107576391265424, 51.08401629341735], [-4.107659989962975, 51.08386999502869], [-4.107538017418827, 51.08403587836559], [-4.106281049509332, 51.08467738398993], [-4.105449989961274, 51.08430999502907], [-4.106409989962141, 51.083829995028665], [-4.106479989962261, 51.08366999502854], [-4.106119989962259, 51.08310999502807], [-4.105869989962144, 51.08298999502798], [-4.105559989961995, 51.082849995027864], [-4.105669989962113, 51.082749995027775], [-4.106319989962735, 51.08234999502744], [-4.106609989962898, 51.08242999502751], [-4.107779989963498, 51.08287999502788], [-4.107029989963169, 51.082469995027544], [-4.1065899899629095, 51.08236999502745], [-4.106329989962754, 51.08231999502742], [-4.106209989962655, 51.082359995027446], [-4.105659989962125, 51.082709995027734], [-4.105444482837922, 51.08277060654038], [-4.1089610661019895, 51.07729611681806]]]]}}, {"type": "Feature", "properties": {"type": "postcode-cell", "postcode": "EX31 2NB", "postcodes": ["EX31 2NB"]}, "geometry": {"type": "Polygon", "coordinates": [[[-4.105444482837922, 51.08277060654038], [-4.105339989961867, 51.08279999502781], [-4.10425998996168, 51.081559995026794], [-4.103129989961068, 51.0811999950265], [-4.102989989960899, 51.08136999502665], [-4.104179989961629, 51.081549995026805], [-4.105029989961678, 51.0827499950278], [-4.10438998996146, 51.0822599950274], [-4.103409989960909, 51.08198999502717], [-4.1031799899607835, 51.08191999502711], [-4.102939989960651, 51.08184999502704], [-4.102229989960221, 51.08171999502694], [-4.10143998995972, 51.081639995026876], [-4.100989989959436, 51.081589995026846], [-4.100509989959108, 51.081589995026846], [-4.101389989959663, 51.08168999502691], [-4.1012899899594855, 51.081939995027135], [-4.101489989959728, 51.08169999502693], [-4.102029989960073, 51.081749995026954], [-4.103089989960718, 51.08192999502712], [-4.104369989961431, 51.08228999502739], [-4.104549989961414, 51.08260999502766], [-4.104509989961256, 51.082899995027915], [-4.105291613900692, 51.0830085563348], [-4.10465087559521, 51.08400587632415], [-4.102849989959928, 51.08333999502827], [-4.103139989960309, 51.08292999502794], [-4.102719989959861, 51.08328999502822], [-4.098849989957376, 51.08293999502796], [-4.099369989958013, 51.08230999502745], [-4.098559989957178, 51.082939995027964], [-4.097809989956725, 51.08280999502785], [-4.0978899899569114, 51.08250999502762], [-4.097689989956647, 51.08279999502785], [-4.097371699092514, 51.08277097257471], [-4.100047356666187, 51.07704381394077], [-4.100192573778317, 51.07688263868], [-4.102604962382213, 51.07547151469533], [-4.104854731723467, 51.07521839514248], [-4.1089610661019895, 51.07729611681806], [-4.105444482837922, 51.08277060654038]]]}}, {"type": "Feature", "properties": {"type": "postcode-cell", "postcode": "EX31 2NF", "postcodes": ["EX31 2NF"]}, "geometry": {"type": "Polygon", "coordinates": [[[-4.107333390305437, 51.07336028416336], [-4.106744570394443, 51.07217484631541], [-4.115603486252791, 51.06953038885681], [-4.10853743085248, 51.074068016343396], [-4.107333390305437, 51.07336028416336]]]}}, {"type": "Feature", "properties": {"type": "postcode-cell", "postcode": "EX31 2FF", "postcodes": ["EX31 2FF"]}, "geometry": {"type": "Polygon", "coordinates": [[[-4.10853743085248, 51.074068016343396], [-4.11015530023404, 51.07632524461686], [-4.1089610661019895, 51.07729611681806], [-4.104854731723467, 51.07521839514248], [-4.105242502455614, 51.07420489009225], [-4.107333390305437, 51.07336028416336], [-4.10853743085248, 51.074068016343396]]]}}, {"type": "Feature", "properties": {"type": "postcode-cell", "postcode": "EX31 2ND", "postcodes": ["EX31 2ND"]}, "geometry": {"type": "Polygon", "coordinates": [[[-4.115603486252791, 51.06953038885681], [-4.106744570394443, 51.07217484631541], [-4.106481781215768, 51.0720521343239], [-4.104584483903934, 51.07041513824364], [-4.104067294001361, 51.06974790875254], [-4.104295792221871, 51.06937813680712], [-4.107007422556634, 51.06602220050503], [-4.107308541675489, 51.06568056131866], [-4.109289989972091, 51.065829995013814], [-4.1166606544507625, 51.06909721578153], [-4.115603486252791, 51.06953038885681]]]}}, {"type": "Feature", "properties": {"type": "postcode-cell", "postcode": "EX31 3WD", "postcodes": ["EX31 3WD"]}, "geometry": {"type": "Polygon", "coordinates": [[[-4.107007422556634, 51.06602220050503], [-4.100030266403256, 51.068113614899], [-4.099163285186357, 51.067342637210835], [-4.099463417782514, 51.06640647654539], [-4.101456919818281, 51.06570917624242], [-4.102578097839773, 51.06542553474379], [-4.105217703197373, 51.065333278147214], [-4.105179989969423, 51.06551999501354], [-4.107308541675489, 51.06568056131866], [-4.107007422556634, 51.06602220050503]]]}}, {"type": "Feature", "properties": {"type": "postcode-cell", "postcode": "EX31 3TR", "postcodes": ["EX31 3TR"]}, "geometry": {"type": "Polygon", "coordinates": [[[-4.099378714226673, 51.06282646359231], [-4.099242728459044, 51.06282197888748], [-4.098372524766967, 51.06231172688769], [-4.097203620311754, 51.05919883372445], [-4.09750084412368, 51.05863383664639], [-4.105237964600046, 51.05739051529742], [-4.104819989972041, 51.059069995008215], [-4.105359989972413, 51.05905999500824], [-4.10527998997206, 51.05972999500878], [-4.106179989972651, 51.05977999500882], [-4.106209989972388, 51.06041999500935], [-4.105989094222901, 51.06151383918021], [-4.099378714226673, 51.06282646359231]]]}}, {"type": "Feature", "properties": {"type": "postcode-cell", "postcode": "EX31 2FG", "postcodes": ["EX31 2FG"]}, "geometry": {"type": "Polygon", "coordinates": [[[-4.107333390305437, 51.07336028416336], [-4.105242502455614, 51.07420489009225], [-4.103480549852284, 51.073703163617274], [-4.103526361329922, 51.07334601203135], [-4.106481781215768, 51.0720521343239], [-4.106744570394443, 51.07217484631541], [-4.107333390305437, 51.07336028416336]]]}}, {"type": "Feature", "properties": {"type": "postcode-cell", "postcode": "EX31 2PE", "postcodes": ["EX31 2PE"]}, "geometry": {"type": "Polygon", "coordinates": [[[-4.103480549852284, 51.073703163617274], [-4.102979352118442, 51.07400188656214], [-4.101653033308665, 51.073701496119234], [-4.101911900653282, 51.072718768786416], [-4.102943063963381, 51.07286856126817], [-4.103526361329922, 51.07334601203135], [-4.103480549852284, 51.073703163617274]]]}}, {"type": "Feature", "properties": {"type": "postcode-cell", "postcode": "EX31 2FJ", "postcodes": ["EX31 2FJ"]}, "geometry": {"type": "Polygon", "coordinates": [[[-4.097371699092514, 51.08277097257471], [-4.094509989954607, 51.08250999502763], [-4.095289989955122, 51.08254999502765], [-4.095109989955105, 51.08230999502747], [-4.095979989955756, 51.08217999502736], [-4.0968299899567215, 51.08130999502662], [-4.097699989957251, 51.08145999502675], [-4.096759989956718, 51.08120999502655], [-4.095539989955914, 51.08114999502649], [-4.096619989956567, 51.08133999502666], [-4.095939989955754, 51.082119995027284], [-4.094879989955024, 51.082139995027326], [-4.095109989955021, 51.08249999502763], [-4.093993912926821, 51.08234844014345], [-4.093133818427917, 51.078184175738315], [-4.09358735036674, 51.07741475195035], [-4.096580110798524, 51.07413873611999], [-4.097003437271222, 51.074077071509066], [-4.098090943476163, 51.07443324989775], [-4.100047356666187, 51.07704381394077], [-4.097371699092514, 51.08277097257471]]]}}, {"type": "Feature", "properties": {"type": "postcode-cell", "postcode": "EX31 2BR", "postcodes": ["EX31 2BR"]}, "geometry": {"type": "Polygon", "coordinates": [[[-4.104854731723467, 51.07521839514248], [-4.102604962382213, 51.07547151469533], [-4.102979352118442, 51.07400188656214], [-4.103480549852284, 51.073703163617274], [-4.105242502455614, 51.07420489009225], [-4.104854731723467, 51.07521839514248]]]}}, {"type": "Feature", "properties": {"type": "postcode-cell", "postcode": "EX31 2PF", "postcodes": ["EX31 2PF"]}, "geometry": {"type": "Polygon", "coordinates": [[[-4.100192573778317, 51.07688263868], [-4.100335331030911, 51.075132224267385], [-4.100389863905659, 51.074920001492465], [-4.101519204674816, 51.07372736100439], [-4.101653033308665, 51.073701496119234], [-4.102979352118442, 51.07400188656214], [-4.102604962382213, 51.07547151469533], [-4.100192573778317, 51.07688263868]]]}}, {"type": "Feature", "properties": {"type": "postcode-cell", "postcode": "EX31 2LX", "postcodes": ["EX31 2LX"]}, "geometry": {"type": "Polygon", "coordinates": [[[-4.104584483903934, 51.07041513824364], [-4.102943063963381, 51.07286856126817], [-4.101911900653282, 51.072718768786416], [-4.101170870340695, 51.0722730108209], [-4.10182823102411, 51.0703602181989], [-4.104067294001361, 51.06974790875254], [-4.104584483903934, 51.07041513824364]]]}}, {"type": "Feature", "properties": {"type": "postcode-cell", "postcode": "EX31 2NA", "postcodes": ["EX31 2NA"]}, "geometry": {"type": "Polygon", "coordinates": [[[-4.103526361329922, 51.07334601203135], [-4.102943063963381, 51.07286856126817], [-4.104584483903934, 51.07041513824364], [-4.106481781215768, 51.0720521343239], [-4.103526361329922, 51.07334601203135]]]}}, {"type": "Feature", "properties": {"type": "postcode-cell", "postcode": "EX31 2LY", "postcodes": ["EX31 2LY"]}, "geometry": {"type": "Polygon", "coordinates": [[[-4.101008544461242, 51.07234338231007], [-4.098999504179156, 51.07221084314094], [-4.098693765429841, 51.07080048544148], [-4.098825825524012, 51.070695161733134], [-4.100102799302482, 51.07028210313248], [-4.10182823102411, 51.0703602181989], [-4.101170870340695, 51.0722730108209], [-4.101008544461242, 51.07234338231007]]]}}, {"type": "Feature", "properties": {"type": "postcode-cell", "postcode": "EX31 2LU", "postcodes": ["EX31 2LU"]}, "geometry": {"type": "Polygon", "coordinates": [[[-4.101170870340695, 51.0722730108209], [-4.101911900653282, 51.072718768786416], [-4.101653033308665, 51.073701496119234], [-4.101519204674816, 51.07372736100439], [-4.101241554929628, 51.073627643794765], [-4.100870151721674, 51.07288873287975], [-4.100949345790582, 51.07240657778684], [-4.101008544461242, 51.07234338231007], [-4.101170870340695, 51.0722730108209]]]}}, {"type": "Feature", "properties": {"type": "postcode-cell", "postcode": "EX31 2LN", "postcodes": ["EX31 2LN"]}, "geometry": {"type": "Polygon", "coordinates": [[[-4.100335331030911, 51.075132224267385], [-4.098987679754936, 51.073834324472976], [-4.099381584551273, 51.07377844172771], [-4.099994052870392, 51.073745127076755], [-4.100389863905659, 51.074920001492465], [-4.100335331030911, 51.075132224267385]]]}}, {"type": "Feature", "properties": {"type": "postcode-cell", "postcode": "EX31 2LH", "postcodes": ["EX31 2LH"]}, "geometry": {"type": "Polygon", "coordinates": [[[-4.100389863905659, 51.074920001492465], [-4.099994052870392, 51.073745127076755], [-4.100044410421485, 51.07365765326522], [-4.100925443583714, 51.07358786959637], [-4.101241554929628, 51.073627643794765], [-4.101519204674816, 51.07372736100439], [-4.100389863905659, 51.074920001492465]]]}}, {"type": "Feature", "properties": {"type": "postcode-cell", "postcode": "EX31 2LR", "postcodes": ["EX31 2LR"]}, "geometry": {"type": "Polygon", "coordinates": [[[-4.100870151721674, 51.07288873287975], [-4.100627374417568, 51.07321920722993], [-4.099972698486754, 51.073448475339724], [-4.099834584057275, 51.07330328825504], [-4.099821419977361, 51.073008869974934], [-4.100949345790582, 51.07240657778684], [-4.100870151721674, 51.07288873287975]]]}}, {"type": "Feature", "properties": {"type": "postcode-cell", "postcode": "EX31 2LT", "postcodes": ["EX31 2LT"]}, "geometry": {"type": "Polygon", "coordinates": [[[-4.100627374417568, 51.07321920722993], [-4.100870151721674, 51.07288873287975], [-4.101241554929628, 51.073627643794765], [-4.100925443583714, 51.07358786959637], [-4.100627374417568, 51.07321920722993]]]}}, {"type": "Feature", "properties": {"type": "postcode-cell", "postcode": "EX31 2LS", "postcodes": ["EX31 2LS"]}, "geometry": {"type": "Polygon", "coordinates": [[[-4.100925443583714, 51.07358786959637], [-4.100044410421485, 51.07365765326522], [-4.099972698486754, 51.073448475339724], [-4.100627374417568, 51.07321920722993], [-4.100925443583714, 51.07358786959637]]]}}, {"type": "Feature", "properties": {"type": "postcode-cell", "postcode": "EX31 3WE", "postcodes": ["EX31 3WE"]}, "geometry": {"type": "Polygon", "coordinates": [[[-4.10182823102411, 51.0703602181989], [-4.100102799302482, 51.07028210313248], [-4.099220892100673, 51.06930793797665], [-4.0996388346467665, 51.0685248639273], [-4.100028990236698, 51.06834159467406], [-4.104295792221871, 51.06937813680712], [-4.104067294001361, 51.06974790875254], [-4.10182823102411, 51.0703602181989]]]}}, {"type": "Feature", "properties": {"type": "postcode-cell", "postcode": "EX31 3WF", "postcodes": ["EX31 3WF"]}, "geometry": {"type": "Polygon", "coordinates": [[[-4.104295792221871, 51.06937813680712], [-4.100028990236698, 51.06834159467406], [-4.100030266403256, 51.068113614899], [-4.107007422556634, 51.06602220050503], [-4.104295792221871, 51.06937813680712]]]}}, {"type": "Feature", "properties": {"type": "postcode-cell", "postcode": "EX31 2LW", "postcodes": ["EX31 2LW"]}, "geometry": {"type": "Polygon", "coordinates": [[[-4.100192573778317, 51.07688263868], [-4.100047356666187, 51.07704381394077], [-4.098090943476163, 51.07443324989775], [-4.098653353411838, 51.073790312407176], [-4.098987679754936, 51.073834324472976], [-4.100335331030911, 51.075132224267385], [-4.100192573778317, 51.07688263868]]]}}, {"type": "Feature", "properties": {"type": "postcode-cell", "postcode": "EX31 2LL", "postcodes": ["EX31 2LL"]}, "geometry": {"type": "Polygon", "coordinates": [[[-4.099994052870392, 51.073745127076755], [-4.099381584551273, 51.07377844172771], [-4.099266119192688, 51.07336599619086], [-4.099834584057275, 51.07330328825504], [-4.099972698486754, 51.073448475339724], [-4.100044410421485, 51.07365765326522], [-4.099994052870392, 51.073745127076755]]]}}, {"type": "Feature", "properties": {"type": "postcode-cell", "postcode": "EX31 3TP", "postcodes": ["EX31 3TP"]}, "geometry": {"type": "Polygon", "coordinates": [[[-4.099378714226673, 51.06282646359231], [-4.105989094222901, 51.06151383918021], [-4.105217703197373, 51.065333278147214], [-4.102578097839773, 51.06542553474379], [-4.10033102217914, 51.064473254378754], [-4.099378714226673, 51.06282646359231]]]}}, {"type": "Feature", "properties": {"type": "postcode-cell", "postcode": "EX31 3TN", "postcodes": ["EX31 3TN"]}, "geometry": {"type": "Polygon", "coordinates": [[[-4.10033102217914, 51.064473254378754], [-4.099748336907674, 51.06428419411767], [-4.098808381965225, 51.06330322830851], [-4.099242728459044, 51.06282197888748], [-4.099378714226673, 51.06282646359231], [-4.10033102217914, 51.064473254378754]]]}}, {"type": "Feature", "properties": {"type": "postcode-cell", "postcode": "EX31 2LZ", "postcodes": ["EX31 2LZ"]}, "geometry": {"type": "Polygon", "coordinates": [[[-4.099821419977361, 51.073008869974934], [-4.0986001408061, 51.07263845059053], [-4.098999504179156, 51.07221084314094], [-4.101008544461242, 51.07234338231007], [-4.100949345790582, 51.07240657778684], [-4.099821419977361, 51.073008869974934]]]}}, {"type": "Feature", "properties": {"type": "postcode-cell", "postcode": "EX31 3SA", "postcodes": ["EX31 3SA"]}, "geometry": {"type": "Polygon", "coordinates": [[[-4.102578097839773, 51.06542553474379], [-4.101456919818281, 51.06570917624242], [-4.097882044273735, 51.06490422135691], [-4.097431283045002, 51.06436600469948], [-4.09744596208347, 51.06422903895515], [-4.097861603738867, 51.064089774655656], [-4.099748336907674, 51.06428419411767], [-4.10033102217914, 51.064473254378754], [-4.102578097839773, 51.06542553474379]]]}}, {"type": "Feature", "properties": {"type": "postcode-cell", "postcode": "EX31 3WS", "postcodes": ["EX31 3WS"]}, "geometry": {"type": "Polygon", "coordinates": [[[-4.100028990236698, 51.06834159467406], [-4.0996388346467665, 51.0685248639273], [-4.098935695485328, 51.068006913723295], [-4.099115276485507, 51.06739727223233], [-4.099163285186357, 51.067342637210835], [-4.100030266403256, 51.068113614899], [-4.100028990236698, 51.06834159467406]]]}}, {"type": "Feature", "properties": {"type": "postcode-cell", "postcode": "EX31 3NS", "postcodes": ["EX31 3NS"]}, "geometry": {"type": "Polygon", "coordinates": [[[-4.09750084412368, 51.05863383664639], [-4.094847548185308, 51.05795289251854], [-4.093118980912514, 51.055682432594864], [-4.094209989966432, 51.05542999500529], [-4.099609989971059, 51.05328999500351], [-4.10129998997141, 51.05508999500496], [-4.101959989971918, 51.05495999500488], [-4.102719989972115, 51.055679995005455], [-4.1038899899729, 51.055709995005465], [-4.103469989972102, 51.05685999500642], [-4.105149989973332, 51.05666999500626], [-4.105369989973398, 51.056859995006405], [-4.105237964600046, 51.05739051529742], [-4.09750084412368, 51.05863383664639]]]}}, {"type": "Feature", "properties": {"type": "postcode-cell", "postcode": "EX31 3HR", "postcodes": ["EX31 3HR"]}, "geometry": {"type": "Polygon", "coordinates": [[[-4.097203620311754, 51.05919883372445], [-4.09564176980972, 51.06097624458229], [-4.095098059948389, 51.06146073666966], [-4.092961771711195, 51.06218771128896], [-4.092843043464879, 51.06221278936627], [-4.090247460815503, 51.06182643898486], [-4.0887137138491685, 51.05936710517222], [-4.094847548185308, 51.05795289251854], [-4.09750084412368, 51.05863383664639], [-4.097203620311754, 51.05919883372445]]]}}, {"type": "Feature", "properties": {"type": "postcode-cell", "postcode": "EX31 2LP", "postcodes": ["EX31 2LP"]}, "geometry": {"type": "Polygon", "coordinates": [[[-4.099821419977361, 51.073008869974934], [-4.099834584057275, 51.07330328825504], [-4.099266119192688, 51.07336599619086], [-4.098483513839638, 51.073368458747204], [-4.098070002677589, 51.07299911344628], [-4.098087022251227, 51.072849261416074], [-4.0986001408061, 51.07263845059053], [-4.099821419977361, 51.073008869974934]]]}}, {"type": "Feature", "properties": {"type": "postcode-cell", "postcode": "EX31 3GS", "postcodes": ["EX31 3GS"]}, "geometry": {"type": "Polygon", "coordinates": [[[-4.099242728459044, 51.06282197888748], [-4.098808381965225, 51.06330322830851], [-4.097917708317445, 51.063270249143294], [-4.0977844175537905, 51.06315595076529], [-4.098372524766967, 51.06231172688769], [-4.099242728459044, 51.06282197888748]]]}}, {"type": "Feature", "properties": {"type": "postcode-cell", "postcode": "EX31 3WG", "postcodes": ["EX31 3WG"]}, "geometry": {"type": "Polygon", "coordinates": [[[-4.099220892100673, 51.06930793797665], [-4.098288927542405, 51.06888309274352], [-4.098262847297097, 51.06881244994782], [-4.098458054366949, 51.06837768935911], [-4.098935695485328, 51.068006913723295], [-4.0996388346467665, 51.0685248639273], [-4.099220892100673, 51.06930793797665]]]}}, {"type": "Feature", "properties": {"type": "postcode-cell", "postcode": "EX31 3WR", "postcodes": ["EX31 3WR"]}, "geometry": {"type": "Polygon", "coordinates": [[[-4.100102799302482, 51.07028210313248], [-4.098825825524012, 51.070695161733134], [-4.0970595667711365, 51.069811156764715], [-4.096899311575006, 51.06936559399317], [-4.096973653480178, 51.0692699487261], [-4.098288927542405, 51.06888309274352], [-4.099220892100673, 51.06930793797665], [-4.100102799302482, 51.07028210313248]]]}}, {"type": "Feature", "properties": {"type": "postcode-cell", "postcode": "EX31 2LJ", "postcodes": ["EX31 2LJ"]}, "geometry": {"type": "Polygon", "coordinates": [[[-4.098653353411838, 51.073790312407176], [-4.098483513839638, 51.073368458747204], [-4.099266119192688, 51.07336599619086], [-4.099381584551273, 51.07377844172771], [-4.098987679754936, 51.073834324472976], [-4.098653353411838, 51.073790312407176]]]}}, {"type": "Feature", "properties": {"type": "postcode-cell", "postcode": "EX31 3WB", "postcodes": ["EX31 3WB"]}, "geometry": {"type": "Polygon", "coordinates": [[[-4.099115276485507, 51.06739727223233], [-4.097735689446069, 51.06789031748863], [-4.097584860928163, 51.06789428500901], [-4.097261576037493, 51.06766242406733], [-4.097016980538796, 51.066429285746054], [-4.097084623922134, 51.06637419674072], [-4.099463417782514, 51.06640647654539], [-4.099163285186357, 51.067342637210835], [-4.099115276485507, 51.06739727223233]]]}}, {"type": "Feature", "properties": {"type": "postcode-cell", "postcode": "EX31 2JU", "postcodes": ["EX31 2JU"]}, "geometry": {"type": "Polygon", "coordinates": [[[-4.0986001408061, 51.07263845059053], [-4.098087022251227, 51.072849261416074], [-4.097874808004543, 51.07274794226125], [-4.097097524954321, 51.07153089690416], [-4.09753505327946, 51.07116799908294], [-4.098693765429841, 51.07080048544148], [-4.098999504179156, 51.07221084314094], [-4.0986001408061, 51.07263845059053]]]}}, {"type": "Feature", "properties": {"type": "postcode-cell", "postcode": "EX31 3GT", "postcodes": ["EX31 3GT"]}, "geometry": {"type": "Polygon", "coordinates": [[[-4.099748336907674, 51.06428419411767], [-4.097861603738867, 51.064089774655656], [-4.097917708317445, 51.063270249143294], [-4.098808381965225, 51.06330322830851], [-4.099748336907674, 51.06428419411767]]]}}, {"type": "Feature", "properties": {"type": "postcode-cell", "postcode": "EX31 2LQ", "postcodes": ["EX31 2LQ"]}, "geometry": {"type": "Polygon", "coordinates": [[[-4.098483513839638, 51.073368458747204], [-4.098653353411838, 51.073790312407176], [-4.098090943476163, 51.07443324989775], [-4.097003437271222, 51.074077071509066], [-4.097260740289208, 51.073670511736594], [-4.097712362517303, 51.07321974172291], [-4.098070002677589, 51.07299911344628], [-4.098483513839638, 51.073368458747204]]]}}, {"type": "Feature", "properties": {"type": "postcode-cell", "postcode": "EX31 2JS", "postcodes": ["EX31 2JS"]}, "geometry": {"type": "Polygon", "coordinates": [[[-4.098087022251227, 51.072849261416074], [-4.098070002677589, 51.07299911344628], [-4.097712362517303, 51.07321974172291], [-4.09651954568475, 51.073190722202], [-4.0964217735412864, 51.072943203830185], [-4.096654995366126, 51.07268579149124], [-4.097874808004543, 51.07274794226125], [-4.098087022251227, 51.072849261416074]]]}}, {"type": "Feature", "properties": {"type": "postcode-cell", "postcode": "EX31 3GU", "postcodes": ["EX31 3GU"]}, "geometry": {"type": "Polygon", "coordinates": [[[-4.098372524766967, 51.06231172688769], [-4.0977844175537905, 51.06315595076529], [-4.097434605852061, 51.06312904242994], [-4.09564176980972, 51.06097624458229], [-4.097203620311754, 51.05919883372445], [-4.098372524766967, 51.06231172688769]]]}}, {"type": "Feature", "properties": {"type": "postcode-cell", "postcode": "EX31 3GW", "postcodes": ["EX31 3GW"]}, "geometry": {"type": "Polygon", "coordinates": [[[-4.09744596208347, 51.06422903895515], [-4.096075335951731, 51.06385678904853], [-4.096209982457571, 51.06345534630019], [-4.097434605852061, 51.06312904242994], [-4.0977844175537905, 51.06315595076529], [-4.097917708317445, 51.063270249143294], [-4.097861603738867, 51.064089774655656], [-4.09744596208347, 51.06422903895515]]]}}, {"type": "Feature", "properties": {"type": "postcode-cell", "postcode": "EX31 3WH", "postcodes": ["EX31 3WH"]}, "geometry": {"type": "Polygon", "coordinates": [[[-4.098935695485328, 51.068006913723295], [-4.098458054366949, 51.06837768935911], [-4.097735689446069, 51.06789031748863], [-4.099115276485507, 51.06739727223233], [-4.098935695485328, 51.068006913723295]]]}}, {"type": "Feature", "properties": {"type": "postcode-cell", "postcode": "EX31 3WJ", "postcodes": ["EX31 3WJ"]}, "geometry": {"type": "Polygon", "coordinates": [[[-4.098458054366949, 51.06837768935911], [-4.098262847297097, 51.06881244994782], [-4.097483088314103, 51.06841178591125], [-4.097377451400776, 51.068235459597815], [-4.097584860928163, 51.06789428500901], [-4.097735689446069, 51.06789031748863], [-4.098458054366949, 51.06837768935911]]]}}, {"type": "Feature", "properties": {"type": "postcode-cell", "postcode": "EX31 3NR", "postcodes": ["EX31 3NR"]}, "geometry": {"type": "Polygon", "coordinates": [[[-4.099463417782514, 51.06640647654539], [-4.097084623922134, 51.06637419674072], [-4.0968383391950125, 51.06609520653365], [-4.096977651144751, 51.06563065806399], [-4.097882044273735, 51.06490422135691], [-4.101456919818281, 51.06570917624242], [-4.099463417782514, 51.06640647654539]]]}}, {"type": "Feature", "properties": {"type": "postcode-cell", "postcode": "EX31 3QN", "postcodes": ["EX31 3QN"]}, "geometry": {"type": "Polygon", "coordinates": [[[-4.096977651144751, 51.06563065806399], [-4.096852997583421, 51.0649068403914], [-4.097431283045002, 51.06436600469948], [-4.097882044273735, 51.06490422135691], [-4.096977651144751, 51.06563065806399]]]}}, {"type": "Feature", "properties": {"type": "postcode-cell", "postcode": "EX31 2JX", "postcodes": ["EX31 2JX"]}, "geometry": {"type": "Polygon", "coordinates": [[[-4.098825825524012, 51.070695161733134], [-4.098693765429841, 51.07080048544148], [-4.09753505327946, 51.07116799908294], [-4.095590767727045, 51.07039512779965], [-4.0970595667711365, 51.069811156764715], [-4.098825825524012, 51.070695161733134]]]}}, {"type": "Feature", "properties": {"type": "postcode-cell", "postcode": "EX31 3WQ", "postcodes": ["EX31 3WQ"]}, "geometry": {"type": "Polygon", "coordinates": [[[-4.098288927542405, 51.06888309274352], [-4.096973653480178, 51.0692699487261], [-4.096736900462403, 51.06888433933938], [-4.096730145748761, 51.068733331742806], [-4.097483088314103, 51.06841178591125], [-4.098262847297097, 51.06881244994782], [-4.098288927542405, 51.06888309274352]]]}}, {"type": "Feature", "properties": {"type": "postcode-cell", "postcode": "EX31 3XL", "postcodes": ["EX31 3XL"]}, "geometry": {"type": "Polygon", "coordinates": [[[-4.097016980538796, 51.066429285746054], [-4.096747008752673, 51.06654690570097], [-4.095211337879071, 51.0667270345111], [-4.094548266558053, 51.0662543198456], [-4.094492161424216, 51.06608234487839], [-4.095197533825268, 51.065762441519794], [-4.0961863745903235, 51.06581951796426], [-4.0968383391950125, 51.06609520653365], [-4.097084623922134, 51.06637419674072], [-4.097016980538796, 51.066429285746054]]]}}, {"type": "Feature", "properties": {"type": "postcode-cell", "postcode": "EX31 3WN", "postcodes": ["EX31 3WN"]}, "geometry": {"type": "Polygon", "coordinates": [[[-4.097377451400776, 51.068235459597815], [-4.09624194543566, 51.068195057822386], [-4.096170623627538, 51.068162058304566], [-4.09620189828609, 51.068079618681246], [-4.097261576037493, 51.06766242406733], [-4.097584860928163, 51.06789428500901], [-4.097377451400776, 51.068235459597815]]]}}, {"type": "Feature", "properties": {"type": "postcode-cell", "postcode": "EX31 3GX", "postcodes": ["EX31 3GX"]}, "geometry": {"type": "Polygon", "coordinates": [[[-4.09564176980972, 51.06097624458229], [-4.097434605852061, 51.06312904242994], [-4.096209982457571, 51.06345534630019], [-4.095184769885174, 51.06174024776601], [-4.095098059948389, 51.06146073666966], [-4.09564176980972, 51.06097624458229]]]}}, {"type": "Feature", "properties": {"type": "postcode-cell", "postcode": "EX31 2FH", "postcodes": ["EX31 2FH"]}, "geometry": {"type": "Polygon", "coordinates": [[[-4.087598647994794, 51.0799908827016], [-4.0893999899521365, 51.08022999502578], [-4.0875905662218965, 51.07996220627754], [-4.08686634251937, 51.07739230044644], [-4.087398617692861, 51.074621802099436], [-4.088539789692453, 51.074529298016735], [-4.088975061101247, 51.07465051611292], [-4.092194322426381, 51.07680430429191], [-4.093133818427917, 51.078184175738315], [-4.093993912926821, 51.08234844014345], [-4.091869989953007, 51.08205999502726], [-4.0921099899532924, 51.081779995027034], [-4.092189989953346, 51.081789995027044], [-4.092329989953379, 51.08192999502716], [-4.092489989953457, 51.08199999502721], [-4.092949989953783, 51.08196999502717], [-4.092709989953696, 51.08179999502703], [-4.092599989953579, 51.08188999502712], [-4.092499989953476, 51.08196999502717], [-4.09192998995329, 51.08150999502681], [-4.090879989952556, 51.08155999502685], [-4.090579989952506, 51.08120999502656], [-4.090249989952164, 51.08146999502676], [-4.089699989951914, 51.08118999502656], [-4.089819989951864, 51.081489995026814], [-4.087726082033122, 51.080443049805275], [-4.087598647994794, 51.0799908827016]]]}}, {"type": "Feature", "properties": {"type": "postcode-cell", "postcode": "EX31 2JT", "postcodes": ["EX31 2JT"]}, "geometry": {"type": "Polygon", "coordinates": [[[-4.097874808004543, 51.07274794226125], [-4.096654995366126, 51.07268579149124], [-4.096408408624507, 51.07248764344241], [-4.096811874838827, 51.07161047229479], [-4.097097524954321, 51.07153089690416], [-4.097874808004543, 51.07274794226125]]]}}, {"type": "Feature", "properties": {"type": "postcode-cell", "postcode": "EX31 3WA", "postcodes": ["EX31 3WA"]}, "geometry": {"type": "Polygon", "coordinates": [[[-4.097261576037493, 51.06766242406733], [-4.09620189828609, 51.068079618681246], [-4.0960121754982115, 51.067455630062554], [-4.096747008752673, 51.06654690570097], [-4.097016980538796, 51.066429285746054], [-4.097261576037493, 51.06766242406733]]]}}, {"type": "Feature", "properties": {"type": "postcode-cell", "postcode": "EX31 3RT", "postcodes": ["EX31 3RT"]}, "geometry": {"type": "Polygon", "coordinates": [[[-4.097431283045002, 51.06436600469948], [-4.096852997583421, 51.0649068403914], [-4.095510612430893, 51.06460336660175], [-4.095694118430235, 51.06408572156064], [-4.095827178374534, 51.06396329139636], [-4.096075335951731, 51.06385678904853], [-4.09744596208347, 51.06422903895515], [-4.097431283045002, 51.06436600469948]]]}}, {"type": "Feature", "properties": {"type": "postcode-cell", "postcode": "EX31 3WP", "postcodes": ["EX31 3WP"]}, "geometry": {"type": "Polygon", "coordinates": [[[-4.096730145748761, 51.068733331742806], [-4.09624194543566, 51.068195057822386], [-4.097377451400776, 51.068235459597815], [-4.097483088314103, 51.06841178591125], [-4.096730145748761, 51.068733331742806]]]}}, {"type": "Feature", "properties": {"type": "postcode-cell", "postcode": "EX31 3GZ", "postcodes": ["EX31 3GZ"]}, "geometry": {"type": "Polygon", "coordinates": [[[-4.0968383391950125, 51.06609520653365], [-4.0961863745903235, 51.06581951796426], [-4.09545608036707, 51.06465867839974], [-4.095510612430893, 51.06460336660175], [-4.096852997583421, 51.0649068403914], [-4.096977651144751, 51.06563065806399], [-4.0968383391950125, 51.06609520653365]]]}}, {"type": "Feature", "properties": {"type": "postcode-cell", "postcode": "EX31 3XY", "postcodes": ["EX31 3XY"]}, "geometry": {"type": "Polygon", "coordinates": [[[-4.096973653480178, 51.0692699487261], [-4.096899311575006, 51.06936559399317], [-4.0963063887357345, 51.06935890627119], [-4.095405573674599, 51.06878824696913], [-4.096736900462403, 51.06888433933938], [-4.096973653480178, 51.0692699487261]]]}}, {"type": "Feature", "properties": {"type": "postcode-cell", "postcode": "EX31 2PJ", "postcodes": ["EX31 2PJ"]}, "geometry": {"type": "Polygon", "coordinates": [[[-4.09208738793975, 51.07498891296339], [-4.093210331016761, 51.07357443921644], [-4.094729531065921, 51.07351217278811], [-4.09358735036674, 51.07741475195035], [-4.093133818427917, 51.078184175738315], [-4.092194322426381, 51.07680430429191], [-4.09208738793975, 51.07498891296339]]]}}, {"type": "Feature", "properties": {"type": "postcode-cell", "postcode": "EX31 2JF", "postcodes": ["EX31 2JF"]}, "geometry": {"type": "Polygon", "coordinates": [[[-4.092194322426381, 51.07680430429191], [-4.088975061101247, 51.07465051611292], [-4.089943210926218, 51.07363113814044], [-4.091406930126409, 51.07372724269399], [-4.09208738793975, 51.07498891296339], [-4.092194322426381, 51.07680430429191]]]}}, {"type": "Feature", "properties": {"type": "postcode-cell", "postcode": "EX31 2JN", "postcodes": ["EX31 2JN"]}, "geometry": {"type": "Polygon", "coordinates": [[[-4.09358735036674, 51.07741475195035], [-4.094729531065921, 51.07351217278811], [-4.094870638372699, 51.07340063680368], [-4.095919815982719, 51.07368681408483], [-4.096580110798524, 51.07413873611999], [-4.09358735036674, 51.07741475195035]]]}}, {"type": "Feature", "properties": {"type": "postcode-cell", "postcode": "EX31 3GD", "postcodes": ["EX31 3GD"]}, "geometry": {"type": "Polygon", "coordinates": [[[-4.096075335951731, 51.06385678904853], [-4.095827178374534, 51.06396329139636], [-4.09469047561385, 51.06343496540359], [-4.095184769885174, 51.06174024776601], [-4.096209982457571, 51.06345534630019], [-4.096075335951731, 51.06385678904853]]]}}, {"type": "Feature", "properties": {"type": "postcode-cell", "postcode": "EX31 3GE", "postcodes": ["EX31 3GE"]}, "geometry": {"type": "Polygon", "coordinates": [[[-4.09545608036707, 51.06465867839974], [-4.094623653719926, 51.06488370755415], [-4.094104365489516, 51.064841791677544], [-4.093583278126933, 51.06466947764323], [-4.093503296565967, 51.06457984264986], [-4.094382916933023, 51.06403063469769], [-4.095694118430235, 51.06408572156064], [-4.095510612430893, 51.06460336660175], [-4.09545608036707, 51.06465867839974]]]}}, {"type": "Feature", "properties": {"type": "postcode-cell", "postcode": "EX31 3UT", "postcodes": ["EX31 3UT"]}, "geometry": {"type": "Polygon", "coordinates": [[[-4.09624194543566, 51.068195057822386], [-4.096730145748761, 51.068733331742806], [-4.096736900462403, 51.06888433933938], [-4.095405573674599, 51.06878824696913], [-4.095049575411289, 51.0686563436155], [-4.095073502717673, 51.06847515744553], [-4.096170623627538, 51.068162058304566], [-4.09624194543566, 51.068195057822386]]]}}, {"type": "Feature", "properties": {"type": "postcode-cell", "postcode": "EX31 2JY", "postcodes": ["EX31 2JY"]}, "geometry": {"type": "Polygon", "coordinates": [[[-4.09753505327946, 51.07116799908294], [-4.097097524954321, 51.07153089690416], [-4.096811874838827, 51.07161047229479], [-4.095351367171868, 51.071629341880964], [-4.095022737013073, 51.070383364355344], [-4.095590767727045, 51.07039512779965], [-4.09753505327946, 51.07116799908294]]]}}, {"type": "Feature", "properties": {"type": "postcode-cell", "postcode": "EX31 3UZ", "postcodes": ["EX31 3UZ"]}, "geometry": {"type": "Polygon", "coordinates": [[[-4.096170623627538, 51.068162058304566], [-4.095073502717673, 51.06847515744553], [-4.094958394412117, 51.0683840475716], [-4.094567867779356, 51.06771084027489], [-4.094667614932187, 51.0675915192396], [-4.0960121754982115, 51.067455630062554], [-4.09620189828609, 51.068079618681246], [-4.096170623627538, 51.068162058304566]]]}}, {"type": "Feature", "properties": {"type": "postcode-cell", "postcode": "EX31 2JP", "postcodes": ["EX31 2JP"]}, "geometry": {"type": "Polygon", "coordinates": [[[-4.096488938341043, 51.073246764970555], [-4.095919815982719, 51.07368681408483], [-4.094870638372699, 51.07340063680368], [-4.094867680957264, 51.07310237777192], [-4.0964217735412864, 51.072943203830185], [-4.09651954568475, 51.073190722202], [-4.096488938341043, 51.073246764970555]]]}}, {"type": "Feature", "properties": {"type": "postcode-cell", "postcode": "EX31 2JW", "postcodes": ["EX31 2JW"]}, "geometry": {"type": "Polygon", "coordinates": [[[-4.09651954568475, 51.073190722202], [-4.097712362517303, 51.07321974172291], [-4.097260740289208, 51.073670511736594], [-4.096488938341043, 51.073246764970555], [-4.09651954568475, 51.073190722202]]]}}, {"type": "Feature", "properties": {"type": "postcode-cell", "postcode": "EX31 2JH", "postcodes": ["EX31 2JH"]}, "geometry": {"type": "Polygon", "coordinates": [[[-4.096654995366126, 51.07268579149124], [-4.0964217735412864, 51.072943203830185], [-4.094867680957264, 51.07310237777192], [-4.094673886006191, 51.0726485055096], [-4.0949346326717055, 51.07243137384411], [-4.096408408624507, 51.07248764344241], [-4.096654995366126, 51.07268579149124]]]}}, {"type": "Feature", "properties": {"type": "postcode-cell", "postcode": "EX31 2JR", "postcodes": ["EX31 2JR"]}, "geometry": {"type": "Polygon", "coordinates": [[[-4.097003437271222, 51.074077071509066], [-4.096580110798524, 51.07413873611999], [-4.095919815982719, 51.07368681408483], [-4.096488938341043, 51.073246764970555], [-4.097260740289208, 51.073670511736594], [-4.097003437271222, 51.074077071509066]]]}}, {"type": "Feature", "properties": {"type": "postcode-cell", "postcode": "EX31 3XZ", "postcodes": ["EX31 3XZ"]}, "geometry": {"type": "Polygon", "coordinates": [[[-4.095405573674599, 51.06878824696913], [-4.0963063887357345, 51.06935890627119], [-4.095451046207346, 51.06966288720303], [-4.094999502495599, 51.06871010401677], [-4.095049575411289, 51.0686563436155], [-4.095405573674599, 51.06878824696913]]]}}, {"type": "Feature", "properties": {"type": "postcode-cell", "postcode": "EX31 2JL", "postcodes": ["EX31 2JL"]}, "geometry": {"type": "Polygon", "coordinates": [[[-4.096408408624507, 51.07248764344241], [-4.0949346326717055, 51.07243137384411], [-4.095216414175837, 51.0717269335298], [-4.095351367171868, 51.071629341880964], [-4.096811874838827, 51.07161047229479], [-4.096408408624507, 51.07248764344241]]]}}, {"type": "Feature", "properties": {"type": "postcode-cell", "postcode": "EX31 3UW", "postcodes": ["EX31 3UW"]}, "geometry": {"type": "Polygon", "coordinates": [[[-4.0970595667711365, 51.069811156764715], [-4.095590767727045, 51.07039512779965], [-4.095022737013073, 51.070383364355344], [-4.09496867780066, 51.07035855131485], [-4.095451046207346, 51.06966288720303], [-4.0963063887357345, 51.06935890627119], [-4.096899311575006, 51.06936559399317], [-4.0970595667711365, 51.069811156764715]]]}}, {"type": "Feature", "properties": {"type": "postcode-cell", "postcode": "EX31 2JZ", "postcodes": ["EX31 2JZ"]}, "geometry": {"type": "Polygon", "coordinates": [[[-4.095351367171868, 51.071629341880964], [-4.095216414175837, 51.0717269335298], [-4.0937030976502395, 51.071448503361914], [-4.093222496992661, 51.07073312536801], [-4.093391985081443, 51.07047611246631], [-4.0944502719423275, 51.070302144283], [-4.09496867780066, 51.07035855131485], [-4.095022737013073, 51.070383364355344], [-4.095351367171868, 51.071629341880964]]]}}, {"type": "Feature", "properties": {"type": "postcode-cell", "postcode": "EX31 2AN", "postcodes": ["EX31 2AN"]}, "geometry": {"type": "Polygon", "coordinates": [[[-4.094729531065921, 51.07351217278811], [-4.093210331016761, 51.07357443921644], [-4.092872084910283, 51.07316242275879], [-4.094001668064165, 51.07254607439549], [-4.094673886006191, 51.0726485055096], [-4.094867680957264, 51.07310237777192], [-4.094870638372699, 51.07340063680368], [-4.094729531065921, 51.07351217278811]]]}}, {"type": "Feature", "properties": {"type": "postcode-cell", "postcode": "EX31 2BW", "postcodes": ["EX31 2BW"]}, "geometry": {"type": "Polygon", "coordinates": [[[-4.0949346326717055, 51.07243137384411], [-4.094673886006191, 51.0726485055096], [-4.094001668064165, 51.07254607439549], [-4.093314384705315, 51.07216809141346], [-4.0937030976502395, 51.071448503361914], [-4.095216414175837, 51.0717269335298], [-4.0949346326717055, 51.07243137384411]]]}}, {"type": "Feature", "properties": {"type": "postcode-cell", "postcode": "EX31 3XB", "postcodes": ["EX31 3XB"]}, "geometry": {"type": "Polygon", "coordinates": [[[-4.094667614932187, 51.0675915192396], [-4.094567867779356, 51.06771084027489], [-4.094554636121722, 51.06771074112634], [-4.093387457685868, 51.06747712705201], [-4.093122426697652, 51.06733160612806], [-4.0930875843874865, 51.06710932811569], [-4.093541995283929, 51.0667816725234], [-4.093715727963582, 51.066789328342566], [-4.09465184422961, 51.067055655065914], [-4.094667614932187, 51.0675915192396]]]}}, {"type": "Feature", "properties": {"type": "postcode-cell", "postcode": "EX31 3XD", "postcodes": ["EX31 3XD"]}, "geometry": {"type": "Polygon", "coordinates": [[[-4.09465184422961, 51.067055655065914], [-4.095211337879071, 51.0667270345111], [-4.096747008752673, 51.06654690570097], [-4.0960121754982115, 51.067455630062554], [-4.094667614932187, 51.0675915192396], [-4.09465184422961, 51.067055655065914]]]}}, {"type": "Feature", "properties": {"type": "postcode-cell", "postcode": "EX31 3UR", "postcodes": ["EX31 3UR"]}, "geometry": {"type": "Polygon", "coordinates": [[[-4.095073502717673, 51.06847515744553], [-4.095049575411289, 51.0686563436155], [-4.094999502495599, 51.06871010401677], [-4.09438958034697, 51.06900729707387], [-4.09301644782028, 51.06842764748565], [-4.093151833165328, 51.068371039914496], [-4.094958394412117, 51.0683840475716], [-4.095073502717673, 51.06847515744553]]]}}, {"type": "Feature", "properties": {"type": "postcode-cell", "postcode": "EX31 3XX", "postcodes": ["EX31 3XX"]}, "geometry": {"type": "Polygon", "coordinates": [[[-4.09496867780066, 51.07035855131485], [-4.0944502719423275, 51.070302144283], [-4.094229996072388, 51.06916356067691], [-4.09438958034697, 51.06900729707387], [-4.094999502495599, 51.06871010401677], [-4.095451046207346, 51.06966288720303], [-4.09496867780066, 51.07035855131485]]]}}, {"type": "Feature", "properties": {"type": "postcode-cell", "postcode": "EX31 3GH", "postcodes": ["EX31 3GH"]}, "geometry": {"type": "Polygon", "coordinates": [[[-4.09469047561385, 51.06343496540359], [-4.094234547808021, 51.063516784779665], [-4.092961771711195, 51.06218771128896], [-4.095098059948389, 51.06146073666966], [-4.095184769885174, 51.06174024776601], [-4.09469047561385, 51.06343496540359]]]}}, {"type": "Feature", "properties": {"type": "postcode-cell", "postcode": "EX31 3XJ", "postcodes": ["EX31 3XJ"]}, "geometry": {"type": "Polygon", "coordinates": [[[-4.0961863745903235, 51.06581951796426], [-4.095197533825268, 51.065762441519794], [-4.094793242013363, 51.065456998732245], [-4.094623653719926, 51.06488370755415], [-4.09545608036707, 51.06465867839974], [-4.0961863745903235, 51.06581951796426]]]}}, {"type": "Feature", "properties": {"type": "postcode-cell", "postcode": "EX31 3GF", "postcodes": ["EX31 3GF"]}, "geometry": {"type": "Polygon", "coordinates": [[[-4.095694118430235, 51.06408572156064], [-4.094382916933023, 51.06403063469769], [-4.0941254541893075, 51.06363229732827], [-4.094234547808021, 51.063516784779665], [-4.09469047561385, 51.06343496540359], [-4.095827178374534, 51.06396329139636], [-4.095694118430235, 51.06408572156064]]]}}, {"type": "Feature", "properties": {"type": "postcode-cell", "postcode": "EX31 3XQ", "postcodes": ["EX31 3XQ"]}, "geometry": {"type": "Polygon", "coordinates": [[[-4.095211337879071, 51.0667270345111], [-4.09465184422961, 51.067055655065914], [-4.093715727963582, 51.066789328342566], [-4.094548266558053, 51.0662543198456], [-4.095211337879071, 51.0667270345111]]]}}, {"type": "Feature", "properties": {"type": "postcode-cell", "postcode": "EX31 3US", "postcodes": ["EX31 3US"]}, "geometry": {"type": "Polygon", "coordinates": [[[-4.094382916933023, 51.06403063469769], [-4.093503296565967, 51.06457984264986], [-4.092401059200399, 51.06404774440563], [-4.092396331229706, 51.06404164911664], [-4.0925100370425636, 51.06388066444684], [-4.0941254541893075, 51.06363229732827], [-4.094382916933023, 51.06403063469769]]]}}, {"type": "Feature", "properties": {"type": "postcode-cell", "postcode": "EX31 3XG", "postcodes": ["EX31 3XG"]}, "geometry": {"type": "Polygon", "coordinates": [[[-4.095197533825268, 51.065762441519794], [-4.094492161424216, 51.06608234487839], [-4.093752938093347, 51.06587833360006], [-4.0937629772540625, 51.06583980419451], [-4.093940564147064, 51.065664292213874], [-4.094793242013363, 51.065456998732245], [-4.095197533825268, 51.065762441519794]]]}}, {"type": "Feature", "properties": {"type": "postcode-cell", "postcode": "EX31 3XH", "postcodes": ["EX31 3XH"]}, "geometry": {"type": "Polygon", "coordinates": [[[-4.094623653719926, 51.06488370755415], [-4.094793242013363, 51.065456998732245], [-4.093940564147064, 51.065664292213874], [-4.094104365489516, 51.064841791677544], [-4.094623653719926, 51.06488370755415]]]}}, {"type": "Feature", "properties": {"type": "postcode-cell", "postcode": "EX31 3ZE", "postcodes": ["EX31 3ZE", "EX31 3ZG"]}, "geometry": {"type": "Polygon", "coordinates": [[[-4.094234547808021, 51.063516784779665], [-4.0941254541893075, 51.06363229732827], [-4.0925100370425636, 51.06388066444684], [-4.092843043464879, 51.06221278936627], [-4.092961771711195, 51.06218771128896], [-4.094234547808021, 51.063516784779665]]]}}, {"type": "Feature", "properties": {"type": "postcode-cell", "postcode": "EX31 3XA", "postcodes": ["EX31 3XA"]}, "geometry": {"type": "Polygon", "coordinates": [[[-4.0937629772540625, 51.06583980419451], [-4.093152762239556, 51.06517322945175], [-4.093583278126933, 51.06466947764323], [-4.094104365489516, 51.064841791677544], [-4.093940564147064, 51.065664292213874], [-4.0937629772540625, 51.06583980419451]]]}}, {"type": "Feature", "properties": {"type": "postcode-cell", "postcode": "EX31 3XR", "postcodes": ["EX31 3XR"]}, "geometry": {"type": "Polygon", "coordinates": [[[-4.094548266558053, 51.0662543198456], [-4.093715727963582, 51.066789328342566], [-4.093541995283929, 51.0667816725234], [-4.093339712048589, 51.06637950269069], [-4.093577256739197, 51.065955462500625], [-4.093752938093347, 51.06587833360006], [-4.094492161424216, 51.06608234487839], [-4.094548266558053, 51.0662543198456]]]}}, {"type": "Feature", "properties": {"type": "postcode-cell", "postcode": "EX31 3FL", "postcodes": ["EX31 3FL"]}, "geometry": {"type": "Polygon", "coordinates": [[[-4.093752938093347, 51.06587833360006], [-4.093577256739197, 51.065955462500625], [-4.092718297559364, 51.065750071515595], [-4.092318724585663, 51.065498327081016], [-4.093152762239556, 51.06517322945175], [-4.0937629772540625, 51.06583980419451], [-4.093752938093347, 51.06587833360006]]]}}, {"type": "Feature", "properties": {"type": "postcode-cell", "postcode": "EX31 3FG", "postcodes": ["EX31 3FG"]}, "geometry": {"type": "Polygon", "coordinates": [[[-4.093583278126933, 51.06466947764323], [-4.093152762239556, 51.06517322945175], [-4.092318724585663, 51.065498327081016], [-4.0916607111472105, 51.065444280791475], [-4.092401059200399, 51.06404774440563], [-4.093503296565967, 51.06457984264986], [-4.093583278126933, 51.06466947764323]]]}}, {"type": "Feature", "properties": {"type": "postcode-cell", "postcode": "EX31 3XU", "postcodes": ["EX31 3XU"]}, "geometry": {"type": "Polygon", "coordinates": [[[-4.094958394412117, 51.0683840475716], [-4.093151833165328, 51.068371039914496], [-4.093357303336231, 51.06816080464009], [-4.094554636121722, 51.06771074112634], [-4.094567867779356, 51.06771084027489], [-4.094958394412117, 51.0683840475716]]]}}, {"type": "Feature", "properties": {"type": "postcode-cell", "postcode": "EX31 3UL", "postcodes": ["EX31 3UL"]}, "geometry": {"type": "Polygon", "coordinates": [[[-4.092396331229706, 51.06404164911664], [-4.090968460845246, 51.06396881959369], [-4.090249850021168, 51.0635484102503], [-4.090054018706637, 51.06207496454641], [-4.090247460815503, 51.06182643898486], [-4.092843043464879, 51.06221278936627], [-4.0925100370425636, 51.06388066444684], [-4.092396331229706, 51.06404164911664]]]}}, {"type": "Feature", "properties": {"type": "postcode-cell", "postcode": "EX31 3XT", "postcodes": ["EX31 3XT"]}, "geometry": {"type": "Polygon", "coordinates": [[[-4.094554636121722, 51.06771074112634], [-4.093357303336231, 51.06816080464009], [-4.093387457685868, 51.06747712705201], [-4.094554636121722, 51.06771074112634]]]}}, {"type": "Feature", "properties": {"type": "postcode-cell", "postcode": "EX31 3XP", "postcodes": ["EX31 3XP"]}, "geometry": {"type": "Polygon", "coordinates": [[[-4.0944502719423275, 51.070302144283], [-4.093391985081443, 51.07047611246631], [-4.0929056350065665, 51.07014170095561], [-4.093054195224723, 51.0692170980255], [-4.094229996072388, 51.06916356067691], [-4.0944502719423275, 51.070302144283]]]}}, {"type": "Feature", "properties": {"type": "postcode-cell", "postcode": "EX31 3XN", "postcodes": ["EX31 3XN"]}, "geometry": {"type": "Polygon", "coordinates": [[[-4.093541995283929, 51.0667816725234], [-4.0930875843874865, 51.06710932811569], [-4.091975940472083, 51.06685354465767], [-4.091687234261821, 51.06652022549967], [-4.092530599710724, 51.06632361073238], [-4.093339712048589, 51.06637950269069], [-4.093541995283929, 51.0667816725234]]]}}, {"type": "Feature", "properties": {"type": "postcode-cell", "postcode": "EX31 3XF", "postcodes": ["EX31 3XF"]}, "geometry": {"type": "Polygon", "coordinates": [[[-4.09301644782028, 51.06842764748565], [-4.0929040734467215, 51.0684487239249], [-4.092069184402354, 51.06802164888551], [-4.093122426697652, 51.06733160612806], [-4.093387457685868, 51.06747712705201], [-4.093357303336231, 51.06816080464009], [-4.093151833165328, 51.068371039914496], [-4.09301644782028, 51.06842764748565]]]}}, {"type": "Feature", "properties": {"type": "postcode-cell", "postcode": "EX31 3UY", "postcodes": ["EX31 3UY"]}, "geometry": {"type": "Polygon", "coordinates": [[[-4.094229996072388, 51.06916356067691], [-4.093054195224723, 51.0692170980255], [-4.09276275885187, 51.0689476559252], [-4.0929040734467215, 51.0684487239249], [-4.09301644782028, 51.06842764748565], [-4.09438958034697, 51.06900729707387], [-4.094229996072388, 51.06916356067691]]]}}, {"type": "Feature", "properties": {"type": "postcode-cell", "postcode": "EX31 2PS", "postcodes": ["EX31 2PS"]}, "geometry": {"type": "Polygon", "coordinates": [[[-4.093314384705315, 51.07216809141346], [-4.092897289199186, 51.072160338810995], [-4.092352480854382, 51.07196949165581], [-4.0923292975146675, 51.07112552676938], [-4.093222496992661, 51.07073312536801], [-4.0937030976502395, 51.071448503361914], [-4.093314384705315, 51.07216809141346]]]}}, {"type": "Feature", "properties": {"type": "postcode-cell", "postcode": "EX31 2PY", "postcodes": ["EX31 2PY"]}, "geometry": {"type": "Polygon", "coordinates": [[[-4.09208738793975, 51.07498891296339], [-4.091406930126409, 51.07372724269399], [-4.091583452582491, 51.073108785371694], [-4.091617914956143, 51.07309825934423], [-4.092253009171776, 51.0730324421365], [-4.092872084910283, 51.07316242275879], [-4.093210331016761, 51.07357443921644], [-4.09208738793975, 51.07498891296339]]]}}, {"type": "Feature", "properties": {"type": "postcode-cell", "postcode": "EX31 2JQ", "postcodes": ["EX31 2JQ"]}, "geometry": {"type": "Polygon", "coordinates": [[[-4.092872084910283, 51.07316242275879], [-4.092253009171776, 51.0730324421365], [-4.092897289199186, 51.072160338810995], [-4.093314384705315, 51.07216809141346], [-4.094001668064165, 51.07254607439549], [-4.092872084910283, 51.07316242275879]]]}}, {"type": "Feature", "properties": {"type": "postcode-cell", "postcode": "EX31 3UU", "postcodes": ["EX31 3UU"]}, "geometry": {"type": "Polygon", "coordinates": [[[-4.09276275885187, 51.0689476559252], [-4.091263609798717, 51.06923604339001], [-4.091178155177374, 51.06913199527514], [-4.09102041671773, 51.06832950372845], [-4.091652619539141, 51.067985253840156], [-4.092069184402354, 51.06802164888551], [-4.0929040734467215, 51.0684487239249], [-4.09276275885187, 51.0689476559252]]]}}, {"type": "Feature", "properties": {"type": "postcode-cell", "postcode": "EX31 3UX", "postcodes": ["EX31 3UX"]}, "geometry": {"type": "Polygon", "coordinates": [[[-4.093054195224723, 51.0692170980255], [-4.0929056350065665, 51.07014170095561], [-4.091794581089954, 51.0699376476401], [-4.0912415125884225, 51.06942303503025], [-4.091263609798717, 51.06923604339001], [-4.09276275885187, 51.0689476559252], [-4.093054195224723, 51.0692170980255]]]}}, {"type": "Feature", "properties": {"type": "postcode-cell", "postcode": "EX31 2LF", "postcodes": ["EX31 2LF"]}, "geometry": {"type": "Polygon", "coordinates": [[[-4.093222496992661, 51.07073312536801], [-4.0923292975146675, 51.07112552676938], [-4.091592406986983, 51.071091683083786], [-4.090945981031424, 51.070622918199255], [-4.091794581089954, 51.0699376476401], [-4.0929056350065665, 51.07014170095561], [-4.093391985081443, 51.07047611246631], [-4.093222496992661, 51.07073312536801]]]}}, {"type": "Feature", "properties": {"type": "postcode-cell", "postcode": "EX31 3XW", "postcodes": ["EX31 3XW"]}, "geometry": {"type": "Polygon", "coordinates": [[[-4.093339712048589, 51.06637950269069], [-4.092530599710724, 51.06632361073238], [-4.092718297559364, 51.065750071515595], [-4.093577256739197, 51.065955462500625], [-4.093339712048589, 51.06637950269069]]]}}, {"type": "Feature", "properties": {"type": "postcode-cell", "postcode": "EX31 3XS", "postcodes": ["EX31 3XS"]}, "geometry": {"type": "Polygon", "coordinates": [[[-4.092530599710724, 51.06632361073238], [-4.091687234261821, 51.06652022549967], [-4.091125208806003, 51.06628148543307], [-4.091459158966228, 51.06551149183363], [-4.0916607111472105, 51.065444280791475], [-4.092318724585663, 51.065498327081016], [-4.092718297559364, 51.065750071515595], [-4.092530599710724, 51.06632361073238]]]}}, {"type": "Feature", "properties": {"type": "postcode-cell", "postcode": "EX31 3XE", "postcodes": ["EX31 3XE"]}, "geometry": {"type": "Polygon", "coordinates": [[[-4.093122426697652, 51.06733160612806], [-4.092069184402354, 51.06802164888551], [-4.091652619539141, 51.067985253840156], [-4.091534232263409, 51.067715441260795], [-4.091537282731719, 51.06766498206809], [-4.091975940472083, 51.06685354465767], [-4.0930875843874865, 51.06710932811569], [-4.093122426697652, 51.06733160612806]]]}}, {"type": "Feature", "properties": {"type": "postcode-cell", "postcode": "EX31 2JG", "postcodes": ["EX31 2JG"]}, "geometry": {"type": "Polygon", "coordinates": [[[-4.092897289199186, 51.072160338810995], [-4.092253009171776, 51.0730324421365], [-4.091617914956143, 51.07309825934423], [-4.092077039020996, 51.07203410100944], [-4.092352480854382, 51.07196949165581], [-4.092897289199186, 51.072160338810995]]]}}, {"type": "Feature", "properties": {"type": "postcode-cell", "postcode": "EX31 3ZB", "postcodes": ["EX31 3ZB"]}, "geometry": {"type": "Polygon", "coordinates": [[[-4.090249850021168, 51.0635484102503], [-4.088702625515557, 51.06414381021151], [-4.088579095319631, 51.064140039503464], [-4.087803285616628, 51.06312932766519], [-4.087881020119312, 51.06289001050299], [-4.090054018706637, 51.06207496454641], [-4.090249850021168, 51.0635484102503]]]}}, {"type": "Feature", "properties": {"type": "postcode-cell", "postcode": "EX31 3TJ", "postcodes": ["EX31 3TJ"]}, "geometry": {"type": "Polygon", "coordinates": [[[-4.091459158966228, 51.06551149183363], [-4.09031833286682, 51.06497623478649], [-4.090968460845246, 51.06396881959369], [-4.092396331229706, 51.06404164911664], [-4.092401059200399, 51.06404774440563], [-4.0916607111472105, 51.065444280791475], [-4.091459158966228, 51.06551149183363]]]}}, {"type": "Feature", "properties": {"type": "postcode-cell", "postcode": "EX31 3TQ", "postcodes": ["EX31 3TQ"]}, "geometry": {"type": "Polygon", "coordinates": [[[-4.091975940472083, 51.06685354465767], [-4.091537282731719, 51.06766498206809], [-4.0902085008729, 51.066537247692466], [-4.090480469324514, 51.06645398499321], [-4.091125208806003, 51.06628148543307], [-4.091687234261821, 51.06652022549967], [-4.091975940472083, 51.06685354465767]]]}}, {"type": "Feature", "properties": {"type": "postcode-cell", "postcode": "EX31 2LE", "postcodes": ["EX31 2LE"]}, "geometry": {"type": "Polygon", "coordinates": [[[-4.091406930126409, 51.07372724269399], [-4.089943210926218, 51.07363113814044], [-4.089477872874631, 51.072646625907105], [-4.0901221070628635, 51.07242786687732], [-4.091583452582491, 51.073108785371694], [-4.091406930126409, 51.07372724269399]]]}}, {"type": "Feature", "properties": {"type": "postcode-cell", "postcode": "EX31 2LB", "postcodes": ["EX31 2LB"]}, "geometry": {"type": "Polygon", "coordinates": [[[-4.091617914956143, 51.07309825934423], [-4.091583452582491, 51.073108785371694], [-4.0901221070628635, 51.07242786687732], [-4.090418360185388, 51.07198219589627], [-4.090546723272245, 51.07194663572142], [-4.092077039020996, 51.07203410100944], [-4.091617914956143, 51.07309825934423]]]}}, {"type": "Feature", "properties": {"type": "postcode-cell", "postcode": "EX31 2JD", "postcodes": ["EX31 2JD"]}, "geometry": {"type": "Polygon", "coordinates": [[[-4.091794581089954, 51.0699376476401], [-4.090945981031424, 51.070622918199255], [-4.0899460352478325, 51.0705937834994], [-4.08980619477438, 51.069958544581255], [-4.089895276382967, 51.06989844953871], [-4.0912415125884225, 51.06942303503025], [-4.091794581089954, 51.0699376476401]]]}}, {"type": "Feature", "properties": {"type": "postcode-cell", "postcode": "EX31 3TL", "postcodes": ["EX31 3TL"]}, "geometry": {"type": "Polygon", "coordinates": [[[-4.091459158966228, 51.06551149183363], [-4.091125208806003, 51.06628148543307], [-4.090480469324514, 51.06645398499321], [-4.089916346065172, 51.06502056279734], [-4.09031833286682, 51.06497623478649], [-4.091459158966228, 51.06551149183363]]]}}, {"type": "Feature", "properties": {"type": "postcode-cell", "postcode": "EX31 3TG", "postcodes": ["EX31 3TG"]}, "geometry": {"type": "Polygon", "coordinates": [[[-4.091534232263409, 51.067715441260795], [-4.0902392645538885, 51.06736762699871], [-4.089994974512641, 51.06657334350522], [-4.0902085008729, 51.066537247692466], [-4.091537282731719, 51.06766498206809], [-4.091534232263409, 51.067715441260795]]]}}, {"type": "Feature", "properties": {"type": "postcode-cell", "postcode": "EX31 2LA", "postcodes": ["EX31 2LA"]}, "geometry": {"type": "Polygon", "coordinates": [[[-4.092352480854382, 51.07196949165581], [-4.092077039020996, 51.07203410100944], [-4.090546723272245, 51.07194663572142], [-4.091592406986983, 51.071091683083786], [-4.0923292975146675, 51.07112552676938], [-4.092352480854382, 51.07196949165581]]]}}, {"type": "Feature", "properties": {"type": "postcode-cell", "postcode": "EX31 3SR", "postcodes": ["EX31 3SR"]}, "geometry": {"type": "Polygon", "coordinates": [[[-4.091263609798717, 51.06923604339001], [-4.0912415125884225, 51.06942303503025], [-4.089895276382967, 51.06989844953871], [-4.089826458443979, 51.06905877681622], [-4.091178155177374, 51.06913199527514], [-4.091263609798717, 51.06923604339001]]]}}, {"type": "Feature", "properties": {"type": "postcode-cell", "postcode": "EX31 3FD", "postcodes": ["EX31 3FD"]}, "geometry": {"type": "Polygon", "coordinates": [[[-4.0902085008729, 51.066537247692466], [-4.089994974512641, 51.06657334350522], [-4.089808528715537, 51.06655599734123], [-4.089246652337698, 51.06543309008335], [-4.089852139559322, 51.06502504194494], [-4.089916346065172, 51.06502056279734], [-4.090480469324514, 51.06645398499321], [-4.0902085008729, 51.066537247692466]]]}}, {"type": "Feature", "properties": {"type": "postcode-cell", "postcode": "EX31 3SJ", "postcodes": ["EX31 3SJ"]}, "geometry": {"type": "Polygon", "coordinates": [[[-4.091652619539141, 51.067985253840156], [-4.09102041671773, 51.06832950372845], [-4.08979955292296, 51.06817612950816], [-4.089787336578407, 51.068169597789364], [-4.0902392645538885, 51.06736762699871], [-4.091534232263409, 51.067715441260795], [-4.091652619539141, 51.067985253840156]]]}}, {"type": "Feature", "properties": {"type": "postcode-cell", "postcode": "EX31 3UD", "postcodes": ["EX31 3UD"]}, "geometry": {"type": "Polygon", "coordinates": [[[-4.089916346065172, 51.06502056279734], [-4.089852139559322, 51.06502504194494], [-4.088702625515557, 51.06414381021151], [-4.090249850021168, 51.0635484102503], [-4.090968460845246, 51.06396881959369], [-4.09031833286682, 51.06497623478649], [-4.089916346065172, 51.06502056279734]]]}}, {"type": "Feature", "properties": {"type": "postcode-cell", "postcode": "EX31 2LG", "postcodes": ["EX31 2LG"]}, "geometry": {"type": "Polygon", "coordinates": [[[-4.091592406986983, 51.071091683083786], [-4.090546723272245, 51.07194663572142], [-4.090418360185388, 51.07198219589627], [-4.089576054848561, 51.071054520544955], [-4.089774627196015, 51.07073074826585], [-4.0899460352478325, 51.0705937834994], [-4.090945981031424, 51.070622918199255], [-4.091592406986983, 51.071091683083786]]]}}, {"type": "Feature", "properties": {"type": "postcode-cell", "postcode": "EX31 3SW", "postcodes": ["EX31 3SW"]}, "geometry": {"type": "Polygon", "coordinates": [[[-4.091178155177374, 51.06913199527514], [-4.089826458443979, 51.06905877681622], [-4.089623695014976, 51.06895189483044], [-4.08979955292296, 51.06817612950816], [-4.09102041671773, 51.06832950372845], [-4.091178155177374, 51.06913199527514]]]}}, {"type": "Feature", "properties": {"type": "postcode-cell", "postcode": "EX31 3SQ", "postcodes": ["EX31 3SQ"]}, "geometry": {"type": "Polygon", "coordinates": [[[-4.0902392645538885, 51.06736762699871], [-4.089787336578407, 51.068169597789364], [-4.0895994854742685, 51.06813657007705], [-4.089552328536618, 51.0681148926686], [-4.089291214214003, 51.06668090117897], [-4.089808528715537, 51.06655599734123], [-4.089994974512641, 51.06657334350522], [-4.0902392645538885, 51.06736762699871]]]}}, {"type": "Feature", "properties": {"type": "postcode-cell", "postcode": "EX31 3NP", "postcodes": ["EX31 3NP"]}, "geometry": {"type": "Polygon", "coordinates": [[[-4.094847548185308, 51.05795289251854], [-4.0887137138491685, 51.05936710517222], [-4.085844972869866, 51.058888792290716], [-4.085839989959246, 51.05877999500808], [-4.086679989960383, 51.057499995007014], [-4.088979989962334, 51.05663999500633], [-4.093118980912514, 51.055682432594864], [-4.094847548185308, 51.05795289251854]]]}}, {"type": "Feature", "properties": {"type": "postcode-cell", "postcode": "EX31 3RU", "postcodes": ["EX31 3RU"]}, "geometry": {"type": "Polygon", "coordinates": [[[-4.0901221070628635, 51.07242786687732], [-4.089477872874631, 51.072646625907105], [-4.088186653959649, 51.07266966189209], [-4.088001487829162, 51.072232875041365], [-4.088835025914799, 51.071197972779686], [-4.089576054848561, 51.071054520544955], [-4.090418360185388, 51.07198219589627], [-4.0901221070628635, 51.07242786687732]]]}}, {"type": "Feature", "properties": {"type": "postcode-cell", "postcode": "EX31 3RX", "postcodes": ["EX31 3RX"]}, "geometry": {"type": "Polygon", "coordinates": [[[-4.089774627196015, 51.07073074826585], [-4.0875387683747215, 51.0701066080305], [-4.087494333288425, 51.0699410909139], [-4.088014851871335, 51.069659053619205], [-4.0886009482060075, 51.069605103740045], [-4.08980619477438, 51.069958544581255], [-4.0899460352478325, 51.0705937834994], [-4.089774627196015, 51.07073074826585]]]}}, {"type": "Feature", "properties": {"type": "postcode-cell", "postcode": "EX31 3SP", "postcodes": ["EX31 3SP"]}, "geometry": {"type": "Polygon", "coordinates": [[[-4.08979955292296, 51.06817612950816], [-4.089623695014976, 51.06895189483044], [-4.089097382135616, 51.06910912771838], [-4.088685052851532, 51.06867071927123], [-4.0895994854742685, 51.06813657007705], [-4.089787336578407, 51.068169597789364], [-4.08979955292296, 51.06817612950816]]]}}, {"type": "Feature", "properties": {"type": "postcode-cell", "postcode": "EX31 3SL", "postcodes": ["EX31 3SL"]}, "geometry": {"type": "Polygon", "coordinates": [[[-4.08980619477438, 51.069958544581255], [-4.0886009482060075, 51.069605103740045], [-4.089097382135616, 51.06910912771838], [-4.089623695014976, 51.06895189483044], [-4.089826458443979, 51.06905877681622], [-4.089895276382967, 51.06989844953871], [-4.08980619477438, 51.069958544581255]]]}}, {"type": "Feature", "properties": {"type": "postcode-cell", "postcode": "EX31 2LD", "postcodes": ["EX31 2LD"]}, "geometry": {"type": "Polygon", "coordinates": [[[-4.089477872874631, 51.072646625907105], [-4.089943210926218, 51.07363113814044], [-4.088975061101247, 51.07465051611292], [-4.088539789692453, 51.074529298016735], [-4.088164640413058, 51.07268580296009], [-4.088186653959649, 51.07266966189209], [-4.089477872874631, 51.072646625907105]]]}}, {"type": "Feature", "properties": {"type": "postcode-cell", "postcode": "EX31 3TD", "postcodes": ["EX31 3TD"]}, "geometry": {"type": "Polygon", "coordinates": [[[-4.089852139559322, 51.06502504194494], [-4.089246652337698, 51.06543309008335], [-4.087340684867416, 51.06539329283553], [-4.087003483629958, 51.064957484531575], [-4.088579095319631, 51.064140039503464], [-4.088702625515557, 51.06414381021151], [-4.089852139559322, 51.06502504194494]]]}}, {"type": "Feature", "properties": {"type": "postcode-cell", "postcode": "EX31 3ZD", "postcodes": ["EX31 3ZD"]}, "geometry": {"type": "Polygon", "coordinates": [[[-4.090054018706637, 51.06207496454641], [-4.087881020119312, 51.06289001050299], [-4.08519428282375, 51.06175494324157], [-4.085899989958703, 51.06008999500916], [-4.085844972869866, 51.058888792290716], [-4.0887137138491685, 51.05936710517222], [-4.090247460815503, 51.06182643898486], [-4.090054018706637, 51.06207496454641]]]}}, {"type": "Feature", "properties": {"type": "postcode-cell", "postcode": "EX31 3SH", "postcodes": ["EX31 3SH"]}, "geometry": {"type": "Polygon", "coordinates": [[[-4.089552328536618, 51.0681148926686], [-4.089014307144485, 51.06797574244506], [-4.088511976072172, 51.06733787863946], [-4.0892619967402375, 51.06668408240588], [-4.089291214214003, 51.06668090117897], [-4.089552328536618, 51.0681148926686]]]}}, {"type": "Feature", "properties": {"type": "postcode-cell", "postcode": "EX31 2PB", "postcodes": ["EX31 2PB"]}, "geometry": {"type": "Polygon", "coordinates": [[[-4.089291214214003, 51.06668090117897], [-4.0892619967402375, 51.06668408240588], [-4.088023839409199, 51.0663574711545], [-4.087327528150888, 51.065532478602236], [-4.087340684867416, 51.06539329283553], [-4.089246652337698, 51.06543309008335], [-4.089808528715537, 51.06655599734123], [-4.089291214214003, 51.06668090117897]]]}}, {"type": "Feature", "properties": {"type": "postcode-cell", "postcode": "EX31 3QT", "postcodes": ["EX31 3QT"]}, "geometry": {"type": "Polygon", "coordinates": [[[-4.0895994854742685, 51.06813657007705], [-4.088685052851532, 51.06867071927123], [-4.0878528852126585, 51.068659885791476], [-4.087789047745161, 51.068605296789606], [-4.087755752951372, 51.068215147327145], [-4.089014307144485, 51.06797574244506], [-4.089552328536618, 51.0681148926686], [-4.0895994854742685, 51.06813657007705]]]}}, {"type": "Feature", "properties": {"type": "postcode-cell", "postcode": "EX31 3RB", "postcodes": ["EX31 3RB"]}, "geometry": {"type": "Polygon", "coordinates": [[[-4.089576054848561, 51.071054520544955], [-4.088835025914799, 51.071197972779686], [-4.087615018434464, 51.070770047601], [-4.087465002659603, 51.07061587365032], [-4.0875387683747215, 51.0701066080305], [-4.089774627196015, 51.07073074826585], [-4.089576054848561, 51.071054520544955]]]}}, {"type": "Feature", "properties": {"type": "postcode-cell", "postcode": "EX31 2HT", "postcodes": ["EX31 2HT"]}, "geometry": {"type": "Polygon", "coordinates": [[[-4.088539789692453, 51.074529298016735], [-4.087398617692861, 51.074621802099436], [-4.087113564336884, 51.07456313744203], [-4.0866146170713336, 51.07399357986345], [-4.086729476905588, 51.073007029165886], [-4.088164640413058, 51.07268580296009], [-4.088539789692453, 51.074529298016735]]]}}, {"type": "Feature", "properties": {"type": "postcode-cell", "postcode": "EX31 3RY", "postcodes": ["EX31 3RY"]}, "geometry": {"type": "Polygon", "coordinates": [[[-4.087327528150888, 51.065532478602236], [-4.085379190681059, 51.06693164976707], [-4.085303284477916, 51.06694706146015], [-4.085259989955263, 51.066849995014756], [-4.08397998995501, 51.06545999501361], [-4.084169778949356, 51.06483308196795], [-4.086783980450996, 51.064887235394195], [-4.087003483629958, 51.064957484531575], [-4.087340684867416, 51.06539329283553], [-4.087327528150888, 51.065532478602236]]]}}, {"type": "Feature", "properties": {"type": "postcode-cell", "postcode": "EX31 3QY", "postcodes": ["EX31 3QY"]}, "geometry": {"type": "Polygon", "coordinates": [[[-4.088511976072172, 51.06733787863946], [-4.087582148277094, 51.06744843228781], [-4.087130876458501, 51.067106719865414], [-4.088023839409199, 51.0663574711545], [-4.0892619967402375, 51.06668408240588], [-4.088511976072172, 51.06733787863946]]]}}, {"type": "Feature", "properties": {"type": "postcode-cell", "postcode": "EX31 3RW", "postcodes": ["EX31 3RW"]}, "geometry": {"type": "Polygon", "coordinates": [[[-4.0886009482060075, 51.069605103740045], [-4.088014851871335, 51.069659053619205], [-4.0878528852126585, 51.068659885791476], [-4.088685052851532, 51.06867071927123], [-4.089097382135616, 51.06910912771838], [-4.0886009482060075, 51.069605103740045]]]}}, {"type": "Feature", "properties": {"type": "postcode-cell", "postcode": "EX31 3RA", "postcodes": ["EX31 3RA"]}, "geometry": {"type": "Polygon", "coordinates": [[[-4.0878528852126585, 51.068659885791476], [-4.088014851871335, 51.069659053619205], [-4.087494333288425, 51.0699410909139], [-4.085760209819058, 51.06952769219368], [-4.085810360340074, 51.06898855604115], [-4.087789047745161, 51.068605296789606], [-4.0878528852126585, 51.068659885791476]]]}}, {"type": "Feature", "properties": {"type": "postcode-cell", "postcode": "EX31 3QX", "postcodes": ["EX31 3QX"]}, "geometry": {"type": "Polygon", "coordinates": [[[-4.089014307144485, 51.06797574244506], [-4.087755752951372, 51.068215147327145], [-4.087484182432423, 51.068000479028626], [-4.087582148277094, 51.06744843228781], [-4.088511976072172, 51.06733787863946], [-4.089014307144485, 51.06797574244506]]]}}, {"type": "Feature", "properties": {"type": "postcode-cell", "postcode": "EX31 3RD", "postcodes": ["EX31 3RD"]}, "geometry": {"type": "Polygon", "coordinates": [[[-4.0875387683747215, 51.0701066080305], [-4.087465002659603, 51.07061587365032], [-4.086216789490071, 51.071042251725395], [-4.0856260574112, 51.070969826688916], [-4.085760209819058, 51.06952769219368], [-4.087494333288425, 51.0699410909139], [-4.0875387683747215, 51.0701066080305]]]}}, {"type": "Feature", "properties": {"type": "postcode-cell", "postcode": "EX31 3QZ", "postcodes": ["EX31 3QZ"]}, "geometry": {"type": "Polygon", "coordinates": [[[-4.087789047745161, 51.068605296789606], [-4.085810360340074, 51.06898855604115], [-4.085879989955069, 51.068239995015894], [-4.085839315341751, 51.068148807911385], [-4.087484182432423, 51.068000479028626], [-4.087755752951372, 51.068215147327145], [-4.087789047745161, 51.068605296789606]]]}}, {"type": "Feature", "properties": {"type": "postcode-cell", "postcode": "EX31 3RS", "postcodes": ["EX31 3RS"]}, "geometry": {"type": "Polygon", "coordinates": [[[-4.088001487829162, 51.072232875041365], [-4.087351380878089, 51.071800652588855], [-4.087615018434464, 51.070770047601], [-4.088835025914799, 51.071197972779686], [-4.088001487829162, 51.072232875041365]]]}}, {"type": "Feature", "properties": {"type": "postcode-cell", "postcode": "EX31 2FB", "postcodes": ["EX31 2FB"]}, "geometry": {"type": "Polygon", "coordinates": [[[-4.088023839409199, 51.0663574711545], [-4.087130876458501, 51.067106719865414], [-4.085379190681059, 51.06693164976707], [-4.087327528150888, 51.065532478602236], [-4.088023839409199, 51.0663574711545]]]}}, {"type": "Feature", "properties": {"type": "postcode-cell", "postcode": "EX31 3UA", "postcodes": ["EX31 3UA"]}, "geometry": {"type": "Polygon", "coordinates": [[[-4.088579095319631, 51.064140039503464], [-4.087003483629958, 51.064957484531575], [-4.086783980450996, 51.064887235394195], [-4.086650005336119, 51.06362406365673], [-4.087803285616628, 51.06312932766519], [-4.088579095319631, 51.064140039503464]]]}}, {"type": "Feature", "properties": {"type": "postcode-cell", "postcode": "EX31 3TT", "postcodes": ["EX31 3TT"]}, "geometry": {"type": "Polygon", "coordinates": [[[-4.087881020119312, 51.06289001050299], [-4.087803285616628, 51.06312932766519], [-4.086650005336119, 51.06362406365673], [-4.084725969420448, 51.06299577279892], [-4.084869989956922, 51.06251999501119], [-4.08519428282375, 51.06175494324157], [-4.087881020119312, 51.06289001050299]]]}}, {"type": "Feature", "properties": {"type": "postcode-cell", "postcode": "EX31 2JE", "postcodes": ["EX31 2JE"]}, "geometry": {"type": "Polygon", "coordinates": [[[-4.088186653959649, 51.07266966189209], [-4.088164640413058, 51.07268580296009], [-4.086729476905588, 51.073007029165886], [-4.086487587263521, 51.07295328468504], [-4.085352527299662, 51.072322656165895], [-4.085339704924828, 51.07225967506736], [-4.086721581871635, 51.071700214623206], [-4.087351380878089, 51.071800652588855], [-4.088001487829162, 51.072232875041365], [-4.088186653959649, 51.07266966189209]]]}}, {"type": "Feature", "properties": {"type": "postcode-cell", "postcode": "EX31 3TB", "postcodes": ["EX31 3TB"]}, "geometry": {"type": "Polygon", "coordinates": [[[-4.086650005336119, 51.06362406365673], [-4.086783980450996, 51.064887235394195], [-4.084169778949356, 51.06483308196795], [-4.084725969420448, 51.06299577279892], [-4.086650005336119, 51.06362406365673]]]}}, {"type": "Feature", "properties": {"type": "postcode-cell", "postcode": "EX31 3QU", "postcodes": ["EX31 3QU"]}, "geometry": {"type": "Polygon", "coordinates": [[[-4.087484182432423, 51.068000479028626], [-4.085839315341751, 51.068148807911385], [-4.085303284477916, 51.06694706146015], [-4.085379190681059, 51.06693164976707], [-4.087130876458501, 51.067106719865414], [-4.087582148277094, 51.06744843228781], [-4.087484182432423, 51.068000479028626]]]}}, {"type": "Feature", "properties": {"type": "postcode-cell", "postcode": "EX31 2HY", "postcodes": ["EX31 2HY"]}, "geometry": {"type": "MultiPolygon", "coordinates": [[[[-4.083364714911671, 51.075284657573334], [-4.0835252658212795, 51.07520942451772], [-4.08559436336168, 51.07535546702764], [-4.08686634251937, 51.07739230044644], [-4.0875905662218965, 51.07996220627754], [-4.086899989950596, 51.07985999502547], [-4.085109989949959, 51.0785499950244], [-4.08275091897699, 51.07797732728513], [-4.083364714911671, 51.075284657573334]]], [[[-4.087726082033122, 51.080443049805275], [-4.087299989950704, 51.08022999502577], [-4.087139989950729, 51.07992999502552], [-4.087598647994794, 51.0799908827016], [-4.087726082033122, 51.080443049805275]]]]}}, {"type": "Feature", "properties": {"type": "postcode-cell", "postcode": "EX31 2PH", "postcodes": ["EX31 2PH"]}, "geometry": {"type": "Polygon", "coordinates": [[[-4.0866146170713336, 51.07399357986345], [-4.085542498575566, 51.07395936777892], [-4.085332691955328, 51.0734730960783], [-4.086487587263521, 51.07295328468504], [-4.086729476905588, 51.073007029165886], [-4.0866146170713336, 51.07399357986345]]]}}, {"type": "Feature", "properties": {"type": "postcode-cell", "postcode": "EX31 3RF", "postcodes": ["EX31 3RF"]}, "geometry": {"type": "Polygon", "coordinates": [[[-4.087615018434464, 51.070770047601], [-4.087351380878089, 51.071800652588855], [-4.086721581871635, 51.071700214623206], [-4.086216789490071, 51.071042251725395], [-4.087465002659603, 51.07061587365032], [-4.087615018434464, 51.070770047601]]]}}, {"type": "Feature", "properties": {"type": "postcode-cell", "postcode": "EX31 2HG", "postcodes": ["EX31 2HG"]}, "geometry": {"type": "Polygon", "coordinates": [[[-4.082705693712709, 51.07263288061191], [-4.082392605593682, 51.07269413298067], [-4.0809414773129715, 51.07251780711107], [-4.081026588078534, 51.07191527278841], [-4.08286139108888, 51.07199480534565], [-4.082705693712709, 51.07263288061191]]]}}, {"type": "Feature", "properties": {"type": "postcode-cell", "postcode": "EX31 3RE", "postcodes": ["EX31 3RE"]}, "geometry": {"type": "Polygon", "coordinates": [[[-4.085339704924828, 51.07225967506736], [-4.08516860987357, 51.0720947742069], [-4.085519989953102, 51.07210999501909], [-4.0856260574112, 51.070969826688916], [-4.086216789490071, 51.071042251725395], [-4.086721581871635, 51.071700214623206], [-4.085339704924828, 51.07225967506736]]]}}, {"type": "Feature", "properties": {"type": "postcode-cell", "postcode": "EX31 2HX", "postcodes": ["EX31 2HX"]}, "geometry": {"type": "Polygon", "coordinates": [[[-4.087398617692861, 51.074621802099436], [-4.08686634251937, 51.07739230044644], [-4.08559436336168, 51.07535546702764], [-4.086044095905755, 51.074898882139294], [-4.087113564336884, 51.07456313744203], [-4.087398617692861, 51.074621802099436]]]}}, {"type": "Feature", "properties": {"type": "postcode-cell", "postcode": "EX31 2HS", "postcodes": ["EX31 2HS"]}, "geometry": {"type": "Polygon", "coordinates": [[[-4.084915586377664, 51.0742788162651], [-4.085542498575566, 51.07395936777892], [-4.0866146170713336, 51.07399357986345], [-4.087113564336884, 51.07456313744203], [-4.086044095905755, 51.074898882139294], [-4.084915586377664, 51.0742788162651]]]}}, {"type": "Feature", "properties": {"type": "postcode-cell", "postcode": "EX31 2HU", "postcodes": ["EX31 2HU"]}, "geometry": {"type": "Polygon", "coordinates": [[[-4.086044095905755, 51.074898882139294], [-4.08559436336168, 51.07535546702764], [-4.0835252658212795, 51.07520942451772], [-4.083741870738156, 51.0749049235447], [-4.084540420312274, 51.07428353070944], [-4.084915586377664, 51.0742788162651], [-4.086044095905755, 51.074898882139294]]]}}, {"type": "Feature", "properties": {"type": "postcode-cell", "postcode": "EX31 2HA", "postcodes": ["EX31 2HA"]}, "geometry": {"type": "Polygon", "coordinates": [[[-4.080376470752017, 51.072708752113435], [-4.08030585529393, 51.07275489245016], [-4.078993431712663, 51.0723236390572], [-4.079059989948829, 51.071829995018874], [-4.080062530435702, 51.071873472451664], [-4.080376470752017, 51.072708752113435]]]}}, {"type": "Feature", "properties": {"type": "postcode-cell", "postcode": "EX31 2HF", "postcodes": ["EX31 2HF"]}, "geometry": {"type": "Polygon", "coordinates": [[[-4.084647305802131, 51.07276069810748], [-4.082742677906298, 51.072657704098866], [-4.082705693712709, 51.07263288061191], [-4.08286139108888, 51.07199480534565], [-4.08516860987357, 51.0720947742069], [-4.085339704924828, 51.07225967506736], [-4.085352527299662, 51.072322656165895], [-4.084647305802131, 51.07276069810748]]]}}, {"type": "Feature", "properties": {"type": "postcode-cell", "postcode": "EX31 2HE", "postcodes": ["EX31 2HE"]}, "geometry": {"type": "Polygon", "coordinates": [[[-4.085352527299662, 51.072322656165895], [-4.086487587263521, 51.07295328468504], [-4.085332691955328, 51.0734730960783], [-4.084579065908367, 51.07336869759435], [-4.084647305802131, 51.07276069810748], [-4.085352527299662, 51.072322656165895]]]}}, {"type": "Feature", "properties": {"type": "postcode-cell", "postcode": "EX31 2HQ", "postcodes": ["EX31 2HQ"]}, "geometry": {"type": "Polygon", "coordinates": [[[-4.0809414773129715, 51.07251780711107], [-4.080376470752017, 51.072708752113435], [-4.080062530435702, 51.071873472451664], [-4.081026588078534, 51.07191527278841], [-4.0809414773129715, 51.07251780711107]]]}}, {"type": "Feature", "properties": {"type": "postcode-cell", "postcode": "EX31 2BL", "postcodes": ["EX31 2BL"]}, "geometry": {"type": "Polygon", "coordinates": [[[-4.085542498575566, 51.07395936777892], [-4.084915586377664, 51.0742788162651], [-4.084540420312274, 51.07428353070944], [-4.084182395759221, 51.07362260324583], [-4.084579065908367, 51.07336869759435], [-4.085332691955328, 51.0734730960783], [-4.085542498575566, 51.07395936777892]]]}}, {"type": "Feature", "properties": {"type": "postcode-cell", "postcode": "EX31 2HP", "postcodes": ["EX31 2HP"]}, "geometry": {"type": "Polygon", "coordinates": [[[-4.084540420312274, 51.07428353070944], [-4.083741870738156, 51.0749049235447], [-4.083032790385195, 51.07365202817892], [-4.0832009318784666, 51.073492358929656], [-4.084182395759221, 51.07362260324583], [-4.084540420312274, 51.07428353070944]]]}}, {"type": "Feature", "properties": {"type": "postcode-cell", "postcode": "EX31 2HR", "postcodes": ["EX31 2HR"]}, "geometry": {"type": "Polygon", "coordinates": [[[-4.084182395759221, 51.07362260324583], [-4.0832009318784666, 51.073492358929656], [-4.082742677906298, 51.072657704098866], [-4.084647305802131, 51.07276069810748], [-4.084579065908367, 51.07336869759435], [-4.084182395759221, 51.07362260324583]]]}}, {"type": "Feature", "properties": {"type": "postcode-cell", "postcode": "EX31 2ES", "postcodes": ["EX31 2ES"]}, "geometry": {"type": "Polygon", "coordinates": [[[-4.079596034929691, 51.075784795342706], [-4.082238111742472, 51.07488156352367], [-4.082391835184699, 51.07489943177545], [-4.083364714911671, 51.075284657573334], [-4.08275091897699, 51.07797732728513], [-4.082349989948379, 51.077879995023864], [-4.07889803925335, 51.077298123736306], [-4.079596034929691, 51.075784795342706]]]}}, {"type": "Feature", "properties": {"type": "postcode-cell", "postcode": "EX31 2HW", "postcodes": ["EX31 2HW"]}, "geometry": {"type": "Polygon", "coordinates": [[[-4.083364714911671, 51.075284657573334], [-4.082391835184699, 51.07489943177545], [-4.082581141621621, 51.073839497268914], [-4.083032790385195, 51.07365202817892], [-4.083741870738156, 51.0749049235447], [-4.0835252658212795, 51.07520942451772], [-4.083364714911671, 51.075284657573334]]]}}, {"type": "Feature", "properties": {"type": "postcode-cell", "postcode": "EX31 2HJ", "postcodes": ["EX31 2HJ"]}, "geometry": {"type": "Polygon", "coordinates": [[[-4.0832009318784666, 51.073492358929656], [-4.083032790385195, 51.07365202817892], [-4.082581141621621, 51.073839497268914], [-4.081243357231756, 51.07372891259062], [-4.081210589482881, 51.07368442362637], [-4.082392605593682, 51.07269413298067], [-4.082705693712709, 51.07263288061191], [-4.082742677906298, 51.072657704098866], [-4.0832009318784666, 51.073492358929656]]]}}, {"type": "Feature", "properties": {"type": "postcode-cell", "postcode": "EX31 2HL", "postcodes": ["EX31 2HL"]}, "geometry": {"type": "Polygon", "coordinates": [[[-4.082391835184699, 51.07489943177545], [-4.082238111742472, 51.07488156352367], [-4.081152611987848, 51.0742530706099], [-4.081243357231756, 51.07372891259062], [-4.082581141621621, 51.073839497268914], [-4.082391835184699, 51.07489943177545]]]}}, {"type": "Feature", "properties": {"type": "postcode-cell", "postcode": "EX31 2HH", "postcodes": ["EX31 2HH"]}, "geometry": {"type": "Polygon", "coordinates": [[[-4.081210589482881, 51.07368442362637], [-4.080570340641292, 51.0734376983458], [-4.0802384679906085, 51.073086083568555], [-4.08030585529393, 51.07275489245016], [-4.080376470752017, 51.072708752113435], [-4.0809414773129715, 51.07251780711107], [-4.082392605593682, 51.07269413298067], [-4.081210589482881, 51.07368442362637]]]}}, {"type": "Feature", "properties": {"type": "postcode-cell", "postcode": "EX31 2HN", "postcodes": ["EX31 2HN"]}, "geometry": {"type": "Polygon", "coordinates": [[[-4.081243357231756, 51.07372891259062], [-4.081152611987848, 51.0742530706099], [-4.079732529252991, 51.07477235209175], [-4.079486200885479, 51.07414498227457], [-4.080570340641292, 51.0734376983458], [-4.081210589482881, 51.07368442362637], [-4.081243357231756, 51.07372891259062]]]}}, {"type": "Feature", "properties": {"type": "postcode-cell", "postcode": "EX31 2EP", "postcodes": ["EX31 2EP"]}, "geometry": {"type": "Polygon", "coordinates": [[[-4.079732529252991, 51.07477235209175], [-4.079568659449342, 51.07504875001477], [-4.077557586832212, 51.07425457629974], [-4.0787712041961335, 51.07371340282649], [-4.079486200885479, 51.07414498227457], [-4.079732529252991, 51.07477235209175]]]}}, {"type": "Feature", "properties": {"type": "postcode-cell", "postcode": "EX31 2ER", "postcodes": ["EX31 2ER"]}, "geometry": {"type": "Polygon", "coordinates": [[[-4.082238111742472, 51.07488156352367], [-4.079596034929691, 51.075784795342706], [-4.079568659449342, 51.07504875001477], [-4.079732529252991, 51.07477235209175], [-4.081152611987848, 51.0742530706099], [-4.082238111742472, 51.07488156352367]]]}}, {"type": "Feature", "properties": {"type": "postcode-cell", "postcode": "EX31 2EN", "postcodes": ["EX31 2EN"]}, "geometry": {"type": "Polygon", "coordinates": [[[-4.0787908666993955, 51.07337897736417], [-4.0787712041961335, 51.07371340282649], [-4.077557586832212, 51.07425457629974], [-4.077101371614358, 51.07427867807179], [-4.077749989947219, 51.07343999502022], [-4.078370136804135, 51.073064784375966], [-4.0787908666993955, 51.07337897736417]]]}}, {"type": "Feature", "properties": {"type": "postcode-cell", "postcode": "EX31 2ET", "postcodes": ["EX31 2ET"]}, "geometry": {"type": "MultiPolygon", "coordinates": [[[[-4.077557586832212, 51.07425457629974], [-4.079568659449342, 51.07504875001477], [-4.079596034929691, 51.075784795342706], [-4.07889803925335, 51.077298123736306], [-4.076239989944676, 51.076849995023046], [-4.0734199899426, 51.07719999502334], [-4.073279989942686, 51.07678999502299], [-4.073339989942538, 51.077219995023356], [-4.071019989940687, 51.07782999502386], [-4.070969989940649, 51.07783999502387], [-4.076179989945248, 51.075469995021905], [-4.077101371614358, 51.07427867807179], [-4.077557586832212, 51.07425457629974]]], [[[-4.068969989938879, 51.07875999502463], [-4.068299989938284, 51.0790699950249], [-4.067989989938014, 51.07920999502502], [-4.067949989937981, 51.07921999502503], [-4.067839989937883, 51.07926999502508], [-4.067809989937857, 51.07927999502507], [-4.069711455120783, 51.078412147616476], [-4.068969989938879, 51.07875999502463]]], [[[-4.070129989939908, 51.0782199950242], [-4.070189989939962, 51.07818999502417], [-4.070119989939898, 51.07822999502419], [-4.070129989939908, 51.0782199950242]]]]}}, {"type": "Feature", "properties": {"type": "postcode-cell", "postcode": "EX31 2EW", "postcodes": ["EX31 2EW"]}, "geometry": {"type": "Polygon", "coordinates": [[[-4.080570340641292, 51.0734376983458], [-4.079486200885479, 51.07414498227457], [-4.0787712041961335, 51.07371340282649], [-4.0787908666993955, 51.07337897736417], [-4.0802384679906085, 51.073086083568555], [-4.080570340641292, 51.0734376983458]]]}}, {"type": "Feature", "properties": {"type": "postcode-cell", "postcode": "EX31 2EJ", "postcodes": ["EX31 2EJ"]}, "geometry": {"type": "Polygon", "coordinates": [[[-4.0802384679906085, 51.073086083568555], [-4.0787908666993955, 51.07337897736417], [-4.078370136804135, 51.073064784375966], [-4.078939989948349, 51.07271999501961], [-4.078993431712663, 51.0723236390572], [-4.08030585529393, 51.07275489245016], [-4.0802384679906085, 51.073086083568555]]]}}]}