{"type": "FeatureCollection", "features": [{"type": "Feature", "properties": {"type": "ward-outline", "name": "Bideford West"}, "geometry": {"type": "Polygon", "coordinates": [[[-4.22916, 51.02277], [-4.22894, 51.02208], [-4.2301, 51.02199], [-4.23069, 51.01954], [-4.23024, 51.01765], [-4.22417, 51.01692], [-4.22128, 51.01722], [-4.21959, 51.01696], [-4.21522, 51.01695], [-4.21174, 51.01738], [-4.21029, 51.01727], [-4.21245, 51.01585], [-4.21396, 51.01504], [-4.2148, 51.01501], [-4.21456, 51.01463], [-4.21564, 51.01465], [-4.2157, 51.01428], [-4.21718, 51.01447], [-4.21715, 51.01425], [-4.2197, 51.01352], [-4.22001, 51.01333], [-4.21909, 51.01316], [-4.21936, 51.01189], [-4.22089, 51.01154], [-4.22108, 51.01179], [-4.22318, 51.01112], [-4.22338, 51.01134], [-4.22452, 51.01114], [-4.22509, 51.0108], [-4.22648, 51.01293], [-4.22883, 51.01209], [-4.23258, 51.01174], [-4.23282, 51.01241], [-4.23465, 51.01224], [-4.23495, 51.01357], [-4.23929, 51.01258], [-4.23998, 51.01376], [-4.241, 51.01354], [-4.24072, 51.0144], [-4.24108, 51.01563], [-4.23995, 51.01589], [-4.24002, 51.01904], [-4.23921, 51.01931], [-4.2389, 51.02062], [-4.23775, 51.02196], [-4.23777, 51.02366], [-4.237, 51.02388], [-4.23519, 51.02328], [-4.23199, 51.02307], [-4.22972, 51.02253], [-4.22965, 51.02278], [-4.22916, 51.02277]]]}}, {"type": "Feature", "properties": {"type": "postcode-cell", "postcode": "EX39 3QP", "postcodes": ["EX39 3QP"]}, "geometry": {"type": "Polygon", "coordinates": [[[-4.234027245530209, 51.01893030141236], [-4.234819719993115, 51.01761590949512], [-4.240750574681632, 51.01359379145898], [-4.240999990085379, 51.013539994969996], [-4.240719990084806, 51.014399994970724], [-4.241079990084514, 51.01562999497173], [-4.239949990083623, 51.015889994971964], [-4.240019990082287, 51.01903999497455], [-4.23920999008161, 51.01930999497477], [-4.23889999008082, 51.02061999497585], [-4.23774999007944, 51.021959994976974], [-4.237769990078708, 51.02365999497837], [-4.236999990078081, 51.02387999497857], [-4.2351899900770995, 51.02327999497807], [-4.231989990074991, 51.02306999497791], [-4.2319402261584305, 51.02305815747775], [-4.234027245530209, 51.01893030141236]]]}}, {"type": "Feature", "properties": {"type": "postcode-cell", "postcode": "EX39 3SZ", "postcodes": ["EX39 3SZ"]}, "geometry": {"type": "Polygon", "coordinates": [[[-4.234027245530209, 51.01893030141236], [-4.231797090595328, 51.01698466337464], [-4.2316593106010565, 51.0162217616847], [-4.2317173070190055, 51.016129662829705], [-4.231829002060728, 51.01606693672122], [-4.234819719993115, 51.01761590949512], [-4.234027245530209, 51.01893030141236]]]}}, {"type": "Feature", "properties": {"type": "postcode-cell", "postcode": "EX39 3TF", "postcodes": ["EX39 3TF"]}, "geometry": {"type": "Polygon", "coordinates": [[[-4.2294298766885, 51.013061044305104], [-4.227772937251921, 51.01586134136093], [-4.226917292016816, 51.01554320537005], [-4.22731164505431, 51.01403612915468], [-4.229178151834352, 51.013132646223106], [-4.2294298766885, 51.013061044305104]]]}}, {"type": "Feature", "properties": {"type": "postcode-cell", "postcode": "EX39 3EL", "postcodes": ["EX39 3EL"]}, "geometry": {"type": "Polygon", "coordinates": [[[-4.229178151834352, 51.013132646223106], [-4.227021959700434, 51.01309764394144], [-4.224183818861191, 51.01245062271421], [-4.224243963183366, 51.0123774659627], [-4.2257970427365255, 51.01188349139714], [-4.226479990075668, 51.012929994969575], [-4.228829990077653, 51.01208999496887], [-4.231692746627108, 51.01182281567771], [-4.230020999237593, 51.01281911676626], [-4.2294298766885, 51.013061044305104], [-4.229178151834352, 51.013132646223106]]]}}, {"type": "Feature", "properties": {"type": "postcode-cell", "postcode": "EX39 3QW", "postcodes": ["EX39 3QW"]}, "geometry": {"type": "Polygon", "coordinates": [[[-4.234819719993115, 51.01761590949512], [-4.231829002060728, 51.01606693672122], [-4.232779933992885, 51.012298173169505], [-4.2328199900802534, 51.01240999496912], [-4.234649990081587, 51.012239994968986], [-4.234949990081207, 51.013569994970055], [-4.239289990084625, 51.01257999496922], [-4.239979990084578, 51.01375999497017], [-4.240750574681632, 51.01359379145898], [-4.234819719993115, 51.01761590949512]]]}}, {"type": "Feature", "properties": {"type": "postcode-cell", "postcode": "EX39 3SW", "postcodes": ["EX39 3SW"]}, "geometry": {"type": "Polygon", "coordinates": [[[-4.2319402261584305, 51.02305815747775], [-4.2297199900736695, 51.02252999497748], [-4.229649990073513, 51.02277999497769], [-4.229159990073181, 51.022769994977686], [-4.22893999007333, 51.02207999497712], [-4.2300999900741685, 51.021989994977034], [-4.2306899900756525, 51.01953999497502], [-4.230546438319643, 51.01893709567932], [-4.231797090595328, 51.01698466337464], [-4.234027245530209, 51.01893030141236], [-4.2319402261584305, 51.02305815747775]]]}}, {"type": "Feature", "properties": {"type": "postcode-cell", "postcode": "EX39 3SX", "postcodes": ["EX39 3SX"]}, "geometry": {"type": "Polygon", "coordinates": [[[-4.231797090595328, 51.01698466337464], [-4.230546438319643, 51.01893709567932], [-4.230239990076173, 51.01764999497346], [-4.230098194021127, 51.0176329459462], [-4.2316593106010565, 51.0162217616847], [-4.231797090595328, 51.01698466337464]]]}}, {"type": "Feature", "properties": {"type": "postcode-cell", "postcode": "EX39 3AS", "postcodes": ["EX39 3AS"]}, "geometry": {"type": "Polygon", "coordinates": [[[-4.218861614984105, 51.01692672710474], [-4.221171450317128, 51.016218581032795], [-4.222492458060361, 51.01679123647141], [-4.222767430666953, 51.01706559876243], [-4.221279990070211, 51.017219994973146], [-4.219589990069164, 51.016959994972936], [-4.21885080973996, 51.01695831497628], [-4.218861614984105, 51.01692672710474]]]}}, {"type": "Feature", "properties": {"type": "postcode-cell", "postcode": "EX39 3TJ", "postcodes": ["EX39 3TJ"]}, "geometry": {"type": "Polygon", "coordinates": [[[-4.2316593106010565, 51.0162217616847], [-4.230098194021127, 51.0176329459462], [-4.2295049611933795, 51.0175616158397], [-4.229481715108507, 51.01738404190336], [-4.23004052810257, 51.01620404798455], [-4.2317173070190055, 51.016129662829705], [-4.2316593106010565, 51.0162217616847]]]}}, {"type": "Feature", "properties": {"type": "postcode-cell", "postcode": "EX39 3TH", "postcodes": ["EX39 3TH"]}, "geometry": {"type": "Polygon", "coordinates": [[[-4.227902529731446, 51.016139136355676], [-4.228610241536874, 51.01617855002902], [-4.229481715108507, 51.01738404190336], [-4.2295049611933795, 51.0175616158397], [-4.226510325782339, 51.017201492394626], [-4.227902529731446, 51.016139136355676]]]}}, {"type": "Feature", "properties": {"type": "postcode-cell", "postcode": "EX39 3FS", "postcodes": ["EX39 3FS"]}, "geometry": {"type": "Polygon", "coordinates": [[[-4.2317173070190055, 51.016129662829705], [-4.23004052810257, 51.01620404798455], [-4.229375041967767, 51.01589058141851], [-4.230020999237593, 51.01281911676626], [-4.231692746627108, 51.01182281567771], [-4.232579990080384, 51.01173999496858], [-4.232779933992885, 51.012298173169505], [-4.231829002060728, 51.01606693672122], [-4.2317173070190055, 51.016129662829705]]]}}, {"type": "Feature", "properties": {"type": "postcode-cell", "postcode": "EX39 3TG", "postcodes": ["EX39 3TG"]}, "geometry": {"type": "Polygon", "coordinates": [[[-4.23004052810257, 51.01620404798455], [-4.229481715108507, 51.01738404190336], [-4.228610241536874, 51.01617855002902], [-4.229375041967767, 51.01589058141851], [-4.23004052810257, 51.01620404798455]]]}}, {"type": "Feature", "properties": {"type": "postcode-cell", "postcode": "EX39 3TL", "postcodes": ["EX39 3TL"]}, "geometry": {"type": "Polygon", "coordinates": [[[-4.230020999237593, 51.01281911676626], [-4.229375041967767, 51.01589058141851], [-4.228610241536874, 51.01617855002902], [-4.227902529731446, 51.016139136355676], [-4.227772937251921, 51.01586134136093], [-4.2294298766885, 51.013061044305104], [-4.230020999237593, 51.01281911676626]]]}}, {"type": "Feature", "properties": {"type": "postcode-cell", "postcode": "EX39 3BA", "postcodes": ["EX39 3BA"]}, "geometry": {"type": "Polygon", "coordinates": [[[-4.222492458060361, 51.01679123647141], [-4.222860162360415, 51.01515445798939], [-4.223613629614032, 51.01516169227103], [-4.224384857159483, 51.01694584146094], [-4.224169990072326, 51.01691999497288], [-4.222767430666953, 51.01706559876243], [-4.222492458060361, 51.01679123647141]]]}}, {"type": "Feature", "properties": {"type": "postcode-cell", "postcode": "EX39 3FP", "postcodes": ["EX39 3FP"]}, "geometry": {"type": "Polygon", "coordinates": [[[-4.226510325782339, 51.017201492394626], [-4.225984326359634, 51.017138229170044], [-4.226372186899241, 51.01564374732964], [-4.226917292016816, 51.01554320537005], [-4.227772937251921, 51.01586134136093], [-4.227902529731446, 51.016139136355676], [-4.226510325782339, 51.017201492394626]]]}}, {"type": "Feature", "properties": {"type": "postcode-cell", "postcode": "EX39 3AZ", "postcodes": ["EX39 3AZ"]}, "geometry": {"type": "Polygon", "coordinates": [[[-4.22731164505431, 51.01403612915468], [-4.226746793395518, 51.01420264198691], [-4.224608707082329, 51.01435380864015], [-4.223888954569435, 51.01339957680424], [-4.227021959700434, 51.01309764394144], [-4.229178151834352, 51.013132646223106], [-4.22731164505431, 51.01403612915468]]]}}, {"type": "Feature", "properties": {"type": "postcode-cell", "postcode": "EX39 3TA", "postcodes": ["EX39 3TA"]}, "geometry": {"type": "Polygon", "coordinates": [[[-4.225233476197612, 51.01541571204691], [-4.225864829542996, 51.015366346518285], [-4.226372186899241, 51.01564374732964], [-4.225984326359634, 51.017138229170044], [-4.2251769477500485, 51.01704111882563], [-4.225233476197612, 51.01541571204691]]]}}, {"type": "Feature", "properties": {"type": "postcode-cell", "postcode": "EX39 3TE", "postcodes": ["EX39 3TE"]}, "geometry": {"type": "Polygon", "coordinates": [[[-4.225864829542996, 51.015366346518285], [-4.226746793395518, 51.01420264198691], [-4.22731164505431, 51.01403612915468], [-4.226917292016816, 51.01554320537005], [-4.226372186899241, 51.01564374732964], [-4.225864829542996, 51.015366346518285]]]}}, {"type": "Feature", "properties": {"type": "postcode-cell", "postcode": "EX39 3TB", "postcodes": ["EX39 3TB"]}, "geometry": {"type": "Polygon", "coordinates": [[[-4.223613629614032, 51.01516169227103], [-4.224166807751404, 51.01495612195688], [-4.225233476197612, 51.01541571204691], [-4.2251769477500485, 51.01704111882563], [-4.224384857159483, 51.01694584146094], [-4.223613629614032, 51.01516169227103]]]}}, {"type": "Feature", "properties": {"type": "postcode-cell", "postcode": "EX39 3BB", "postcodes": ["EX39 3BB"]}, "geometry": {"type": "Polygon", "coordinates": [[[-4.224183818861191, 51.01245062271421], [-4.227021959700434, 51.01309764394144], [-4.223888954569435, 51.01339957680424], [-4.223882672314582, 51.013396048056286], [-4.224115853036276, 51.0124965632427], [-4.224183818861191, 51.01245062271421]]]}}, {"type": "Feature", "properties": {"type": "postcode-cell", "postcode": "EX39 3ER", "postcodes": ["EX39 3ER"]}, "geometry": {"type": "Polygon", "coordinates": [[[-4.224115853036276, 51.0124965632427], [-4.222686614363571, 51.012143371167234], [-4.222704070644632, 51.01187341045532], [-4.22399255624633, 51.01142455345923], [-4.224243963183366, 51.0123774659627], [-4.224183818861191, 51.01245062271421], [-4.224115853036276, 51.0124965632427]]]}}, {"type": "Feature", "properties": {"type": "postcode-cell", "postcode": "EX39 3AX", "postcodes": ["EX39 3AX"]}, "geometry": {"type": "Polygon", "coordinates": [[[-4.224166807751404, 51.01495612195688], [-4.223613629614032, 51.01516169227103], [-4.222860162360415, 51.01515445798939], [-4.222434850878061, 51.01504233930643], [-4.223174995203188, 51.01348426223507], [-4.223239192366355, 51.013451479732055], [-4.223882672314582, 51.013396048056286], [-4.223888954569435, 51.01339957680424], [-4.224608707082329, 51.01435380864015], [-4.224166807751404, 51.01495612195688]]]}}, {"type": "Feature", "properties": {"type": "postcode-cell", "postcode": "EX39 3TD", "postcodes": ["EX39 3TD"]}, "geometry": {"type": "Polygon", "coordinates": [[[-4.224608707082329, 51.01435380864015], [-4.226746793395518, 51.01420264198691], [-4.225864829542996, 51.015366346518285], [-4.225233476197612, 51.01541571204691], [-4.224166807751404, 51.01495612195688], [-4.224608707082329, 51.01435380864015]]]}}, {"type": "Feature", "properties": {"type": "postcode-cell", "postcode": "EX39 3GA", "postcodes": ["EX39 3GA"]}, "geometry": {"type": "Polygon", "coordinates": [[[-4.224243963183366, 51.0123774659627], [-4.22399255624633, 51.01142455345923], [-4.224054442755696, 51.01122167148154], [-4.224519990075113, 51.01113999496813], [-4.225089990075653, 51.01079999496785], [-4.2257970427365255, 51.01188349139714], [-4.224243963183366, 51.0123774659627]]]}}, {"type": "Feature", "properties": {"type": "postcode-cell", "postcode": "EX39 3EN", "postcodes": ["EX39 3EN"]}, "geometry": {"type": "Polygon", "coordinates": [[[-4.22399255624633, 51.01142455345923], [-4.222704070644632, 51.01187341045532], [-4.222356719499806, 51.01138266423914], [-4.223179990074203, 51.011119994968105], [-4.223379990074239, 51.0113399949683], [-4.224054442755696, 51.01122167148154], [-4.22399255624633, 51.01142455345923]]]}}, {"type": "Feature", "properties": {"type": "postcode-cell", "postcode": "EX39 3EJ", "postcodes": ["EX39 3EJ"]}, "geometry": {"type": "Polygon", "coordinates": [[[-4.224115853036276, 51.0124965632427], [-4.223882672314582, 51.013396048056286], [-4.223239192366355, 51.013451479732055], [-4.221751331363339, 51.01255416272932], [-4.221752179283099, 51.012537203469066], [-4.222686614363571, 51.012143371167234], [-4.224115853036276, 51.0124965632427]]]}}, {"type": "Feature", "properties": {"type": "postcode-cell", "postcode": "EX39 3AU", "postcodes": ["EX39 3AU"]}, "geometry": {"type": "Polygon", "coordinates": [[[-4.222434850878061, 51.01504233930643], [-4.222860162360415, 51.01515445798939], [-4.222492458060361, 51.01679123647141], [-4.221171450317128, 51.016218581032795], [-4.22136490548959, 51.01504391778212], [-4.221587351505336, 51.014987934914515], [-4.222434850878061, 51.01504233930643]]]}}, {"type": "Feature", "properties": {"type": "postcode-cell", "postcode": "EX39 3AY", "postcodes": ["EX39 3AY"]}, "geometry": {"type": "Polygon", "coordinates": [[[-4.221587351505336, 51.014987934914515], [-4.2217087538364595, 51.01380004204989], [-4.223174995203188, 51.01348426223507], [-4.222434850878061, 51.01504233930643], [-4.221587351505336, 51.014987934914515]]]}}, {"type": "Feature", "properties": {"type": "postcode-cell", "postcode": "EX39 3EW", "postcodes": ["EX39 3EW"]}, "geometry": {"type": "Polygon", "coordinates": [[[-4.222704070644632, 51.01187341045532], [-4.222686614363571, 51.012143371167234], [-4.221752179283099, 51.012537203469066], [-4.220663854237582, 51.01177061464381], [-4.220536132143246, 51.01162094509859], [-4.220889990072445, 51.01153999496848], [-4.221079990072465, 51.01178999496866], [-4.222356719499806, 51.01138266423914], [-4.222704070644632, 51.01187341045532]]]}}, {"type": "Feature", "properties": {"type": "postcode-cell", "postcode": "EX39 3EH", "postcodes": ["EX39 3EH"]}, "geometry": {"type": "Polygon", "coordinates": [[[-4.2217087538364595, 51.01380004204989], [-4.220829537890034, 51.013327994913524], [-4.221751331363339, 51.01255416272932], [-4.223239192366355, 51.013451479732055], [-4.223174995203188, 51.01348426223507], [-4.2217087538364595, 51.01380004204989]]]}}, {"type": "Feature", "properties": {"type": "postcode-cell", "postcode": "EX39 3EQ", "postcodes": ["EX39 3EQ"]}, "geometry": {"type": "Polygon", "coordinates": [[[-4.221587351505336, 51.014987934914515], [-4.22136490548959, 51.01504391778212], [-4.220814014285972, 51.01496855817315], [-4.22009525622111, 51.01339711619671], [-4.220829537890034, 51.013327994913524], [-4.2217087538364595, 51.01380004204989], [-4.221587351505336, 51.014987934914515]]]}}, {"type": "Feature", "properties": {"type": "postcode-cell", "postcode": "EX39 3EE", "postcodes": ["EX39 3EE"]}, "geometry": {"type": "Polygon", "coordinates": [[[-4.221751331363339, 51.01255416272932], [-4.220829537890034, 51.013327994913524], [-4.22009525622111, 51.01339711619671], [-4.2200736799838925, 51.01339365627998], [-4.219976692525475, 51.01335040325578], [-4.220009990071051, 51.01332999496995], [-4.219931162124899, 51.01331542927102], [-4.220663854237582, 51.01177061464381], [-4.221752179283099, 51.012537203469066], [-4.221751331363339, 51.01255416272932]]]}}, {"type": "Feature", "properties": {"type": "postcode-cell", "postcode": "EX39 3AF", "postcodes": ["EX39 3AF"]}, "geometry": {"type": "Polygon", "coordinates": [[[-4.212328576907661, 51.016754782491624], [-4.212439861824794, 51.01677378364662], [-4.213194827776049, 51.01714558298984], [-4.213212062171978, 51.0171981145848], [-4.2117399900635935, 51.01737999497334], [-4.210289990062647, 51.01726999497324], [-4.210788162391896, 51.01694250391515], [-4.212328576907661, 51.016754782491624]]]}}, {"type": "Feature", "properties": {"type": "postcode-cell", "postcode": "EX39 3AR", "postcodes": ["EX39 3AR"]}, "geometry": {"type": "Polygon", "coordinates": [[[-4.218519781272777, 51.015692453924075], [-4.220297191237069, 51.01501679622747], [-4.220814014285972, 51.01496855817315], [-4.22136490548959, 51.01504391778212], [-4.221171450317128, 51.016218581032795], [-4.218861614984105, 51.01692672710474], [-4.218465207745847, 51.01573698324919], [-4.218519781272777, 51.015692453924075]]]}}, {"type": "Feature", "properties": {"type": "postcode-cell", "postcode": "EX39 3EB", "postcodes": ["EX39 3EB"]}, "geometry": {"type": "Polygon", "coordinates": [[[-4.218465207745847, 51.01573698324919], [-4.217730384405333, 51.01555822374774], [-4.216907706244916, 51.014805532672426], [-4.217007247546091, 51.01444781961723], [-4.2171799900686056, 51.014469994970895], [-4.217149990068685, 51.01424999497074], [-4.218053777077209, 51.013991272722635], [-4.218501358707486, 51.014319604449646], [-4.218519781272777, 51.015692453924075], [-4.218465207745847, 51.01573698324919]]]}}, {"type": "Feature", "properties": {"type": "postcode-cell", "postcode": "EX39 3DT", "postcodes": ["EX39 3DT"]}, "geometry": {"type": "Polygon", "coordinates": [[[-4.220663854237582, 51.01177061464381], [-4.219931162124899, 51.01331542927102], [-4.219710211154614, 51.01327460197789], [-4.2190976579772155, 51.01312392830665], [-4.21935999007124, 51.01188999496875], [-4.220536132143246, 51.01162094509859], [-4.220663854237582, 51.01177061464381]]]}}, {"type": "Feature", "properties": {"type": "postcode-cell", "postcode": "EX39 3AN", "postcodes": ["EX39 3AN"]}, "geometry": {"type": "Polygon", "coordinates": [[[-4.218861614984105, 51.01692672710474], [-4.21885080973996, 51.01695831497628], [-4.217628563026302, 51.016955526809596], [-4.2159816974985675, 51.016336070612915], [-4.216726171272999, 51.01576582799257], [-4.217730384405333, 51.01555822374774], [-4.218465207745847, 51.01573698324919], [-4.218861614984105, 51.01692672710474]]]}}, {"type": "Feature", "properties": {"type": "postcode-cell", "postcode": "EX39 3EF", "postcodes": ["EX39 3EF"]}, "geometry": {"type": "Polygon", "coordinates": [[[-4.22009525622111, 51.01339711619671], [-4.220814014285972, 51.01496855817315], [-4.220297191237069, 51.01501679622747], [-4.219365837793101, 51.01428126976776], [-4.2200736799838925, 51.01339365627998], [-4.22009525622111, 51.01339711619671]]]}}, {"type": "Feature", "properties": {"type": "postcode-cell", "postcode": "EX39 3ED", "postcodes": ["EX39 3ED"]}, "geometry": {"type": "MultiPolygon", "coordinates": [[[[-4.219365837793101, 51.01428126976776], [-4.218501358707486, 51.014319604449646], [-4.218053777077209, 51.013991272722635], [-4.219699990070754, 51.0135199949701], [-4.219976692525475, 51.01335040325578], [-4.2200736799838925, 51.01339365627998], [-4.219365837793101, 51.01428126976776]]], [[[-4.219710211154614, 51.01327460197789], [-4.219089990070494, 51.01315999496981], [-4.2190976579772155, 51.01312392830665], [-4.219710211154614, 51.01327460197789]]]]}}, {"type": "Feature", "properties": {"type": "postcode-cell", "postcode": "EX39 3EG", "postcodes": ["EX39 3EG"]}, "geometry": {"type": "Polygon", "coordinates": [[[-4.218519781272777, 51.015692453924075], [-4.218501358707486, 51.014319604449646], [-4.219365837793101, 51.01428126976776], [-4.220297191237069, 51.01501679622747], [-4.218519781272777, 51.015692453924075]]]}}, {"type": "Feature", "properties": {"type": "postcode-cell", "postcode": "EX39 3EA", "postcodes": ["EX39 3EA"]}, "geometry": {"type": "Polygon", "coordinates": [[[-4.216907706244916, 51.014805532672426], [-4.21566798213263, 51.01491910534133], [-4.2150947076834955, 51.01463989840035], [-4.215639990067475, 51.01464999497107], [-4.215699990067678, 51.01427999497075], [-4.217007247546091, 51.01444781961723], [-4.216907706244916, 51.014805532672426]]]}}, {"type": "Feature", "properties": {"type": "postcode-cell", "postcode": "EX39 3AH", "postcodes": ["EX39 3AH"]}, "geometry": {"type": "Polygon", "coordinates": [[[-4.21542166466718, 51.01657650017328], [-4.2157135379538335, 51.01638280764961], [-4.2159816974985675, 51.016336070612915], [-4.217628563026302, 51.016955526809596], [-4.215425816717485, 51.016950469642055], [-4.21542166466718, 51.01657650017328]]]}}, {"type": "Feature", "properties": {"type": "postcode-cell", "postcode": "EX39 3AL", "postcodes": ["EX39 3AL"]}, "geometry": {"type": "Polygon", "coordinates": [[[-4.2159816974985675, 51.016336070612915], [-4.2157135379538335, 51.01638280764961], [-4.215290042114593, 51.01567588136797], [-4.215682516189374, 51.015408356692845], [-4.216726171272999, 51.01576582799257], [-4.2159816974985675, 51.016336070612915]]]}}, {"type": "Feature", "properties": {"type": "postcode-cell", "postcode": "EX39 3AW", "postcodes": ["EX39 3AW"]}, "geometry": {"type": "Polygon", "coordinates": [[[-4.215682516189374, 51.015408356692845], [-4.21566798213263, 51.01491910534133], [-4.216907706244916, 51.014805532672426], [-4.217730384405333, 51.01555822374774], [-4.216726171272999, 51.01576582799257], [-4.215682516189374, 51.015408356692845]]]}}, {"type": "Feature", "properties": {"type": "postcode-cell", "postcode": "EX39 3FU", "postcodes": ["EX39 3FU"]}, "geometry": {"type": "Polygon", "coordinates": [[[-4.21542166466718, 51.01657650017328], [-4.2145215170137025, 51.01637509840936], [-4.214392700607494, 51.01578314345234], [-4.21443941395832, 51.01566496490857], [-4.214491444067068, 51.015646048638004], [-4.215290042114593, 51.01567588136797], [-4.2157135379538335, 51.01638280764961], [-4.21542166466718, 51.01657650017328]]]}}, {"type": "Feature", "properties": {"type": "postcode-cell", "postcode": "EX39 3BX", "postcodes": ["EX39 3BX"]}, "geometry": {"type": "MultiPolygon", "coordinates": [[[[-4.2147532391086875, 51.01493597316292], [-4.214559990066739, 51.014629994971024], [-4.214863970867895, 51.01463562525742], [-4.2147532391086875, 51.01493597316292]]], [[[-4.214491444067068, 51.015646048638004], [-4.21443941395832, 51.01566496490857], [-4.213428837452301, 51.01532492328986], [-4.213959990066148, 51.01503999497139], [-4.214724960637171, 51.01501267484086], [-4.214491444067068, 51.015646048638004]]]]}}, {"type": "Feature", "properties": {"type": "postcode-cell", "postcode": "EX39 3BQ", "postcodes": ["EX39 3BQ"]}, "geometry": {"type": "Polygon", "coordinates": [[[-4.21566798213263, 51.01491910534133], [-4.215682516189374, 51.015408356692845], [-4.215290042114593, 51.01567588136797], [-4.214491444067068, 51.015646048638004], [-4.214724960637171, 51.01501267484086], [-4.214799990066737, 51.01500999497136], [-4.2147532391086875, 51.01493597316292], [-4.214863970867895, 51.01463562525742], [-4.2150947076834955, 51.01463989840035], [-4.21566798213263, 51.01491910534133]]]}}, {"type": "Feature", "properties": {"type": "postcode-cell", "postcode": "EX39 3AQ", "postcodes": ["EX39 3AQ"]}, "geometry": {"type": "Polygon", "coordinates": [[[-4.215425816717485, 51.016950469642055], [-4.21521999006617, 51.01694999497295], [-4.213212062171978, 51.0171981145848], [-4.213194827776049, 51.01714558298984], [-4.213620623263941, 51.01666648716125], [-4.2145215170137025, 51.01637509840936], [-4.21542166466718, 51.01657650017328], [-4.215425816717485, 51.016950469642055]]]}}, {"type": "Feature", "properties": {"type": "postcode-cell", "postcode": "EX39 3BN", "postcodes": ["EX39 3BN"]}, "geometry": {"type": "Polygon", "coordinates": [[[-4.213194827776049, 51.01714558298984], [-4.212439861824794, 51.01677378364662], [-4.212687026028071, 51.01572284636012], [-4.212772837748215, 51.01567681575334], [-4.213387103098225, 51.016094191096926], [-4.213620623263941, 51.01666648716125], [-4.213194827776049, 51.01714558298984]]]}}, {"type": "Feature", "properties": {"type": "postcode-cell", "postcode": "EX39 3BW", "postcodes": ["EX39 3BW"]}, "geometry": {"type": "Polygon", "coordinates": [[[-4.2145215170137025, 51.01637509840936], [-4.213620623263941, 51.01666648716125], [-4.213387103098225, 51.016094191096926], [-4.214392700607494, 51.01578314345234], [-4.2145215170137025, 51.01637509840936]]]}}, {"type": "Feature", "properties": {"type": "postcode-cell", "postcode": "EX39 3BS", "postcodes": ["EX39 3BS"]}, "geometry": {"type": "Polygon", "coordinates": [[[-4.214392700607494, 51.01578314345234], [-4.213387103098225, 51.016094191096926], [-4.212772837748215, 51.01567681575334], [-4.213428837452301, 51.01532492328986], [-4.21443941395832, 51.01566496490857], [-4.214392700607494, 51.01578314345234]]]}}, {"type": "Feature", "properties": {"type": "postcode-cell", "postcode": "EX39 3BL", "postcodes": ["EX39 3BL"]}, "geometry": {"type": "Polygon", "coordinates": [[[-4.212439861824794, 51.01677378364662], [-4.212328576907661, 51.016754782491624], [-4.21181120972333, 51.016269946953976], [-4.212449990064753, 51.01584999497206], [-4.212687026028071, 51.01572284636012], [-4.212439861824794, 51.01677378364662]]]}}, {"type": "Feature", "properties": {"type": "postcode-cell", "postcode": "EX39 3BH", "postcodes": ["EX39 3BH"]}, "geometry": {"type": "Polygon", "coordinates": [[[-4.212328576907661, 51.016754782491624], [-4.210788162391896, 51.01694250391515], [-4.21181120972333, 51.016269946953976], [-4.212328576907661, 51.016754782491624]]]}}]}