{"type": "FeatureCollection", "features": [{"type": "Feature", "properties": {"type": "ward-outline", "name": "Bideford South"}, "geometry": {"type": "Polygon", "coordinates": [[[-4.20567, 51.0137], [-4.20675, 51.00803], [-4.20579, 51.00633], [-4.20616, 51.00516], [-4.20578, 51.0055], [-4.2042, 51.00449], [-4.1932, 51.00007], [-4.1939, 50.99756], [-4.1953, 50.99618], [-4.1957, 50.99602], [-4.19636, 50.99617], [-4.19696, 50.99641], [-4.19914, 50.99512], [-4.19918, 50.99467], [-4.19836, 50.99459], [-4.19799, 50.9942], [-4.19804, 50.99388], [-4.19831, 50.99368], [-4.19871, 50.99352], [-4.19927, 50.99363], [-4.19926, 50.99318], [-4.20365, 50.99371], [-4.20712, 50.99461], [-4.2111, 50.99457], [-4.21534, 50.99415], [-4.21595, 50.99486], [-4.21802, 50.99546], [-4.21985, 50.99701], [-4.22204, 50.99795], [-4.22337, 50.99947], [-4.22405, 50.99938], [-4.22418, 50.99901], [-4.22579, 50.99904], [-4.22756, 50.99849], [-4.23028, 50.99914], [-4.23092, 50.99906], [-4.23276, 51.00035], [-4.2358, 51.00129], [-4.23678, 51.0024], [-4.2385, 51.0035], [-4.24393, 51.00509], [-4.2482, 51.00556], [-4.247, 51.00898], [-4.24444, 51.00927], [-4.24258, 51.00906], [-4.24217, 51.01188], [-4.24089, 51.01233], [-4.241, 51.01354], [-4.23998, 51.01376], [-4.23929, 51.01258], [-4.23495, 51.01357], [-4.23465, 51.01224], [-4.23282, 51.01241], [-4.23258, 51.01174], [-4.22883, 51.01209], [-4.22648, 51.01293], [-4.22509, 51.0108], [-4.22452, 51.01114], [-4.22338, 51.01134], [-4.22318, 51.01112], [-4.22108, 51.01179], [-4.22089, 51.01154], [-4.21936, 51.01189], [-4.21909, 51.01316], [-4.22001, 51.01333], [-4.2197, 51.01352], [-4.21715, 51.01425], [-4.21718, 51.01447], [-4.2157, 51.01428], [-4.21564, 51.01465], [-4.21456, 51.01463], [-4.2148, 51.01501], [-4.21396, 51.01504], [-4.21245, 51.01585], [-4.20949, 51.01504], [-4.20962, 51.01461], [-4.20685, 51.01442], [-4.20608, 51.01369], [-4.20567, 51.0137]]]}}, {"type": "Feature", "properties": {"type": "postcode-cell", "postcode": "EX39 3GJ", "postcodes": ["EX39 3GJ"]}, "geometry": {"type": "Polygon", "coordinates": [[[-4.244549417514656, 51.008685564943285], [-4.247046393890174, 51.005433034721165], [-4.248199990093837, 51.005559994963406], [-4.246999990091508, 51.008979994966204], [-4.244638849439105, 51.009247470063826], [-4.244549417514656, 51.008685564943285]]]}}, {"type": "Feature", "properties": {"type": "postcode-cell", "postcode": "EX39 5EQ", "postcodes": ["EX39 5EQ"]}, "geometry": {"type": "Polygon", "coordinates": [[[-4.234344714193414, 51.00126512587247], [-4.230152107155152, 51.003963046354386], [-4.229072165258498, 51.0045406198589], [-4.225317500982971, 51.00499601368], [-4.219904282037051, 51.00280306989577], [-4.219677215998105, 51.00146792358685], [-4.222835054485201, 50.99885865408573], [-4.2233699900794655, 50.999469994958524], [-4.224049990079972, 50.999379994958446], [-4.224179990080223, 50.99900999495812], [-4.225789990081317, 50.999039994958146], [-4.22755999008277, 50.99848999495767], [-4.230279990084352, 50.999139994958206], [-4.230919990084827, 50.99905999495814], [-4.232759990085523, 51.00034999495919], [-4.2347351710056325, 51.00096075514716], [-4.234344714193414, 51.00126512587247]]]}}, {"type": "Feature", "properties": {"type": "postcode-cell", "postcode": "EX39 3GS", "postcodes": ["EX39 3GS"]}, "geometry": {"type": "Polygon", "coordinates": [[[-4.244638849439105, 51.009247470063826], [-4.244439990089621, 51.009269994966466], [-4.242602392857527, 51.009062524499456], [-4.2407893454225105, 51.007880160731645], [-4.241160070236325, 51.007155196568604], [-4.244549417514656, 51.008685564943285], [-4.244638849439105, 51.009247470063826]]]}}, {"type": "Feature", "properties": {"type": "postcode-cell", "postcode": "EX39 3GU", "postcodes": ["EX39 3GU"]}, "geometry": {"type": "Polygon", "coordinates": [[[-4.244549417514656, 51.008685564943285], [-4.241160070236325, 51.007155196568604], [-4.2418711268525495, 51.00448716630943], [-4.243929990091108, 51.00508999496303], [-4.247046393890174, 51.005433034721165], [-4.244549417514656, 51.008685564943285]]]}}, {"type": "Feature", "properties": {"type": "postcode-cell", "postcode": "EX39 3GE", "postcodes": ["EX39 3GE"]}, "geometry": {"type": "Polygon", "coordinates": [[[-4.235771117704567, 51.007100243472884], [-4.235703016046456, 51.00707028481107], [-4.234762130811262, 51.006374465315204], [-4.2344828985561085, 51.00573744874027], [-4.234344714193414, 51.00126512587247], [-4.2347351710056325, 51.00096075514716], [-4.2357999900871945, 51.001289994959954], [-4.236779990087378, 51.00239999496084], [-4.238499990088075, 51.00349999496173], [-4.240494927923644, 51.00408419038896], [-4.235771117704567, 51.007100243472884]]]}}, {"type": "Feature", "properties": {"type": "postcode-cell", "postcode": "EX39 3FY", "postcodes": ["EX39 3FY"]}, "geometry": {"type": "Polygon", "coordinates": [[[-4.241207985943844, 51.00986572674618], [-4.242440731474412, 51.01001785697233], [-4.2421699900869125, 51.01187999496863], [-4.240889990085833, 51.01232999496899], [-4.240999990085379, 51.013539994969996], [-4.24003711102768, 51.013747675055725], [-4.241207985943844, 51.00986572674618]]]}}, {"type": "Feature", "properties": {"type": "postcode-cell", "postcode": "EX39 3FR", "postcodes": ["EX39 3FR"]}, "geometry": {"type": "Polygon", "coordinates": [[[-4.240636631885067, 51.00900494945959], [-4.238367261232474, 51.01135939352986], [-4.237185312410284, 51.009025609130084], [-4.240556362702596, 51.00795250146661], [-4.240769560355598, 51.00789472458382], [-4.240636631885067, 51.00900494945959]]]}}, {"type": "Feature", "properties": {"type": "postcode-cell", "postcode": "EX39 3FZ", "postcodes": ["EX39 3FZ"]}, "geometry": {"type": "Polygon", "coordinates": [[[-4.240769560355598, 51.00789472458382], [-4.2407893454225105, 51.007880160731645], [-4.242602392857527, 51.009062524499456], [-4.2425799900884344, 51.00905999496629], [-4.242440731474412, 51.01001785697233], [-4.241207985943844, 51.00986572674618], [-4.240636631885067, 51.00900494945959], [-4.240769560355598, 51.00789472458382]]]}}, {"type": "Feature", "properties": {"type": "postcode-cell", "postcode": "EX39 3DU", "postcodes": ["EX39 3DU"]}, "geometry": {"type": "Polygon", "coordinates": [[[-4.240769560355598, 51.00789472458382], [-4.240556362702596, 51.00795250146661], [-4.235739153560061, 51.00729286451308], [-4.235771117704567, 51.007100243472884], [-4.240494927923644, 51.00408419038896], [-4.2418711268525495, 51.00448716630943], [-4.241160070236325, 51.007155196568604], [-4.2407893454225105, 51.007880160731645], [-4.240769560355598, 51.00789472458382]]]}}, {"type": "Feature", "properties": {"type": "postcode-cell", "postcode": "EX39 3FX", "postcodes": ["EX39 3FX"]}, "geometry": {"type": "Polygon", "coordinates": [[[-4.241207985943844, 51.00986572674618], [-4.24003711102768, 51.013747675055725], [-4.239979990084578, 51.01375999497017], [-4.239289990084625, 51.01257999496922], [-4.238484938741714, 51.01276365099687], [-4.238367261232474, 51.01135939352986], [-4.240636631885067, 51.00900494945959], [-4.241207985943844, 51.00986572674618]]]}}, {"type": "Feature", "properties": {"type": "postcode-cell", "postcode": "EX39 3FG", "postcodes": ["EX39 3FG"]}, "geometry": {"type": "Polygon", "coordinates": [[[-4.234409241345742, 51.010947761908135], [-4.235092516596336, 51.011018039268855], [-4.237769161729719, 51.01292693506229], [-4.234949990081207, 51.013569994970055], [-4.234649990081587, 51.012239994968986], [-4.2328199900802534, 51.01240999496912], [-4.232579990080384, 51.01173999496858], [-4.231363330622454, 51.01185356358819], [-4.234409241345742, 51.010947761908135]]]}}, {"type": "Feature", "properties": {"type": "postcode-cell", "postcode": "EX39 3FW", "postcodes": ["EX39 3FW"]}, "geometry": {"type": "Polygon", "coordinates": [[[-4.238484938741714, 51.01276365099687], [-4.237769161729719, 51.01292693506229], [-4.235092516596336, 51.011018039268855], [-4.235002375934869, 51.010151012993525], [-4.235052605373407, 51.00957185049194], [-4.237023380629746, 51.00898212373024], [-4.237185312410284, 51.009025609130084], [-4.238367261232474, 51.01135939352986], [-4.238484938741714, 51.01276365099687]]]}}, {"type": "Feature", "properties": {"type": "postcode-cell", "postcode": "EX39 3QU", "postcodes": ["EX39 3QU"]}, "geometry": {"type": "Polygon", "coordinates": [[[-4.237185312410284, 51.009025609130084], [-4.237023380629746, 51.00898212373024], [-4.235675729039974, 51.00750116221397], [-4.235739153560061, 51.00729286451308], [-4.240556362702596, 51.00795250146661], [-4.237185312410284, 51.009025609130084]]]}}, {"type": "Feature", "properties": {"type": "postcode-cell", "postcode": "EX39 3FT", "postcodes": ["EX39 3FT"]}, "geometry": {"type": "Polygon", "coordinates": [[[-4.237023380629746, 51.00898212373024], [-4.235052605373407, 51.00957185049194], [-4.231976964814742, 51.008800009394825], [-4.23190964634174, 51.00870132123219], [-4.235675729039974, 51.00750116221397], [-4.237023380629746, 51.00898212373024]]]}}, {"type": "Feature", "properties": {"type": "postcode-cell", "postcode": "EX39 3DX", "postcodes": ["EX39 3DX"]}, "geometry": {"type": "Polygon", "coordinates": [[[-4.235771117704567, 51.007100243472884], [-4.235739153560061, 51.00729286451308], [-4.235675729039974, 51.00750116221397], [-4.23190964634174, 51.00870132123219], [-4.23155166863894, 51.00851271744303], [-4.231230276579366, 51.007160032334355], [-4.233035789828284, 51.00679204600877], [-4.235703016046456, 51.00707028481107], [-4.235771117704567, 51.007100243472884]]]}}, {"type": "Feature", "properties": {"type": "postcode-cell", "postcode": "EX39 3FH", "postcodes": ["EX39 3FH"]}, "geometry": {"type": "Polygon", "coordinates": [[[-4.235092516596336, 51.011018039268855], [-4.234409241345742, 51.010947761908135], [-4.232862392478013, 51.01027347575874], [-4.235002375934869, 51.010151012993525], [-4.235092516596336, 51.011018039268855]]]}}, {"type": "Feature", "properties": {"type": "postcode-cell", "postcode": "EX39 3HN", "postcodes": ["EX39 3HN"]}, "geometry": {"type": "Polygon", "coordinates": [[[-4.235052605373407, 51.00957185049194], [-4.235002375934869, 51.010151012993525], [-4.232862392478013, 51.01027347575874], [-4.231931258259411, 51.009953875525746], [-4.231976964814742, 51.008800009394825], [-4.235052605373407, 51.00957185049194]]]}}, {"type": "Feature", "properties": {"type": "postcode-cell", "postcode": "EX39 3GB", "postcodes": ["EX39 3GB"]}, "geometry": {"type": "Polygon", "coordinates": [[[-4.2335274353586385, 51.00606316917836], [-4.2344828985561085, 51.00573744874027], [-4.234762130811262, 51.006374465315204], [-4.233658212784055, 51.00627112711677], [-4.2335274353586385, 51.00606316917836]]]}}, {"type": "Feature", "properties": {"type": "postcode-cell", "postcode": "EX39 3BT", "postcodes": ["EX39 3BT"]}, "geometry": {"type": "Polygon", "coordinates": [[[-4.233658212784055, 51.00627112711677], [-4.233035789828284, 51.00679204600877], [-4.231230276579366, 51.007160032334355], [-4.229072165258498, 51.0045406198589], [-4.230152107155152, 51.003963046354386], [-4.2335274353586385, 51.00606316917836], [-4.233658212784055, 51.00627112711677]]]}}, {"type": "Feature", "properties": {"type": "postcode-cell", "postcode": "EX39 3BE", "postcodes": ["EX39 3BE"]}, "geometry": {"type": "Polygon", "coordinates": [[[-4.235703016046456, 51.00707028481107], [-4.233035789828284, 51.00679204600877], [-4.233658212784055, 51.00627112711677], [-4.234762130811262, 51.006374465315204], [-4.235703016046456, 51.00707028481107]]]}}, {"type": "Feature", "properties": {"type": "postcode-cell", "postcode": "EX39 3GD", "postcodes": ["EX39 3GD"]}, "geometry": {"type": "Polygon", "coordinates": [[[-4.234409241345742, 51.010947761908135], [-4.231363330622454, 51.01185356358819], [-4.231041073697848, 51.01188364232938], [-4.231002552398304, 51.01181509687226], [-4.231003252575402, 51.01139125904936], [-4.231931258259411, 51.009953875525746], [-4.232862392478013, 51.01027347575874], [-4.234409241345742, 51.010947761908135]]]}}, {"type": "Feature", "properties": {"type": "postcode-cell", "postcode": "EX39 3SG", "postcodes": ["EX39 3SG"]}, "geometry": {"type": "Polygon", "coordinates": [[[-4.229072165258498, 51.0045406198589], [-4.231230276579366, 51.007160032334355], [-4.23155166863894, 51.00851271744303], [-4.229745140856587, 51.008796435643525], [-4.228671553813509, 51.00873094169318], [-4.2264845520881416, 51.007962903459784], [-4.225268780810682, 51.0055828462575], [-4.225317500982971, 51.00499601368], [-4.229072165258498, 51.0045406198589]]]}}, {"type": "Feature", "properties": {"type": "postcode-cell", "postcode": "EX39 3GF", "postcodes": ["EX39 3GF"]}, "geometry": {"type": "Polygon", "coordinates": [[[-4.2335274353586385, 51.00606316917836], [-4.230152107155152, 51.003963046354386], [-4.234344714193414, 51.00126512587247], [-4.2344828985561085, 51.00573744874027], [-4.2335274353586385, 51.00606316917836]]]}}, {"type": "Feature", "properties": {"type": "postcode-cell", "postcode": "EX39 3HW", "postcodes": ["EX39 3HW"]}, "geometry": {"type": "Polygon", "coordinates": [[[-4.231931258259411, 51.009953875525746], [-4.231003252575402, 51.01139125904936], [-4.229025790551525, 51.01036622449719], [-4.229745140856587, 51.008796435643525], [-4.23155166863894, 51.00851271744303], [-4.23190964634174, 51.00870132123219], [-4.231976964814742, 51.008800009394825], [-4.231931258259411, 51.009953875525746]]]}}, {"type": "Feature", "properties": {"type": "postcode-cell", "postcode": "EX39 3BP", "postcodes": ["EX39 3BP"]}, "geometry": {"type": "Polygon", "coordinates": [[[-4.212012542167316, 51.01544896924224], [-4.213184584078729, 51.015455947138136], [-4.212449990064753, 51.01584999497206], [-4.211618951187525, 51.01562259281964], [-4.212012542167316, 51.01544896924224]]]}}, {"type": "Feature", "properties": {"type": "postcode-cell", "postcode": "EX39 3HH", "postcodes": ["EX39 3HH"]}, "geometry": {"type": "Polygon", "coordinates": [[[-4.231002552398304, 51.01181509687226], [-4.229993635646452, 51.011683823978515], [-4.228311077357115, 51.01112738782496], [-4.2285101738821345, 51.010394459336155], [-4.229025790551525, 51.01036622449719], [-4.231003252575402, 51.01139125904936], [-4.231002552398304, 51.01181509687226]]]}}, {"type": "Feature", "properties": {"type": "postcode-cell", "postcode": "EX39 3HD", "postcodes": ["EX39 3HD"]}, "geometry": {"type": "Polygon", "coordinates": [[[-4.227447176056599, 51.01177994387335], [-4.229993635646452, 51.011683823978515], [-4.231002552398304, 51.01181509687226], [-4.231041073697848, 51.01188364232938], [-4.228829990077653, 51.01208999496887], [-4.227495680183947, 51.01256694923806], [-4.227447176056599, 51.01177994387335]]]}}, {"type": "Feature", "properties": {"type": "postcode-cell", "postcode": "EX39 3HQ", "postcodes": ["EX39 3HQ"]}, "geometry": {"type": "Polygon", "coordinates": [[[-4.229025790551525, 51.01036622449719], [-4.2285101738821345, 51.010394459336155], [-4.228262711813746, 51.01034217475109], [-4.227885275523671, 51.00970819589281], [-4.228671553813509, 51.00873094169318], [-4.229745140856587, 51.008796435643525], [-4.229025790551525, 51.01036622449719]]]}}, {"type": "Feature", "properties": {"type": "postcode-cell", "postcode": "EX39 3HJ", "postcodes": ["EX39 3HJ"]}, "geometry": {"type": "Polygon", "coordinates": [[[-4.227885275523671, 51.00970819589281], [-4.226332417779607, 51.009872872447815], [-4.225736225560305, 51.00906386630254], [-4.2264845520881416, 51.007962903459784], [-4.228671553813509, 51.00873094169318], [-4.227885275523671, 51.00970819589281]]]}}, {"type": "Feature", "properties": {"type": "postcode-cell", "postcode": "EX39 3HE", "postcodes": ["EX39 3HE"]}, "geometry": {"type": "Polygon", "coordinates": [[[-4.229993635646452, 51.011683823978515], [-4.227447176056599, 51.01177994387335], [-4.2271804231653665, 51.01149406007844], [-4.227335159852033, 51.011318558217326], [-4.228311077357115, 51.01112738782496], [-4.229993635646452, 51.011683823978515]]]}}, {"type": "Feature", "properties": {"type": "postcode-cell", "postcode": "EX39 3HF", "postcodes": ["EX39 3HF"]}, "geometry": {"type": "Polygon", "coordinates": [[[-4.2285101738821345, 51.010394459336155], [-4.228311077357115, 51.01112738782496], [-4.227335159852033, 51.011318558217326], [-4.227336501270606, 51.01058823186261], [-4.228262711813746, 51.01034217475109], [-4.2285101738821345, 51.010394459336155]]]}}, {"type": "Feature", "properties": {"type": "postcode-cell", "postcode": "EX39 3BY", "postcodes": ["EX39 3BY"]}, "geometry": {"type": "Polygon", "coordinates": [[[-4.213353826402409, 51.01480396837324], [-4.213503038693245, 51.0142222153169], [-4.214056955532484, 51.013923840943335], [-4.21507276787493, 51.01400258438338], [-4.215588836161182, 51.01464904790233], [-4.214559990066739, 51.014629994971024], [-4.214799990066737, 51.01500999497136], [-4.213959990066148, 51.01503999497139], [-4.213837419805695, 51.01510574634535], [-4.213353826402409, 51.01480396837324]]]}}, {"type": "Feature", "properties": {"type": "postcode-cell", "postcode": "EX39 3HA", "postcodes": ["EX39 3HA"]}, "geometry": {"type": "Polygon", "coordinates": [[[-4.227495680183947, 51.01256694923806], [-4.226479990075668, 51.012929994969575], [-4.225727948308736, 51.01177761271009], [-4.226573078089883, 51.01147748769393], [-4.2271804231653665, 51.01149406007844], [-4.227447176056599, 51.01177994387335], [-4.227495680183947, 51.01256694923806]]]}}, {"type": "Feature", "properties": {"type": "postcode-cell", "postcode": "EX39 3HB", "postcodes": ["EX39 3HB"]}, "geometry": {"type": "Polygon", "coordinates": [[[-4.2271804231653665, 51.01149406007844], [-4.226573078089883, 51.01147748769393], [-4.225808333683345, 51.01053874394087], [-4.226327000595116, 51.01015302899769], [-4.227336501270606, 51.01058823186261], [-4.227335159852033, 51.011318558217326], [-4.2271804231653665, 51.01149406007844]]]}}, {"type": "Feature", "properties": {"type": "postcode-cell", "postcode": "EX39 3HG", "postcodes": ["EX39 3HG"]}, "geometry": {"type": "Polygon", "coordinates": [[[-4.228262711813746, 51.01034217475109], [-4.227336501270606, 51.01058823186261], [-4.226327000595116, 51.01015302899769], [-4.226332417779607, 51.009872872447815], [-4.227885275523671, 51.00970819589281], [-4.228262711813746, 51.01034217475109]]]}}, {"type": "Feature", "properties": {"type": "postcode-cell", "postcode": "EX39 5HX", "postcodes": ["EX39 5HX"]}, "geometry": {"type": "Polygon", "coordinates": [[[-4.219677215998105, 51.00146792358685], [-4.2096728285896665, 50.99805706703543], [-4.208831187327845, 50.99496152253421], [-4.208935557759382, 50.994591764873476], [-4.211099990073217, 50.994569994954546], [-4.215339990076306, 50.994149994954185], [-4.215949990076411, 50.99485999495477], [-4.218019990077564, 50.99545999495524], [-4.219849990078137, 50.99700999495651], [-4.222039990079222, 50.99794999495728], [-4.222835054485201, 50.99885865408573], [-4.219677215998105, 51.00146792358685]]]}}, {"type": "Feature", "properties": {"type": "postcode-cell", "postcode": "EX39 3EY", "postcodes": ["EX39 3EY"]}, "geometry": {"type": "Polygon", "coordinates": [[[-4.226327000595116, 51.01015302899769], [-4.225808333683345, 51.01053874394087], [-4.225561063898513, 51.01059086930037], [-4.224286972725698, 51.01016032633479], [-4.225208443090127, 51.009197738123795], [-4.225736225560305, 51.00906386630254], [-4.226332417779607, 51.009872872447815], [-4.226327000595116, 51.01015302899769]]]}}, {"type": "Feature", "properties": {"type": "postcode-cell", "postcode": "EX39 5EU", "postcodes": ["EX39 5EU"]}, "geometry": {"type": "Polygon", "coordinates": [[[-4.225736225560305, 51.00906386630254], [-4.225208443090127, 51.009197738123795], [-4.222146519662812, 51.00895469914613], [-4.221904455727296, 51.00881723363216], [-4.225268780810682, 51.0055828462575], [-4.2264845520881416, 51.007962903459784], [-4.225736225560305, 51.00906386630254]]]}}, {"type": "Feature", "properties": {"type": "postcode-cell", "postcode": "EX39 3EZ", "postcodes": ["EX39 3EZ"]}, "geometry": {"type": "Polygon", "coordinates": [[[-4.226573078089883, 51.01147748769393], [-4.225727948308736, 51.01177761271009], [-4.225175669044525, 51.010931293505784], [-4.225561063898513, 51.01059086930037], [-4.225808333683345, 51.01053874394087], [-4.226573078089883, 51.01147748769393]]]}}, {"type": "Feature", "properties": {"type": "postcode-cell", "postcode": "EX39 3EP", "postcodes": ["EX39 3EP"]}, "geometry": {"type": "Polygon", "coordinates": [[[-4.221319602299956, 51.01146439062459], [-4.222534726576057, 51.011026948275784], [-4.222754325931565, 51.01125580667926], [-4.221199654489267, 51.01175181784423], [-4.221319602299956, 51.01146439062459]]]}}, {"type": "Feature", "properties": {"type": "postcode-cell", "postcode": "EX39 3DZ", "postcodes": ["EX39 3DZ"]}, "geometry": {"type": "Polygon", "coordinates": [[[-4.217186460693253, 51.01332163194542], [-4.2199549372266185, 51.01331982240201], [-4.220009990071051, 51.01332999496995], [-4.219699990070754, 51.0135199949701], [-4.217335252817691, 51.01419696159894], [-4.217186460693253, 51.01332163194542]]]}}, {"type": "Feature", "properties": {"type": "postcode-cell", "postcode": "EX39 3ET", "postcodes": ["EX39 3ET"]}, "geometry": {"type": "Polygon", "coordinates": [[[-4.223112831810597, 51.01041835403275], [-4.223259339242416, 51.0101483564519], [-4.22402511613506, 51.0102239572686], [-4.224327945413672, 51.01117368790983], [-4.223780573407631, 51.011269718648045], [-4.223112831810597, 51.01041835403275]]]}}, {"type": "Feature", "properties": {"type": "postcode-cell", "postcode": "EX39 3EU", "postcodes": ["EX39 3EU"]}, "geometry": {"type": "Polygon", "coordinates": [[[-4.225561063898513, 51.01059086930037], [-4.225175669044525, 51.010931293505784], [-4.225089990075653, 51.01079999496785], [-4.224519990075113, 51.01113999496813], [-4.224327945413672, 51.01117368790983], [-4.22402511613506, 51.0102239572686], [-4.224286972725698, 51.01016032633479], [-4.225561063898513, 51.01059086930037]]]}}, {"type": "Feature", "properties": {"type": "postcode-cell", "postcode": "EX39 3ES", "postcodes": ["EX39 3ES"]}, "geometry": {"type": "Polygon", "coordinates": [[[-4.222534726576057, 51.011026948275784], [-4.222501987172636, 51.01089587671321], [-4.223112831810597, 51.01041835403275], [-4.223780573407631, 51.011269718648045], [-4.223379990074239, 51.0113399949683], [-4.223179990074203, 51.011119994968105], [-4.222754325931565, 51.01125580667926], [-4.222534726576057, 51.011026948275784]]]}}, {"type": "Feature", "properties": {"type": "postcode-cell", "postcode": "EX39 5AQ", "postcodes": ["EX39 5AQ"]}, "geometry": {"type": "Polygon", "coordinates": [[[-4.22269275500007, 51.00968265379229], [-4.221861381365546, 51.010563151692104], [-4.221087845485839, 51.01056143931641], [-4.2200630360874545, 51.00893857573357], [-4.221904455727296, 51.00881723363216], [-4.222146519662812, 51.00895469914613], [-4.22269275500007, 51.00968265379229]]]}}, {"type": "Feature", "properties": {"type": "postcode-cell", "postcode": "EX39 3EX", "postcodes": ["EX39 3EX"]}, "geometry": {"type": "Polygon", "coordinates": [[[-4.222146519662812, 51.00895469914613], [-4.225208443090127, 51.009197738123795], [-4.224286972725698, 51.01016032633479], [-4.22402511613506, 51.0102239572686], [-4.223259339242416, 51.0101483564519], [-4.22269275500007, 51.00968265379229], [-4.222146519662812, 51.00895469914613]]]}}, {"type": "Feature", "properties": {"type": "postcode-cell", "postcode": "EX39 5EX", "postcodes": ["EX39 5EX"]}, "geometry": {"type": "Polygon", "coordinates": [[[-4.225268780810682, 51.0055828462575], [-4.221904455727296, 51.00881723363216], [-4.2200630360874545, 51.00893857573357], [-4.218593958745707, 51.00875570325017], [-4.2147777349449225, 51.007701099206756], [-4.214721381558457, 51.00767190809449], [-4.214591716836231, 51.007554087216704], [-4.215121055957739, 51.00637219626899], [-4.219904282037051, 51.00280306989577], [-4.225317500982971, 51.00499601368], [-4.225268780810682, 51.0055828462575]]]}}, {"type": "Feature", "properties": {"type": "postcode-cell", "postcode": "EX39 5FD", "postcodes": ["EX39 5FD"]}, "geometry": {"type": "Polygon", "coordinates": [[[-4.223112831810597, 51.01041835403275], [-4.222501987172636, 51.01089587671321], [-4.222469267746936, 51.01088706066634], [-4.221861381365546, 51.010563151692104], [-4.22269275500007, 51.00968265379229], [-4.223259339242416, 51.0101483564519], [-4.223112831810597, 51.01041835403275]]]}}, {"type": "Feature", "properties": {"type": "postcode-cell", "postcode": "EX39 3DW", "postcodes": ["EX39 3DW"]}, "geometry": {"type": "Polygon", "coordinates": [[[-4.218421729475349, 51.01170977566907], [-4.218408848367391, 51.0116039005233], [-4.219452202173316, 51.011271030359175], [-4.220259948863038, 51.011566252389116], [-4.220381673046399, 51.011656279433566], [-4.21935999007124, 51.01188999496875], [-4.219269060735784, 51.01231770688887], [-4.218421729475349, 51.01170977566907]]]}}, {"type": "Feature", "properties": {"type": "postcode-cell", "postcode": "EX39 3DN", "postcodes": ["EX39 3DN"]}, "geometry": {"type": "Polygon", "coordinates": [[[-4.217186460693253, 51.01332163194542], [-4.21717097486686, 51.01330618856639], [-4.21721608816682, 51.01281515774237], [-4.217861019101914, 51.0126495500795], [-4.21916049743213, 51.01282835551159], [-4.219089990070494, 51.01315999496981], [-4.2199549372266185, 51.01331982240201], [-4.217186460693253, 51.01332163194542]]]}}, {"type": "Feature", "properties": {"type": "postcode-cell", "postcode": "EX39 3DR", "postcodes": ["EX39 3DR"]}, "geometry": {"type": "Polygon", "coordinates": [[[-4.222534726576057, 51.011026948275784], [-4.221319602299956, 51.01146439062459], [-4.221271994295932, 51.01101857004708], [-4.222469267746936, 51.01088706066634], [-4.222501987172636, 51.01089587671321], [-4.222534726576057, 51.011026948275784]]]}}, {"type": "Feature", "properties": {"type": "postcode-cell", "postcode": "EX39 5AE", "postcodes": ["EX39 5AE"]}, "geometry": {"type": "Polygon", "coordinates": [[[-4.221199654489267, 51.01175181784423], [-4.221079990072465, 51.01178999496866], [-4.220889990072445, 51.01153999496848], [-4.220381673046399, 51.011656279433566], [-4.220259948863038, 51.011566252389116], [-4.22051412533527, 51.0108948430001], [-4.221050767247897, 51.01069937873049], [-4.221271994295932, 51.01101857004708], [-4.221319602299956, 51.01146439062459], [-4.221199654489267, 51.01175181784423]]]}}, {"type": "Feature", "properties": {"type": "postcode-cell", "postcode": "EX39 5AD", "postcodes": ["EX39 5AD"]}, "geometry": {"type": "Polygon", "coordinates": [[[-4.221050767247897, 51.01069937873049], [-4.221087845485839, 51.01056143931641], [-4.221861381365546, 51.010563151692104], [-4.222469267746936, 51.01088706066634], [-4.221271994295932, 51.01101857004708], [-4.221050767247897, 51.01069937873049]]]}}, {"type": "Feature", "properties": {"type": "postcode-cell", "postcode": "EX39 5AJ", "postcodes": ["EX39 5AJ"]}, "geometry": {"type": "Polygon", "coordinates": [[[-4.221050767247897, 51.01069937873049], [-4.22051412533527, 51.0108948430001], [-4.21955241178615, 51.01078404906011], [-4.218593958745707, 51.00875570325017], [-4.2200630360874545, 51.00893857573357], [-4.221087845485839, 51.01056143931641], [-4.221050767247897, 51.01069937873049]]]}}, {"type": "Feature", "properties": {"type": "postcode-cell", "postcode": "EX39 3DS", "postcodes": ["EX39 3DS"]}, "geometry": {"type": "Polygon", "coordinates": [[[-4.216604534881393, 51.010467723552765], [-4.218408848367391, 51.0116039005233], [-4.218421729475349, 51.01170977566907], [-4.218309987575463, 51.011797259570095], [-4.216849557049389, 51.01229251587276], [-4.216457857943776, 51.01188680672902], [-4.216604534881393, 51.010467723552765]]]}}, {"type": "Feature", "properties": {"type": "postcode-cell", "postcode": "EX39 3FJ", "postcodes": ["EX39 3FJ"]}, "geometry": {"type": "Polygon", "coordinates": [[[-4.216457857943776, 51.01188680672902], [-4.215247420408541, 51.01227298824266], [-4.21387181430978, 51.011249802886816], [-4.214721381558457, 51.00767190809449], [-4.2147777349449225, 51.007701099206756], [-4.216604534881393, 51.010467723552765], [-4.216457857943776, 51.01188680672902]]]}}, {"type": "Feature", "properties": {"type": "postcode-cell", "postcode": "EX39 5AG", "postcodes": ["EX39 5AG"]}, "geometry": {"type": "Polygon", "coordinates": [[[-4.220259948863038, 51.011566252389116], [-4.219452202173316, 51.011271030359175], [-4.21955241178615, 51.01078404906011], [-4.22051412533527, 51.0108948430001], [-4.220259948863038, 51.011566252389116]]]}}, {"type": "Feature", "properties": {"type": "postcode-cell", "postcode": "EX39 3DP", "postcodes": ["EX39 3DP"]}, "geometry": {"type": "Polygon", "coordinates": [[[-4.21955241178615, 51.01078404906011], [-4.219452202173316, 51.011271030359175], [-4.218408848367391, 51.0116039005233], [-4.216604534881393, 51.010467723552765], [-4.2147777349449225, 51.007701099206756], [-4.218593958745707, 51.00875570325017], [-4.21955241178615, 51.01078404906011]]]}}, {"type": "Feature", "properties": {"type": "postcode-cell", "postcode": "EX39 3DL", "postcodes": ["EX39 3DL"]}, "geometry": {"type": "Polygon", "coordinates": [[[-4.219269060735784, 51.01231770688887], [-4.21916049743213, 51.01282835551159], [-4.217861019101914, 51.0126495500795], [-4.218309987575463, 51.011797259570095], [-4.218421729475349, 51.01170977566907], [-4.219269060735784, 51.01231770688887]]]}}, {"type": "Feature", "properties": {"type": "postcode-cell", "postcode": "EX39 3HL", "postcodes": ["EX39 3HL"]}, "geometry": {"type": "Polygon", "coordinates": [[[-4.217861019101914, 51.0126495500795], [-4.21721608816682, 51.01281515774237], [-4.2170426906603975, 51.01267088105127], [-4.216863267272665, 51.012357163143726], [-4.216849557049389, 51.01229251587276], [-4.218309987575463, 51.011797259570095], [-4.217861019101914, 51.0126495500795]]]}}, {"type": "Feature", "properties": {"type": "postcode-cell", "postcode": "EX39 3DJ", "postcodes": ["EX39 3DJ"]}, "geometry": {"type": "Polygon", "coordinates": [[[-4.21721608816682, 51.01281515774237], [-4.21717097486686, 51.01330618856639], [-4.21535309882655, 51.01339124024324], [-4.215121314253298, 51.012956325451555], [-4.215169813802997, 51.01289446801414], [-4.2170426906603975, 51.01267088105127], [-4.21721608816682, 51.01281515774237]]]}}, {"type": "Feature", "properties": {"type": "postcode-cell", "postcode": "EX39 5HF", "postcodes": ["EX39 5HF"]}, "geometry": {"type": "Polygon", "coordinates": [[[-4.208831187327845, 50.99496152253421], [-4.19362495565683, 50.99854622083472], [-4.19389999006012, 50.99755999495712], [-4.195299990061686, 50.996179994955966], [-4.195699990062033, 50.99601999495584], [-4.196359990062416, 50.99616999495595], [-4.196959990062722, 50.996409994956146], [-4.199139990064785, 50.995119994955076], [-4.19917999006501, 50.994669994954684], [-4.198359990064485, 50.99458999495462], [-4.197989990064402, 50.9941999949543], [-4.198039990064579, 50.993879994954035], [-4.1983099900648515, 50.99367999495389], [-4.198709990065196, 50.99351999495376], [-4.199269990065529, 50.99362999495383], [-4.199259990065723, 50.99317999495347], [-4.203649990068494, 50.99370999495389], [-4.207119990070473, 50.9946099949546], [-4.208935557759382, 50.994591764873476], [-4.208831187327845, 50.99496152253421]]]}}, {"type": "Feature", "properties": {"type": "postcode-cell", "postcode": "EX39 5JH", "postcodes": ["EX39 5JH"]}, "geometry": {"type": "Polygon", "coordinates": [[[-4.219904282037051, 51.00280306989577], [-4.215121055957739, 51.00637219626899], [-4.207545369742922, 51.00215567370969], [-4.2072206311209355, 51.00065422269776], [-4.2096728285896665, 50.99805706703543], [-4.219677215998105, 51.00146792358685], [-4.219904282037051, 51.00280306989577]]]}}, {"type": "Feature", "properties": {"type": "postcode-cell", "postcode": "EX39 3DY", "postcodes": ["EX39 3DY"]}, "geometry": {"type": "Polygon", "coordinates": [[[-4.217186460693253, 51.01332163194542], [-4.217335252817691, 51.01419696159894], [-4.217149990068685, 51.01424999497074], [-4.2171799900686056, 51.014469994970895], [-4.215699990067678, 51.01427999497075], [-4.215639990067475, 51.01464999497107], [-4.215588836161182, 51.01464904790233], [-4.21507276787493, 51.01400258438338], [-4.21535309882655, 51.01339124024324], [-4.21717097486686, 51.01330618856639], [-4.217186460693253, 51.01332163194542]]]}}, {"type": "Feature", "properties": {"type": "postcode-cell", "postcode": "EX39 3DG", "postcodes": ["EX39 3DG"]}, "geometry": {"type": "Polygon", "coordinates": [[[-4.2170426906603975, 51.01267088105127], [-4.215169813802997, 51.01289446801414], [-4.215249210445908, 51.0126453003518], [-4.216863267272665, 51.012357163143726], [-4.2170426906603975, 51.01267088105127]]]}}, {"type": "Feature", "properties": {"type": "postcode-cell", "postcode": "EX39 3DH", "postcodes": ["EX39 3DH"]}, "geometry": {"type": "Polygon", "coordinates": [[[-4.216849557049389, 51.01229251587276], [-4.216863267272665, 51.012357163143726], [-4.215249210445908, 51.0126453003518], [-4.215247420408541, 51.01227298824266], [-4.216457857943776, 51.01188680672902], [-4.216849557049389, 51.01229251587276]]]}}, {"type": "Feature", "properties": {"type": "postcode-cell", "postcode": "EX39 3DF", "postcodes": ["EX39 3DF"]}, "geometry": {"type": "Polygon", "coordinates": [[[-4.21507276787493, 51.01400258438338], [-4.214056955532484, 51.013923840943335], [-4.213830878099342, 51.01373197225259], [-4.21354078029278, 51.0131934296915], [-4.213684507339036, 51.01281690078283], [-4.215121314253298, 51.012956325451555], [-4.21535309882655, 51.01339124024324], [-4.21507276787493, 51.01400258438338]]]}}, {"type": "Feature", "properties": {"type": "postcode-cell", "postcode": "EX39 3DQ", "postcodes": ["EX39 3DQ"]}, "geometry": {"type": "Polygon", "coordinates": [[[-4.215249210445908, 51.0126453003518], [-4.215169813802997, 51.01289446801414], [-4.215121314253298, 51.012956325451555], [-4.213684507339036, 51.01281690078283], [-4.21297575400359, 51.01220085298924], [-4.21387181430978, 51.011249802886816], [-4.215247420408541, 51.01227298824266], [-4.215249210445908, 51.0126453003518]]]}}, {"type": "Feature", "properties": {"type": "postcode-cell", "postcode": "EX39 5XX", "postcodes": ["EX39 5XX"]}, "geometry": {"type": "Polygon", "coordinates": [[[-4.214721381558457, 51.00767190809449], [-4.21387181430978, 51.011249802886816], [-4.21297575400359, 51.01220085298924], [-4.212249583074623, 51.012339255671144], [-4.2102333795959845, 51.0104255684364], [-4.210583363853077, 51.008648682493636], [-4.214345723019289, 51.0076008047398], [-4.214591716836231, 51.007554087216704], [-4.214721381558457, 51.00767190809449]]]}}, {"type": "Feature", "properties": {"type": "postcode-cell", "postcode": "EX39 3DE", "postcodes": ["EX39 3DE"]}, "geometry": {"type": "Polygon", "coordinates": [[[-4.21354078029278, 51.0131934296915], [-4.211897895408818, 51.01372911843447], [-4.21159080317139, 51.01379115747447], [-4.211780607396629, 51.01281473829258], [-4.2121223736332425, 51.0124067268657], [-4.212249583074623, 51.012339255671144], [-4.21297575400359, 51.01220085298924], [-4.213684507339036, 51.01281690078283], [-4.21354078029278, 51.0131934296915]]]}}, {"type": "Feature", "properties": {"type": "postcode-cell", "postcode": "EX39 3DA", "postcodes": ["EX39 3DA"]}, "geometry": {"type": "Polygon", "coordinates": [[[-4.213503038693245, 51.0142222153169], [-4.211576635923358, 51.01380724252321], [-4.21159080317139, 51.01379115747447], [-4.211897895408818, 51.01372911843447], [-4.213830878099342, 51.01373197225259], [-4.214056955532484, 51.013923840943335], [-4.213503038693245, 51.0142222153169]]]}}, {"type": "Feature", "properties": {"type": "postcode-cell", "postcode": "EX39 3FF", "postcodes": ["EX39 3FF"]}, "geometry": {"type": "Polygon", "coordinates": [[[-4.213830878099342, 51.01373197225259], [-4.211897895408818, 51.01372911843447], [-4.21354078029278, 51.0131934296915], [-4.213830878099342, 51.01373197225259]]]}}, {"type": "Feature", "properties": {"type": "postcode-cell", "postcode": "EX39 3BZ", "postcodes": ["EX39 3BZ"]}, "geometry": {"type": "Polygon", "coordinates": [[[-4.213353826402409, 51.01480396837324], [-4.2126443453568125, 51.0147936245549], [-4.2115684929569035, 51.01397548324924], [-4.211500020401515, 51.01385632497207], [-4.211576635923358, 51.01380724252321], [-4.213503038693245, 51.0142222153169], [-4.213353826402409, 51.01480396837324]]]}}, {"type": "Feature", "properties": {"type": "postcode-cell", "postcode": "EX39 5HD", "postcodes": ["EX39 5HD"]}, "geometry": {"type": "Polygon", "coordinates": [[[-4.2072206311209355, 51.00065422269776], [-4.207545369742922, 51.00215567370969], [-4.205950714880066, 51.00442000324961], [-4.204909289912677, 51.004943416357264], [-4.20419999006411, 51.00448999496276], [-4.197016340748721, 51.00160368906789], [-4.2072206311209355, 51.00065422269776]]]}}, {"type": "Feature", "properties": {"type": "postcode-cell", "postcode": "EX39 5JQ", "postcodes": ["EX39 5JQ"]}, "geometry": {"type": "Polygon", "coordinates": [[[-4.207545369742922, 51.00215567370969], [-4.215121055957739, 51.00637219626899], [-4.214591716836231, 51.007554087216704], [-4.214345723019289, 51.0076008047398], [-4.206735849648313, 51.004997773832706], [-4.205950714880066, 51.00442000324961], [-4.207545369742922, 51.00215567370969]]]}}, {"type": "Feature", "properties": {"type": "postcode-cell", "postcode": "EX39 3BU", "postcodes": ["EX39 3BU"]}, "geometry": {"type": "Polygon", "coordinates": [[[-4.213837419805695, 51.01510574634535], [-4.213184584078729, 51.015455947138136], [-4.212012542167316, 51.01544896924224], [-4.2126443453568125, 51.0147936245549], [-4.213353826402409, 51.01480396837324], [-4.213837419805695, 51.01510574634535]]]}}, {"type": "Feature", "properties": {"type": "postcode-cell", "postcode": "EX39 3FE", "postcodes": ["EX39 3FE"]}, "geometry": {"type": "Polygon", "coordinates": [[[-4.2115684929569035, 51.01397548324924], [-4.211355926061825, 51.015550617966944], [-4.210501290166898, 51.01531674758892], [-4.209904081993855, 51.01396405915518], [-4.209910914247707, 51.01396004238899], [-4.211500020401515, 51.01385632497207], [-4.2115684929569035, 51.01397548324924]]]}}, {"type": "Feature", "properties": {"type": "postcode-cell", "postcode": "EX39 3BG", "postcodes": ["EX39 3BG"]}, "geometry": {"type": "Polygon", "coordinates": [[[-4.212012542167316, 51.01544896924224], [-4.211618951187525, 51.01562259281964], [-4.211355926061825, 51.015550617966944], [-4.2115684929569035, 51.01397548324924], [-4.2126443453568125, 51.0147936245549], [-4.212012542167316, 51.01544896924224]]]}}, {"type": "Feature", "properties": {"type": "postcode-cell", "postcode": "EX39 5XN", "postcodes": ["EX39 5XN"]}, "geometry": {"type": "Polygon", "coordinates": [[[-4.211576635923358, 51.01380724252321], [-4.211500020401515, 51.01385632497207], [-4.209910914247707, 51.01396004238899], [-4.209819698618628, 51.01367038326102], [-4.210104738688032, 51.01295693770729], [-4.2105683692880795, 51.01271826331008], [-4.211780607396629, 51.01281473829258], [-4.21159080317139, 51.01379115747447], [-4.211576635923358, 51.01380724252321]]]}}, {"type": "Feature", "properties": {"type": "postcode-cell", "postcode": "EX39 5GA", "postcodes": ["EX39 5GA"]}, "geometry": {"type": "Polygon", "coordinates": [[[-4.2099109382074325, 51.01097433572579], [-4.209194752000399, 51.01143163966499], [-4.207531509344292, 51.0114627239443], [-4.206555831366565, 51.009049422784216], [-4.206583955985017, 51.008901757396245], [-4.208827333055764, 51.00863286473959], [-4.210583363853077, 51.008648682493636], [-4.2102333795959845, 51.0104255684364], [-4.2099109382074325, 51.01097433572579]]]}}, {"type": "Feature", "properties": {"type": "postcode-cell", "postcode": "EX39 5XU", "postcodes": ["EX39 5XU"]}, "geometry": {"type": "Polygon", "coordinates": [[[-4.2102333795959845, 51.0104255684364], [-4.212249583074623, 51.012339255671144], [-4.2121223736332425, 51.0124067268657], [-4.210386016910502, 51.01205620063746], [-4.2099109382074325, 51.01097433572579], [-4.2102333795959845, 51.0104255684364]]]}}, {"type": "Feature", "properties": {"type": "postcode-cell", "postcode": "EX39 5XW", "postcodes": ["EX39 5XW"]}, "geometry": {"type": "Polygon", "coordinates": [[[-4.211780607396629, 51.01281473829258], [-4.2105683692880795, 51.01271826331008], [-4.210267905194188, 51.01220158742261], [-4.210386016910502, 51.01205620063746], [-4.2121223736332425, 51.0124067268657], [-4.211780607396629, 51.01281473829258]]]}}, {"type": "Feature", "properties": {"type": "postcode-cell", "postcode": "EX39 5XT", "postcodes": ["EX39 5XT"]}, "geometry": {"type": "Polygon", "coordinates": [[[-4.210267905194188, 51.01220158742261], [-4.20965308035185, 51.01246331484041], [-4.208786574395461, 51.01244536755179], [-4.208762973934197, 51.01212549486729], [-4.209194752000399, 51.01143163966499], [-4.2099109382074325, 51.01097433572579], [-4.210386016910502, 51.01205620063746], [-4.210267905194188, 51.01220158742261]]]}}, {"type": "Feature", "properties": {"type": "postcode-cell", "postcode": "EX39 2BY", "postcodes": ["EX39 2BY"]}, "geometry": {"type": "Polygon", "coordinates": [[[-4.209904081993855, 51.01396405915518], [-4.210501290166898, 51.01531674758892], [-4.209489990063083, 51.01503999497141], [-4.20961999006336, 51.01460999497106], [-4.207725439850126, 51.014480051158365], [-4.209904081993855, 51.01396405915518]]]}}, {"type": "Feature", "properties": {"type": "postcode-cell", "postcode": "EX39 5XY", "postcodes": ["EX39 5XY"]}, "geometry": {"type": "Polygon", "coordinates": [[[-4.2105683692880795, 51.01271826331008], [-4.210104738688032, 51.01295693770729], [-4.20965308035185, 51.01246331484041], [-4.210267905194188, 51.01220158742261], [-4.2105683692880795, 51.01271826331008]]]}}, {"type": "Feature", "properties": {"type": "postcode-cell", "postcode": "EX39 5XS", "postcodes": ["EX39 5XS"]}, "geometry": {"type": "Polygon", "coordinates": [[[-4.209819698618628, 51.01367038326102], [-4.208637445280571, 51.01259822636734], [-4.208786574395461, 51.01244536755179], [-4.20965308035185, 51.01246331484041], [-4.210104738688032, 51.01295693770729], [-4.209819698618628, 51.01367038326102]]]}}, {"type": "Feature", "properties": {"type": "postcode-cell", "postcode": "EX39 5GD", "postcodes": ["EX39 5GD"]}, "geometry": {"type": "Polygon", "coordinates": [[[-4.208786574395461, 51.01244536755179], [-4.208637445280571, 51.01259822636734], [-4.20843735916675, 51.01265233807709], [-4.206873086544327, 51.01253313527237], [-4.206576246017474, 51.01220008452068], [-4.2073186323057215, 51.01178117413056], [-4.208762973934197, 51.01212549486729], [-4.208786574395461, 51.01244536755179]]]}}, {"type": "Feature", "properties": {"type": "postcode-cell", "postcode": "EX39 5HZ", "postcodes": ["EX39 5HZ"]}, "geometry": {"type": "Polygon", "coordinates": [[[-4.209819698618628, 51.01367038326102], [-4.209910914247707, 51.01396004238899], [-4.209904081993855, 51.01396405915518], [-4.207725439850126, 51.014480051158365], [-4.207483913373176, 51.01446348302295], [-4.20843735916675, 51.01265233807709], [-4.208637445280571, 51.01259822636734], [-4.209819698618628, 51.01367038326102]]]}}, {"type": "Feature", "properties": {"type": "postcode-cell", "postcode": "EX39 5JF", "postcodes": ["EX39 5JF"]}, "geometry": {"type": "Polygon", "coordinates": [[[-4.207483913373176, 51.01446348302295], [-4.207186626031721, 51.01444308912282], [-4.206747445582456, 51.01311643976235], [-4.206873086544327, 51.01253313527237], [-4.20843735916675, 51.01265233807709], [-4.207483913373176, 51.01446348302295]]]}}, {"type": "Feature", "properties": {"type": "postcode-cell", "postcode": "EX39 5HS", "postcodes": ["EX39 5HS"]}, "geometry": {"type": "Polygon", "coordinates": [[[-4.210583363853077, 51.008648682493636], [-4.208827333055764, 51.00863286473959], [-4.206735849648313, 51.004997773832706], [-4.214345723019289, 51.0076008047398], [-4.210583363853077, 51.008648682493636]]]}}, {"type": "Feature", "properties": {"type": "postcode-cell", "postcode": "EX39 5HB", "postcodes": ["EX39 5HB"]}, "geometry": {"type": "Polygon", "coordinates": [[[-4.206735849648313, 51.004997773832706], [-4.208827333055764, 51.00863286473959], [-4.206583955985017, 51.008901757396245], [-4.206749990064295, 51.00802999496565], [-4.205789990064388, 51.006329994964254], [-4.206159990065156, 51.00515999496329], [-4.205779990064748, 51.005499994963564], [-4.204909289912677, 51.004943416357264], [-4.205950714880066, 51.00442000324961], [-4.206735849648313, 51.004997773832706]]]}}, {"type": "Feature", "properties": {"type": "postcode-cell", "postcode": "EX39 5GB", "postcodes": ["EX39 5GB"]}, "geometry": {"type": "Polygon", "coordinates": [[[-4.208762973934197, 51.01212549486729], [-4.2073186323057215, 51.01178117413056], [-4.207531509344292, 51.0114627239443], [-4.209194752000399, 51.01143163966499], [-4.208762973934197, 51.01212549486729]]]}}, {"type": "Feature", "properties": {"type": "postcode-cell", "postcode": "EX39 5JG", "postcodes": ["EX39 5JG"]}, "geometry": {"type": "Polygon", "coordinates": [[[-4.2073186323057215, 51.01178117413056], [-4.206576246017474, 51.01220008452068], [-4.205984082071763, 51.012051144310334], [-4.206555831366565, 51.009049422784216], [-4.207531509344292, 51.0114627239443], [-4.2073186323057215, 51.01178117413056]]]}}, {"type": "Feature", "properties": {"type": "postcode-cell", "postcode": "EX39 5AA", "postcodes": ["EX39 5AA"]}, "geometry": {"type": "Polygon", "coordinates": [[[-4.206747445582456, 51.01311643976235], [-4.207186626031721, 51.01444308912282], [-4.206849990061546, 51.01441999497091], [-4.206079990061339, 51.01368999497032], [-4.205669990061054, 51.013699994970324], [-4.205785206333449, 51.01309517071595], [-4.206747445582456, 51.01311643976235]]]}}, {"type": "Feature", "properties": {"type": "postcode-cell", "postcode": "EX39 5AL", "postcodes": ["EX39 5AL"]}, "geometry": {"type": "Polygon", "coordinates": [[[-4.206576246017474, 51.01220008452068], [-4.206873086544327, 51.01253313527237], [-4.206747445582456, 51.01311643976235], [-4.205785206333449, 51.01309517071595], [-4.205984082071763, 51.012051144310334], [-4.206576246017474, 51.01220008452068]]]}}, {"type": "Feature", "properties": {"type": "postcode-cell", "postcode": "EX39 5HE", "postcodes": ["EX39 5HE"]}, "geometry": {"type": "Polygon", "coordinates": [[[-4.2072206311209355, 51.00065422269776], [-4.197016340748721, 51.00160368906789], [-4.193199990058533, 51.00006999495917], [-4.19362495565683, 50.99854622083472], [-4.208831187327845, 50.99496152253421], [-4.2096728285896665, 50.99805706703543], [-4.2072206311209355, 51.00065422269776]]]}}]}