{"type": "FeatureCollection", "features": [{"type": "Feature", "properties": {"type": "ward-outline", "name": "Bideford East"}, "geometry": {"type": "Polygon", "coordinates": [[[-4.16427, 51.01448], [-4.16263, 51.01193], [-4.1614, 51.01183], [-4.16045, 51.01209], [-4.15695, 51.01165], [-4.15642, 51.00959], [-4.15557, 51.0085], [-4.153, 51.00715], [-4.15226, 51.0064], [-4.15058, 51.00583], [-4.15012, 51.00487], [-4.15189, 51.00149], [-4.15155, 50.99953], [-4.15254, 50.99846], [-4.15296, 50.99866], [-4.16013, 50.99711], [-4.1653, 50.9964], [-4.16668, 50.99565], [-4.16745, 50.99385], [-4.16968, 50.99321], [-4.17822, 50.99393], [-4.17815, 50.99397], [-4.17836, 50.99396], [-4.17848, 50.99395], [-4.1786, 50.99396], [-4.17737, 50.99541], [-4.17684, 50.99686], [-4.17795, 50.99928], [-4.17878, 51.00002], [-4.18164, 51.00079], [-4.18407, 51.00085], [-4.18669, 51.00141], [-4.19023, 51.00116], [-4.1863, 51.00122], [-4.18475, 51.00084], [-4.18836, 51.00027], [-4.19011, 51.00043], [-4.1936, 51.00154], [-4.19941, 51.00418], [-4.20216, 51.00499], [-4.20331, 51.00578], [-4.20423, 51.00742], [-4.20429, 51.00842], [-4.20223, 51.01576], [-4.19941, 51.02076], [-4.19891, 51.02126], [-4.19849, 51.02101], [-4.19815, 51.02123], [-4.19819, 51.02125], [-4.1977, 51.02115], [-4.19643, 51.02238], [-4.19588, 51.02204], [-4.19625, 51.02153], [-4.19454, 51.02072], [-4.19319, 51.02072], [-4.19201, 51.02126], [-4.19136, 51.021], [-4.19017, 51.02146], [-4.18807, 51.02131], [-4.18746, 51.02155], [-4.18717, 51.02228], [-4.18786, 51.02239], [-4.18829, 51.02289], [-4.18672, 51.02357], [-4.18628, 51.02346], [-4.18611, 51.0225], [-4.18666, 51.02193], [-4.18589, 51.02109], [-4.18539, 51.02109], [-4.18392, 51.02173], [-4.18398, 51.02293], [-4.18466, 51.02302], [-4.18438, 51.0233], [-4.18259, 51.02321], [-4.18226, 51.02239], [-4.18108, 51.02223], [-4.17929, 51.02323], [-4.17974, 51.02389], [-4.1784, 51.02432], [-4.1782, 51.02385], [-4.17873, 51.02344], [-4.17821, 51.02341], [-4.17801, 51.02371], [-4.17736, 51.02359], [-4.1773, 51.02326], [-4.17657, 51.02356], [-4.17579, 51.02346], [-4.1758, 51.02319], [-4.17441, 51.02279], [-4.17387, 51.02159], [-4.17295, 51.02075], [-4.17229, 51.01905], [-4.17104, 51.01831], [-4.16938, 51.01785], [-4.16825, 51.01681], [-4.1674, 51.01523], [-4.16617, 51.01453], [-4.16427, 51.01448]]]}}, {"type": "Feature", "properties": {"type": "postcode-cell", "postcode": "EX39 4EE", "postcodes": ["EX39 4EE"]}, "geometry": {"type": "Polygon", "coordinates": [[[-4.202003177171497, 51.014433647912675], [-4.201640842293069, 51.01431903512228], [-4.201777137320741, 51.013952954654194], [-4.202079720239158, 51.01397374584109], [-4.202223281250026, 51.01419809335084], [-4.202003177171497, 51.014433647912675]]]}}, {"type": "Feature", "properties": {"type": "postcode-cell", "postcode": "EX39 4DR", "postcodes": ["EX39 4DR"]}, "geometry": {"type": "Polygon", "coordinates": [[[-4.202118690654623, 51.014837959006655], [-4.202003177171497, 51.014433647912675], [-4.202223281250026, 51.01419809335084], [-4.202670695201951, 51.01418990306294], [-4.202460211519644, 51.01493980204648], [-4.202118690654623, 51.014837959006655]]]}}, {"type": "Feature", "properties": {"type": "postcode-cell", "postcode": "EX39 4DS", "postcodes": ["EX39 4DS"]}, "geometry": {"type": "Polygon", "coordinates": [[[-4.202223281250026, 51.01419809335084], [-4.202079720239158, 51.01397374584109], [-4.202640052426311, 51.01339282265626], [-4.202899776479401, 51.01337371918509], [-4.202670695201951, 51.01418990306294], [-4.202223281250026, 51.01419809335084]]]}}, {"type": "Feature", "properties": {"type": "postcode-cell", "postcode": "EX39 4ED", "postcodes": ["EX39 4ED"]}, "geometry": {"type": "Polygon", "coordinates": [[[-4.202079720239158, 51.01397374584109], [-4.201777137320741, 51.013952954654194], [-4.201529114068003, 51.013874498528764], [-4.201627602443659, 51.01335874377949], [-4.201887678837388, 51.01327326118909], [-4.202640052426311, 51.01339282265626], [-4.202079720239158, 51.01397374584109]]]}}, {"type": "Feature", "properties": {"type": "postcode-cell", "postcode": "EX39 4EG", "postcodes": ["EX39 4EG"]}, "geometry": {"type": "Polygon", "coordinates": [[[-4.201529114068003, 51.013874498528764], [-4.201777137320741, 51.013952954654194], [-4.201640842293069, 51.01431903512228], [-4.20161700741581, 51.01431739739338], [-4.2013090092633325, 51.01399229698727], [-4.201314253808506, 51.013953467842725], [-4.201529114068003, 51.013874498528764]]]}}, {"type": "Feature", "properties": {"type": "postcode-cell", "postcode": "EX39 4EB", "postcodes": ["EX39 4EB"]}, "geometry": {"type": "Polygon", "coordinates": [[[-4.201314253808506, 51.013953467842725], [-4.201063396653606, 51.013889507443814], [-4.200843802275456, 51.01334921354838], [-4.201627602443659, 51.01335874377949], [-4.201529114068003, 51.013874498528764], [-4.201314253808506, 51.013953467842725]]]}}, {"type": "Feature", "properties": {"type": "postcode-cell", "postcode": "EX39 4DU", "postcodes": ["EX39 4DU"]}, "geometry": {"type": "Polygon", "coordinates": [[[-4.202640052426311, 51.01339282265626], [-4.201887678837388, 51.01327326118909], [-4.201035903210093, 51.01106117851669], [-4.203600034238011, 51.01087862972962], [-4.202899776479401, 51.01337371918509], [-4.202640052426311, 51.01339282265626]]]}}, {"type": "Feature", "properties": {"type": "postcode-cell", "postcode": "EX39 4DT", "postcodes": ["EX39 4DT"]}, "geometry": {"type": "Polygon", "coordinates": [[[-4.201035903210093, 51.01106117851669], [-4.200190271714479, 51.01103083352244], [-4.197530565144287, 51.00909678141411], [-4.195341871505433, 51.002331549281976], [-4.199409990060967, 51.00417999496251], [-4.202159990062492, 51.004989994963175], [-4.203309990062933, 51.005779994963824], [-4.204229990062837, 51.00741999496517], [-4.204289990062436, 51.00841999496596], [-4.203600034238011, 51.01087862972962], [-4.201035903210093, 51.01106117851669]]]}}, {"type": "Feature", "properties": {"type": "postcode-cell", "postcode": "EX39 4QD", "postcodes": ["EX39 4QD"]}, "geometry": {"type": "Polygon", "coordinates": [[[-4.191201767655766, 51.0011900979193], [-4.186857691599503, 51.00340721551104], [-4.1809671126744234, 51.00579570966463], [-4.179012447576605, 51.006184475744874], [-4.17529885807021, 51.00652289405984], [-4.174405097392868, 51.006516419480604], [-4.164558604064852, 51.00023605659097], [-4.164811151211031, 50.996467138248576], [-4.16529999004109, 50.996399994956334], [-4.166679990042363, 50.99564999495572], [-4.1674499900436865, 50.99384999495423], [-4.169679990045493, 50.99320999495369], [-4.178219990051005, 50.99392999495421], [-4.17814999005094, 50.99396999495424], [-4.178359990051087, 50.99395999495424], [-4.178479990051173, 50.993949994954214], [-4.178599990051252, 50.99395999495423], [-4.17736999004977, 50.99540999495544], [-4.176839990048768, 50.99685999495664], [-4.177949990048453, 50.99927999495861], [-4.1787799900486915, 51.00001999495921], [-4.181639990050307, 51.00078999495984], [-4.184069990051942, 51.000849994959864], [-4.186689990053484, 51.00140999496032], [-4.190229990056018, 51.001159994960105], [-4.186299990053302, 51.00121999496017], [-4.184749990052409, 51.00083999495984], [-4.188359990055133, 51.00026999495939], [-4.190109990056257, 51.00042999495949], [-4.191609604704533, 51.00090696921832], [-4.191201767655766, 51.0011900979193]]]}}, {"type": "Feature", "properties": {"type": "postcode-cell", "postcode": "EX39 4DP", "postcodes": ["EX39 4DP"]}, "geometry": {"type": "Polygon", "coordinates": [[[-4.202460211519644, 51.01493980204648], [-4.202229990057786, 51.015759994972036], [-4.201969859104233, 51.01622126674282], [-4.201041673969442, 51.01563896087707], [-4.2014516672443065, 51.014932508265545], [-4.202118690654623, 51.014837959006655], [-4.202460211519644, 51.01493980204648]]]}}, {"type": "Feature", "properties": {"type": "postcode-cell", "postcode": "EX39 4AU", "postcodes": ["EX39 4AU"]}, "geometry": {"type": "Polygon", "coordinates": [[[-4.199898451083582, 51.01837751618993], [-4.199860500002287, 51.01832289401212], [-4.200295571331104, 51.01742139366051], [-4.201335576371085, 51.01734595556119], [-4.2005901278484155, 51.018667687726094], [-4.199898451083582, 51.01837751618993]]]}}, {"type": "Feature", "properties": {"type": "postcode-cell", "postcode": "EX39 4EW", "postcodes": ["EX39 4EW"]}, "geometry": {"type": "Polygon", "coordinates": [[[-4.202118690654623, 51.014837959006655], [-4.2014516672443065, 51.014932508265545], [-4.201242116416985, 51.014822590143254], [-4.201086355682682, 51.01445071898249], [-4.20161700741581, 51.01431739739338], [-4.201640842293069, 51.01431903512228], [-4.202003177171497, 51.014433647912675], [-4.202118690654623, 51.014837959006655]]]}}, {"type": "Feature", "properties": {"type": "postcode-cell", "postcode": "EX39 4BB", "postcodes": ["EX39 4BB"]}, "geometry": {"type": "Polygon", "coordinates": [[[-4.201041673969442, 51.01563896087707], [-4.200334181472745, 51.01555822939922], [-4.200126567321827, 51.015153199501555], [-4.200248660324155, 51.01488174421812], [-4.201242116416985, 51.014822590143254], [-4.2014516672443065, 51.014932508265545], [-4.201041673969442, 51.01563896087707]]]}}, {"type": "Feature", "properties": {"type": "postcode-cell", "postcode": "EX39 4EF", "postcodes": ["EX39 4EF"]}, "geometry": {"type": "Polygon", "coordinates": [[[-4.20161700741581, 51.01431739739338], [-4.201086355682682, 51.01445071898249], [-4.200963629741596, 51.01438097226493], [-4.2013090092633325, 51.01399229698727], [-4.20161700741581, 51.01431739739338]]]}}, {"type": "Feature", "properties": {"type": "postcode-cell", "postcode": "EX39 4EA", "postcodes": ["EX39 4EA"]}, "geometry": {"type": "Polygon", "coordinates": [[[-4.201627602443659, 51.01335874377949], [-4.200843802275456, 51.01334921354838], [-4.200407687706471, 51.01324806959979], [-4.199843090641042, 51.012986843981686], [-4.199177919015224, 51.01244064318248], [-4.199489850247841, 51.01189697981614], [-4.200190271714479, 51.01103083352244], [-4.201035903210093, 51.01106117851669], [-4.201887678837388, 51.01327326118909], [-4.201627602443659, 51.01335874377949]]]}}, {"type": "Feature", "properties": {"type": "postcode-cell", "postcode": "EX39 4EP", "postcodes": ["EX39 4EP"]}, "geometry": {"type": "Polygon", "coordinates": [[[-4.201086355682682, 51.01445071898249], [-4.201242116416985, 51.014822590143254], [-4.200248660324155, 51.01488174421812], [-4.2001772361842145, 51.01473071186641], [-4.200178236470992, 51.01465594990439], [-4.200307282343173, 51.01457167816004], [-4.2009335342153085, 51.01437566672824], [-4.200963629741596, 51.01438097226493], [-4.201086355682682, 51.01445071898249]]]}}, {"type": "Feature", "properties": {"type": "postcode-cell", "postcode": "EX39 4EQ", "postcodes": ["EX39 4EQ"]}, "geometry": {"type": "Polygon", "coordinates": [[[-4.201314253808506, 51.013953467842725], [-4.2013090092633325, 51.01399229698727], [-4.200963629741596, 51.01438097226493], [-4.2009335342153085, 51.01437566672824], [-4.2005568903675625, 51.014040618198585], [-4.200577950953927, 51.01401743349532], [-4.201063396653606, 51.013889507443814], [-4.201314253808506, 51.013953467842725]]]}}, {"type": "Feature", "properties": {"type": "postcode-cell", "postcode": "EX39 4EL", "postcodes": ["EX39 4EL"]}, "geometry": {"type": "Polygon", "coordinates": [[[-4.200843802275456, 51.01334921354838], [-4.201063396653606, 51.013889507443814], [-4.200577950953927, 51.01401743349532], [-4.200407687706471, 51.01324806959979], [-4.200843802275456, 51.01334921354838]]]}}, {"type": "Feature", "properties": {"type": "postcode-cell", "postcode": "EX39 4EN", "postcodes": ["EX39 4EN"]}, "geometry": {"type": "Polygon", "coordinates": [[[-4.200577950953927, 51.01401743349532], [-4.2005568903675625, 51.014040618198585], [-4.2003572200862695, 51.01407490489414], [-4.199893669103022, 51.014038798281796], [-4.199843090641042, 51.012986843981686], [-4.200407687706471, 51.01324806959979], [-4.200577950953927, 51.01401743349532]]]}}, {"type": "Feature", "properties": {"type": "postcode-cell", "postcode": "EX39 4AN", "postcodes": ["EX39 4AN"]}, "geometry": {"type": "Polygon", "coordinates": [[[-4.201969859104233, 51.01622126674282], [-4.20180944115099, 51.016505719792924], [-4.200375000490067, 51.01658716810618], [-4.199517635735295, 51.01596810862332], [-4.200334181472745, 51.01555822939922], [-4.201041673969442, 51.01563896087707], [-4.201969859104233, 51.01622126674282]]]}}, {"type": "Feature", "properties": {"type": "postcode-cell", "postcode": "EX39 4EJ", "postcodes": ["EX39 4EJ"]}, "geometry": {"type": "Polygon", "coordinates": [[[-4.2009335342153085, 51.01437566672824], [-4.200307282343173, 51.01457167816004], [-4.2003572200862695, 51.01407490489414], [-4.2005568903675625, 51.014040618198585], [-4.2009335342153085, 51.01437566672824]]]}}, {"type": "Feature", "properties": {"type": "postcode-cell", "postcode": "EX39 4RH", "postcodes": ["EX39 4RH"]}, "geometry": {"type": "Polygon", "coordinates": [[[-4.198586026627847, 51.01974467120025], [-4.198797450153375, 51.01964500274467], [-4.200215420025356, 51.01933204138178], [-4.199509107208407, 51.02058427424263], [-4.198586026627847, 51.01974467120025]]]}}, {"type": "Feature", "properties": {"type": "postcode-cell", "postcode": "EX39 4AE", "postcodes": ["EX39 4AE"]}, "geometry": {"type": "Polygon", "coordinates": [[[-4.200295571331104, 51.01742139366051], [-4.19985381606868, 51.01707363819529], [-4.200375000490067, 51.01658716810618], [-4.20180944115099, 51.016505719792924], [-4.201335576371085, 51.01734595556119], [-4.200295571331104, 51.01742139366051]]]}}, {"type": "Feature", "properties": {"type": "postcode-cell", "postcode": "EX39 4AQ", "postcodes": ["EX39 4AQ"]}, "geometry": {"type": "Polygon", "coordinates": [[[-4.195953313177997, 51.02064622154745], [-4.198372759944064, 51.019720068107326], [-4.198586026627847, 51.01974467120025], [-4.199509107208407, 51.02058427424263], [-4.199409990053648, 51.02075999497618], [-4.198909990053085, 51.02125999497659], [-4.198489990052905, 51.0210099949764], [-4.198149990052578, 51.02122999497657], [-4.198189990052595, 51.0212499949766], [-4.197699990052303, 51.021149994976504], [-4.196429990050891, 51.022379994977534], [-4.195879990050664, 51.022039994977256], [-4.196249990051143, 51.02152999497683], [-4.195623838717695, 51.02123340323852], [-4.195953313177997, 51.02064622154745]]]}}, {"type": "Feature", "properties": {"type": "postcode-cell", "postcode": "EX39 4AW", "postcodes": ["EX39 4AW"]}, "geometry": {"type": "Polygon", "coordinates": [[[-4.19985381606868, 51.01707363819529], [-4.199144780642564, 51.01706549989639], [-4.199332840751912, 51.01597653460479], [-4.199517635735295, 51.01596810862332], [-4.200375000490067, 51.01658716810618], [-4.19985381606868, 51.01707363819529]]]}}, {"type": "Feature", "properties": {"type": "postcode-cell", "postcode": "EX39 4EH", "postcodes": ["EX39 4EH"]}, "geometry": {"type": "Polygon", "coordinates": [[[-4.200178236470992, 51.01465594990439], [-4.19977255880098, 51.01438095031658], [-4.199840014534779, 51.0140712692972], [-4.199893669103022, 51.014038798281796], [-4.2003572200862695, 51.01407490489414], [-4.200307282343173, 51.01457167816004], [-4.200178236470992, 51.01465594990439]]]}}, {"type": "Feature", "properties": {"type": "postcode-cell", "postcode": "EX39 4AS", "postcodes": ["EX39 4AS"]}, "geometry": {"type": "Polygon", "coordinates": [[[-4.200334181472745, 51.01555822939922], [-4.199517635735295, 51.01596810862332], [-4.199332840751912, 51.01597653460479], [-4.199084543990713, 51.015922271128034], [-4.1987310515608804, 51.01513054551203], [-4.198914546952968, 51.015017279198254], [-4.200126567321827, 51.015153199501555], [-4.200334181472745, 51.01555822939922]]]}}, {"type": "Feature", "properties": {"type": "postcode-cell", "postcode": "EX39 4BE", "postcodes": ["EX39 4BE"]}, "geometry": {"type": "Polygon", "coordinates": [[[-4.200248660324155, 51.01488174421812], [-4.200126567321827, 51.015153199501555], [-4.198914546952968, 51.015017279198254], [-4.199027127943675, 51.01475401721724], [-4.2001772361842145, 51.01473071186641], [-4.200248660324155, 51.01488174421812]]]}}, {"type": "Feature", "properties": {"type": "postcode-cell", "postcode": "EX39 4ET", "postcodes": ["EX39 4ET"]}, "geometry": {"type": "Polygon", "coordinates": [[[-4.199840014534779, 51.0140712692972], [-4.198929577454065, 51.01399563810811], [-4.198900653872814, 51.013974118645244], [-4.199030212726592, 51.012520506065485], [-4.199177919015224, 51.01244064318248], [-4.199843090641042, 51.012986843981686], [-4.199893669103022, 51.014038798281796], [-4.199840014534779, 51.0140712692972]]]}}, {"type": "Feature", "properties": {"type": "postcode-cell", "postcode": "EX39 4BD", "postcodes": ["EX39 4BD"]}, "geometry": {"type": "Polygon", "coordinates": [[[-4.200178236470992, 51.01465594990439], [-4.2001772361842145, 51.01473071186641], [-4.199027127943675, 51.01475401721724], [-4.199022544026785, 51.01458817570821], [-4.199073587405434, 51.01452244182852], [-4.19977255880098, 51.01438095031658], [-4.200178236470992, 51.01465594990439]]]}}, {"type": "Feature", "properties": {"type": "postcode-cell", "postcode": "EX39 4ES", "postcodes": ["EX39 4ES"]}, "geometry": {"type": "Polygon", "coordinates": [[[-4.199022544026785, 51.01458817570821], [-4.198175404275161, 51.01441342916564], [-4.198045103372695, 51.014149277051615], [-4.198900653872814, 51.013974118645244], [-4.198929577454065, 51.01399563810811], [-4.199073587405434, 51.01452244182852], [-4.199022544026785, 51.01458817570821]]]}}, {"type": "Feature", "properties": {"type": "postcode-cell", "postcode": "EX39 4AF", "postcodes": ["EX39 4AF"]}, "geometry": {"type": "Polygon", "coordinates": [[[-4.19985381606868, 51.01707363819529], [-4.200295571331104, 51.01742139366051], [-4.199860500002287, 51.01832289401212], [-4.198157187150405, 51.01748324683748], [-4.198238331523847, 51.0173519749463], [-4.199144780642564, 51.01706549989639], [-4.19985381606868, 51.01707363819529]]]}}, {"type": "Feature", "properties": {"type": "postcode-cell", "postcode": "EX39 4EU", "postcodes": ["EX39 4EU"]}, "geometry": {"type": "Polygon", "coordinates": [[[-4.198900653872814, 51.013974118645244], [-4.198045103372695, 51.014149277051615], [-4.197713189124376, 51.01403472204231], [-4.197786912310039, 51.01288586741415], [-4.199030212726592, 51.012520506065485], [-4.198900653872814, 51.013974118645244]]]}}, {"type": "Feature", "properties": {"type": "postcode-cell", "postcode": "EX39 4ER", "postcodes": ["EX39 4ER"]}, "geometry": {"type": "Polygon", "coordinates": [[[-4.19977255880098, 51.01438095031658], [-4.199073587405434, 51.01452244182852], [-4.198929577454065, 51.01399563810811], [-4.199840014534779, 51.0140712692972], [-4.19977255880098, 51.01438095031658]]]}}, {"type": "Feature", "properties": {"type": "postcode-cell", "postcode": "EX39 4GH", "postcodes": ["EX39 4GH"]}, "geometry": {"type": "Polygon", "coordinates": [[[-4.199177919015224, 51.01244064318248], [-4.199030212726592, 51.012520506065485], [-4.197786912310039, 51.01288586741415], [-4.196312566454896, 51.01291818099698], [-4.19594655177403, 51.012824563868776], [-4.195487595534699, 51.01179822167904], [-4.199489850247841, 51.01189697981614], [-4.199177919015224, 51.01244064318248]]]}}, {"type": "Feature", "properties": {"type": "postcode-cell", "postcode": "EX39 4AP", "postcodes": ["EX39 4AP"]}, "geometry": {"type": "Polygon", "coordinates": [[[-4.199898451083582, 51.01837751618993], [-4.199224872061776, 51.0186370238934], [-4.197750385044758, 51.01877879980212], [-4.197720095169113, 51.01876400319166], [-4.197802612451039, 51.017635079865315], [-4.198157187150405, 51.01748324683748], [-4.199860500002287, 51.01832289401212], [-4.199898451083582, 51.01837751618993]]]}}, {"type": "Feature", "properties": {"type": "postcode-cell", "postcode": "EX39 4AG", "postcodes": ["EX39 4AG"]}, "geometry": {"type": "Polygon", "coordinates": [[[-4.2005901278484155, 51.018667687726094], [-4.200215420025356, 51.01933204138178], [-4.198797450153375, 51.01964500274467], [-4.199224872061776, 51.0186370238934], [-4.199898451083582, 51.01837751618993], [-4.2005901278484155, 51.018667687726094]]]}}, {"type": "Feature", "properties": {"type": "postcode-cell", "postcode": "EX39 4AR", "postcodes": ["EX39 4AR"]}, "geometry": {"type": "Polygon", "coordinates": [[[-4.198238331523847, 51.0173519749463], [-4.197684001052145, 51.016243654063395], [-4.199084543990713, 51.015922271128034], [-4.199332840751912, 51.01597653460479], [-4.199144780642564, 51.01706549989639], [-4.198238331523847, 51.0173519749463]]]}}, {"type": "Feature", "properties": {"type": "postcode-cell", "postcode": "EX39 4BG", "postcodes": ["EX39 4BG"]}, "geometry": {"type": "Polygon", "coordinates": [[[-4.199027127943675, 51.01475401721724], [-4.198914546952968, 51.015017279198254], [-4.1987310515608804, 51.01513054551203], [-4.1980522324240575, 51.01507491007656], [-4.197922469985449, 51.01485703524218], [-4.198175404275161, 51.01441342916564], [-4.199022544026785, 51.01458817570821], [-4.199027127943675, 51.01475401721724]]]}}, {"type": "Feature", "properties": {"type": "postcode-cell", "postcode": "EX39 4AT", "postcodes": ["EX39 4AT"]}, "geometry": {"type": "Polygon", "coordinates": [[[-4.199084543990713, 51.015922271128034], [-4.197684001052145, 51.016243654063395], [-4.196922921029348, 51.015971023509316], [-4.197027324993872, 51.01566715285386], [-4.1980522324240575, 51.01507491007656], [-4.1987310515608804, 51.01513054551203], [-4.199084543990713, 51.015922271128034]]]}}, {"type": "Feature", "properties": {"type": "postcode-cell", "postcode": "EX39 4FJ", "postcodes": ["EX39 4FJ"]}, "geometry": {"type": "Polygon", "coordinates": [[[-4.198175404275161, 51.01441342916564], [-4.197922469985449, 51.01485703524218], [-4.197456532396068, 51.01467119595071], [-4.197312344834904, 51.01417242442141], [-4.197713189124376, 51.01403472204231], [-4.198045103372695, 51.014149277051615], [-4.198175404275161, 51.01441342916564]]]}}, {"type": "Feature", "properties": {"type": "postcode-cell", "postcode": "EX39 4AH", "postcodes": ["EX39 4AH"]}, "geometry": {"type": "Polygon", "coordinates": [[[-4.197750385044758, 51.01877879980212], [-4.199224872061776, 51.0186370238934], [-4.198797450153375, 51.01964500274467], [-4.198586026627847, 51.01974467120025], [-4.198372759944064, 51.019720068107326], [-4.197750385044758, 51.01877879980212]]]}}, {"type": "Feature", "properties": {"type": "postcode-cell", "postcode": "EX39 4AJ", "postcodes": ["EX39 4AJ"]}, "geometry": {"type": "Polygon", "coordinates": [[[-4.198372759944064, 51.019720068107326], [-4.195953313177997, 51.02064622154745], [-4.195747764055836, 51.01905797491278], [-4.197720095169113, 51.01876400319166], [-4.197750385044758, 51.01877879980212], [-4.198372759944064, 51.019720068107326]]]}}, {"type": "Feature", "properties": {"type": "postcode-cell", "postcode": "EX39 4RS", "postcodes": ["EX39 4RS"]}, "geometry": {"type": "Polygon", "coordinates": [[[-4.198157187150405, 51.01748324683748], [-4.197802612451039, 51.017635079865315], [-4.197040508091518, 51.017609420073796], [-4.1962062037451995, 51.0161484403095], [-4.196922921029348, 51.015971023509316], [-4.197684001052145, 51.016243654063395], [-4.198238331523847, 51.0173519749463], [-4.198157187150405, 51.01748324683748]]]}}, {"type": "Feature", "properties": {"type": "postcode-cell", "postcode": "EX39 4BJ", "postcodes": ["EX39 4BJ"]}, "geometry": {"type": "Polygon", "coordinates": [[[-4.197027324993872, 51.01566715285386], [-4.196567039922266, 51.014934015773655], [-4.196658518796971, 51.01488227284767], [-4.197456532396068, 51.01467119595071], [-4.197922469985449, 51.01485703524218], [-4.1980522324240575, 51.01507491007656], [-4.197027324993872, 51.01566715285386]]]}}, {"type": "Feature", "properties": {"type": "postcode-cell", "postcode": "EX39 4EX", "postcodes": ["EX39 4EX"]}, "geometry": {"type": "Polygon", "coordinates": [[[-4.197713189124376, 51.01403472204231], [-4.197312344834904, 51.01417242442141], [-4.197102254745691, 51.014168941340216], [-4.196521106163833, 51.014022906183094], [-4.196312566454896, 51.01291818099698], [-4.197786912310039, 51.01288586741415], [-4.197713189124376, 51.01403472204231]]]}}, {"type": "Feature", "properties": {"type": "postcode-cell", "postcode": "EX39 4HH", "postcodes": ["EX39 4HH"]}, "geometry": {"type": "Polygon", "coordinates": [[[-4.199489850247841, 51.01189697981614], [-4.195487595534699, 51.01179822167904], [-4.195116341542643, 51.01133746249906], [-4.195295575440058, 51.011023545831904], [-4.197530565144287, 51.00909678141411], [-4.200190271714479, 51.01103083352244], [-4.199489850247841, 51.01189697981614]]]}}, {"type": "Feature", "properties": {"type": "postcode-cell", "postcode": "EX39 4ND", "postcodes": ["EX39 4ND"]}, "geometry": {"type": "Polygon", "coordinates": [[[-4.195623838717695, 51.02123340323852], [-4.194965406895172, 51.0209215132609], [-4.193763034235112, 51.019328958999544], [-4.195676325646042, 51.018998120630506], [-4.195747764055836, 51.01905797491278], [-4.195953313177997, 51.02064622154745], [-4.195623838717695, 51.02123340323852]]]}}, {"type": "Feature", "properties": {"type": "postcode-cell", "postcode": "EX39 4HQ", "postcodes": ["EX39 4HQ"]}, "geometry": {"type": "Polygon", "coordinates": [[[-4.195295575440058, 51.011023545831904], [-4.1926039870097265, 51.010166934741655], [-4.191393005811543, 51.005227375138695], [-4.191201767655766, 51.0011900979193], [-4.191609604704533, 51.00090696921832], [-4.193599990058155, 51.00153999496038], [-4.195341871505433, 51.002331549281976], [-4.197530565144287, 51.00909678141411], [-4.195295575440058, 51.011023545831904]]]}}, {"type": "Feature", "properties": {"type": "postcode-cell", "postcode": "EX39 4BH", "postcodes": ["EX39 4BH"]}, "geometry": {"type": "Polygon", "coordinates": [[[-4.197102254745691, 51.014168941340216], [-4.196658518796971, 51.01488227284767], [-4.196567039922266, 51.014934015773655], [-4.196231081516498, 51.01481513249532], [-4.196189570492083, 51.01420906076445], [-4.196521106163833, 51.014022906183094], [-4.197102254745691, 51.014168941340216]]]}}, {"type": "Feature", "properties": {"type": "postcode-cell", "postcode": "EX39 4BQ", "postcodes": ["EX39 4BQ"]}, "geometry": {"type": "Polygon", "coordinates": [[[-4.197456532396068, 51.01467119595071], [-4.196658518796971, 51.01488227284767], [-4.197102254745691, 51.014168941340216], [-4.197312344834904, 51.01417242442141], [-4.197456532396068, 51.01467119595071]]]}}, {"type": "Feature", "properties": {"type": "postcode-cell", "postcode": "EX39 4BL", "postcodes": ["EX39 4BL"]}, "geometry": {"type": "Polygon", "coordinates": [[[-4.196189570492083, 51.01420906076445], [-4.194959154897003, 51.014120111346884], [-4.194930312751861, 51.01408116110355], [-4.194823835961862, 51.01367531781463], [-4.194839415459838, 51.01330061342431], [-4.19594655177403, 51.012824563868776], [-4.196312566454896, 51.01291818099698], [-4.196521106163833, 51.014022906183094], [-4.196189570492083, 51.01420906076445]]]}}, {"type": "Feature", "properties": {"type": "postcode-cell", "postcode": "EX39 4DZ", "postcodes": ["EX39 4DZ"]}, "geometry": {"type": "Polygon", "coordinates": [[[-4.1962062037451995, 51.0161484403095], [-4.196133605648781, 51.01615388711288], [-4.195306339595971, 51.01494399086675], [-4.196231081516498, 51.01481513249532], [-4.196567039922266, 51.014934015773655], [-4.197027324993872, 51.01566715285386], [-4.196922921029348, 51.015971023509316], [-4.1962062037451995, 51.0161484403095]]]}}, {"type": "Feature", "properties": {"type": "postcode-cell", "postcode": "EX39 4AL", "postcodes": ["EX39 4AL"]}, "geometry": {"type": "Polygon", "coordinates": [[[-4.197720095169113, 51.01876400319166], [-4.195747764055836, 51.01905797491278], [-4.195676325646042, 51.018998120630506], [-4.195100444552052, 51.01799297105381], [-4.195182757477323, 51.01794790147927], [-4.197040508091518, 51.017609420073796], [-4.197802612451039, 51.017635079865315], [-4.197720095169113, 51.01876400319166]]]}}, {"type": "Feature", "properties": {"type": "postcode-cell", "postcode": "EX39 4RL", "postcodes": ["EX39 4RL"]}, "geometry": {"type": "Polygon", "coordinates": [[[-4.195848198661477, 51.016328732032086], [-4.196094741570815, 51.01616510952194], [-4.196133605648781, 51.01615388711288], [-4.1962062037451995, 51.0161484403095], [-4.197040508091518, 51.017609420073796], [-4.195182757477323, 51.01794790147927], [-4.195848198661477, 51.016328732032086]]]}}, {"type": "Feature", "properties": {"type": "postcode-cell", "postcode": "EX39 4RJ", "postcodes": ["EX39 4RJ"]}, "geometry": {"type": "Polygon", "coordinates": [[[-4.195182757477323, 51.01794790147927], [-4.195100444552052, 51.01799297105381], [-4.194632944711767, 51.017921416056616], [-4.193250547983907, 51.016590848713705], [-4.195848198661477, 51.016328732032086], [-4.195182757477323, 51.01794790147927]]]}}, {"type": "Feature", "properties": {"type": "postcode-cell", "postcode": "EX39 4DY", "postcodes": ["EX39 4DY"]}, "geometry": {"type": "Polygon", "coordinates": [[[-4.196133605648781, 51.01615388711288], [-4.196094741570815, 51.01616510952194], [-4.194527195807654, 51.01562540968453], [-4.194516602292836, 51.01528003464262], [-4.194716518748624, 51.01489139099874], [-4.194844835977119, 51.01483962169972], [-4.195306339595971, 51.01494399086675], [-4.196133605648781, 51.01615388711288]]]}}, {"type": "Feature", "properties": {"type": "postcode-cell", "postcode": "EX39 4BW", "postcodes": ["EX39 4BW"]}, "geometry": {"type": "Polygon", "coordinates": [[[-4.194716518748624, 51.01489139099874], [-4.194217045397535, 51.01482256885109], [-4.193070454771656, 51.01437857070016], [-4.194930312751861, 51.01408116110355], [-4.194959154897003, 51.014120111346884], [-4.194844835977119, 51.01483962169972], [-4.194716518748624, 51.01489139099874]]]}}, {"type": "Feature", "properties": {"type": "postcode-cell", "postcode": "EX39 4BN", "postcodes": ["EX39 4BN"]}, "geometry": {"type": "Polygon", "coordinates": [[[-4.196231081516498, 51.01481513249532], [-4.195306339595971, 51.01494399086675], [-4.194844835977119, 51.01483962169972], [-4.194959154897003, 51.014120111346884], [-4.196189570492083, 51.01420906076445], [-4.196231081516498, 51.01481513249532]]]}}, {"type": "Feature", "properties": {"type": "postcode-cell", "postcode": "EX39 4EZ", "postcodes": ["EX39 4EZ"]}, "geometry": {"type": "Polygon", "coordinates": [[[-4.19594655177403, 51.012824563868776], [-4.194839415459838, 51.01330061342431], [-4.194283283163298, 51.01320441866117], [-4.193930993213215, 51.0129436643717], [-4.19397255398303, 51.0117831794894], [-4.194485352100501, 51.01149183927083], [-4.195116341542643, 51.01133746249906], [-4.195487595534699, 51.01179822167904], [-4.19594655177403, 51.012824563868776]]]}}, {"type": "Feature", "properties": {"type": "postcode-cell", "postcode": "EX39 4AZ", "postcodes": ["EX39 4AZ"]}, "geometry": {"type": "Polygon", "coordinates": [[[-4.194527195807654, 51.01562540968453], [-4.196094741570815, 51.01616510952194], [-4.195848198661477, 51.016328732032086], [-4.193250547983907, 51.016590848713705], [-4.193166786169969, 51.01655387339918], [-4.193378748295031, 51.016255493589185], [-4.194527195807654, 51.01562540968453]]]}}, {"type": "Feature", "properties": {"type": "postcode-cell", "postcode": "EX39 4BU", "postcodes": ["EX39 4BU"]}, "geometry": {"type": "Polygon", "coordinates": [[[-4.193378748295031, 51.016255493589185], [-4.193300837137322, 51.01537318973265], [-4.194516602292836, 51.01528003464262], [-4.194527195807654, 51.01562540968453], [-4.193378748295031, 51.016255493589185]]]}}, {"type": "Feature", "properties": {"type": "postcode-cell", "postcode": "EX39 4FD", "postcodes": ["EX39 4FD"]}, "geometry": {"type": "Polygon", "coordinates": [[[-4.193250547983907, 51.016590848713705], [-4.194632944711767, 51.017921416056616], [-4.193977491070915, 51.01813119315748], [-4.192931114527029, 51.018127976909255], [-4.192071309682242, 51.01670933912973], [-4.192234853711321, 51.01658648497526], [-4.193166786169969, 51.01655387339918], [-4.193250547983907, 51.016590848713705]]]}}, {"type": "Feature", "properties": {"type": "postcode-cell", "postcode": "EX39 4BS", "postcodes": ["EX39 4BS"]}, "geometry": {"type": "Polygon", "coordinates": [[[-4.194823835961862, 51.01367531781463], [-4.192659951059256, 51.014301535526165], [-4.192101294237832, 51.014252107613224], [-4.19212120399379, 51.01408450164803], [-4.192269835822883, 51.013921895167954], [-4.194283283163298, 51.01320441866117], [-4.194839415459838, 51.01330061342431], [-4.194823835961862, 51.01367531781463]]]}}, {"type": "Feature", "properties": {"type": "postcode-cell", "postcode": "EX39 4BP", "postcodes": ["EX39 4BP"]}, "geometry": {"type": "Polygon", "coordinates": [[[-4.193070454771656, 51.01437857070016], [-4.192659951059256, 51.014301535526165], [-4.194823835961862, 51.01367531781463], [-4.194930312751861, 51.01408116110355], [-4.193070454771656, 51.01437857070016]]]}}, {"type": "Feature", "properties": {"type": "postcode-cell", "postcode": "EX39 4NA", "postcodes": ["EX39 4NA"]}, "geometry": {"type": "Polygon", "coordinates": [[[-4.193039179465812, 51.01926731867177], [-4.1931701131277315, 51.01922989932894], [-4.193763034235112, 51.019328958999544], [-4.194965406895172, 51.0209215132609], [-4.1945399900503295, 51.02071999497618], [-4.1935982624707115, 51.020719996622205], [-4.193039179465812, 51.01926731867177]]]}}, {"type": "Feature", "properties": {"type": "postcode-cell", "postcode": "EX39 4FE", "postcodes": ["EX39 4FE"]}, "geometry": {"type": "Polygon", "coordinates": [[[-4.195676325646042, 51.018998120630506], [-4.193763034235112, 51.019328958999544], [-4.1931701131277315, 51.01922989932894], [-4.193977491070915, 51.01813119315748], [-4.194632944711767, 51.017921416056616], [-4.195100444552052, 51.01799297105381], [-4.195676325646042, 51.018998120630506]]]}}, {"type": "Feature", "properties": {"type": "postcode-cell", "postcode": "EX39 4HD", "postcodes": ["EX39 4HD"]}, "geometry": {"type": "Polygon", "coordinates": [[[-4.191393005811543, 51.005227375138695], [-4.190399573688054, 51.01047242557872], [-4.190290668000593, 51.01060638578595], [-4.188862063410117, 51.0108894992817], [-4.188220094493533, 51.010293585611784], [-4.186857691599503, 51.00340721551104], [-4.191201767655766, 51.0011900979193], [-4.191393005811543, 51.005227375138695]]]}}, {"type": "Feature", "properties": {"type": "postcode-cell", "postcode": "EX39 4HF", "postcodes": ["EX39 4HF"]}, "geometry": {"type": "Polygon", "coordinates": [[[-4.195116341542643, 51.01133746249906], [-4.194485352100501, 51.01149183927083], [-4.1922973893387345, 51.01091702625641], [-4.19228942007971, 51.010750234786606], [-4.1926039870097265, 51.010166934741655], [-4.195295575440058, 51.011023545831904], [-4.195116341542643, 51.01133746249906]]]}}, {"type": "Feature", "properties": {"type": "postcode-cell", "postcode": "EX39 4BY", "postcodes": ["EX39 4BY"]}, "geometry": {"type": "Polygon", "coordinates": [[[-4.194516602292836, 51.01528003464262], [-4.193300837137322, 51.01537318973265], [-4.193218361199714, 51.01527003685306], [-4.194217045397535, 51.01482256885109], [-4.194716518748624, 51.01489139099874], [-4.194516602292836, 51.01528003464262]]]}}, {"type": "Feature", "properties": {"type": "postcode-cell", "postcode": "EX39 4BX", "postcodes": ["EX39 4BX"]}, "geometry": {"type": "Polygon", "coordinates": [[[-4.193300837137322, 51.01537318973265], [-4.193378748295031, 51.016255493589185], [-4.193166786169969, 51.01655387339918], [-4.192234853711321, 51.01658648497526], [-4.191587354802898, 51.0158692207031], [-4.192158536245846, 51.01469230108641], [-4.193218361199714, 51.01527003685306], [-4.193300837137322, 51.01537318973265]]]}}, {"type": "Feature", "properties": {"type": "postcode-cell", "postcode": "EX39 4BT", "postcodes": ["EX39 4BT"]}, "geometry": {"type": "Polygon", "coordinates": [[[-4.194217045397535, 51.01482256885109], [-4.193218361199714, 51.01527003685306], [-4.192158536245846, 51.01469230108641], [-4.192071388673831, 51.01428043214381], [-4.192101294237832, 51.014252107613224], [-4.192659951059256, 51.014301535526165], [-4.193070454771656, 51.01437857070016], [-4.194217045397535, 51.01482256885109]]]}}, {"type": "Feature", "properties": {"type": "postcode-cell", "postcode": "EX39 4HA", "postcodes": ["EX39 4HA"]}, "geometry": {"type": "Polygon", "coordinates": [[[-4.193930993213215, 51.0129436643717], [-4.192473754512295, 51.01263025398489], [-4.192178883434149, 51.012231118907415], [-4.19397255398303, 51.0117831794894], [-4.193930993213215, 51.0129436643717]]]}}, {"type": "Feature", "properties": {"type": "postcode-cell", "postcode": "EX39 4EY", "postcodes": ["EX39 4EY"]}, "geometry": {"type": "Polygon", "coordinates": [[[-4.193930993213215, 51.0129436643717], [-4.194283283163298, 51.01320441866117], [-4.192269835822883, 51.013921895167954], [-4.192473754512295, 51.01263025398489], [-4.193930993213215, 51.0129436643717]]]}}, {"type": "Feature", "properties": {"type": "postcode-cell", "postcode": "EX39 4DF", "postcodes": ["EX39 4DF"]}, "geometry": {"type": "Polygon", "coordinates": [[[-4.19212120399379, 51.01408450164803], [-4.190945091761811, 51.013272162895596], [-4.190802763715946, 51.01236722630366], [-4.190951823324816, 51.012176341972726], [-4.191350410386165, 51.01197155234642], [-4.192178883434149, 51.012231118907415], [-4.192473754512295, 51.01263025398489], [-4.192269835822883, 51.013921895167954], [-4.19212120399379, 51.01408450164803]]]}}, {"type": "Feature", "properties": {"type": "postcode-cell", "postcode": "EX39 4HG", "postcodes": ["EX39 4HG"]}, "geometry": {"type": "Polygon", "coordinates": [[[-4.1926039870097265, 51.010166934741655], [-4.19228942007971, 51.010750234786606], [-4.190399573688054, 51.01047242557872], [-4.191393005811543, 51.005227375138695], [-4.1926039870097265, 51.010166934741655]]]}}, {"type": "Feature", "properties": {"type": "postcode-cell", "postcode": "EX39 4HE", "postcodes": ["EX39 4HE"]}, "geometry": {"type": "Polygon", "coordinates": [[[-4.19397255398303, 51.0117831794894], [-4.192178883434149, 51.012231118907415], [-4.191350410386165, 51.01197155234642], [-4.191342959407068, 51.01189511471887], [-4.1922973893387345, 51.01091702625641], [-4.194485352100501, 51.01149183927083], [-4.19397255398303, 51.0117831794894]]]}}, {"type": "Feature", "properties": {"type": "postcode-cell", "postcode": "EX39 4FL", "postcodes": ["EX39 4FL"]}, "geometry": {"type": "Polygon", "coordinates": [[[-4.19157489574649, 51.019193188242426], [-4.193039179465812, 51.01926731867177], [-4.1935982624707115, 51.020719996622205], [-4.193189990049405, 51.02071999497619], [-4.192009990048358, 51.021259994976646], [-4.191359990048025, 51.020999994976414], [-4.191165965909866, 51.02107499734131], [-4.19157489574649, 51.019193188242426]]]}}, {"type": "Feature", "properties": {"type": "postcode-cell", "postcode": "EX39 4HL", "postcodes": ["EX39 4HL"]}, "geometry": {"type": "Polygon", "coordinates": [[[-4.1922973893387345, 51.01091702625641], [-4.191342959407068, 51.01189511471887], [-4.19103171564121, 51.01164126582732], [-4.190290668000593, 51.01060638578595], [-4.190399573688054, 51.01047242557872], [-4.19228942007971, 51.010750234786606], [-4.1922973893387345, 51.01091702625641]]]}}, {"type": "Feature", "properties": {"type": "postcode-cell", "postcode": "EX39 4AY", "postcodes": ["EX39 4AY"]}, "geometry": {"type": "Polygon", "coordinates": [[[-4.1931701131277315, 51.01922989932894], [-4.193039179465812, 51.01926731867177], [-4.19157489574649, 51.019193188242426], [-4.191370518744008, 51.01896443374543], [-4.19246033114842, 51.018243944515476], [-4.192931114527029, 51.018127976909255], [-4.193977491070915, 51.01813119315748], [-4.1931701131277315, 51.01922989932894]]]}}, {"type": "Feature", "properties": {"type": "postcode-cell", "postcode": "EX39 4DA", "postcodes": ["EX39 4DA"]}, "geometry": {"type": "Polygon", "coordinates": [[[-4.192071388673831, 51.01428043214381], [-4.190040419472041, 51.014497032563376], [-4.1895238468599425, 51.014004076801875], [-4.1894425139463305, 51.01363003139455], [-4.190945091761811, 51.013272162895596], [-4.19212120399379, 51.01408450164803], [-4.192101294237832, 51.014252107613224], [-4.192071388673831, 51.01428043214381]]]}}, {"type": "Feature", "properties": {"type": "postcode-cell", "postcode": "EX39 4AD", "postcodes": ["EX39 4AD"]}, "geometry": {"type": "Polygon", "coordinates": [[[-4.192931114527029, 51.018127976909255], [-4.19246033114842, 51.018243944515476], [-4.1918182855953505, 51.01757136629885], [-4.19202020920365, 51.01673599049672], [-4.192071309682242, 51.01670933912973], [-4.192931114527029, 51.018127976909255]]]}}, {"type": "Feature", "properties": {"type": "postcode-cell", "postcode": "EX39 4BZ", "postcodes": ["EX39 4BZ"]}, "geometry": {"type": "Polygon", "coordinates": [[[-4.192158536245846, 51.01469230108641], [-4.191587354802898, 51.0158692207031], [-4.1905103200391745, 51.01571540785025], [-4.189901667822374, 51.01522421204512], [-4.189979666713993, 51.01457501489112], [-4.190040419472041, 51.014497032563376], [-4.192071388673831, 51.01428043214381], [-4.192158536245846, 51.01469230108641]]]}}, {"type": "Feature", "properties": {"type": "postcode-cell", "postcode": "EX39 4NE", "postcodes": ["EX39 4NE"]}, "geometry": {"type": "Polygon", "coordinates": [[[-4.180704425803495, 51.018732011350224], [-4.182541854810126, 51.01787201278782], [-4.183934187070091, 51.01750225958246], [-4.188052426236699, 51.020744520968016], [-4.188251821153341, 51.02132298444793], [-4.188069990045636, 51.021309994976704], [-4.18745999004511, 51.0215499949769], [-4.18716999004459, 51.0222799949775], [-4.1878599900450135, 51.022389994977594], [-4.188289990045091, 51.022889994978], [-4.1867199900437155, 51.02356999497856], [-4.18627999004346, 51.02345999497846], [-4.18610999004377, 51.02249999497769], [-4.186659990044397, 51.02192999497721], [-4.185889990044239, 51.02108999497652], [-4.185389990043898, 51.02108999497651], [-4.18391999004261, 51.02172999497706], [-4.183979990042121, 51.02292999497804], [-4.184659990042547, 51.023019994978114], [-4.18437999004223, 51.02329999497836], [-4.182589990041044, 51.02320999497829], [-4.182259990041182, 51.02238999497764], [-4.182077475365927, 51.02236524808014], [-4.180704425803495, 51.018732011350224]]]}}, {"type": "Feature", "properties": {"type": "postcode-cell", "postcode": "EX39 4FR", "postcodes": ["EX39 4FR"]}, "geometry": {"type": "Polygon", "coordinates": [[[-4.191165965909866, 51.02107499734131], [-4.190169990047009, 51.02145999497681], [-4.188967456389979, 51.0213741044652], [-4.189919318220208, 51.01906896246203], [-4.190773191213044, 51.01872707930921], [-4.191370518744008, 51.01896443374543], [-4.19157489574649, 51.019193188242426], [-4.191165965909866, 51.02107499734131]]]}}, {"type": "Feature", "properties": {"type": "postcode-cell", "postcode": "EX39 4BA", "postcodes": ["EX39 4BA"]}, "geometry": {"type": "Polygon", "coordinates": [[[-4.192071309682242, 51.01670933912973], [-4.19202020920365, 51.01673599049672], [-4.190655513552522, 51.0170217923014], [-4.189747597636412, 51.016307997825955], [-4.1905103200391745, 51.01571540785025], [-4.191587354802898, 51.0158692207031], [-4.192234853711321, 51.01658648497526], [-4.192071309682242, 51.01670933912973]]]}}, {"type": "Feature", "properties": {"type": "postcode-cell", "postcode": "EX39 4AB", "postcodes": ["EX39 4AB"]}, "geometry": {"type": "Polygon", "coordinates": [[[-4.191370518744008, 51.01896443374543], [-4.190773191213044, 51.01872707930921], [-4.19058481434986, 51.018462399210385], [-4.1918182855953505, 51.01757136629885], [-4.19246033114842, 51.018243944515476], [-4.191370518744008, 51.01896443374543]]]}}, {"type": "Feature", "properties": {"type": "postcode-cell", "postcode": "EX39 4DG", "postcodes": ["EX39 4DG"]}, "geometry": {"type": "Polygon", "coordinates": [[[-4.191350410386165, 51.01197155234642], [-4.190951823324816, 51.012176341972726], [-4.188337295343783, 51.01179211138957], [-4.188780909424828, 51.01119216348653], [-4.19103171564121, 51.01164126582732], [-4.191342959407068, 51.01189511471887], [-4.191350410386165, 51.01197155234642]]]}}, {"type": "Feature", "properties": {"type": "postcode-cell", "postcode": "EX39 4AX", "postcodes": ["EX39 4AX"]}, "geometry": {"type": "Polygon", "coordinates": [[[-4.1918182855953505, 51.01757136629885], [-4.19058481434986, 51.018462399210385], [-4.190050124919693, 51.018062351518864], [-4.189855404511671, 51.01761805831313], [-4.190655513552522, 51.0170217923014], [-4.19202020920365, 51.01673599049672], [-4.1918182855953505, 51.01757136629885]]]}}, {"type": "Feature", "properties": {"type": "postcode-cell", "postcode": "EX39 4HB", "postcodes": ["EX39 4HB"]}, "geometry": {"type": "Polygon", "coordinates": [[[-4.19103171564121, 51.01164126582732], [-4.188780909424828, 51.01119216348653], [-4.188862063410117, 51.0108894992817], [-4.190290668000593, 51.01060638578595], [-4.19103171564121, 51.01164126582732]]]}}, {"type": "Feature", "properties": {"type": "postcode-cell", "postcode": "EX39 4PJ", "postcodes": ["EX39 4PJ"]}, "geometry": {"type": "Polygon", "coordinates": [[[-4.190655513552522, 51.0170217923014], [-4.189855404511671, 51.01761805831313], [-4.189716285051037, 51.01757950809026], [-4.189185525355853, 51.01631842101676], [-4.189747597636412, 51.016307997825955], [-4.190655513552522, 51.0170217923014]]]}}, {"type": "Feature", "properties": {"type": "postcode-cell", "postcode": "EX39 4RB", "postcodes": ["EX39 4RB"]}, "geometry": {"type": "Polygon", "coordinates": [[[-4.189979666713993, 51.01457501489112], [-4.188134354542697, 51.01486775669964], [-4.187740658403288, 51.01474301570818], [-4.18791399002697, 51.01426331466366], [-4.1895238468599425, 51.014004076801875], [-4.190040419472041, 51.014497032563376], [-4.189979666713993, 51.01457501489112]]]}}, {"type": "Feature", "properties": {"type": "postcode-cell", "postcode": "EX39 4FH", "postcodes": ["EX39 4FH"]}, "geometry": {"type": "Polygon", "coordinates": [[[-4.190945091761811, 51.013272162895596], [-4.1894425139463305, 51.01363003139455], [-4.18909536946116, 51.013289441027354], [-4.189063105951584, 51.01305500344879], [-4.190802763715946, 51.01236722630366], [-4.190945091761811, 51.013272162895596]]]}}, {"type": "Feature", "properties": {"type": "postcode-cell", "postcode": "EX39 4DX", "postcodes": ["EX39 4DX"]}, "geometry": {"type": "Polygon", "coordinates": [[[-4.190802763715946, 51.01236722630366], [-4.189063105951584, 51.01305500344879], [-4.1888100682506835, 51.01288740807758], [-4.1882723394775345, 51.01182466544056], [-4.188337295343783, 51.01179211138957], [-4.190951823324816, 51.012176341972726], [-4.190802763715946, 51.01236722630366]]]}}, {"type": "Feature", "properties": {"type": "postcode-cell", "postcode": "EX39 4FB", "postcodes": ["EX39 4FB"]}, "geometry": {"type": "Polygon", "coordinates": [[[-4.1905103200391745, 51.01571540785025], [-4.189747597636412, 51.016307997825955], [-4.189185525355853, 51.01631842101676], [-4.188330409777563, 51.016191038244564], [-4.188734964780936, 51.01562453188806], [-4.189901667822374, 51.01522421204512], [-4.1905103200391745, 51.01571540785025]]]}}, {"type": "Feature", "properties": {"type": "postcode-cell", "postcode": "EX39 4DH", "postcodes": ["EX39 4DH"]}, "geometry": {"type": "Polygon", "coordinates": [[[-4.188780909424828, 51.01119216348653], [-4.188337295343783, 51.01179211138957], [-4.1882723394775345, 51.01182466544056], [-4.188134895204072, 51.01182862072876], [-4.186792481789907, 51.01097763309059], [-4.188220094493533, 51.010293585611784], [-4.188862063410117, 51.0108894992817], [-4.188780909424828, 51.01119216348653]]]}}, {"type": "Feature", "properties": {"type": "postcode-cell", "postcode": "EX39 4FT", "postcodes": ["EX39 4FT"]}, "geometry": {"type": "Polygon", "coordinates": [[[-4.190773191213044, 51.01872707930921], [-4.189919318220208, 51.01906896246203], [-4.189776392064085, 51.01907664899432], [-4.188162969802794, 51.01861897767469], [-4.190050124919693, 51.018062351518864], [-4.19058481434986, 51.018462399210385], [-4.190773191213044, 51.01872707930921]]]}}, {"type": "Feature", "properties": {"type": "postcode-cell", "postcode": "EX39 4QL", "postcodes": ["EX39 4QL"]}, "geometry": {"type": "Polygon", "coordinates": [[[-4.189901667822374, 51.01522421204512], [-4.188734964780936, 51.01562453188806], [-4.188134354542697, 51.01486775669964], [-4.189979666713993, 51.01457501489112], [-4.189901667822374, 51.01522421204512]]]}}, {"type": "Feature", "properties": {"type": "postcode-cell", "postcode": "EX39 4DL", "postcodes": ["EX39 4DL"]}, "geometry": {"type": "Polygon", "coordinates": [[[-4.1895238468599425, 51.014004076801875], [-4.18791399002697, 51.01426331466366], [-4.187719192719217, 51.01399274190261], [-4.188284145799562, 51.013533559517256], [-4.18909536946116, 51.013289441027354], [-4.1894425139463305, 51.01363003139455], [-4.1895238468599425, 51.014004076801875]]]}}, {"type": "Feature", "properties": {"type": "postcode-cell", "postcode": "EX39 4DE", "postcodes": ["EX39 4DE"]}, "geometry": {"type": "Polygon", "coordinates": [[[-4.1888100682506835, 51.01288740807758], [-4.18741712278556, 51.013025987086216], [-4.1875618278551485, 51.012041430755694], [-4.187582010501441, 51.01202453981885], [-4.188134895204072, 51.01182862072876], [-4.1882723394775345, 51.01182466544056], [-4.1888100682506835, 51.01288740807758]]]}}, {"type": "Feature", "properties": {"type": "postcode-cell", "postcode": "EX39 4FA", "postcodes": ["EX39 4FA"]}, "geometry": {"type": "Polygon", "coordinates": [[[-4.189185525355853, 51.01631842101676], [-4.189716285051037, 51.01757950809026], [-4.185940405063952, 51.01699662570851], [-4.188330409777563, 51.016191038244564], [-4.189185525355853, 51.01631842101676]]]}}, {"type": "Feature", "properties": {"type": "postcode-cell", "postcode": "EX39 4FW", "postcodes": ["EX39 4FW"]}, "geometry": {"type": "Polygon", "coordinates": [[[-4.189855404511671, 51.01761805831313], [-4.190050124919693, 51.018062351518864], [-4.188162969802794, 51.01861897767469], [-4.187821566993504, 51.018651261166866], [-4.18464624573606, 51.017219335946066], [-4.184763954082111, 51.01713251543953], [-4.185940405063952, 51.01699662570851], [-4.189716285051037, 51.01757950809026], [-4.189855404511671, 51.01761805831313]]]}}, {"type": "Feature", "properties": {"type": "postcode-cell", "postcode": "EX39 4FN", "postcodes": ["EX39 4FN"]}, "geometry": {"type": "Polygon", "coordinates": [[[-4.188052426236699, 51.020744520968016], [-4.188248527215397, 51.01953680334968], [-4.189776392064085, 51.01907664899432], [-4.189919318220208, 51.01906896246203], [-4.188967456389979, 51.0213741044652], [-4.188251821153341, 51.02132298444793], [-4.188052426236699, 51.020744520968016]]]}}, {"type": "Feature", "properties": {"type": "postcode-cell", "postcode": "EX39 4FS", "postcodes": ["EX39 4FS"]}, "geometry": {"type": "Polygon", "coordinates": [[[-4.188052426236699, 51.020744520968016], [-4.183934187070091, 51.01750225958246], [-4.18464624573606, 51.017219335946066], [-4.187821566993504, 51.018651261166866], [-4.188248527215397, 51.01953680334968], [-4.188052426236699, 51.020744520968016]]]}}, {"type": "Feature", "properties": {"type": "postcode-cell", "postcode": "EX39 4RD", "postcodes": ["EX39 4RD"]}, "geometry": {"type": "Polygon", "coordinates": [[[-4.185940405063952, 51.01699662570851], [-4.184763954082111, 51.01713251543953], [-4.185068130979916, 51.01599492504588], [-4.186568240247014, 51.01508139590112], [-4.187740658403288, 51.01474301570818], [-4.188134354542697, 51.01486775669964], [-4.188734964780936, 51.01562453188806], [-4.188330409777563, 51.016191038244564], [-4.185940405063952, 51.01699662570851]]]}}, {"type": "Feature", "properties": {"type": "postcode-cell", "postcode": "EX39 4PH", "postcodes": ["EX39 4PH"]}, "geometry": {"type": "Polygon", "coordinates": [[[-4.185068130979916, 51.01599492504588], [-4.184265939994377, 51.014166825435964], [-4.186356621748449, 51.01370770283372], [-4.186649685662689, 51.01393390907342], [-4.186568240247014, 51.01508139590112], [-4.185068130979916, 51.01599492504588]]]}}, {"type": "Feature", "properties": {"type": "postcode-cell", "postcode": "EX39 4FP", "postcodes": ["EX39 4FP"]}, "geometry": {"type": "Polygon", "coordinates": [[[-4.188248527215397, 51.01953680334968], [-4.187821566993504, 51.018651261166866], [-4.188162969802794, 51.01861897767469], [-4.189776392064085, 51.01907664899432], [-4.188248527215397, 51.01953680334968]]]}}, {"type": "Feature", "properties": {"type": "postcode-cell", "postcode": "EX39 4QJ", "postcodes": ["EX39 4QJ"]}, "geometry": {"type": "Polygon", "coordinates": [[[-4.187719192719217, 51.01399274190261], [-4.18791399002697, 51.01426331466366], [-4.187740658403288, 51.01474301570818], [-4.186568240247014, 51.01508139590112], [-4.186649685662689, 51.01393390907342], [-4.187711400275847, 51.013989936256465], [-4.187719192719217, 51.01399274190261]]]}}, {"type": "Feature", "properties": {"type": "postcode-cell", "postcode": "EX39 4DJ", "postcodes": ["EX39 4DJ"]}, "geometry": {"type": "Polygon", "coordinates": [[[-4.187711400275847, 51.013989936256465], [-4.187190381134891, 51.01319044760316], [-4.188284145799562, 51.013533559517256], [-4.187719192719217, 51.01399274190261], [-4.187711400275847, 51.013989936256465]]]}}, {"type": "Feature", "properties": {"type": "postcode-cell", "postcode": "EX39 4DD", "postcodes": ["EX39 4DD"]}, "geometry": {"type": "Polygon", "coordinates": [[[-4.18909536946116, 51.013289441027354], [-4.188284145799562, 51.013533559517256], [-4.187190381134891, 51.01319044760316], [-4.1871718341276845, 51.013176758507356], [-4.187180084161419, 51.013157263503786], [-4.18741712278556, 51.013025987086216], [-4.1888100682506835, 51.01288740807758], [-4.189063105951584, 51.01305500344879], [-4.18909536946116, 51.013289441027354]]]}}, {"type": "Feature", "properties": {"type": "postcode-cell", "postcode": "EX39 4PQ", "postcodes": ["EX39 4PQ"]}, "geometry": {"type": "Polygon", "coordinates": [[[-4.187190381134891, 51.01319044760316], [-4.187711400275847, 51.013989936256465], [-4.186649685662689, 51.01393390907342], [-4.186356621748449, 51.01370770283372], [-4.186461638057286, 51.013492664781914], [-4.1871718341276845, 51.013176758507356], [-4.187190381134891, 51.01319044760316]]]}}, {"type": "Feature", "properties": {"type": "postcode-cell", "postcode": "EX39 4GB", "postcodes": ["EX39 4GB"]}, "geometry": {"type": "Polygon", "coordinates": [[[-4.18464624573606, 51.017219335946066], [-4.183934187070091, 51.01750225958246], [-4.182541854810126, 51.01787201278782], [-4.181631076930498, 51.015178716873294], [-4.182620356613355, 51.01400079813707], [-4.183816330041016, 51.013788276940765], [-4.184265939994377, 51.014166825435964], [-4.185068130979916, 51.01599492504588], [-4.184763954082111, 51.01713251543953], [-4.18464624573606, 51.017219335946066]]]}}, {"type": "Feature", "properties": {"type": "postcode-cell", "postcode": "EX39 4BR", "postcodes": ["EX39 4BR"]}, "geometry": {"type": "Polygon", "coordinates": [[[-4.187180084161419, 51.013157263503786], [-4.1863993209576496, 51.012532278684866], [-4.1875618278551485, 51.012041430755694], [-4.18741712278556, 51.013025987086216], [-4.187180084161419, 51.013157263503786]]]}}, {"type": "Feature", "properties": {"type": "postcode-cell", "postcode": "EX39 4DN", "postcodes": ["EX39 4DN"]}, "geometry": {"type": "Polygon", "coordinates": [[[-4.187582010501441, 51.01202453981885], [-4.185669010946072, 51.011580085486294], [-4.185009717750808, 51.010829886051624], [-4.186792481789907, 51.01097763309059], [-4.188134895204072, 51.01182862072876], [-4.187582010501441, 51.01202453981885]]]}}, {"type": "Feature", "properties": {"type": "postcode-cell", "postcode": "EX39 4GD", "postcodes": ["EX39 4GD"]}, "geometry": {"type": "Polygon", "coordinates": [[[-4.179012447576605, 51.006184475744874], [-4.1811343857460965, 51.01237291582028], [-4.180170504614178, 51.01320875829066], [-4.178670469325295, 51.013756538218935], [-4.17529885807021, 51.00652289405984], [-4.179012447576605, 51.006184475744874]]]}}, {"type": "Feature", "properties": {"type": "postcode-cell", "postcode": "EX39 4DQ", "postcodes": ["EX39 4DQ"]}, "geometry": {"type": "Polygon", "coordinates": [[[-4.186792481789907, 51.01097763309059], [-4.185009717750808, 51.010829886051624], [-4.184357744200702, 51.010531121482686], [-4.1809671126744234, 51.00579570966463], [-4.186857691599503, 51.00340721551104], [-4.188220094493533, 51.010293585611784], [-4.186792481789907, 51.01097763309059]]]}}, {"type": "Feature", "properties": {"type": "postcode-cell", "postcode": "EX39 4DB", "postcodes": ["EX39 4DB"]}, "geometry": {"type": "Polygon", "coordinates": [[[-4.187180084161419, 51.013157263503786], [-4.1871718341276845, 51.013176758507356], [-4.186461638057286, 51.013492664781914], [-4.185462489996932, 51.01275746779708], [-4.185827924164295, 51.01251527174939], [-4.1863993209576496, 51.012532278684866], [-4.187180084161419, 51.013157263503786]]]}}, {"type": "Feature", "properties": {"type": "postcode-cell", "postcode": "EX39 4DW", "postcodes": ["EX39 4DW"]}, "geometry": {"type": "Polygon", "coordinates": [[[-4.1875618278551485, 51.012041430755694], [-4.1863993209576496, 51.012532278684866], [-4.185827924164295, 51.01251527174939], [-4.185669010946072, 51.011580085486294], [-4.187582010501441, 51.01202453981885], [-4.1875618278551485, 51.012041430755694]]]}}, {"type": "Feature", "properties": {"type": "postcode-cell", "postcode": "EX39 4LQ", "postcodes": ["EX39 4LQ"]}, "geometry": {"type": "Polygon", "coordinates": [[[-4.185669010946072, 51.011580085486294], [-4.185827924164295, 51.01251527174939], [-4.185462489996932, 51.01275746779708], [-4.1838674596609104, 51.01310428187591], [-4.183445992616503, 51.01265018326847], [-4.184357744200702, 51.010531121482686], [-4.185009717750808, 51.010829886051624], [-4.185669010946072, 51.011580085486294]]]}}, {"type": "Feature", "properties": {"type": "postcode-cell", "postcode": "EX39 4RE", "postcodes": ["EX39 4RE"]}, "geometry": {"type": "Polygon", "coordinates": [[[-4.186461638057286, 51.013492664781914], [-4.186356621748449, 51.01370770283372], [-4.184265939994377, 51.014166825435964], [-4.183816330041016, 51.013788276940765], [-4.1838674596609104, 51.01310428187591], [-4.185462489996932, 51.01275746779708], [-4.186461638057286, 51.013492664781914]]]}}, {"type": "Feature", "properties": {"type": "postcode-cell", "postcode": "EX39 4NF", "postcodes": ["EX39 4NF"]}, "geometry": {"type": "Polygon", "coordinates": [[[-4.173939096428276, 51.0171391889348], [-4.180704425803495, 51.018732011350224], [-4.182077475365927, 51.02236524808014], [-4.181079990040445, 51.022229994977494], [-4.179289990038779, 51.02322999497832], [-4.179739990038793, 51.02388999497886], [-4.1783999900376845, 51.02431999497922], [-4.178199990037756, 51.023849994978825], [-4.178729990038302, 51.023439994978496], [-4.178209990037959, 51.02340999497848], [-4.178009990037688, 51.02370999497873], [-4.177359990037296, 51.02358999497862], [-4.177299990037401, 51.02325999497837], [-4.17656999003677, 51.02355999497862], [-4.175789990036282, 51.02345999497852], [-4.175799990036407, 51.0231899949783], [-4.174409990035635, 51.022789994978], [-4.173869990035793, 51.021589994977], [-4.172949990035536, 51.02074999497631], [-4.172289990035837, 51.019049994974935], [-4.171039990035309, 51.01830999497431], [-4.170324702326914, 51.01811178676089], [-4.173939096428276, 51.0171391889348]]]}}, {"type": "Feature", "properties": {"type": "postcode-cell", "postcode": "EX39 4FX", "postcodes": ["EX39 4FX"]}, "geometry": {"type": "Polygon", "coordinates": [[[-4.182541854810126, 51.01787201278782], [-4.180704425803495, 51.018732011350224], [-4.173939096428276, 51.0171391889348], [-4.174289625158243, 51.016537880589425], [-4.178613330020121, 51.01383115540101], [-4.180526474550532, 51.014496344359], [-4.181631076930498, 51.015178716873294], [-4.182541854810126, 51.01787201278782]]]}}, {"type": "Feature", "properties": {"type": "postcode-cell", "postcode": "EX39 4FG", "postcodes": ["EX39 4FG"]}, "geometry": {"type": "Polygon", "coordinates": [[[-4.184357744200702, 51.010531121482686], [-4.183445992616503, 51.01265018326847], [-4.1811343857460965, 51.01237291582028], [-4.179012447576605, 51.006184475744874], [-4.1809671126744234, 51.00579570966463], [-4.184357744200702, 51.010531121482686]]]}}, {"type": "Feature", "properties": {"type": "postcode-cell", "postcode": "EX39 4FU", "postcodes": ["EX39 4FU"]}, "geometry": {"type": "Polygon", "coordinates": [[[-4.182620356613355, 51.01400079813707], [-4.181631076930498, 51.015178716873294], [-4.180526474550532, 51.014496344359], [-4.182525814619653, 51.01398472295111], [-4.182620356613355, 51.01400079813707]]]}}, {"type": "Feature", "properties": {"type": "postcode-cell", "postcode": "EX39 4GA", "postcodes": ["EX39 4GA"]}, "geometry": {"type": "Polygon", "coordinates": [[[-4.182525814619653, 51.01398472295111], [-4.180170504614178, 51.01320875829066], [-4.1811343857460965, 51.01237291582028], [-4.183445992616503, 51.01265018326847], [-4.1838674596609104, 51.01310428187591], [-4.183816330041016, 51.013788276940765], [-4.182620356613355, 51.01400079813707], [-4.182525814619653, 51.01398472295111]]]}}, {"type": "Feature", "properties": {"type": "postcode-cell", "postcode": "EX39 4FZ", "postcodes": ["EX39 4FZ"]}, "geometry": {"type": "Polygon", "coordinates": [[[-4.182525814619653, 51.01398472295111], [-4.180526474550532, 51.014496344359], [-4.178613330020121, 51.01383115540101], [-4.178670469325295, 51.013756538218935], [-4.180170504614178, 51.01320875829066], [-4.182525814619653, 51.01398472295111]]]}}, {"type": "Feature", "properties": {"type": "postcode-cell", "postcode": "EX39 4PL", "postcodes": ["EX39 4PL"]}, "geometry": {"type": "Polygon", "coordinates": [[[-4.17529885807021, 51.00652289405984], [-4.178670469325295, 51.013756538218935], [-4.178613330020121, 51.01383115540101], [-4.174289625158243, 51.016537880589425], [-4.173191841914475, 51.00773837317743], [-4.174405097392868, 51.006516419480604], [-4.17529885807021, 51.00652289405984]]]}}, {"type": "Feature", "properties": {"type": "postcode-cell", "postcode": "EX39 4QE", "postcodes": ["EX39 4QE"]}, "geometry": {"type": "Polygon", "coordinates": [[[-4.164558604064852, 51.00023605659097], [-4.160919793531806, 51.002409660274736], [-4.150515506719071, 51.00569542369453], [-4.150119990026978, 51.00486999496336], [-4.151889990029682, 51.001489994960565], [-4.15154999003032, 50.99952999495898], [-4.152539990031474, 50.998459994958104], [-4.152959990031672, 50.99865999495827], [-4.1601299900372455, 50.99710999495693], [-4.164811151211031, 50.996467138248576], [-4.164558604064852, 51.00023605659097]]]}}, {"type": "Feature", "properties": {"type": "postcode-cell", "postcode": "EX39 4QB", "postcodes": ["EX39 4QB"]}, "geometry": {"type": "Polygon", "coordinates": [[[-4.173191841914475, 51.00773837317743], [-4.163211783897567, 51.01283464914863], [-4.162629990032386, 51.01192999496911], [-4.162571938718233, 51.011925275651784], [-4.160919793531806, 51.002409660274736], [-4.164558604064852, 51.00023605659097], [-4.174405097392868, 51.006516419480604], [-4.173191841914475, 51.00773837317743]]]}}, {"type": "Feature", "properties": {"type": "postcode-cell", "postcode": "EX39 4PN", "postcodes": ["EX39 4PN"]}, "geometry": {"type": "Polygon", "coordinates": [[[-4.173939096428276, 51.0171391889348], [-4.170324702326914, 51.01811178676089], [-4.169379990034377, 51.01784999497394], [-4.168249990034067, 51.0168099949731], [-4.167399990034182, 51.0152299949718], [-4.166169990033652, 51.01452999497121], [-4.16426999003238, 51.0144799949712], [-4.163211783897567, 51.01283464914863], [-4.173191841914475, 51.00773837317743], [-4.174289625158243, 51.016537880589425], [-4.173939096428276, 51.0171391889348]]]}}, {"type": "Feature", "properties": {"type": "postcode-cell", "postcode": "EX39 4QA", "postcodes": ["EX39 4QA"]}, "geometry": {"type": "Polygon", "coordinates": [[[-4.160919793531806, 51.002409660274736], [-4.162571938718233, 51.011925275651784], [-4.161399990031593, 51.01182999496904], [-4.160449990030827, 51.012089994969244], [-4.156949990028631, 51.0116499949689], [-4.156419990029183, 51.00958999496721], [-4.155569990029084, 51.00849999496632], [-4.15299999002793, 51.007149994965246], [-4.1522599900277575, 51.006399994964625], [-4.150579990026866, 51.00582999496418], [-4.150515506719071, 51.00569542369453], [-4.160919793531806, 51.002409660274736]]]}}]}