{"type": "FeatureCollection", "features": [{"type": "Feature", "properties": {"type": "ward-outline", "name": "Bishopsteignton"}, "geometry": {"type": "Polygon", "coordinates": [[[-3.52265, 50.56791], [-3.52082, 50.56773], [-3.51929, 50.56573], [-3.51934, 50.56535], [-3.51999, 50.56511], [-3.51922, 50.56472], [-3.51985, 50.56269], [-3.51815, 50.56168], [-3.51731, 50.56028], [-3.51583, 50.56035], [-3.51541, 50.55964], [-3.51564, 50.55876], [-3.51511, 50.55877], [-3.51509, 50.55699], [-3.51304, 50.55466], [-3.51577, 50.55522], [-3.51542, 50.55391], [-3.51914, 50.55366], [-3.51892, 50.55284], [-3.51977, 50.55167], [-3.52101, 50.55115], [-3.52034, 50.5504], [-3.52073, 50.55019], [-3.52064, 50.5497], [-3.51921, 50.54607], [-3.51929, 50.54608], [-3.52202, 50.54639], [-3.52473, 50.5471], [-3.52927, 50.54728], [-3.53276, 50.54702], [-3.53689, 50.54623], [-3.53768, 50.54492], [-3.5393, 50.54531], [-3.54072, 50.54499], [-3.54208, 50.54541], [-3.54667, 50.54517], [-3.54849, 50.54471], [-3.5496, 50.54517], [-3.55197, 50.54504], [-3.55344, 50.54533], [-3.55481, 50.54494], [-3.55575, 50.5455], [-3.55924, 50.5455], [-3.5647, 50.54453], [-3.56651, 50.54302], [-3.57195, 50.5475], [-3.5736, 50.54802], [-3.57384, 50.54871], [-3.57522, 50.5491], [-3.57562, 50.54974], [-3.57649, 50.54957], [-3.57717, 50.54984], [-3.57798, 50.55068], [-3.57753, 50.55321], [-3.57594, 50.55388], [-3.57222, 50.55391], [-3.56983, 50.55479], [-3.56881, 50.55776], [-3.56767, 50.55841], [-3.57061, 50.56059], [-3.57326, 50.56137], [-3.575, 50.56319], [-3.57517, 50.56443], [-3.57481, 50.56485], [-3.57178, 50.56538], [-3.57054, 50.56628], [-3.56237, 50.57701], [-3.56057, 50.58074], [-3.55842, 50.58301], [-3.55671, 50.5857], [-3.55325, 50.58821], [-3.55248, 50.59071], [-3.55136, 50.59249], [-3.5515, 50.59429], [-3.55076, 50.59962], [-3.54776, 50.59897], [-3.54339, 50.5971], [-3.54366, 50.59591], [-3.54208, 50.59477], [-3.54036, 50.59416], [-3.5331, 50.58918], [-3.53047, 50.58604], [-3.52663, 50.5789], [-3.52586, 50.57037], [-3.52505, 50.56897], [-3.52345, 50.56804], [-3.52265, 50.56791]]]}}, {"type": "Feature", "properties": {"type": "postcode-cell", "postcode": "TQ14 9TN", "postcodes": ["TQ14 9TN"]}, "geometry": {"type": "MultiPolygon", "coordinates": [[[[-3.5716229662833823, 50.56389167840163], [-3.569377243143484, 50.55967595110628], [-3.570609989851089, 50.56058999461548], [-3.5732599898523865, 50.56136999461604], [-3.5749999898526155, 50.56318999461743], [-3.5751699898521303, 50.56442999461837], [-3.574809989851704, 50.56484999461872], [-3.574137144236089, 50.564967694899174], [-3.5716229662833823, 50.56389167840163]]], [[[-3.565771844362216, 50.552906099134205], [-3.5700983660915795, 50.55075657148045], [-3.5728220778055793, 50.55020672805528], [-3.5771711010736955, 50.54984114700113], [-3.5779799898604665, 50.550679994607655], [-3.577529989858975, 50.55320999460963], [-3.5759399898576527, 50.553879994610185], [-3.572219989855292, 50.55390999461029], [-3.5698299898533654, 50.554789994611], [-3.5688099898513026, 50.55775999461332], [-3.5684623322233193, 50.55795822351227], [-3.565771844362216, 50.552906099134205]]]]}}, {"type": "Feature", "properties": {"type": "postcode-cell", "postcode": "TQ14 9TL", "postcodes": ["TQ14 9TL"]}, "geometry": {"type": "Polygon", "coordinates": [[[-3.5684623322233193, 50.55795822351227], [-3.5676699898502737, 50.558409994613854], [-3.569377243143484, 50.55967595110628], [-3.5716229662833823, 50.56389167840163], [-3.563770729066314, 50.562056581486246], [-3.5619801901865524, 50.560179197063746], [-3.5607266606188963, 50.55749089778932], [-3.5621215345725377, 50.5527243285618], [-3.565771844362216, 50.552906099134205], [-3.5684623322233193, 50.55795822351227]]]}}, {"type": "Feature", "properties": {"type": "postcode-cell", "postcode": "TQ14 9FJ", "postcodes": ["TQ14 9FJ"]}, "geometry": {"type": "Polygon", "coordinates": [[[-3.55705827653439, 50.546125232770706], [-3.5519732057500866, 50.5474989153625], [-3.5494230355146583, 50.54759177190321], [-3.5472706370276166, 50.54740332158164], [-3.5466176359259487, 50.547304117471185], [-3.5442124396995913, 50.546147001853704], [-3.5440861451727588, 50.545305120130436], [-3.5466699898433864, 50.54516999460401], [-3.5484899898447515, 50.54470999460361], [-3.5495999898452273, 50.54516999460395], [-3.5519699898467794, 50.545039994603776], [-3.5534399898475657, 50.545329994603996], [-3.554809989848614, 50.54493999460366], [-3.5557499898489384, 50.545499994604064], [-3.5574934912494234, 50.54550000768159], [-3.55705827653439, 50.546125232770706]]]}}, {"type": "Feature", "properties": {"type": "postcode-cell", "postcode": "TQ14 9PT", "postcodes": ["TQ14 9PT"]}, "geometry": {"type": "Polygon", "coordinates": [[[-3.5728220778055793, 50.55020672805528], [-3.568298994305951, 50.54735501728729], [-3.5671555162853226, 50.543551663134465], [-3.5719499898581843, 50.54749999460532], [-3.573599989858975, 50.54801999460569], [-3.5738399898587976, 50.54870999460622], [-3.5752199898594794, 50.54909999460648], [-3.5756199898594265, 50.54973999460697], [-3.576489989860057, 50.54956999460683], [-3.5771699898603564, 50.549839994607034], [-3.5771711010736955, 50.54984114700113], [-3.5728220778055793, 50.55020672805528]]]}}, {"type": "Feature", "properties": {"type": "postcode-cell", "postcode": "TQ14 9PU", "postcodes": ["TQ14 9PU"]}, "geometry": {"type": "Polygon", "coordinates": [[[-3.5728220778055793, 50.55020672805528], [-3.5700983660915795, 50.55075657148045], [-3.5590686925460386, 50.545499997045496], [-3.5592399898511338, 50.54549999460401], [-3.5595571327185986, 50.545443660440924], [-3.568298994305951, 50.54735501728729], [-3.5728220778055793, 50.55020672805528]]]}}, {"type": "Feature", "properties": {"type": "postcode-cell", "postcode": "TQ14 9PX", "postcodes": ["TQ14 9PX"]}, "geometry": {"type": "Polygon", "coordinates": [[[-3.568298994305951, 50.54735501728729], [-3.5595571327185986, 50.545443660440924], [-3.564699989855036, 50.54452999460316], [-3.5665099898568964, 50.543019994601934], [-3.5671555162853226, 50.543551663134465], [-3.568298994305951, 50.54735501728729]]]}}, {"type": "Feature", "properties": {"type": "postcode-cell", "postcode": "TQ14 9PS", "postcodes": ["TQ14 9PS"]}, "geometry": {"type": "Polygon", "coordinates": [[[-3.5700983660915795, 50.55075657148045], [-3.565771844362216, 50.552906099134205], [-3.5621215345725377, 50.5527243285618], [-3.5603371202386764, 50.55200998138349], [-3.557540265154827, 50.547918408085884], [-3.55705827653439, 50.546125232770706], [-3.5574934912494234, 50.54550000768159], [-3.5590686925460386, 50.545499997045496], [-3.5700983660915795, 50.55075657148045]]]}}, {"type": "Feature", "properties": {"type": "postcode-cell", "postcode": "TQ14 9SA", "postcodes": ["TQ14 9SA"]}, "geometry": {"type": "Polygon", "coordinates": [[[-3.555450829807955, 50.55461325255495], [-3.554685884207115, 50.55449929781309], [-3.553146926846675, 50.55219476497302], [-3.5531512603044035, 50.55212528620963], [-3.553356262549782, 50.55175973389221], [-3.557540265154827, 50.547918408085884], [-3.5603371202386764, 50.55200998138349], [-3.555450829807955, 50.55461325255495]]]}}, {"type": "Feature", "properties": {"type": "postcode-cell", "postcode": "TQ14 9TW", "postcodes": ["TQ14 9TW"]}, "geometry": {"type": "Polygon", "coordinates": [[[-3.5603371202386764, 50.55200998138349], [-3.5621215345725377, 50.5527243285618], [-3.5607266606188963, 50.55749089778932], [-3.555866677203529, 50.55544934191746], [-3.555450829807955, 50.55461325255495], [-3.5603371202386764, 50.55200998138349]]]}}, {"type": "Feature", "properties": {"type": "postcode-cell", "postcode": "TQ14 9TF", "postcodes": ["TQ14 9TF"]}, "geometry": {"type": "Polygon", "coordinates": [[[-3.5551628179439523, 50.576478213377044], [-3.5499122006630466, 50.57501142615843], [-3.5575440640748472, 50.56916689914649], [-3.56909820575596, 50.5681739404099], [-3.5623699898380528, 50.577009994628405], [-3.562123560202949, 50.577520687311605], [-3.5551628179439523, 50.576478213377044]]]}}, {"type": "Feature", "properties": {"type": "postcode-cell", "postcode": "TQ14 9TG", "postcodes": ["TQ14 9TG"]}, "geometry": {"type": "Polygon", "coordinates": [[[-3.574137144236089, 50.564967694899174], [-3.5717799898495395, 50.56537999461918], [-3.5705399898483274, 50.56627999461992], [-3.56909820575596, 50.5681739404099], [-3.5575440640748472, 50.56916689914649], [-3.5569551375313195, 50.568768610507924], [-3.554402153587235, 50.56326560166456], [-3.5596912738993582, 50.56254188410319], [-3.563770729066314, 50.562056581486246], [-3.5716229662833823, 50.56389167840163], [-3.574137144236089, 50.564967694899174]]]}}, {"type": "Feature", "properties": {"type": "postcode-cell", "postcode": "TQ13 0BJ", "postcodes": ["TQ13 0BJ"]}, "geometry": {"type": "Polygon", "coordinates": [[[-3.5529102103239447, 50.5825537109097], [-3.5551628179439523, 50.576478213377044], [-3.562123560202949, 50.577520687311605], [-3.560569989835136, 50.58073999463133], [-3.5584199898326965, 50.583009994633144], [-3.556709989830335, 50.58569999463527], [-3.55505543985931, 50.58690030644024], [-3.5529102103239447, 50.5825537109097]]]}}, {"type": "Feature", "properties": {"type": "postcode-cell", "postcode": "TQ14 9TH", "postcodes": ["TQ14 9TH"]}, "geometry": {"type": "Polygon", "coordinates": [[[-3.554402153587235, 50.56326560166456], [-3.549100359324494, 50.56318167605909], [-3.550509210234608, 50.55946628885716], [-3.5521609121635866, 50.558390430827544], [-3.55351071826726, 50.55807288715761], [-3.5596912738993582, 50.56254188410319], [-3.554402153587235, 50.56326560166456]]]}}, {"type": "Feature", "properties": {"type": "postcode-cell", "postcode": "TQ14 9TJ", "postcodes": ["TQ14 9TJ"]}, "geometry": {"type": "Polygon", "coordinates": [[[-3.5619801901865524, 50.560179197063746], [-3.554695466689465, 50.55772876978988], [-3.555866677203529, 50.55544934191746], [-3.5607266606188963, 50.55749089778932], [-3.5619801901865524, 50.560179197063746]]]}}, {"type": "Feature", "properties": {"type": "postcode-cell", "postcode": "TQ14 9TP", "postcodes": ["TQ14 9TP"]}, "geometry": {"type": "Polygon", "coordinates": [[[-3.55351071826726, 50.55807288715761], [-3.5521609121635866, 50.558390430827544], [-3.551891074452633, 50.55561463666979], [-3.5519917489704675, 50.5554482822915], [-3.5528295372004157, 50.554775469551345], [-3.554685884207115, 50.55449929781309], [-3.555450829807955, 50.55461325255495], [-3.555866677203529, 50.55544934191746], [-3.554695466689465, 50.55772876978988], [-3.55351071826726, 50.55807288715761]]]}}, {"type": "Feature", "properties": {"type": "postcode-cell", "postcode": "TQ14 9TQ", "postcodes": ["TQ14 9TQ"]}, "geometry": {"type": "Polygon", "coordinates": [[[-3.554695466689465, 50.55772876978988], [-3.5619801901865524, 50.560179197063746], [-3.563770729066314, 50.562056581486246], [-3.5596912738993582, 50.56254188410319], [-3.55351071826726, 50.55807288715761], [-3.554695466689465, 50.55772876978988]]]}}, {"type": "Feature", "properties": {"type": "postcode-cell", "postcode": "TQ14 9SB", "postcodes": ["TQ14 9SB"]}, "geometry": {"type": "Polygon", "coordinates": [[[-3.553356262549782, 50.55175973389221], [-3.550478250622195, 50.55097805450487], [-3.5504522219592305, 50.5501791123567], [-3.5519732057500866, 50.5474989153625], [-3.55705827653439, 50.546125232770706], [-3.557540265154827, 50.547918408085884], [-3.553356262549782, 50.55175973389221]]]}}, {"type": "Feature", "properties": {"type": "postcode-cell", "postcode": "TQ14 9TD", "postcodes": ["TQ14 9TD"]}, "geometry": {"type": "Polygon", "coordinates": [[[-3.5569551375313195, 50.568768610507924], [-3.5430125700515043, 50.56537657768616], [-3.549100359324494, 50.56318167605909], [-3.554402153587235, 50.56326560166456], [-3.5569551375313195, 50.568768610507924]]]}}, {"type": "Feature", "properties": {"type": "postcode-cell", "postcode": "TQ14 9TE", "postcodes": ["TQ14 9TE"]}, "geometry": {"type": "Polygon", "coordinates": [[[-3.5569551375313195, 50.568768610507924], [-3.5575440640748472, 50.56916689914649], [-3.5499122006630466, 50.57501142615843], [-3.5387305454030065, 50.57432778529045], [-3.5414832441550272, 50.56577714720419], [-3.5430125700515043, 50.56537657768616], [-3.5569551375313195, 50.568768610507924]]]}}, {"type": "Feature", "properties": {"type": "postcode-cell", "postcode": "TQ14 9TB", "postcodes": ["TQ14 9TB"]}, "geometry": {"type": "Polygon", "coordinates": [[[-3.5430125700515043, 50.56537657768616], [-3.5414832441550272, 50.56577714720419], [-3.5400383807663385, 50.56437508469335], [-3.5403882176730748, 50.55901444722412], [-3.541266049203038, 50.557826133221006], [-3.5422525626080974, 50.55731137357213], [-3.547211473752252, 50.55626856365682], [-3.5480863312983213, 50.55675423506285], [-3.550509210234608, 50.55946628885716], [-3.549100359324494, 50.56318167605909], [-3.5430125700515043, 50.56537657768616]]]}}, {"type": "Feature", "properties": {"type": "postcode-cell", "postcode": "TQ14 9TS", "postcodes": ["TQ14 9TS"]}, "geometry": {"type": "Polygon", "coordinates": [[[-3.551661234865361, 50.552714757387236], [-3.553146926846675, 50.55219476497302], [-3.554685884207115, 50.55449929781309], [-3.5528295372004157, 50.554775469551345], [-3.55123814388555, 50.55402430311228], [-3.551661234865361, 50.552714757387236]]]}}, {"type": "Feature", "properties": {"type": "postcode-cell", "postcode": "TQ14 9TX", "postcodes": ["TQ14 9TX"]}, "geometry": {"type": "Polygon", "coordinates": [[[-3.55123814388555, 50.55402430311228], [-3.55114333946386, 50.554005953419576], [-3.54959818910101, 50.552885405811345], [-3.5502732835080457, 50.552386399413315], [-3.551661234865361, 50.552714757387236], [-3.55123814388555, 50.55402430311228]]]}}, {"type": "Feature", "properties": {"type": "postcode-cell", "postcode": "TQ14 9TU", "postcodes": ["TQ14 9TU"]}, "geometry": {"type": "Polygon", "coordinates": [[[-3.5519917489704675, 50.5554482822915], [-3.5486047401718754, 50.55507780406326], [-3.5489691815803024, 50.55449618895169], [-3.55114333946386, 50.554005953419576], [-3.55123814388555, 50.55402430311228], [-3.5528295372004157, 50.554775469551345], [-3.5519917489704675, 50.5554482822915]]]}}, {"type": "Feature", "properties": {"type": "postcode-cell", "postcode": "TQ13 0BL", "postcodes": ["TQ13 0BL"]}, "geometry": {"type": "Polygon", "coordinates": [[[-3.5551628179439523, 50.576478213377044], [-3.5529102103239447, 50.5825537109097], [-3.5368661711438536, 50.57716538026663], [-3.535778764725174, 50.57611659093784], [-3.5387305454030065, 50.57432778529045], [-3.5499122006630466, 50.57501142615843], [-3.5551628179439523, 50.576478213377044]]]}}, {"type": "Feature", "properties": {"type": "postcode-cell", "postcode": "TQ14 9TA", "postcodes": ["TQ14 9TA"]}, "geometry": {"type": "Polygon", "coordinates": [[[-3.550509210234608, 50.55946628885716], [-3.5480863312983213, 50.55675423506285], [-3.551891074452633, 50.55561463666979], [-3.5521609121635866, 50.558390430827544], [-3.550509210234608, 50.55946628885716]]]}}, {"type": "Feature", "properties": {"type": "postcode-cell", "postcode": "TQ14 9TT", "postcodes": ["TQ14 9TT"]}, "geometry": {"type": "Polygon", "coordinates": [[[-3.551661234865361, 50.552714757387236], [-3.5502732835080457, 50.552386399413315], [-3.5504424885475943, 50.55180876926316], [-3.5531512603044035, 50.55212528620963], [-3.553146926846675, 50.55219476497302], [-3.551661234865361, 50.552714757387236]]]}}, {"type": "Feature", "properties": {"type": "postcode-cell", "postcode": "TQ14 9PJ", "postcodes": ["TQ14 9PJ"]}, "geometry": {"type": "Polygon", "coordinates": [[[-3.550478250622195, 50.55097805450487], [-3.550316493170127, 50.55131415815198], [-3.5490489261774907, 50.55146270911591], [-3.548014259089736, 50.55096331117458], [-3.5479895523030205, 50.550872462519166], [-3.5504522219592305, 50.5501791123567], [-3.550478250622195, 50.55097805450487]]]}}, {"type": "Feature", "properties": {"type": "postcode-cell", "postcode": "TQ14 9RZ", "postcodes": ["TQ14 9RZ"]}, "geometry": {"type": "Polygon", "coordinates": [[[-3.5531512603044035, 50.55212528620963], [-3.5504424885475943, 50.55180876926316], [-3.5504076525185533, 50.55172921743734], [-3.550316493170127, 50.55131415815198], [-3.550478250622195, 50.55097805450487], [-3.553356262549782, 50.55175973389221], [-3.5531512603044035, 50.55212528620963]]]}}, {"type": "Feature", "properties": {"type": "postcode-cell", "postcode": "TQ14 9RY", "postcodes": ["TQ14 9RY"]}, "geometry": {"type": "Polygon", "coordinates": [[[-3.5504424885475943, 50.55180876926316], [-3.5502732835080457, 50.552386399413315], [-3.54959818910101, 50.552885405811345], [-3.549590225090407, 50.55288582062295], [-3.548301137668848, 50.55217769081338], [-3.54851669014675, 50.552029229285665], [-3.5504076525185533, 50.55172921743734], [-3.5504424885475943, 50.55180876926316]]]}}, {"type": "Feature", "properties": {"type": "postcode-cell", "postcode": "TQ14 9SG", "postcodes": ["TQ14 9SG"]}, "geometry": {"type": "Polygon", "coordinates": [[[-3.55114333946386, 50.554005953419576], [-3.5489691815803024, 50.55449618895169], [-3.548365881452116, 50.55357862152416], [-3.549590225090407, 50.55288582062295], [-3.54959818910101, 50.552885405811345], [-3.55114333946386, 50.554005953419576]]]}}, {"type": "Feature", "properties": {"type": "postcode-cell", "postcode": "TQ13 0BN", "postcodes": ["TQ13 0BN"]}, "geometry": {"type": "Polygon", "coordinates": [[[-3.55505543985931, 50.58690030644024], [-3.553249989826954, 50.58820999463727], [-3.5524799898252755, 50.59070999463925], [-3.5513599898237174, 50.59248999464064], [-3.5514409793930444, 50.593531308337965], [-3.5368661711438536, 50.57716538026663], [-3.5529102103239447, 50.5825537109097], [-3.55505543985931, 50.58690030644024]]]}}, {"type": "Feature", "properties": {"type": "postcode-cell", "postcode": "TQ14 9TR", "postcodes": ["TQ14 9TR"]}, "geometry": {"type": "Polygon", "coordinates": [[[-3.5486047401718754, 50.55507780406326], [-3.5519917489704675, 50.5554482822915], [-3.551891074452633, 50.55561463666979], [-3.5480863312983213, 50.55675423506285], [-3.547211473752252, 50.55626856365682], [-3.547322406683604, 50.555869717464276], [-3.5486047401718754, 50.55507780406326]]]}}, {"type": "Feature", "properties": {"type": "postcode-cell", "postcode": "TQ14 9SH", "postcodes": ["TQ14 9SH"]}, "geometry": {"type": "Polygon", "coordinates": [[[-3.547322406683604, 50.555869717464276], [-3.5464180070521265, 50.55466815222532], [-3.5462664474391414, 50.55419031230762], [-3.5472774565792777, 50.5536353871637], [-3.5482299962602393, 50.55356285841034], [-3.548365881452116, 50.55357862152416], [-3.5489691815803024, 50.55449618895169], [-3.5486047401718754, 50.55507780406326], [-3.547322406683604, 50.555869717464276]]]}}, {"type": "Feature", "properties": {"type": "postcode-cell", "postcode": "TQ14 9SF", "postcodes": ["TQ14 9SF"]}, "geometry": {"type": "Polygon", "coordinates": [[[-3.548365881452116, 50.55357862152416], [-3.5482299962602393, 50.55356285841034], [-3.547444036762664, 50.55212618417274], [-3.5475213360636966, 50.55210481404113], [-3.548301137668848, 50.55217769081338], [-3.549590225090407, 50.55288582062295], [-3.548365881452116, 50.55357862152416]]]}}, {"type": "Feature", "properties": {"type": "postcode-cell", "postcode": "TQ13 0BW", "postcodes": ["TQ13 0BW"]}, "geometry": {"type": "Polygon", "coordinates": [[[-3.5319150265282784, 50.57674507478803], [-3.535778764725174, 50.57611659093784], [-3.5368661711438536, 50.57716538026663], [-3.5514409793930444, 50.593531308337965], [-3.5514999898229465, 50.59428999464204], [-3.550759989819937, 50.599619994646204], [-3.547759989818353, 50.59896999464575], [-3.543389989816491, 50.59709999464437], [-3.543659989817229, 50.59590999464346], [-3.5420799898167767, 50.59476999464259], [-3.5403599898159843, 50.59415999464216], [-3.533099989813792, 50.5891799946384], [-3.5304699898136387, 50.58603999463603], [-3.526629989814639, 50.57889999463054], [-3.526586687979068, 50.578420392447995], [-3.5319150265282784, 50.57674507478803]]]}}, {"type": "Feature", "properties": {"type": "postcode-cell", "postcode": "TQ14 9TY", "postcodes": ["TQ14 9TY"]}, "geometry": {"type": "Polygon", "coordinates": [[[-3.536596703389028, 50.55515822111163], [-3.537038168627255, 50.5551244864904], [-3.5395018322720473, 50.55549228335212], [-3.540808167104341, 50.556919726097384], [-3.541266049203038, 50.557826133221006], [-3.5403882176730748, 50.55901444722412], [-3.537948467825311, 50.55764546499218], [-3.536428347924267, 50.555651265783204], [-3.536596703389028, 50.55515822111163]]]}}, {"type": "Feature", "properties": {"type": "postcode-cell", "postcode": "TQ14 9QE", "postcodes": ["TQ14 9QE"]}, "geometry": {"type": "Polygon", "coordinates": [[[-3.536428347924267, 50.555651265783204], [-3.533774205578509, 50.55542540075875], [-3.5332437668002354, 50.55435685573136], [-3.5337608455025316, 50.55404890465165], [-3.536449270351313, 50.554705306708094], [-3.536596703389028, 50.55515822111163], [-3.536428347924267, 50.555651265783204]]]}}, {"type": "Feature", "properties": {"type": "postcode-cell", "postcode": "TQ14 9SE", "postcodes": ["TQ14 9SE"]}, "geometry": {"type": "Polygon", "coordinates": [[[-3.548301137668848, 50.55217769081338], [-3.5475213360636966, 50.55210481404113], [-3.548014259089736, 50.55096331117458], [-3.5490489261774907, 50.55146270911591], [-3.54851669014675, 50.552029229285665], [-3.548301137668848, 50.55217769081338]]]}}, {"type": "Feature", "properties": {"type": "postcode-cell", "postcode": "TQ14 9SD", "postcodes": ["TQ14 9SD"]}, "geometry": {"type": "Polygon", "coordinates": [[[-3.5490489261774907, 50.55146270911591], [-3.550316493170127, 50.55131415815198], [-3.5504076525185533, 50.55172921743734], [-3.54851669014675, 50.552029229285665], [-3.5490489261774907, 50.55146270911591]]]}}, {"type": "Feature", "properties": {"type": "postcode-cell", "postcode": "TQ14 9RP", "postcodes": ["TQ14 9RP"]}, "geometry": {"type": "Polygon", "coordinates": [[[-3.548014259089736, 50.55096331117458], [-3.5475213360636966, 50.55210481404113], [-3.547444036762664, 50.55212618417274], [-3.5464838344412426, 50.55221829892706], [-3.5457477941842668, 50.55210329151431], [-3.5456426824957488, 50.55196629165213], [-3.5463492337943023, 50.55059551280395], [-3.5472946921774846, 50.550536115512806], [-3.5479895523030205, 50.550872462519166], [-3.548014259089736, 50.55096331117458]]]}}, {"type": "Feature", "properties": {"type": "postcode-cell", "postcode": "TQ14 9PR", "postcodes": ["TQ14 9PR"]}, "geometry": {"type": "Polygon", "coordinates": [[[-3.5504522219592305, 50.5501791123567], [-3.5479895523030205, 50.550872462519166], [-3.5472946921774846, 50.550536115512806], [-3.5494230355146583, 50.54759177190321], [-3.5519732057500866, 50.5474989153625], [-3.5504522219592305, 50.5501791123567]]]}}, {"type": "Feature", "properties": {"type": "postcode-cell", "postcode": "TQ14 9SQ", "postcodes": ["TQ14 9SQ"]}, "geometry": {"type": "Polygon", "coordinates": [[[-3.5482299962602393, 50.55356285841034], [-3.5472774565792777, 50.5536353871637], [-3.5464838344412426, 50.55221829892706], [-3.547444036762664, 50.55212618417274], [-3.5482299962602393, 50.55356285841034]]]}}, {"type": "Feature", "properties": {"type": "postcode-cell", "postcode": "TQ14 9SL", "postcodes": ["TQ14 9SL"]}, "geometry": {"type": "Polygon", "coordinates": [[[-3.5462664474391414, 50.55419031230762], [-3.545479448265861, 50.553843029078905], [-3.545231073654635, 50.552682310641266], [-3.5457477941842668, 50.55210329151431], [-3.5464838344412426, 50.55221829892706], [-3.5472774565792777, 50.5536353871637], [-3.5462664474391414, 50.55419031230762]]]}}, {"type": "Feature", "properties": {"type": "postcode-cell", "postcode": "TQ14 9SZ", "postcodes": ["TQ14 9SZ"]}, "geometry": {"type": "Polygon", "coordinates": [[[-3.547211473752252, 50.55626856365682], [-3.5422525626080974, 50.55731137357213], [-3.5425918311270945, 50.55662542632365], [-3.543559211414073, 50.555021707409395], [-3.5464180070521265, 50.55466815222532], [-3.547322406683604, 50.555869717464276], [-3.547211473752252, 50.55626856365682]]]}}, {"type": "Feature", "properties": {"type": "postcode-cell", "postcode": "TQ14 9RL", "postcodes": ["TQ14 9RL"]}, "geometry": {"type": "Polygon", "coordinates": [[[-3.5472946921774846, 50.550536115512806], [-3.5463492337943023, 50.55059551280395], [-3.54631098620122, 50.550568082524784], [-3.5472706370276166, 50.54740332158164], [-3.5494230355146583, 50.54759177190321], [-3.5472946921774846, 50.550536115512806]]]}}, {"type": "Feature", "properties": {"type": "postcode-cell", "postcode": "TQ14 9AW", "postcodes": ["TQ14 9AW"]}, "geometry": {"type": "Polygon", "coordinates": [[[-3.5472706370276166, 50.54740332158164], [-3.54631098620122, 50.550568082524784], [-3.5456737439699424, 50.5503094078572], [-3.54528616162392, 50.54877242685429], [-3.5466176359259487, 50.547304117471185], [-3.5472706370276166, 50.54740332158164]]]}}, {"type": "Feature", "properties": {"type": "postcode-cell", "postcode": "TQ14 9SU", "postcodes": ["TQ14 9SU"]}, "geometry": {"type": "Polygon", "coordinates": [[[-3.539071364850909, 50.55485919773332], [-3.5391792038706185, 50.5545476584821], [-3.539889793990015, 50.554043637923606], [-3.540936018105713, 50.55399571351258], [-3.541148119074285, 50.554119789007785], [-3.540808167104341, 50.556919726097384], [-3.5395018322720473, 50.55549228335212], [-3.539071364850909, 50.55485919773332]]]}}, {"type": "Feature", "properties": {"type": "postcode-cell", "postcode": "TQ14 9SS", "postcodes": ["TQ14 9SS"]}, "geometry": {"type": "Polygon", "coordinates": [[[-3.5395018322720473, 50.55549228335212], [-3.537038168627255, 50.5551244864904], [-3.5384150541259007, 50.554693339746564], [-3.539071364850909, 50.55485919773332], [-3.5395018322720473, 50.55549228335212]]]}}, {"type": "Feature", "properties": {"type": "postcode-cell", "postcode": "TQ14 9RU", "postcodes": ["TQ14 9RU"]}, "geometry": {"type": "Polygon", "coordinates": [[[-3.5457477941842668, 50.55210329151431], [-3.545231073654635, 50.552682310641266], [-3.5435811484799014, 50.55294663339158], [-3.542896029419794, 50.55188350790158], [-3.54412972230836, 50.551484476723274], [-3.5441479408507126, 50.551485169854665], [-3.5456426824957488, 50.55196629165213], [-3.5457477941842668, 50.55210329151431]]]}}, {"type": "Feature", "properties": {"type": "postcode-cell", "postcode": "TQ14 9RJ", "postcodes": ["TQ14 9RJ"]}, "geometry": {"type": "Polygon", "coordinates": [[[-3.5463492337943023, 50.55059551280395], [-3.5456426824957488, 50.55196629165213], [-3.5441479408507126, 50.551485169854665], [-3.5447583910764484, 50.55036840697875], [-3.5456737439699424, 50.5503094078572], [-3.54631098620122, 50.550568082524784], [-3.5463492337943023, 50.55059551280395]]]}}, {"type": "Feature", "properties": {"type": "postcode-cell", "postcode": "TQ14 9RQ", "postcodes": ["TQ14 9RQ"]}, "geometry": {"type": "Polygon", "coordinates": [[[-3.5456737439699424, 50.5503094078572], [-3.5447583910764484, 50.55036840697875], [-3.543514786300129, 50.54983684046257], [-3.5438142879374537, 50.549492469487426], [-3.54528616162392, 50.54877242685429], [-3.5456737439699424, 50.5503094078572]]]}}, {"type": "Feature", "properties": {"type": "postcode-cell", "postcode": "TQ14 9QY", "postcodes": ["TQ14 9QY"]}, "geometry": {"type": "Polygon", "coordinates": [[[-3.545479448265861, 50.553843029078905], [-3.545117069008857, 50.553913278168814], [-3.5437689684921296, 50.55346638576616], [-3.5435183827321812, 50.55300162153428], [-3.5435811484799014, 50.55294663339158], [-3.545231073654635, 50.552682310641266], [-3.545479448265861, 50.553843029078905]]]}}, {"type": "Feature", "properties": {"type": "postcode-cell", "postcode": "TQ14 9QT", "postcodes": ["TQ14 9QT"]}, "geometry": {"type": "Polygon", "coordinates": [[[-3.5464180070521265, 50.55466815222532], [-3.543559211414073, 50.555021707409395], [-3.5436165209489365, 50.554701571448064], [-3.5438082180320083, 50.554485756603384], [-3.545117069008857, 50.553913278168814], [-3.545479448265861, 50.553843029078905], [-3.5462664474391414, 50.55419031230762], [-3.5464180070521265, 50.55466815222532]]]}}, {"type": "Feature", "properties": {"type": "postcode-cell", "postcode": "TQ14 9PP", "postcodes": ["TQ14 9PP"]}, "geometry": {"type": "Polygon", "coordinates": [[[-3.5438142879374537, 50.549492469487426], [-3.542435150354233, 50.54828432318634], [-3.5426950921387594, 50.546782091056826], [-3.5442124396995913, 50.546147001853704], [-3.5466176359259487, 50.547304117471185], [-3.54528616162392, 50.54877242685429], [-3.5438142879374537, 50.549492469487426]]]}}, {"type": "Feature", "properties": {"type": "postcode-cell", "postcode": "TQ14 9QU", "postcodes": ["TQ14 9QU"]}, "geometry": {"type": "Polygon", "coordinates": [[[-3.5438082180320083, 50.554485756603384], [-3.543552280691571, 50.553893976294205], [-3.5437689684921296, 50.55346638576616], [-3.545117069008857, 50.553913278168814], [-3.5438082180320083, 50.554485756603384]]]}}, {"type": "Feature", "properties": {"type": "postcode-cell", "postcode": "TQ14 9QS", "postcodes": ["TQ14 9QS"]}, "geometry": {"type": "Polygon", "coordinates": [[[-3.5436165209489365, 50.554701571448064], [-3.542185109485547, 50.55387702495117], [-3.542374225598978, 50.553590798731626], [-3.543552280691571, 50.553893976294205], [-3.5438082180320083, 50.554485756603384], [-3.5436165209489365, 50.554701571448064]]]}}, {"type": "Feature", "properties": {"type": "postcode-cell", "postcode": "TQ14 9RH", "postcodes": ["TQ14 9RH"]}, "geometry": {"type": "Polygon", "coordinates": [[[-3.5441479408507126, 50.551485169854665], [-3.54412972230836, 50.551484476723274], [-3.5433186953264824, 50.550710760333885], [-3.543135299231696, 50.54996476416586], [-3.543514786300129, 50.54983684046257], [-3.5447583910764484, 50.55036840697875], [-3.5441479408507126, 50.551485169854665]]]}}, {"type": "Feature", "properties": {"type": "postcode-cell", "postcode": "TQ14 9RE", "postcodes": ["TQ14 9RE"]}, "geometry": {"type": "Polygon", "coordinates": [[[-3.542896029419794, 50.55188350790158], [-3.542553090980567, 50.551858464290525], [-3.542051778041302, 50.551350694395964], [-3.5420732012300826, 50.55124870234945], [-3.5433186953264824, 50.550710760333885], [-3.54412972230836, 50.551484476723274], [-3.542896029419794, 50.55188350790158]]]}}, {"type": "Feature", "properties": {"type": "postcode-cell", "postcode": "TQ14 9SY", "postcodes": ["TQ14 9SY"]}, "geometry": {"type": "Polygon", "coordinates": [[[-3.543559211414073, 50.555021707409395], [-3.5425918311270945, 50.55662542632365], [-3.542085949530245, 50.55391789392667], [-3.542185109485547, 50.55387702495117], [-3.5436165209489365, 50.554701571448064], [-3.543559211414073, 50.555021707409395]]]}}, {"type": "Feature", "properties": {"type": "postcode-cell", "postcode": "TQ14 9RD", "postcodes": ["TQ14 9RD"]}, "geometry": {"type": "Polygon", "coordinates": [[[-3.5435183827321812, 50.55300162153428], [-3.5424622408896638, 50.55326354033817], [-3.5416733437715773, 50.55250831625404], [-3.541681109198324, 50.55239198567212], [-3.542553090980567, 50.551858464290525], [-3.542896029419794, 50.55188350790158], [-3.5435811484799014, 50.55294663339158], [-3.5435183827321812, 50.55300162153428]]]}}, {"type": "Feature", "properties": {"type": "postcode-cell", "postcode": "TQ14 9QZ", "postcodes": ["TQ14 9QZ"]}, "geometry": {"type": "Polygon", "coordinates": [[[-3.5437689684921296, 50.55346638576616], [-3.543552280691571, 50.553893976294205], [-3.542374225598978, 50.553590798731626], [-3.542413086072773, 50.55333545229592], [-3.5424622408896638, 50.55326354033817], [-3.5435183827321812, 50.55300162153428], [-3.5437689684921296, 50.55346638576616]]]}}, {"type": "Feature", "properties": {"type": "postcode-cell", "postcode": "TQ14 9FD", "postcodes": ["TQ14 9FD"]}, "geometry": {"type": "Polygon", "coordinates": [[[-3.542435150354233, 50.54828432318634], [-3.5414935257620668, 50.5494332817617], [-3.5412109790448905, 50.54937364884686], [-3.540315863540148, 50.54879422468022], [-3.540746944671793, 50.54703313679188], [-3.5426950921387594, 50.546782091056826], [-3.542435150354233, 50.54828432318634]]]}}, {"type": "Feature", "properties": {"type": "postcode-cell", "postcode": "TQ14 9RG", "postcodes": ["TQ14 9RG"]}, "geometry": {"type": "Polygon", "coordinates": [[[-3.543514786300129, 50.54983684046257], [-3.543135299231696, 50.54996476416586], [-3.5419514554467466, 50.549911999915544], [-3.5414935257620668, 50.5494332817617], [-3.542435150354233, 50.54828432318634], [-3.5438142879374537, 50.549492469487426], [-3.543514786300129, 50.54983684046257]]]}}, {"type": "Feature", "properties": {"type": "postcode-cell", "postcode": "TQ14 9SX", "postcodes": ["TQ14 9SX"]}, "geometry": {"type": "Polygon", "coordinates": [[[-3.5422525626080974, 50.55731137357213], [-3.541266049203038, 50.557826133221006], [-3.540808167104341, 50.556919726097384], [-3.541148119074285, 50.554119789007785], [-3.542085949530245, 50.55391789392667], [-3.5425918311270945, 50.55662542632365], [-3.5422525626080974, 50.55731137357213]]]}}, {"type": "Feature", "properties": {"type": "postcode-cell", "postcode": "TQ14 9PW", "postcodes": ["TQ14 9PW"]}, "geometry": {"type": "Polygon", "coordinates": [[[-3.5442124396995913, 50.546147001853704], [-3.5426950921387594, 50.546782091056826], [-3.540746944671793, 50.54703313679188], [-3.5352122929025045, 50.546550930784605], [-3.5368899898367325, 50.54622999460503], [-3.537679989837856, 50.544919994603994], [-3.5392999898386863, 50.54530999460425], [-3.540719989839732, 50.54498999460397], [-3.5420799898403854, 50.54540999460428], [-3.5440861451727588, 50.545305120130436], [-3.5442124396995913, 50.546147001853704]]]}}, {"type": "Feature", "properties": {"type": "postcode-cell", "postcode": "TQ14 9RW", "postcodes": ["TQ14 9RW"]}, "geometry": {"type": "Polygon", "coordinates": [[[-3.5433186953264824, 50.550710760333885], [-3.5420732012300826, 50.55124870234945], [-3.5416962356356074, 50.55019627993764], [-3.5419514554467466, 50.549911999915544], [-3.543135299231696, 50.54996476416586], [-3.5433186953264824, 50.550710760333885]]]}}, {"type": "Feature", "properties": {"type": "postcode-cell", "postcode": "TQ14 9QR", "postcodes": ["TQ14 9QR"]}, "geometry": {"type": "Polygon", "coordinates": [[[-3.542374225598978, 50.553590798731626], [-3.542185109485547, 50.55387702495117], [-3.542085949530245, 50.55391789392667], [-3.541148119074285, 50.554119789007785], [-3.540936018105713, 50.55399571351258], [-3.5407458296738468, 50.55333195654787], [-3.542413086072773, 50.55333545229592], [-3.542374225598978, 50.553590798731626]]]}}, {"type": "Feature", "properties": {"type": "postcode-cell", "postcode": "TQ14 9RS", "postcodes": ["TQ14 9RS"]}, "geometry": {"type": "Polygon", "coordinates": [[[-3.542413086072773, 50.55333545229592], [-3.5407458296738468, 50.55333195654787], [-3.540570822417761, 50.553159448881985], [-3.5416733437715773, 50.55250831625404], [-3.5424622408896638, 50.55326354033817], [-3.542413086072773, 50.55333545229592]]]}}, {"type": "Feature", "properties": {"type": "postcode-cell", "postcode": "TQ14 9RB", "postcodes": ["TQ14 9RB"]}, "geometry": {"type": "Polygon", "coordinates": [[[-3.541681109198324, 50.55239198567212], [-3.539845244035218, 50.55179277183395], [-3.5396113016357726, 50.55150294475905], [-3.53972513066912, 50.55139899389846], [-3.542051778041302, 50.551350694395964], [-3.542553090980567, 50.551858464290525], [-3.541681109198324, 50.55239198567212]]]}}, {"type": "Feature", "properties": {"type": "postcode-cell", "postcode": "TQ14 9RA", "postcodes": ["TQ14 9RA"]}, "geometry": {"type": "Polygon", "coordinates": [[[-3.540570822417761, 50.553159448881985], [-3.5403422918492846, 50.55311709412101], [-3.539823442753848, 50.55217704838872], [-3.539845244035218, 50.55179277183395], [-3.541681109198324, 50.55239198567212], [-3.5416733437715773, 50.55250831625404], [-3.540570822417761, 50.553159448881985]]]}}, {"type": "Feature", "properties": {"type": "postcode-cell", "postcode": "TQ14 9RF", "postcodes": ["TQ14 9RF"]}, "geometry": {"type": "Polygon", "coordinates": [[[-3.542051778041302, 50.551350694395964], [-3.53972513066912, 50.55139899389846], [-3.5399488346578316, 50.55081849247186], [-3.5416962356356074, 50.55019627993764], [-3.5420732012300826, 50.55124870234945], [-3.542051778041302, 50.551350694395964]]]}}, {"type": "Feature", "properties": {"type": "postcode-cell", "postcode": "TQ14 9QL", "postcodes": ["TQ14 9QL"]}, "geometry": {"type": "Polygon", "coordinates": [[[-3.539823442753848, 50.55217704838872], [-3.5389418205109786, 50.552959836947], [-3.5361680497075265, 50.5522632247243], [-3.5355015471328657, 50.55176372158622], [-3.535499742275833, 50.551747688511256], [-3.5396113016357726, 50.55150294475905], [-3.539845244035218, 50.55179277183395], [-3.539823442753848, 50.55217704838872]]]}}, {"type": "Feature", "properties": {"type": "postcode-cell", "postcode": "TQ14 9AN", "postcodes": ["TQ14 9AN"]}, "geometry": {"type": "Polygon", "coordinates": [[[-3.5399488346578316, 50.55081849247186], [-3.5393422549062254, 50.550017134188096], [-3.5394057995828443, 50.54991519160751], [-3.5412109790448905, 50.54937364884686], [-3.5414935257620668, 50.5494332817617], [-3.5419514554467466, 50.549911999915544], [-3.5416962356356074, 50.55019627993764], [-3.5399488346578316, 50.55081849247186]]]}}, {"type": "Feature", "properties": {"type": "postcode-cell", "postcode": "TQ14 9RT", "postcodes": ["TQ14 9RT"]}, "geometry": {"type": "Polygon", "coordinates": [[[-3.5412109790448905, 50.54937364884686], [-3.5394057995828443, 50.54991519160751], [-3.5391133047011873, 50.5489877167293], [-3.540315863540148, 50.54879422468022], [-3.5412109790448905, 50.54937364884686]]]}}, {"type": "Feature", "properties": {"type": "postcode-cell", "postcode": "TQ14 9QP", "postcodes": ["TQ14 9QP"]}, "geometry": {"type": "Polygon", "coordinates": [[[-3.540570822417761, 50.553159448881985], [-3.5407458296738468, 50.55333195654787], [-3.540936018105713, 50.55399571351258], [-3.539889793990015, 50.554043637923606], [-3.539539034480622, 50.553350742061774], [-3.5403422918492846, 50.55311709412101], [-3.540570822417761, 50.553159448881985]]]}}, {"type": "Feature", "properties": {"type": "postcode-cell", "postcode": "TQ14 9QH", "postcodes": ["TQ14 9QH"]}, "geometry": {"type": "Polygon", "coordinates": [[[-3.5396113016357726, 50.55150294475905], [-3.535499742275833, 50.551747688511256], [-3.5341297842478476, 50.550201401603466], [-3.5393422549062254, 50.550017134188096], [-3.5399488346578316, 50.55081849247186], [-3.53972513066912, 50.55139899389846], [-3.5396113016357726, 50.55150294475905]]]}}, {"type": "Feature", "properties": {"type": "postcode-cell", "postcode": "TQ14 9SN", "postcodes": ["TQ14 9SN"]}, "geometry": {"type": "Polygon", "coordinates": [[[-3.5391792038706185, 50.5545476584821], [-3.5387824813066744, 50.55391365801409], [-3.5387910231922537, 50.553623769830175], [-3.539304420646649, 50.55332880283522], [-3.539539034480622, 50.553350742061774], [-3.539889793990015, 50.554043637923606], [-3.5391792038706185, 50.5545476584821]]]}}, {"type": "Feature", "properties": {"type": "postcode-cell", "postcode": "TQ14 9UA", "postcodes": ["TQ14 9UA"]}, "geometry": {"type": "Polygon", "coordinates": [[[-3.5403422918492846, 50.55311709412101], [-3.539539034480622, 50.553350742061774], [-3.539304420646649, 50.55332880283522], [-3.5389418205109786, 50.552959836947], [-3.539823442753848, 50.55217704838872], [-3.5403422918492846, 50.55311709412101]]]}}, {"type": "Feature", "properties": {"type": "postcode-cell", "postcode": "TQ14 9PN", "postcodes": ["TQ14 9PN"]}, "geometry": {"type": "Polygon", "coordinates": [[[-3.540315863540148, 50.54879422468022], [-3.5391133047011873, 50.5489877167293], [-3.533819812968707, 50.546981716225645], [-3.5338348843450746, 50.546814401834425], [-3.5352122929025045, 50.546550930784605], [-3.540746944671793, 50.54703313679188], [-3.540315863540148, 50.54879422468022]]]}}, {"type": "Feature", "properties": {"type": "postcode-cell", "postcode": "TQ14 9QJ", "postcodes": ["TQ14 9QJ"]}, "geometry": {"type": "Polygon", "coordinates": [[[-3.5391133047011873, 50.5489877167293], [-3.5394057995828443, 50.54991519160751], [-3.5393422549062254, 50.550017134188096], [-3.5341297842478476, 50.550201401603466], [-3.532989412751172, 50.54932710635364], [-3.533819812968707, 50.546981716225645], [-3.5391133047011873, 50.5489877167293]]]}}, {"type": "Feature", "properties": {"type": "postcode-cell", "postcode": "TQ14 9SW", "postcodes": ["TQ14 9SW"]}, "geometry": {"type": "Polygon", "coordinates": [[[-3.5391792038706185, 50.5545476584821], [-3.539071364850909, 50.55485919773332], [-3.5384150541259007, 50.554693339746564], [-3.537943852198105, 50.55447299097193], [-3.537989458409485, 50.554008184035254], [-3.5387824813066744, 50.55391365801409], [-3.5391792038706185, 50.5545476584821]]]}}, {"type": "Feature", "properties": {"type": "postcode-cell", "postcode": "TQ14 9SR", "postcodes": ["TQ14 9SR"]}, "geometry": {"type": "Polygon", "coordinates": [[[-3.5361680497075265, 50.5522632247243], [-3.5369486443777567, 50.553202066256944], [-3.536881304005133, 50.55439501032899], [-3.536449270351313, 50.554705306708094], [-3.5337608455025316, 50.55404890465165], [-3.5355015471328657, 50.55176372158622], [-3.5361680497075265, 50.5522632247243]]]}}, {"type": "Feature", "properties": {"type": "postcode-cell", "postcode": "TQ14 9QN", "postcodes": ["TQ14 9QN"]}, "geometry": {"type": "Polygon", "coordinates": [[[-3.539304420646649, 50.55332880283522], [-3.5387910231922537, 50.553623769830175], [-3.5373577954220017, 50.5533735980307], [-3.5369486443777567, 50.553202066256944], [-3.5361680497075265, 50.5522632247243], [-3.5389418205109786, 50.552959836947], [-3.539304420646649, 50.55332880283522]]]}}, {"type": "Feature", "properties": {"type": "postcode-cell", "postcode": "TQ14 9QW", "postcodes": ["TQ14 9QW"]}, "geometry": {"type": "Polygon", "coordinates": [[[-3.5387910231922537, 50.553623769830175], [-3.5387824813066744, 50.55391365801409], [-3.537989458409485, 50.554008184035254], [-3.5373577954220017, 50.5533735980307], [-3.5387910231922537, 50.553623769830175]]]}}, {"type": "Feature", "properties": {"type": "postcode-cell", "postcode": "TQ14 9PY", "postcodes": ["TQ14 9PY"]}, "geometry": {"type": "Polygon", "coordinates": [[[-3.5341297842478476, 50.550201401603466], [-3.535499742275833, 50.551747688511256], [-3.5355015471328657, 50.55176372158622], [-3.5337608455025316, 50.55404890465165], [-3.5332437668002354, 50.55435685573136], [-3.5298024761266835, 50.55422739883652], [-3.5258097952849856, 50.55199390941661], [-3.532989412751172, 50.54932710635364], [-3.5341297842478476, 50.550201401603466]]]}}, {"type": "Feature", "properties": {"type": "postcode-cell", "postcode": "TQ14 9PL", "postcodes": ["TQ14 9PL"]}, "geometry": {"type": "Polygon", "coordinates": [[[-3.533819812968707, 50.546981716225645], [-3.532989412751172, 50.54932710635364], [-3.5258097952849856, 50.55199390941661], [-3.521654306263221, 50.55202438998681], [-3.5206511390877075, 50.55158499359683], [-3.520414274797821, 50.5513998136485], [-3.5210099898244076, 50.55114999460915], [-3.5203399898243446, 50.55039999460858], [-3.5207299898246918, 50.5501899946084], [-3.520639989824871, 50.54969999460803], [-3.5192099898257148, 50.54606999460526], [-3.519289989825759, 50.54607999460526], [-3.5220199898273226, 50.54638999460544], [-3.5247299898286832, 50.54709999460593], [-3.5292699898314455, 50.54727999460599], [-3.5327599898337607, 50.54701999460572], [-3.5338348843450746, 50.546814401834425], [-3.533819812968707, 50.546981716225645]]]}}, {"type": "Feature", "properties": {"type": "postcode-cell", "postcode": "TQ14 9SP", "postcodes": ["TQ14 9SP"]}, "geometry": {"type": "Polygon", "coordinates": [[[-3.5373577954220017, 50.5533735980307], [-3.537989458409485, 50.554008184035254], [-3.537943852198105, 50.55447299097193], [-3.536881304005133, 50.55439501032899], [-3.5369486443777567, 50.553202066256944], [-3.5373577954220017, 50.5533735980307]]]}}, {"type": "Feature", "properties": {"type": "postcode-cell", "postcode": "TQ14 9TZ", "postcodes": ["TQ14 9TZ"]}, "geometry": {"type": "Polygon", "coordinates": [[[-3.537038168627255, 50.5551244864904], [-3.536596703389028, 50.55515822111163], [-3.536449270351313, 50.554705306708094], [-3.536881304005133, 50.55439501032899], [-3.537943852198105, 50.55447299097193], [-3.5384150541259007, 50.554693339746564], [-3.537038168627255, 50.5551244864904]]]}}, {"type": "Feature", "properties": {"type": "postcode-cell", "postcode": "TQ14 9PZ", "postcodes": ["TQ14 9PZ"]}, "geometry": {"type": "Polygon", "coordinates": [[[-3.5403882176730748, 50.55901444722412], [-3.5400383807663385, 50.56437508469335], [-3.5318298293522075, 50.56185403545692], [-3.533161302542027, 50.55675966979489], [-3.533535366166342, 50.55657678433242], [-3.537948467825311, 50.55764546499218], [-3.5403882176730748, 50.55901444722412]]]}}, {"type": "Feature", "properties": {"type": "postcode-cell", "postcode": "TQ14 9PQ", "postcodes": ["TQ14 9PQ"]}, "geometry": {"type": "Polygon", "coordinates": [[[-3.537948467825311, 50.55764546499218], [-3.533535366166342, 50.55657678433242], [-3.533774205578509, 50.55542540075875], [-3.536428347924267, 50.555651265783204], [-3.537948467825311, 50.55764546499218]]]}}, {"type": "Feature", "properties": {"type": "postcode-cell", "postcode": "TQ14 9NY", "postcodes": ["TQ14 9NY"]}, "geometry": {"type": "Polygon", "coordinates": [[[-3.535778764725174, 50.57611659093784], [-3.5319150265282784, 50.57674507478803], [-3.5218200920263247, 50.56205990224734], [-3.5242094945623887, 50.56088187875155], [-3.5255907471980446, 50.56086211785275], [-3.5318298293522075, 50.56185403545692], [-3.5400383807663385, 50.56437508469335], [-3.5414832441550272, 50.56577714720419], [-3.5387305454030065, 50.57432778529045], [-3.535778764725174, 50.57611659093784]]]}}, {"type": "Feature", "properties": {"type": "postcode-cell", "postcode": "TQ14 9NX", "postcodes": ["TQ14 9NX"]}, "geometry": {"type": "Polygon", "coordinates": [[[-3.5218200920263247, 50.56205990224734], [-3.5319150265282784, 50.57674507478803], [-3.526586687979068, 50.578420392447995], [-3.52585998981824, 50.570369994623945], [-3.5250499898184016, 50.56896999462288], [-3.5234499898178426, 50.56803999462219], [-3.5226499898174013, 50.56790999462209], [-3.520819989816339, 50.56772999462199], [-3.5192899898163366, 50.5657299946205], [-3.519339989816552, 50.565349994620185], [-3.5199899898170717, 50.565109994619974], [-3.5192199898167744, 50.564719994619686], [-3.519849989818144, 50.562689994618104], [-3.519373419224189, 50.56240686255593], [-3.5218200920263247, 50.56205990224734]]]}}, {"type": "Feature", "properties": {"type": "postcode-cell", "postcode": "TQ14 9QA", "postcodes": ["TQ14 9QA"]}, "geometry": {"type": "Polygon", "coordinates": [[[-3.533535366166342, 50.55657678433242], [-3.533161302542027, 50.55675966979489], [-3.530053272408176, 50.556410365641476], [-3.5298024761266835, 50.55422739883652], [-3.5332437668002354, 50.55435685573136], [-3.533774205578509, 50.55542540075875], [-3.533535366166342, 50.55657678433242]]]}}, {"type": "Feature", "properties": {"type": "postcode-cell", "postcode": "TQ14 9QB", "postcodes": ["TQ14 9QB"]}, "geometry": {"type": "Polygon", "coordinates": [[[-3.530053272408176, 50.556410365641476], [-3.5255907471980446, 50.56086211785275], [-3.5242094945623887, 50.56088187875155], [-3.521654306263221, 50.55202438998681], [-3.5258097952849856, 50.55199390941661], [-3.5298024761266835, 50.55422739883652], [-3.530053272408176, 50.556410365641476]]]}}, {"type": "Feature", "properties": {"type": "postcode-cell", "postcode": "TQ14 9ST", "postcodes": ["TQ14 9ST"]}, "geometry": {"type": "Polygon", "coordinates": [[[-3.5318298293522075, 50.56185403545692], [-3.5255907471980446, 50.56086211785275], [-3.530053272408176, 50.556410365641476], [-3.533161302542027, 50.55675966979489], [-3.5318298293522075, 50.56185403545692]]]}}, {"type": "Feature", "properties": {"type": "postcode-cell", "postcode": "TQ14 9QD", "postcodes": ["TQ14 9QD"]}, "geometry": {"type": "Polygon", "coordinates": [[[-3.5218200920263247, 50.56205990224734], [-3.519373419224189, 50.56240686255593], [-3.518149989817561, 50.56167999461734], [-3.517309989817709, 50.56027999461631], [-3.515829989816744, 50.56034999461638], [-3.515409989816821, 50.559639994615836], [-3.5156399898173896, 50.55875999461514], [-3.5151099898170504, 50.55876999461517], [-3.515089989817892, 50.55698999461379], [-3.5150627448562495, 50.55695903016274], [-3.51844497393193, 50.5537067118853], [-3.519139989822031, 50.55365999461113], [-3.5190074077296747, 50.5531658286062], [-3.5206511390877075, 50.55158499359683], [-3.521654306263221, 50.55202438998681], [-3.5242094945623887, 50.56088187875155], [-3.5218200920263247, 50.56205990224734]]]}}, {"type": "Feature", "properties": {"type": "postcode-cell", "postcode": "TQ14 9UW", "postcodes": ["TQ14 9UW"]}, "geometry": {"type": "MultiPolygon", "coordinates": [[[[-3.5206511390877075, 50.55158499359683], [-3.5190074077296747, 50.5531658286062], [-3.518919989822285, 50.5528399946105], [-3.5197699898233785, 50.5516699946096], [-3.520414274797821, 50.5513998136485], [-3.5206511390877075, 50.55158499359683]]], [[[-3.5150627448562495, 50.55695903016274], [-3.5130399898177256, 50.55465999461204], [-3.5157699898191668, 50.5552199946124], [-3.5154199898195766, 50.5539099946114], [-3.51844497393193, 50.5537067118853], [-3.5150627448562495, 50.55695903016274]]]]}}]}