{"type": "FeatureCollection", "features": [{"type": "Feature", "properties": {"type": "ward-outline", "name": "Bratton Fleming"}, "geometry": {"type": "Polygon", "coordinates": [[[-3.83982, 51.17667], [-3.83892, 51.17496], [-3.8375, 51.16736], [-3.83646, 51.16504], [-3.83535, 51.15411], [-3.83207, 51.15119], [-3.83447, 51.14486], [-3.83474, 51.14138], [-3.84201, 51.13888], [-3.85662, 51.13515], [-3.86572, 51.13232], [-3.86932, 51.13177], [-3.87198, 51.13096], [-3.87331, 51.13105], [-3.87738, 51.12955], [-3.88052, 51.12923], [-3.88125, 51.12841], [-3.88357, 51.12763], [-3.88726, 51.12709], [-3.88833, 51.1276], [-3.89071, 51.12637], [-3.89325, 51.12553], [-3.89426, 51.12437], [-3.89333, 51.1242], [-3.89318, 51.12358], [-3.89242, 51.12357], [-3.89246, 51.12287], [-3.89099, 51.12301], [-3.8911, 51.12261], [-3.89043, 51.1223], [-3.89056, 51.1216], [-3.88973, 51.12106], [-3.88971, 51.11947], [-3.88916, 51.11925], [-3.88787, 51.11953], [-3.88629, 51.11899], [-3.88548, 51.11722], [-3.88721, 51.11664], [-3.88826, 51.11525], [-3.89115, 51.11431], [-3.89203, 51.11322], [-3.89283, 51.11349], [-3.89481, 51.11333], [-3.89398, 51.11051], [-3.89416, 51.10923], [-3.89726, 51.10951], [-3.89842, 51.10926], [-3.90286, 51.11028], [-3.90438, 51.10986], [-3.90514, 51.10917], [-3.90648, 51.11085], [-3.90808, 51.11042], [-3.90847, 51.11095], [-3.90835, 51.10912], [-3.90916, 51.10704], [-3.90824, 51.1025], [-3.9077, 51.10244], [-3.90588, 51.10071], [-3.90311, 51.09964], [-3.90285, 51.09728], [-3.90217, 51.09597], [-3.9066, 51.09352], [-3.90705, 51.09118], [-3.91165, 51.09043], [-3.91321, 51.09163], [-3.91549, 51.091], [-3.91885, 51.09077], [-3.92359, 51.08952], [-3.92953, 51.08742], [-3.93138, 51.08785], [-3.93383, 51.08699], [-3.93533, 51.08838], [-3.93924, 51.08999], [-3.94059, 51.08951], [-3.9428, 51.08924], [-3.94962, 51.0901], [-3.95211, 51.09121], [-3.95505, 51.09203], [-3.95578, 51.09266], [-3.95826, 51.0922], [-3.9621, 51.0906], [-3.96662, 51.09213], [-3.96798, 51.09047], [-3.96903, 51.08572], [-3.97031, 51.08562], [-3.97261, 51.08618], [-3.97322, 51.08599], [-3.97187, 51.0825], [-3.97393, 51.0825], [-3.98257, 51.08381], [-3.9853, 51.08359], [-3.99061, 51.08229], [-3.99541, 51.08072], [-4.0009, 51.08103], [-4.00566, 51.08066], [-4.01856, 51.08107], [-4.02326, 51.08019], [-4.02403, 51.0808], [-4.02546, 51.08435], [-4.0243, 51.08826], [-4.02296, 51.08994], [-4.02346, 51.09043], [-4.02175, 51.09039], [-4.0215, 51.0912], [-4.02069, 51.0908], [-4.01984, 51.09159], [-4.01838, 51.09158], [-4.01646, 51.09208], [-4.01342, 51.09186], [-4.0128, 51.0913], [-4.01194, 51.09127], [-4.01189, 51.09207], [-4.01094, 51.09346], [-4.01078, 51.09502], [-4.0103, 51.09546], [-4.01145, 51.09666], [-4.01083, 51.09689], [-4.01184, 51.09744], [-4.01162, 51.09821], [-4.0122, 51.09871], [-4.01076, 51.09972], [-4.00928, 51.10014], [-4.00907, 51.10091], [-4.00797, 51.10097], [-4.00818, 51.10191], [-4.00663, 51.10464], [-4.00517, 51.10479], [-4.00342, 51.10454], [-4.00172, 51.10306], [-4.0008, 51.10306], [-3.99992, 51.10358], [-3.99937, 51.10338], [-4.00005, 51.10318], [-3.99885, 51.10291], [-3.99891, 51.10343], [-3.99629, 51.10382], [-3.99606, 51.1035], [-3.99644, 51.10332], [-3.99593, 51.10304], [-3.99567, 51.10337], [-3.99131, 51.1025], [-3.98881, 51.10328], [-3.98942, 51.10384], [-3.98886, 51.10423], [-3.98847, 51.10543], [-3.98834, 51.10694], [-3.98891, 51.10922], [-3.9874, 51.11079], [-3.98747, 51.11173], [-3.9858, 51.11209], [-3.98538, 51.11345], [-3.98639, 51.11531], [-3.98756, 51.11554], [-3.9886, 51.11675], [-3.98942, 51.11693], [-3.98904, 51.11805], [-3.98976, 51.119], [-3.98968, 51.11984], [-3.98883, 51.12161], [-3.98942, 51.12264], [-3.99032, 51.12313], [-3.98975, 51.12364], [-3.99039, 51.1238], [-3.99083, 51.12508], [-3.99048, 51.12606], [-3.98912, 51.1275], [-3.98815, 51.1279], [-3.98787, 51.12906], [-3.9873, 51.1291], [-3.98647, 51.13054], [-3.9876, 51.13182], [-3.98768, 51.13369], [-3.98978, 51.1346], [-3.99052, 51.13448], [-3.99212, 51.13595], [-3.99138, 51.13738], [-3.9888, 51.1386], [-3.98881, 51.13934], [-3.99195, 51.14085], [-3.99231, 51.14136], [-3.99306, 51.14146], [-3.99444, 51.14315], [-3.99719, 51.14397], [-3.99807, 51.1452], [-3.99573, 51.14662], [-3.9951, 51.14753], [-3.99574, 51.14787], [-3.99552, 51.14829], [-3.99589, 51.1482], [-3.99648, 51.1489], [-3.99795, 51.14931], [-3.9983, 51.14999], [-3.99798, 51.15078], [-3.99751, 51.15109], [-3.99599, 51.1512], [-3.99609, 51.15145], [-3.99419, 51.15211], [-3.99164, 51.1525], [-3.99103, 51.15354], [-3.99227, 51.15502], [-3.99355, 51.15552], [-3.99522, 51.15683], [-3.99478, 51.15846], [-3.99558, 51.16055], [-3.99467, 51.16194], [-3.99493, 51.16295], [-3.99613, 51.16386], [-3.99409, 51.16486], [-3.99221, 51.16671], [-3.99112, 51.16842], [-3.99099, 51.16879], [-3.99156, 51.16911], [-3.99438, 51.17018], [-3.99445, 51.17073], [-3.9934, 51.17279], [-3.99152, 51.17434], [-3.99111, 51.17457], [-3.99074, 51.17433], [-3.99018, 51.17512], [-3.98956, 51.17807], [-3.9912, 51.17941], [-3.99323, 51.18026], [-3.99602, 51.1809], [-3.99906, 51.18017], [-3.998, 51.18436], [-4.00042, 51.18978], [-3.99949, 51.19195], [-3.99781, 51.1914], [-3.99301, 51.19179], [-3.99134, 51.19119], [-3.98969, 51.19003], [-3.98077, 51.1878], [-3.97985, 51.1867], [-3.97472, 51.18513], [-3.97281, 51.18527], [-3.96945, 51.18626], [-3.96801, 51.18616], [-3.96709, 51.18577], [-3.96632, 51.18594], [-3.96535, 51.18732], [-3.96454, 51.18771], [-3.96255, 51.18784], [-3.9605, 51.18928], [-3.95838, 51.1895], [-3.95645, 51.19063], [-3.9538, 51.19144], [-3.95273, 51.19451], [-3.9533, 51.19648], [-3.95309, 51.19723], [-3.95257, 51.19723], [-3.95016, 51.19586], [-3.94863, 51.19587], [-3.94808, 51.19539], [-3.94599, 51.19467], [-3.94559, 51.1939], [-3.94434, 51.19315], [-3.94253, 51.19129], [-3.94067, 51.18837], [-3.94035, 51.18672], [-3.94069, 51.18662], [-3.93906, 51.18335], [-3.93758, 51.18131], [-3.9344, 51.17901], [-3.93404, 51.17707], [-3.93568, 51.17495], [-3.93696, 51.17241], [-3.93679, 51.1718], [-3.93209, 51.17036], [-3.93146, 51.16971], [-3.92628, 51.16885], [-3.92508, 51.16981], [-3.9238, 51.16893], [-3.92102, 51.16824], [-3.91332, 51.16809], [-3.91137, 51.1697], [-3.90923, 51.17256], [-3.90089, 51.17081], [-3.8954, 51.169], [-3.89532, 51.16976], [-3.89601, 51.17026], [-3.89647, 51.17173], [-3.89764, 51.17334], [-3.89795, 51.1751], [-3.89935, 51.17637], [-3.89907, 51.17709], [-3.89742, 51.17843], [-3.89712, 51.17941], [-3.89817, 51.1808], [-3.89692, 51.18064], [-3.89688, 51.18016], [-3.89613, 51.17965], [-3.89578, 51.17822], [-3.89171, 51.17471], [-3.89018, 51.17399], [-3.88468, 51.174], [-3.87152, 51.17555], [-3.8611, 51.17574], [-3.85228, 51.17433], [-3.84356, 51.17344], [-3.84218, 51.17412], [-3.84171, 51.17485], [-3.84193, 51.17556], [-3.84038, 51.17585], [-3.83982, 51.17667]]]}}, {"type": "Feature", "properties": {"type": "postcode-cell", "postcode": "EX32 7JU", "postcodes": ["EX32 7JU"]}, "geometry": {"type": "Polygon", "coordinates": [[[-4.016790803455341, 51.08943662010512], [-4.01514251039705, 51.08594668960573], [-4.016442274033578, 51.0844788470548], [-4.025153351805822, 51.08358880974212], [-4.025459989906839, 51.08434999502944], [-4.024299989904306, 51.08825999503268], [-4.022959989902651, 51.08993999503406], [-4.02345998990277, 51.09042999503445], [-4.021749989901627, 51.09038999503445], [-4.021499989901095, 51.091199995035105], [-4.020689989900726, 51.09079999503479], [-4.019943789600012, 51.09149352412544], [-4.016790803455341, 51.08943662010512]]]}}, {"type": "Feature", "properties": {"type": "postcode-cell", "postcode": "EX34 0PB", "postcodes": ["EX34 0PB"]}, "geometry": {"type": "Polygon", "coordinates": [[[-3.982985111564206, 51.18641623675141], [-3.9954270848750624, 51.180763995334104], [-3.9960199898438025, 51.180899995109414], [-3.999059989846192, 51.1801699951088], [-3.99799998984361, 51.18435999511229], [-4.000419989842843, 51.18977999511678], [-3.9994899898412455, 51.19194999511859], [-3.9978099898403445, 51.19139999511813], [-3.993009989836907, 51.19178999511847], [-3.9913399898360375, 51.19118999511797], [-3.9896899898354317, 51.19002999511701], [-3.982887760545334, 51.18832951944519], [-3.982985111564206, 51.18641623675141]]]}}, {"type": "Feature", "properties": {"type": "postcode-cell", "postcode": "EX32 7NB", "postcodes": ["EX32 7NB"]}, "geometry": {"type": "Polygon", "coordinates": [[[-4.016442274033578, 51.0844788470548], [-4.01514251039705, 51.08594668960573], [-4.006638686887383, 51.08364171877368], [-4.00559842718473, 51.080664781635946], [-4.005659989895076, 51.0806599950265], [-4.017714952785974, 51.081043181107574], [-4.016442274033578, 51.0844788470548]]]}}, {"type": "Feature", "properties": {"type": "postcode-cell", "postcode": "EX32 7NQ", "postcodes": ["EX32 7NQ"]}, "geometry": {"type": "Polygon", "coordinates": [[[-4.016442274033578, 51.0844788470548], [-4.017714952785974, 51.081043181107574], [-4.018559989903629, 51.081069995026766], [-4.023259989907205, 51.08018999502604], [-4.024029989907455, 51.080799995026545], [-4.025153351805822, 51.08358880974212], [-4.016442274033578, 51.0844788470548]]]}}, {"type": "Feature", "properties": {"type": "postcode-cell", "postcode": "EX32 7JY", "postcodes": ["EX32 7JY"]}, "geometry": {"type": "Polygon", "coordinates": [[[-4.019943789600012, 51.09149352412544], [-4.019839989899797, 51.09158999503543], [-4.018379989898812, 51.091579995035445], [-4.016459989897288, 51.09207999503586], [-4.013419989895326, 51.09185999503569], [-4.012799989895158, 51.091299995035214], [-4.011939989894585, 51.091269995035226], [-4.011889989894193, 51.09206999503587], [-4.010939989892929, 51.09345999503702], [-4.010779989892124, 51.095019995038314], [-4.0102999898916005, 51.095459995038674], [-4.011449989891844, 51.09665999503965], [-4.010829989891324, 51.09688999503986], [-4.0118399898917625, 51.097439995040304], [-4.011619989891269, 51.09820999504094], [-4.01219998989144, 51.098709995041354], [-4.010759989890012, 51.09971999504218], [-4.009279989888822, 51.10013999504255], [-4.009069989888335, 51.100909995043175], [-4.007969989887561, 51.10096999504323], [-4.008179989887283, 51.101909995044], [-4.0073939955697195, 51.10329440103042], [-4.0033140496724275, 51.09939184568218], [-4.003318896446632, 51.093436066023756], [-4.004045040113115, 51.09273689341593], [-4.006107363608005, 51.09146373979402], [-4.008536061370586, 51.09061755203622], [-4.016790803455341, 51.08943662010512], [-4.019943789600012, 51.09149352412544]]]}}, {"type": "Feature", "properties": {"type": "postcode-cell", "postcode": "EX31 4LN", "postcodes": ["EX31 4LN"]}, "geometry": {"type": "Polygon", "coordinates": [[[-3.989687735320476, 51.160162825523194], [-3.982642595460164, 51.154379520780466], [-3.99078489200521, 51.14689477945273], [-3.996585550695198, 51.14378977041424], [-3.9971899898610554, 51.143969995078805], [-3.998069989861103, 51.145199995079814], [-3.9957299898588814, 51.146619995081], [-3.995099989858048, 51.14752999508176], [-3.9957399898583335, 51.147869995082026], [-3.9955199898579954, 51.148289995082386], [-3.9958899898582847, 51.14819999508231], [-3.996479989858373, 51.148899995082886], [-3.9979499898591886, 51.14930999508322], [-3.998299989859124, 51.14998999508379], [-3.997979989858552, 51.15077999508442], [-3.9975099898580977, 51.1510899950847], [-3.9959899898570153, 51.15119999508478], [-3.996089989856974, 51.15144999508502], [-3.9941899898553874, 51.15210999508556], [-3.991639989853484, 51.15249999508588], [-3.9910299898526054, 51.153539995086746], [-3.992269989852787, 51.15501999508797], [-3.993549989853432, 51.155519995088376], [-3.9952199898539833, 51.15682999508947], [-3.994779989852956, 51.1584599950908], [-3.9955799898525663, 51.16054999509254], [-3.99527882664571, 51.16101002345784], [-3.989687735320476, 51.160162825523194]]]}}, {"type": "Feature", "properties": {"type": "postcode-cell", "postcode": "EX32 7NH", "postcodes": ["EX32 7NH"]}, "geometry": {"type": "Polygon", "coordinates": [[[-4.016790803455341, 51.08943662010512], [-4.008536061370586, 51.09061755203622], [-4.005227738459206, 51.086865215820715], [-4.005067159023385, 51.08643160598148], [-4.004864079579771, 51.08469844414413], [-4.006638686887383, 51.08364171877368], [-4.01514251039705, 51.08594668960573], [-4.016790803455341, 51.08943662010512]]]}}, {"type": "Feature", "properties": {"type": "postcode-cell", "postcode": "EX32 7NJ", "postcodes": ["EX32 7NJ"]}, "geometry": {"type": "Polygon", "coordinates": [[[-4.005168579800879, 51.09015525634065], [-4.004766773738414, 51.088216312839975], [-4.005227738459206, 51.086865215820715], [-4.008536061370586, 51.09061755203622], [-4.006107363608005, 51.09146373979402], [-4.005168579800879, 51.09015525634065]]]}}, {"type": "Feature", "properties": {"type": "postcode-cell", "postcode": "EX32 7LT", "postcodes": ["EX32 7LT"]}, "geometry": {"type": "Polygon", "coordinates": [[[-4.006107363608005, 51.09146373979402], [-4.004045040113115, 51.09273689341593], [-4.001963483108657, 51.0892935959577], [-4.003626172760158, 51.08890072822782], [-4.005168579800879, 51.09015525634065], [-4.006107363608005, 51.09146373979402]]]}}, {"type": "Feature", "properties": {"type": "postcode-cell", "postcode": "EX32 7NN", "postcodes": ["EX32 7NN"]}, "geometry": {"type": "Polygon", "coordinates": [[[-4.004766773738414, 51.088216312839975], [-4.0036258160892055, 51.088887534237344], [-4.00327204682197, 51.08845851680919], [-4.005067159023385, 51.08643160598148], [-4.005227738459206, 51.086865215820715], [-4.004766773738414, 51.088216312839975]]]}}, {"type": "Feature", "properties": {"type": "postcode-cell", "postcode": "EX32 7NL", "postcodes": ["EX32 7NL"]}, "geometry": {"type": "Polygon", "coordinates": [[[-4.003626172760158, 51.08890072822782], [-4.0036258160892055, 51.088887534237344], [-4.004766773738414, 51.088216312839975], [-4.005168579800879, 51.09015525634065], [-4.003626172760158, 51.08890072822782]]]}}, {"type": "Feature", "properties": {"type": "postcode-cell", "postcode": "EX32 7NA", "postcodes": ["EX32 7NA"]}, "geometry": {"type": "Polygon", "coordinates": [[[-4.006638686887383, 51.08364171877368], [-4.004864079579771, 51.08469844414413], [-4.001041238522989, 51.08556759154014], [-3.997584816931501, 51.08603721191943], [-3.9924930570447574, 51.08531145176718], [-3.9917630474782784, 51.08516944552139], [-3.989269679592192, 51.082618160747934], [-3.990609989884169, 51.08228999502789], [-3.995409989888117, 51.08071999502658], [-4.000899989891692, 51.08102999502684], [-4.00559842718473, 51.080664781635946], [-4.006638686887383, 51.08364171877368]]]}}, {"type": "Feature", "properties": {"type": "postcode-cell", "postcode": "EX32 7NW", "postcodes": ["EX32 7NW"]}, "geometry": {"type": "Polygon", "coordinates": [[[-4.005067159023385, 51.08643160598148], [-4.00327204682197, 51.08845851680919], [-4.0024777334195685, 51.088444218208274], [-4.001041238522989, 51.08556759154014], [-4.004864079579771, 51.08469844414413], [-4.005067159023385, 51.08643160598148]]]}}, {"type": "Feature", "properties": {"type": "postcode-cell", "postcode": "EX32 7LY", "postcodes": ["EX32 7LY"]}, "geometry": {"type": "Polygon", "coordinates": [[[-4.003318896446632, 51.093436066023756], [-4.000844272553778, 51.092346914276945], [-3.999962558583673, 51.09004120326254], [-4.00190582334587, 51.08925193451548], [-4.001963483108657, 51.0892935959577], [-4.004045040113115, 51.09273689341593], [-4.003318896446632, 51.093436066023756]]]}}, {"type": "Feature", "properties": {"type": "postcode-cell", "postcode": "EX32 7LU", "postcodes": ["EX32 7LU"]}, "geometry": {"type": "Polygon", "coordinates": [[[-4.003626172760158, 51.08890072822782], [-4.001963483108657, 51.0892935959577], [-4.00190582334587, 51.08925193451548], [-4.001819444827308, 51.08915209337958], [-4.0024777334195685, 51.088444218208274], [-4.00327204682197, 51.08845851680919], [-4.0036258160892055, 51.088887534237344], [-4.003626172760158, 51.08890072822782]]]}}, {"type": "Feature", "properties": {"type": "postcode-cell", "postcode": "EX32 7LZ", "postcodes": ["EX32 7LZ"]}, "geometry": {"type": "Polygon", "coordinates": [[[-4.0024777334195685, 51.088444218208274], [-4.001819444827308, 51.08915209337958], [-3.9990599884360316, 51.088130550416494], [-3.997584816931501, 51.08603721191943], [-4.001041238522989, 51.08556759154014], [-4.0024777334195685, 51.088444218208274]]]}}, {"type": "Feature", "properties": {"type": "postcode-cell", "postcode": "EX32 7NU", "postcodes": ["EX32 7NU"]}, "geometry": {"type": "Polygon", "coordinates": [[[-3.999085096119715, 51.08899884610131], [-3.997578338395779, 51.09042421366311], [-3.9924930570447574, 51.08531145176718], [-3.997584816931501, 51.08603721191943], [-3.9990599884360316, 51.088130550416494], [-3.999085096119715, 51.08899884610131]]]}}, {"type": "Feature", "properties": {"type": "postcode-cell", "postcode": "EX32 7LX", "postcodes": ["EX32 7LX"]}, "geometry": {"type": "Polygon", "coordinates": [[[-3.9990599884360316, 51.088130550416494], [-4.001819444827308, 51.08915209337958], [-4.00190582334587, 51.08925193451548], [-3.999962558583673, 51.09004120326254], [-3.999085096119715, 51.08899884610131], [-3.9990599884360316, 51.088130550416494]]]}}, {"type": "Feature", "properties": {"type": "postcode-cell", "postcode": "EX32 7NR", "postcodes": ["EX32 7NR"]}, "geometry": {"type": "Polygon", "coordinates": [[[-4.003318896446632, 51.093436066023756], [-4.0033140496724275, 51.09939184568218], [-3.9935663471845486, 51.09665999712327], [-3.9892914604599357, 51.09276772578287], [-3.9897521153765982, 51.09227869945532], [-3.997402348969253, 51.09159982772833], [-4.000844272553778, 51.092346914276945], [-4.003318896446632, 51.093436066023756]]]}}, {"type": "Feature", "properties": {"type": "postcode-cell", "postcode": "EX32 7NP", "postcodes": ["EX32 7NP"]}, "geometry": {"type": "Polygon", "coordinates": [[[-4.000844272553778, 51.092346914276945], [-3.997402348969253, 51.09159982772833], [-3.997578338395779, 51.09042421366311], [-3.999085096119715, 51.08899884610131], [-3.999962558583673, 51.09004120326254], [-4.000844272553778, 51.092346914276945]]]}}, {"type": "Feature", "properties": {"type": "postcode-cell", "postcode": "EX32 7LN", "postcodes": ["EX32 7LN"]}, "geometry": {"type": "Polygon", "coordinates": [[[-3.9411153178132676, 51.09261823636091], [-3.9313275631397615, 51.09576761772567], [-3.9219891638149713, 51.08994218268281], [-3.923589989835745, 51.089519995034166], [-3.9295299898406837, 51.08741999503242], [-3.9313799898417354, 51.08784999503277], [-3.9338299898437703, 51.086989995032056], [-3.935329989844156, 51.08837999503318], [-3.939239989846062, 51.08998999503447], [-3.9405899898471857, 51.08950999503408], [-3.9421494120500222, 51.08931948204278], [-3.9411153178132676, 51.09261823636091]]]}}, {"type": "Feature", "properties": {"type": "postcode-cell", "postcode": "EX32 7FJ", "postcodes": ["EX32 7FJ"]}, "geometry": {"type": "Polygon", "coordinates": [[[-3.9924930570447574, 51.08531145176718], [-3.997578338395779, 51.09042421366311], [-3.997402348969253, 51.09159982772833], [-3.9897521153765982, 51.09227869945532], [-3.9917630474782784, 51.08516944552139], [-3.9924930570447574, 51.08531145176718]]]}}, {"type": "Feature", "properties": {"type": "postcode-cell", "postcode": "EX32 7NT", "postcodes": ["EX32 7NT"]}, "geometry": {"type": "Polygon", "coordinates": [[[-4.0073939955697195, 51.10329440103042], [-4.006629989885013, 51.10463999504626], [-4.0051699898839574, 51.10478999504639], [-4.003419989882885, 51.104539995046196], [-4.001719989882393, 51.103059995044994], [-4.000799989881773, 51.103059995044994], [-3.999919989880943, 51.103579995045415], [-3.99936998988066, 51.10337999504525], [-4.000049989881207, 51.103179995045096], [-3.9988499898805188, 51.10290999504486], [-3.9989099898803233, 51.1034299950453], [-3.996289989878376, 51.103819995045626], [-3.996059989878365, 51.10349999504535], [-3.996439989878705, 51.10331999504522], [-3.9959299898784812, 51.10303999504497], [-3.9956699898781567, 51.10336999504526], [-3.9913099898755973, 51.10249999504456], [-3.9908011278870275, 51.10265876640934], [-3.987547764355006, 51.10039142737071], [-3.9935663471845486, 51.09665999712327], [-4.0033140496724275, 51.09939184568218], [-4.0073939955697195, 51.10329440103042]]]}}, {"type": "Feature", "properties": {"type": "postcode-cell", "postcode": "EX32 7NS", "postcodes": ["EX32 7NS"]}, "geometry": {"type": "Polygon", "coordinates": [[[-3.9935663471845486, 51.09665999712327], [-3.987547764355006, 51.10039142737071], [-3.9777824718044292, 51.100419966503516], [-3.974856844634773, 51.09441931933049], [-3.9892914604599357, 51.09276772578287], [-3.9935663471845486, 51.09665999712327]]]}}, {"type": "Feature", "properties": {"type": "postcode-cell", "postcode": "EX32 7NX", "postcodes": ["EX32 7NX"]}, "geometry": {"type": "Polygon", "coordinates": [[[-3.9897521153765982, 51.09227869945532], [-3.9892914604599357, 51.09276772578287], [-3.974856844634773, 51.09441931933049], [-3.9678537645937437, 51.090624069700034], [-3.9679799898652153, 51.090469995034745], [-3.9690299898680577, 51.08571999503083], [-3.970309989868964, 51.08561999503074], [-3.972609989870269, 51.086179995031195], [-3.9732199898707665, 51.08598999503103], [-3.9718699898714207, 51.08249999502817], [-3.9739299898728078, 51.08249999502818], [-3.982569989878057, 51.0838099950292], [-3.9852999898799992, 51.08358999502901], [-3.989269679592192, 51.082618160747934], [-3.9917630474782784, 51.08516944552139], [-3.9897521153765982, 51.09227869945532]]]}}, {"type": "Feature", "properties": {"type": "postcode-cell", "postcode": "EX31 4ST", "postcodes": ["EX31 4ST"]}, "geometry": {"type": "Polygon", "coordinates": [[[-3.982965427821716, 51.13603926571908], [-3.9814677284317344, 51.134727724316654], [-3.980048159359328, 51.12695575408232], [-3.984042873623812, 51.124574111109396], [-3.9892896766993475, 51.12241250351819], [-3.98941998986531, 51.12263999506119], [-3.990319989865702, 51.123129995061596], [-3.989749989865089, 51.123639995062014], [-3.9903899898654496, 51.12379999506213], [-3.990829989865177, 51.1250799950632], [-3.9904799898645, 51.12605999506402], [-3.9891199898629344, 51.12749999506521], [-3.9881499898621007, 51.12789999506554], [-3.9878699898613927, 51.12905999506651], [-3.9872999898609875, 51.12909999506654], [-3.9864699898597813, 51.130539995067736], [-3.987599989859976, 51.13181999506877], [-3.9876799898591937, 51.13368999507033], [-3.989779989860213, 51.13459999507107], [-3.9905199898607653, 51.13447999507097], [-3.992119989861197, 51.13594999507219], [-3.991494674040778, 51.13715838158592], [-3.982965427821716, 51.13603926571908]]]}}, {"type": "Feature", "properties": {"type": "postcode-cell", "postcode": "EX32 7LA", "postcodes": ["EX32 7LA"]}, "geometry": {"type": "Polygon", "coordinates": [[[-3.9908011278870275, 51.10265876640934], [-3.9888099898735554, 51.10327999504522], [-3.989419989873719, 51.103839995045675], [-3.9888599898731623, 51.10422999504601], [-3.9885467828200962, 51.105193713870605], [-3.982741887390294, 51.104729303648455], [-3.977771345963443, 51.100470278785], [-3.9777824718044292, 51.100419966503516], [-3.987547764355006, 51.10039142737071], [-3.9908011278870275, 51.10265876640934]]]}}, {"type": "Feature", "properties": {"type": "postcode-cell", "postcode": "EX31 4SY", "postcodes": ["EX31 4SY"]}, "geometry": {"type": "Polygon", "coordinates": [[[-3.984042873623812, 51.124574111109396], [-3.978433613840908, 51.11493437173928], [-3.9790437945430237, 51.11428588568927], [-3.9831051357177762, 51.11382283070854], [-3.9857242553604686, 51.11408400724406], [-3.986389989866536, 51.11530999505515], [-3.9875599898672256, 51.115539995055336], [-3.9885999898673883, 51.11674999505634], [-3.9894199898678626, 51.11692999505647], [-3.989039989867105, 51.11804999505738], [-3.989759989867169, 51.11899999505818], [-3.989679989866737, 51.11983999505888], [-3.9888299898653705, 51.121609995060346], [-3.9892896766993475, 51.12241250351819], [-3.984042873623812, 51.124574111109396]]]}}, {"type": "Feature", "properties": {"type": "postcode-cell", "postcode": "EX31 4NB", "postcodes": ["EX31 4NB"]}, "geometry": {"type": "Polygon", "coordinates": [[[-3.9897667515451793, 51.175238131093465], [-3.980526906820928, 51.1684078929048], [-3.9826692535789654, 51.16247233550889], [-3.989687735320476, 51.160162825523194], [-3.99527882664571, 51.16101002345784], [-3.994669989851332, 51.1619399950937], [-3.994929989851056, 51.162949995094515], [-3.996129989851465, 51.16385999509527], [-3.9940899898496363, 51.164859995096116], [-3.992209989847535, 51.16670999509765], [-3.9911199898460303, 51.16841999509908], [-3.99098998984578, 51.168789995099395], [-3.991559989846022, 51.169109995099646], [-3.9943799898474612, 51.17017999510053], [-3.9944499898472605, 51.170729995100984], [-3.993399989845633, 51.17278999510269], [-3.9915199898436646, 51.17433999510398], [-3.9911099898432814, 51.17456999510417], [-3.9907399898431386, 51.17432999510397], [-3.990179989842407, 51.17511999510462], [-3.990152190315649, 51.17525227466771], [-3.9897667515451793, 51.175238131093465]]]}}, {"type": "Feature", "properties": {"type": "postcode-cell", "postcode": "EX31 4TE", "postcodes": ["EX31 4TE"]}, "geometry": {"type": "Polygon", "coordinates": [[[-3.9831051357177762, 51.11382283070854], [-3.982741887390294, 51.104729303648455], [-3.9885467828200962, 51.105193713870605], [-3.988469989872364, 51.10542999504698], [-3.9883399898716, 51.106939995048236], [-3.9889099898709675, 51.109219995050104], [-3.9873999898692407, 51.11078999505142], [-3.9874699898688686, 51.1117299950522], [-3.985799989867577, 51.1120899950525], [-3.985379989866683, 51.11344999505361], [-3.9857242553604686, 51.11408400724406], [-3.9831051357177762, 51.11382283070854]]]}}, {"type": "Feature", "properties": {"type": "postcode-cell", "postcode": "EX32 7LB", "postcodes": ["EX32 7LB"]}, "geometry": {"type": "Polygon", "coordinates": [[[-3.977771345963443, 51.100470278785], [-3.96971005670017, 51.10712957296789], [-3.965931405519361, 51.10699779222332], [-3.9604935856471033, 51.10568005327469], [-3.9599653323940385, 51.095808277748], [-3.9650959034900297, 51.09161412964334], [-3.966619989863557, 51.09212999503611], [-3.9678537645937437, 51.090624069700034], [-3.974856844634773, 51.09441931933049], [-3.9777824718044292, 51.100419966503516], [-3.977771345963443, 51.100470278785]]]}}, {"type": "Feature", "properties": {"type": "postcode-cell", "postcode": "EX31 4RP", "postcodes": ["EX31 4RP"]}, "geometry": {"type": "Polygon", "coordinates": [[[-3.982741887390294, 51.104729303648455], [-3.9831051357177762, 51.11382283070854], [-3.9790437945430237, 51.11428588568927], [-3.975468372119688, 51.1123368219656], [-3.96971005670017, 51.10712957296789], [-3.977771345963443, 51.100470278785], [-3.982741887390294, 51.104729303648455]]]}}, {"type": "Feature", "properties": {"type": "postcode-cell", "postcode": "EX31 4LP", "postcodes": ["EX31 4LP"]}, "geometry": {"type": "Polygon", "coordinates": [[[-3.99078489200521, 51.14689477945273], [-3.968817047399858, 51.14881283297253], [-3.9683691465060087, 51.14771354210769], [-3.9768120507210907, 51.13990748588264], [-3.982965427821716, 51.13603926571908], [-3.991494674040778, 51.13715838158592], [-3.9913799898600546, 51.13737999507338], [-3.9887999898577595, 51.13859999507441], [-3.988809989857437, 51.13933999507499], [-3.991949989858891, 51.140849995076245], [-3.992309989858908, 51.14135999507666], [-3.993059989859373, 51.14145999507674], [-3.994439989859556, 51.14314999507813], [-3.996585550695198, 51.14378977041424], [-3.99078489200521, 51.14689477945273]]]}}, {"type": "Feature", "properties": {"type": "postcode-cell", "postcode": "EX31 4NU", "postcodes": ["EX31 4NU"]}, "geometry": {"type": "Polygon", "coordinates": [[[-3.982946299508939, 51.186287017981016], [-3.989987456411698, 51.1760361196889], [-3.989559989840669, 51.17806999510708], [-3.9911999898411867, 51.17940999510819], [-3.9932299898421877, 51.180259995108884], [-3.9954270848750624, 51.180763995334104], [-3.982985111564206, 51.18641623675141], [-3.982946299508939, 51.186287017981016]]]}}, {"type": "Feature", "properties": {"type": "postcode-cell", "postcode": "EX31 4NS", "postcodes": ["EX31 4NS"]}, "geometry": {"type": "Polygon", "coordinates": [[[-3.982985111564206, 51.18641623675141], [-3.982887760545334, 51.18832951944519], [-3.9807699898303612, 51.18779999511518], [-3.9798499898302273, 51.18669999511425], [-3.9747199898274426, 51.18512999511299], [-3.9728099898260854, 51.185269995113096], [-3.9694499898233615, 51.18625999511392], [-3.9680099898224284, 51.186159995113854], [-3.96708998982198, 51.185769995113546], [-3.9663199898213755, 51.18593999511368], [-3.965349989820107, 51.18731999511483], [-3.964874761162164, 51.1875488103804], [-3.963419630165739, 51.18410891109994], [-3.977967819351848, 51.18099565480504], [-3.982946299508939, 51.186287017981016], [-3.982985111564206, 51.18641623675141]]]}}, {"type": "Feature", "properties": {"type": "postcode-cell", "postcode": "EX31 4NT", "postcodes": ["EX31 4NT"]}, "geometry": {"type": "Polygon", "coordinates": [[[-3.990152190315649, 51.17525227466771], [-3.989987456411698, 51.1760361196889], [-3.982946299508939, 51.186287017981016], [-3.977967819351848, 51.18099565480504], [-3.98394234376724, 51.176217790535915], [-3.9897667515451793, 51.175238131093465], [-3.990152190315649, 51.17525227466771]]]}}, {"type": "Feature", "properties": {"type": "postcode-cell", "postcode": "EX31 4NE", "postcodes": ["EX31 4NE"]}, "geometry": {"type": "Polygon", "coordinates": [[[-3.9826692535789654, 51.16247233550889], [-3.9690397128734762, 51.16250343716119], [-3.9634320769739304, 51.15768636734589], [-3.963435866339018, 51.15767134245144], [-3.9691777379634043, 51.15133522307197], [-3.982642595460164, 51.154379520780466], [-3.989687735320476, 51.160162825523194], [-3.9826692535789654, 51.16247233550889]]]}}, {"type": "Feature", "properties": {"type": "postcode-cell", "postcode": "EX31 4LW", "postcodes": ["EX31 4LW"]}, "geometry": {"type": "Polygon", "coordinates": [[[-3.982642595460164, 51.154379520780466], [-3.9691777379634043, 51.15133522307197], [-3.968817047399858, 51.14881283297253], [-3.99078489200521, 51.14689477945273], [-3.982642595460164, 51.154379520780466]]]}}, {"type": "Feature", "properties": {"type": "postcode-cell", "postcode": "EX31 4NF", "postcodes": ["EX31 4NF"]}, "geometry": {"type": "Polygon", "coordinates": [[[-3.9897667515451793, 51.175238131093465], [-3.98394234376724, 51.176217790535915], [-3.9775644020250067, 51.17479276713107], [-3.977153824946342, 51.16865238109026], [-3.980526906820928, 51.1684078929048], [-3.9897667515451793, 51.175238131093465]]]}}, {"type": "Feature", "properties": {"type": "postcode-cell", "postcode": "EX31 4SP", "postcodes": ["EX31 4SP"]}, "geometry": {"type": "Polygon", "coordinates": [[[-3.9683691465060087, 51.14771354210769], [-3.9489141498147013, 51.140747197148826], [-3.9495898432654277, 51.138156426555945], [-3.95299053824169, 51.1350935552291], [-3.9768120507210907, 51.13990748588264], [-3.9683691465060087, 51.14771354210769]]]}}, {"type": "Feature", "properties": {"type": "postcode-cell", "postcode": "EX31 4SX", "postcodes": ["EX31 4SX"]}, "geometry": {"type": "Polygon", "coordinates": [[[-3.980048159359328, 51.12695575408232], [-3.9792309094573723, 51.12645414975907], [-3.9743921637311126, 51.118433593249144], [-3.978433613840908, 51.11493437173928], [-3.984042873623812, 51.124574111109396], [-3.980048159359328, 51.12695575408232]]]}}, {"type": "Feature", "properties": {"type": "postcode-cell", "postcode": "EX31 4SS", "postcodes": ["EX31 4SS"]}, "geometry": {"type": "Polygon", "coordinates": [[[-3.980048159359328, 51.12695575408232], [-3.9814677284317344, 51.134727724316654], [-3.95780221556215, 51.12976970449964], [-3.9620398286608145, 51.12461336698929], [-3.9792309094573723, 51.12645414975907], [-3.980048159359328, 51.12695575408232]]]}}, {"type": "Feature", "properties": {"type": "postcode-cell", "postcode": "EX31 4NQ", "postcodes": ["EX31 4NQ"]}, "geometry": {"type": "Polygon", "coordinates": [[[-3.98394234376724, 51.176217790535915], [-3.977967819351848, 51.18099565480504], [-3.963419630165739, 51.18410891109994], [-3.95819235183079, 51.17984824846006], [-3.969744305286778, 51.173856354204794], [-3.9775644020250067, 51.17479276713107], [-3.98394234376724, 51.176217790535915]]]}}, {"type": "Feature", "properties": {"type": "postcode-cell", "postcode": "EX31 4RS", "postcodes": ["EX31 4RS"]}, "geometry": {"type": "Polygon", "coordinates": [[[-3.978433613840908, 51.11493437173928], [-3.9743921637311126, 51.118433593249144], [-3.9628752808545937, 51.12112831850196], [-3.9594254294676245, 51.11785387367062], [-3.9604709623187158, 51.1163514715925], [-3.9625750917175733, 51.114822234123174], [-3.975468372119688, 51.1123368219656], [-3.9790437945430237, 51.11428588568927], [-3.978433613840908, 51.11493437173928]]]}}, {"type": "Feature", "properties": {"type": "postcode-cell", "postcode": "EX31 4NG", "postcodes": ["EX31 4NG"]}, "geometry": {"type": "Polygon", "coordinates": [[[-3.9775644020250067, 51.17479276713107], [-3.969744305286778, 51.173856354204794], [-3.9704159138723996, 51.16800137557025], [-3.977153824946342, 51.16865238109026], [-3.9775644020250067, 51.17479276713107]]]}}, {"type": "Feature", "properties": {"type": "postcode-cell", "postcode": "EX31 4SR", "postcodes": ["EX31 4SR"]}, "geometry": {"type": "Polygon", "coordinates": [[[-3.982965427821716, 51.13603926571908], [-3.9768120507210907, 51.13990748588264], [-3.95299053824169, 51.1350935552291], [-3.956866241737845, 51.13012728313073], [-3.95780221556215, 51.12976970449964], [-3.9814677284317344, 51.134727724316654], [-3.982965427821716, 51.13603926571908]]]}}, {"type": "Feature", "properties": {"type": "postcode-cell", "postcode": "EX31 4ND", "postcodes": ["EX31 4ND"]}, "geometry": {"type": "Polygon", "coordinates": [[[-3.980526906820928, 51.1684078929048], [-3.977153824946342, 51.16865238109026], [-3.9704159138723996, 51.16800137557025], [-3.96902772560699, 51.1661286527928], [-3.9690397128734762, 51.16250343716119], [-3.9826692535789654, 51.16247233550889], [-3.980526906820928, 51.1684078929048]]]}}, {"type": "Feature", "properties": {"type": "postcode-cell", "postcode": "EX31 4SU", "postcodes": ["EX31 4SU"]}, "geometry": {"type": "Polygon", "coordinates": [[[-3.9792309094573723, 51.12645414975907], [-3.9620398286608145, 51.12461336698929], [-3.9628752808545937, 51.12112831850196], [-3.9743921637311126, 51.118433593249144], [-3.9792309094573723, 51.12645414975907]]]}}, {"type": "Feature", "properties": {"type": "postcode-cell", "postcode": "EX31 4NH", "postcodes": ["EX31 4NH"]}, "geometry": {"type": "Polygon", "coordinates": [[[-3.9704159138723996, 51.16800137557025], [-3.969744305286778, 51.173856354204794], [-3.95819235183079, 51.17984824846006], [-3.9547271305015714, 51.178944537301696], [-3.9531787016797395, 51.17660769766], [-3.9530442132545365, 51.17133030725821], [-3.96902772560699, 51.1661286527928], [-3.9704159138723996, 51.16800137557025]]]}}, {"type": "Feature", "properties": {"type": "postcode-cell", "postcode": "EX31 4PQ", "postcodes": ["EX31 4PQ"]}, "geometry": {"type": "Polygon", "coordinates": [[[-3.9532571823147067, 51.19299744638715], [-3.9527299898083346, 51.194509995120825], [-3.953299989807843, 51.19647999512245], [-3.953089989807367, 51.19722999512306], [-3.9525699898070132, 51.19722999512306], [-3.9501599898059903, 51.195859995121936], [-3.9486299898049495, 51.19586999512195], [-3.9480799898047896, 51.19538999512156], [-3.9459899898036976, 51.19466999512097], [-3.9455899898037683, 51.193899995120326], [-3.9443399898032556, 51.193149995119704], [-3.942529989802859, 51.19128999511817], [-3.940669989802906, 51.188369995115735], [-3.9404647308358443, 51.18731164323815], [-3.9532571823147067, 51.19299744638715]]]}}, {"type": "Feature", "properties": {"type": "postcode-cell", "postcode": "EX31 4FR", "postcodes": ["EX31 4FR"]}, "geometry": {"type": "Polygon", "coordinates": [[[-3.964874761162164, 51.1875488103804], [-3.9645399898193827, 51.18770999511514], [-3.962549989817974, 51.18783999511526], [-3.9604999898159416, 51.18927999511646], [-3.9583799898144045, 51.18949999511664], [-3.9564499898125898, 51.19062999511758], [-3.953799989810433, 51.19143999511828], [-3.9532571823147067, 51.19299744638715], [-3.9404647308358443, 51.18731164323815], [-3.940349989803429, 51.186719995114366], [-3.940689989803703, 51.18661999511429], [-3.939966619700314, 51.18516887892271], [-3.9547271305015714, 51.178944537301696], [-3.95819235183079, 51.17984824846006], [-3.963419630165739, 51.18410891109994], [-3.964874761162164, 51.1875488103804]]]}}, {"type": "Feature", "properties": {"type": "postcode-cell", "postcode": "EX31 4SW", "postcodes": ["EX31 4SW"]}, "geometry": {"type": "Polygon", "coordinates": [[[-3.9691777379634043, 51.15133522307197], [-3.963435866339018, 51.15767134245144], [-3.9445401917981555, 51.150071577878734], [-3.9410279682622695, 51.14516655194359], [-3.9489141498147013, 51.140747197148826], [-3.9683691465060087, 51.14771354210769], [-3.968817047399858, 51.14881283297253], [-3.9691777379634043, 51.15133522307197]]]}}, {"type": "Feature", "properties": {"type": "postcode-cell", "postcode": "EX31 4RU", "postcodes": ["EX31 4RU"]}, "geometry": {"type": "Polygon", "coordinates": [[[-3.9628752808545937, 51.12112831850196], [-3.9620398286608145, 51.12461336698929], [-3.95780221556215, 51.12976970449964], [-3.956866241737845, 51.13012728313073], [-3.948719849192179, 51.12590826062197], [-3.9474346126417514, 51.12308205233772], [-3.9520614581497338, 51.11651270363157], [-3.9594254294676245, 51.11785387367062], [-3.9628752808545937, 51.12112831850196]]]}}, {"type": "Feature", "properties": {"type": "postcode-cell", "postcode": "EX32 7PB", "postcodes": ["EX32 7PB"]}, "geometry": {"type": "Polygon", "coordinates": [[[-3.9599653323940385, 51.095808277748], [-3.947386027784724, 51.097903833641844], [-3.9411153178132676, 51.09261823636091], [-3.9421494120500222, 51.08931948204278], [-3.942799989848794, 51.08923999503385], [-3.949619989853004, 51.090099995034535], [-3.9521099898541827, 51.091209995035435], [-3.9550499898557967, 51.0920299950361], [-3.9557799898560058, 51.09265999503662], [-3.9582599898578845, 51.092199995036225], [-3.9620999898611937, 51.09059999503488], [-3.9650959034900297, 51.09161412964334], [-3.9599653323940385, 51.095808277748]]]}}, {"type": "Feature", "properties": {"type": "postcode-cell", "postcode": "EX31 4RW", "postcodes": ["EX31 4RW"]}, "geometry": {"type": "Polygon", "coordinates": [[[-3.9594254294676245, 51.11785387367062], [-3.9520614581497338, 51.11651270363157], [-3.9486716532012354, 51.11451460301212], [-3.94726670168686, 51.109960736875585], [-3.948991236889644, 51.10783890341996], [-3.957060729471268, 51.106753465193016], [-3.9604709623187158, 51.1163514715925], [-3.9594254294676245, 51.11785387367062]]]}}, {"type": "Feature", "properties": {"type": "postcode-cell", "postcode": "EX31 4TF", "postcodes": ["EX31 4TF"]}, "geometry": {"type": "Polygon", "coordinates": [[[-3.975468372119688, 51.1123368219656], [-3.9625750917175733, 51.114822234123174], [-3.965931405519361, 51.10699779222332], [-3.96971005670017, 51.10712957296789], [-3.975468372119688, 51.1123368219656]]]}}, {"type": "Feature", "properties": {"type": "postcode-cell", "postcode": "EX31 4RR", "postcodes": ["EX31 4RR"]}, "geometry": {"type": "Polygon", "coordinates": [[[-3.965931405519361, 51.10699779222332], [-3.9625750917175733, 51.114822234123174], [-3.9604709623187158, 51.1163514715925], [-3.957060729471268, 51.106753465193016], [-3.9604935856471033, 51.10568005327469], [-3.965931405519361, 51.10699779222332]]]}}, {"type": "Feature", "properties": {"type": "postcode-cell", "postcode": "EX31 4NL", "postcodes": ["EX31 4NL"]}, "geometry": {"type": "Polygon", "coordinates": [[[-3.96902772560699, 51.1661286527928], [-3.9530442132545365, 51.17133030725821], [-3.949979036178888, 51.166018729647504], [-3.950900604953571, 51.16284031340177], [-3.9634320769739304, 51.15768636734589], [-3.9690397128734762, 51.16250343716119], [-3.96902772560699, 51.1661286527928]]]}}, {"type": "Feature", "properties": {"type": "postcode-cell", "postcode": "EX32 7LD", "postcodes": ["EX32 7LD"]}, "geometry": {"type": "Polygon", "coordinates": [[[-3.957060729471268, 51.106753465193016], [-3.948991236889644, 51.10783890341996], [-3.9443237416504044, 51.10215059332172], [-3.947386027784724, 51.097903833641844], [-3.9599653323940385, 51.095808277748], [-3.9604935856471033, 51.10568005327469], [-3.957060729471268, 51.106753465193016]]]}}, {"type": "Feature", "properties": {"type": "postcode-cell", "postcode": "EX31 4SN", "postcodes": ["EX31 4SN"]}, "geometry": {"type": "Polygon", "coordinates": [[[-3.950900604953571, 51.16284031340177], [-3.943555425893111, 51.15931738672271], [-3.9445401917981555, 51.150071577878734], [-3.963435866339018, 51.15767134245144], [-3.9634320769739304, 51.15768636734589], [-3.950900604953571, 51.16284031340177]]]}}, {"type": "Feature", "properties": {"type": "postcode-cell", "postcode": "EX31 4SD", "postcodes": ["EX31 4SD"]}, "geometry": {"type": "Polygon", "coordinates": [[[-3.95299053824169, 51.1350935552291], [-3.9495898432654277, 51.138156426555945], [-3.9382980321846994, 51.132352703786566], [-3.9440830287213027, 51.126297217017864], [-3.9455290585795915, 51.12610891893975], [-3.948719849192179, 51.12590826062197], [-3.956866241737845, 51.13012728313073], [-3.95299053824169, 51.1350935552291]]]}}, {"type": "Feature", "properties": {"type": "postcode-cell", "postcode": "EX31 4RZ", "postcodes": ["EX31 4RZ"]}, "geometry": {"type": "Polygon", "coordinates": [[[-3.9486716532012354, 51.11451460301212], [-3.942530721005429, 51.11718042075829], [-3.939715653068033, 51.11764040285055], [-3.938851779837754, 51.11772590424032], [-3.9302003093420246, 51.111242801961204], [-3.93036449312564, 51.11095435411601], [-3.94726670168686, 51.109960736875585], [-3.9486716532012354, 51.11451460301212]]]}}, {"type": "Feature", "properties": {"type": "postcode-cell", "postcode": "EX31 4RT", "postcodes": ["EX31 4RT"]}, "geometry": {"type": "Polygon", "coordinates": [[[-3.947154386187791, 51.12297137247131], [-3.944121350965514, 51.12029037150238], [-3.942530721005429, 51.11718042075829], [-3.9486716532012354, 51.11451460301212], [-3.9520614581497338, 51.11651270363157], [-3.9474346126417514, 51.12308205233772], [-3.947154386187791, 51.12297137247131]]]}}, {"type": "Feature", "properties": {"type": "postcode-cell", "postcode": "EX31 4TD", "postcodes": ["EX31 4TD"]}, "geometry": {"type": "Polygon", "coordinates": [[[-3.9474346126417514, 51.12308205233772], [-3.948719849192179, 51.12590826062197], [-3.9455290585795915, 51.12610891893975], [-3.941178011736388, 51.123601541115626], [-3.941118045083492, 51.12319376352144], [-3.9460180827624303, 51.12281441183969], [-3.947154386187791, 51.12297137247131], [-3.9474346126417514, 51.12308205233772]]]}}, {"type": "Feature", "properties": {"type": "postcode-cell", "postcode": "EX31 4NN", "postcodes": ["EX31 4NN"]}, "geometry": {"type": "Polygon", "coordinates": [[[-3.9531787016797395, 51.17660769766], [-3.9397027426146938, 51.173616198999454], [-3.9396709638487857, 51.167436841929806], [-3.949979036178888, 51.166018729647504], [-3.9530442132545365, 51.17133030725821], [-3.9531787016797395, 51.17660769766]]]}}, {"type": "Feature", "properties": {"type": "postcode-cell", "postcode": "EX31 4SF", "postcodes": ["EX31 4SF"]}, "geometry": {"type": "Polygon", "coordinates": [[[-3.9489141498147013, 51.140747197148826], [-3.9410279682622695, 51.14516655194359], [-3.9391826074020506, 51.145320899058746], [-3.9239584578023603, 51.14060345543262], [-3.9269028906682237, 51.132036050231285], [-3.9306535272633076, 51.13066945153259], [-3.9353949987305685, 51.13131901709924], [-3.9382980321846994, 51.132352703786566], [-3.9495898432654277, 51.138156426555945], [-3.9489141498147013, 51.140747197148826]]]}}, {"type": "Feature", "properties": {"type": "postcode-cell", "postcode": "EX31 4NR", "postcodes": ["EX31 4NR"]}, "geometry": {"type": "Polygon", "coordinates": [[[-3.9547271305015714, 51.178944537301696], [-3.939966619700314, 51.18516887892271], [-3.9390599898040626, 51.1833499951116], [-3.9375799898039734, 51.18130999510989], [-3.9343999898028543, 51.17900999510798], [-3.9340399898034777, 51.17706999510638], [-3.935679989805537, 51.17494999510463], [-3.936209647246322, 51.173898990807174], [-3.9397027426146938, 51.173616198999454], [-3.9531787016797395, 51.17660769766], [-3.9547271305015714, 51.178944537301696]]]}}, {"type": "Feature", "properties": {"type": "postcode-cell", "postcode": "EX31 4RX", "postcodes": ["EX31 4RX"]}, "geometry": {"type": "Polygon", "coordinates": [[[-3.944121350965514, 51.12029037150238], [-3.9421044549206834, 51.120893702861466], [-3.939715653068033, 51.11764040285055], [-3.942530721005429, 51.11718042075829], [-3.944121350965514, 51.12029037150238]]]}}, {"type": "Feature", "properties": {"type": "postcode-cell", "postcode": "EX31 4TX", "postcodes": ["EX31 4TX"]}, "geometry": {"type": "Polygon", "coordinates": [[[-3.890050764358388, 51.17114949536303], [-3.9068506888545182, 51.15046487030493], [-3.9137267274765444, 51.16131270931087], [-3.90070759427231, 51.17074986753261], [-3.8953999897810125, 51.168999995099824], [-3.895319989780616, 51.169759995100435], [-3.8960099897808593, 51.17025999510086], [-3.8964699897805075, 51.171729995102076], [-3.8974651426208324, 51.173099401513944], [-3.893322522853726, 51.17610073839481], [-3.8917099897759617, 51.17470999510455], [-3.8901799897752527, 51.173989995103966], [-3.8900093295464635, 51.173990309283745], [-3.890050764358388, 51.17114949536303]]]}}, {"type": "Feature", "properties": {"type": "postcode-cell", "postcode": "EX31 4TU", "postcodes": ["EX31 4TU"]}, "geometry": {"type": "Polygon", "coordinates": [[[-3.8900093295464635, 51.173990309283745], [-3.884679989771546, 51.17399999510398], [-3.871519989761989, 51.1755499951053], [-3.8610999897549005, 51.1757399951055], [-3.86075354076821, 51.17568462463965], [-3.873285994027065, 51.15311177608226], [-3.881626921092222, 51.151436997699925], [-3.8897146947484322, 51.15678317970111], [-3.890050764358388, 51.17114949536303], [-3.8900093295464635, 51.173990309283745]]]}}, {"type": "Feature", "properties": {"type": "postcode-cell", "postcode": "EX31 4RY", "postcodes": ["EX31 4RY"]}, "geometry": {"type": "Polygon", "coordinates": [[[-3.9460180827624303, 51.12281441183969], [-3.9421805258500413, 51.12186708052498], [-3.941968665760721, 51.12110442731272], [-3.9421044549206834, 51.120893702861466], [-3.944121350965514, 51.12029037150238], [-3.947154386187791, 51.12297137247131], [-3.9460180827624303, 51.12281441183969]]]}}, {"type": "Feature", "properties": {"type": "postcode-cell", "postcode": "EX31 4SL", "postcodes": ["EX31 4SL"]}, "geometry": {"type": "Polygon", "coordinates": [[[-3.9445401917981555, 51.150071577878734], [-3.943555425893111, 51.15931738672271], [-3.9292733282619716, 51.160399608106346], [-3.925547434958873, 51.15858743787162], [-3.9262885359089483, 51.155967189730546], [-3.9391826074020506, 51.145320899058746], [-3.9410279682622695, 51.14516655194359], [-3.9445401917981555, 51.150071577878734]]]}}, {"type": "Feature", "properties": {"type": "postcode-cell", "postcode": "EX31 4TZ", "postcodes": ["EX31 4TZ"]}, "geometry": {"type": "Polygon", "coordinates": [[[-3.941178011736388, 51.123601541115626], [-3.939219254321938, 51.12492750507073], [-3.938649516816922, 51.12407717097094], [-3.9407216586053146, 51.12296424571461], [-3.941118045083492, 51.12319376352144], [-3.941178011736388, 51.123601541115626]]]}}, {"type": "Feature", "properties": {"type": "postcode-cell", "postcode": "EX32 7LE", "postcodes": ["EX32 7LE"]}, "geometry": {"type": "Polygon", "coordinates": [[[-3.94726670168686, 51.109960736875585], [-3.93036449312564, 51.11095435411601], [-3.927351980315946, 51.10414824148867], [-3.930737529120203, 51.101965029896974], [-3.9443237416504044, 51.10215059332172], [-3.948991236889644, 51.10783890341996], [-3.94726670168686, 51.109960736875585]]]}}, {"type": "Feature", "properties": {"type": "postcode-cell", "postcode": "EX31 4TA", "postcodes": ["EX31 4TA"]}, "geometry": {"type": "Polygon", "coordinates": [[[-3.9421805258500413, 51.12186708052498], [-3.9460180827624303, 51.12281441183969], [-3.941118045083492, 51.12319376352144], [-3.9407216586053146, 51.12296424571461], [-3.94065579891365, 51.12279043819175], [-3.9413366232709164, 51.122004268441756], [-3.9421805258500413, 51.12186708052498]]]}}, {"type": "Feature", "properties": {"type": "postcode-cell", "postcode": "EX31 4RN", "postcodes": ["EX31 4RN"]}, "geometry": {"type": "Polygon", "coordinates": [[[-3.9413366232709164, 51.122004268441756], [-3.940083847373204, 51.12145290150188], [-3.9393055346026373, 51.120612565357305], [-3.941968665760721, 51.12110442731272], [-3.9421805258500413, 51.12186708052498], [-3.9413366232709164, 51.122004268441756]]]}}, {"type": "Feature", "properties": {"type": "postcode-cell", "postcode": "EX31 4TB", "postcodes": ["EX31 4TB"]}, "geometry": {"type": "Polygon", "coordinates": [[[-3.9455290585795915, 51.12610891893975], [-3.9440830287213027, 51.126297217017864], [-3.9403558331485824, 51.12616937210223], [-3.939430057785961, 51.12564748211744], [-3.939219254321938, 51.12492750507073], [-3.941178011736388, 51.123601541115626], [-3.9455290585795915, 51.12610891893975]]]}}, {"type": "Feature", "properties": {"type": "postcode-cell", "postcode": "EX31 4RH", "postcodes": ["EX31 4RH"]}, "geometry": {"type": "Polygon", "coordinates": [[[-3.941968665760721, 51.12110442731272], [-3.9393055346026373, 51.120612565357305], [-3.9386333550768002, 51.12014777224496], [-3.937555361419935, 51.11910913671536], [-3.938851779837754, 51.11772590424032], [-3.939715653068033, 51.11764040285055], [-3.9421044549206834, 51.120893702861466], [-3.941968665760721, 51.12110442731272]]]}}, {"type": "Feature", "properties": {"type": "postcode-cell", "postcode": "EX31 4FW", "postcodes": ["EX31 4FW"]}, "geometry": {"type": "Polygon", "coordinates": [[[-3.940083847373204, 51.12145290150188], [-3.9394268760797178, 51.12249487821019], [-3.938857031761593, 51.122565800703825], [-3.9386333550768002, 51.12014777224496], [-3.9393055346026373, 51.120612565357305], [-3.940083847373204, 51.12145290150188]]]}}, {"type": "Feature", "properties": {"type": "postcode-cell", "postcode": "EX31 4SE", "postcodes": ["EX31 4SE"]}, "geometry": {"type": "Polygon", "coordinates": [[[-3.9382980321846994, 51.132352703786566], [-3.9353949987305685, 51.13131901709924], [-3.9403558331485824, 51.12616937210223], [-3.9440830287213027, 51.126297217017864], [-3.9382980321846994, 51.132352703786566]]]}}, {"type": "Feature", "properties": {"type": "postcode-cell", "postcode": "EX31 4ER", "postcodes": ["EX31 4ER"]}, "geometry": {"type": "Polygon", "coordinates": [[[-3.939430057785961, 51.12564748211744], [-3.9354483718707907, 51.125800103577866], [-3.936839037585229, 51.12367004194627], [-3.9378784280566212, 51.12353877443453], [-3.938649516816922, 51.12407717097094], [-3.939219254321938, 51.12492750507073], [-3.939430057785961, 51.12564748211744]]]}}, {"type": "Feature", "properties": {"type": "postcode-cell", "postcode": "EX31 4SJ", "postcodes": ["EX31 4SJ"]}, "geometry": {"type": "Polygon", "coordinates": [[[-3.949979036178888, 51.166018729647504], [-3.9396709638487857, 51.167436841929806], [-3.932168140920172, 51.166256215755894], [-3.9292733282619716, 51.160399608106346], [-3.943555425893111, 51.15931738672271], [-3.950900604953571, 51.16284031340177], [-3.949979036178888, 51.166018729647504]]]}}, {"type": "Feature", "properties": {"type": "postcode-cell", "postcode": "EX31 4SB", "postcodes": ["EX31 4SB"]}, "geometry": {"type": "Polygon", "coordinates": [[[-3.938649516816922, 51.12407717097094], [-3.9378784280566212, 51.12353877443453], [-3.9379755585215293, 51.12298262502796], [-3.938857031761593, 51.122565800703825], [-3.9394268760797178, 51.12249487821019], [-3.94065579891365, 51.12279043819175], [-3.9407216586053146, 51.12296424571461], [-3.938649516816922, 51.12407717097094]]]}}, {"type": "Feature", "properties": {"type": "postcode-cell", "postcode": "EX31 4RQ", "postcodes": ["EX31 4RQ"]}, "geometry": {"type": "Polygon", "coordinates": [[[-3.9403558331485824, 51.12616937210223], [-3.9353949987305685, 51.13131901709924], [-3.9306535272633076, 51.13066945153259], [-3.9307713587858744, 51.129819236840994], [-3.9327605257228804, 51.12721840511366], [-3.933811002240629, 51.12613708774947], [-3.9354483718707907, 51.125800103577866], [-3.939430057785961, 51.12564748211744], [-3.9403558331485824, 51.12616937210223]]]}}, {"type": "Feature", "properties": {"type": "postcode-cell", "postcode": "EX31 4SA", "postcodes": ["EX31 4SA"]}, "geometry": {"type": "Polygon", "coordinates": [[[-3.94065579891365, 51.12279043819175], [-3.9394268760797178, 51.12249487821019], [-3.940083847373204, 51.12145290150188], [-3.9413366232709164, 51.122004268441756], [-3.94065579891365, 51.12279043819175]]]}}, {"type": "Feature", "properties": {"type": "postcode-cell", "postcode": "EX32 7LW", "postcodes": ["EX32 7LW"]}, "geometry": {"type": "Polygon", "coordinates": [[[-3.9443237416504044, 51.10215059332172], [-3.930737529120203, 51.101965029896974], [-3.9313275631397615, 51.09576761772567], [-3.9411153178132676, 51.09261823636091], [-3.947386027784724, 51.097903833641844], [-3.9443237416504044, 51.10215059332172]]]}}, {"type": "Feature", "properties": {"type": "postcode-cell", "postcode": "EX32 7LG", "postcodes": ["EX32 7LG"]}, "geometry": {"type": "Polygon", "coordinates": [[[-3.9302003093420246, 51.111242801961204], [-3.9201356964519145, 51.118213271624974], [-3.9195111163840055, 51.11844279508258], [-3.9176233554224265, 51.11870262190448], [-3.909896866025434, 51.117896780592744], [-3.924514289849218, 51.10381272969392], [-3.927351980315946, 51.10414824148867], [-3.93036449312564, 51.11095435411601], [-3.9302003093420246, 51.111242801961204]]]}}, {"type": "Feature", "properties": {"type": "postcode-cell", "postcode": "EX31 4RE", "postcodes": ["EX31 4RE"]}, "geometry": {"type": "Polygon", "coordinates": [[[-3.9379755585215293, 51.12298262502796], [-3.9350480750792864, 51.12025743554289], [-3.937555361419935, 51.11910913671536], [-3.9386333550768002, 51.12014777224496], [-3.938857031761593, 51.122565800703825], [-3.9379755585215293, 51.12298262502796]]]}}, {"type": "Feature", "properties": {"type": "postcode-cell", "postcode": "EX31 4TH", "postcodes": ["EX31 4TH"]}, "geometry": {"type": "Polygon", "coordinates": [[[-3.9350480750792864, 51.12025743554289], [-3.9341281880010714, 51.12046610839718], [-3.9201356964519145, 51.118213271624974], [-3.9302003093420246, 51.111242801961204], [-3.938851779837754, 51.11772590424032], [-3.937555361419935, 51.11910913671536], [-3.9350480750792864, 51.12025743554289]]]}}, {"type": "Feature", "properties": {"type": "postcode-cell", "postcode": "EX31 4TG", "postcodes": ["EX31 4TG"]}, "geometry": {"type": "Polygon", "coordinates": [[[-3.9379755585215293, 51.12298262502796], [-3.9378784280566212, 51.12353877443453], [-3.936839037585229, 51.12367004194627], [-3.936225699265821, 51.12357308437034], [-3.93395632544821, 51.122311902250665], [-3.9341281880010714, 51.12046610839718], [-3.9350480750792864, 51.12025743554289], [-3.9379755585215293, 51.12298262502796]]]}}, {"type": "Feature", "properties": {"type": "postcode-cell", "postcode": "EX31 4NW", "postcodes": ["EX31 4NW"]}, "geometry": {"type": "Polygon", "coordinates": [[[-3.9396709638487857, 51.167436841929806], [-3.9397027426146938, 51.173616198999454], [-3.936209647246322, 51.173898990807174], [-3.936959989807537, 51.17240999510251], [-3.9367899898076972, 51.17179999510201], [-3.932089989805165, 51.170359995100846], [-3.9314599898050298, 51.169709995100305], [-3.930074341345806, 51.16947997109148], [-3.932168140920172, 51.166256215755894], [-3.9396709638487857, 51.167436841929806]]]}}, {"type": "Feature", "properties": {"type": "postcode-cell", "postcode": "EX31 4TQ", "postcodes": ["EX31 4TQ"]}, "geometry": {"type": "Polygon", "coordinates": [[[-3.933811002240629, 51.12613708774947], [-3.933594365757407, 51.12499997775267], [-3.936225699265821, 51.12357308437034], [-3.936839037585229, 51.12367004194627], [-3.9354483718707907, 51.125800103577866], [-3.933811002240629, 51.12613708774947]]]}}, {"type": "Feature", "properties": {"type": "postcode-cell", "postcode": "EX31 4TJ", "postcodes": ["EX31 4TJ"]}, "geometry": {"type": "Polygon", "coordinates": [[[-3.9335243759530445, 51.12487774649194], [-3.9337407274639182, 51.12258698914474], [-3.93395632544821, 51.122311902250665], [-3.936225699265821, 51.12357308437034], [-3.933594365757407, 51.12499997775267], [-3.9335243759530445, 51.12487774649194]]]}}, {"type": "Feature", "properties": {"type": "postcode-cell", "postcode": "EX31 4UH", "postcodes": ["EX31 4UH"]}, "geometry": {"type": "Polygon", "coordinates": [[[-3.933594365757407, 51.12499997775267], [-3.933811002240629, 51.12613708774947], [-3.9327605257228804, 51.12721840511366], [-3.929863923243997, 51.12354971357826], [-3.930358948146652, 51.123576807176775], [-3.9335243759530445, 51.12487774649194], [-3.933594365757407, 51.12499997775267]]]}}, {"type": "Feature", "properties": {"type": "postcode-cell", "postcode": "EX31 4SH", "postcodes": ["EX31 4SH"]}, "geometry": {"type": "MultiPolygon", "coordinates": [[[[-3.8974651426208324, 51.173099401513944], [-3.8976399897805742, 51.173339995103404], [-3.8979499897799905, 51.175099995104866], [-3.899349989780366, 51.17636999510591], [-3.8990699897798513, 51.177089995106485], [-3.8974199897781396, 51.17842999510761], [-3.8971199897774964, 51.179409995108436], [-3.898169989777578, 51.180799995109574], [-3.896919989776809, 51.18063999510946], [-3.8968799897769966, 51.180159995109065], [-3.896129989776721, 51.17964999510865], [-3.895779989777128, 51.17821999510746], [-3.893322522853726, 51.17610073839481], [-3.8974651426208324, 51.173099401513944]]], [[[-3.9137267274765444, 51.16131270931087], [-3.925547434958873, 51.15858743787162], [-3.9292733282619716, 51.160399608106346], [-3.932168140920172, 51.166256215755894], [-3.930074341345806, 51.16947997109148], [-3.9262799898019156, 51.16884999509959], [-3.925079989800675, 51.169809995100415], [-3.9237999898002056, 51.168929995099695], [-3.9210199897986344, 51.16823999509913], [-3.913319989793506, 51.16808999509902], [-3.911369989791465, 51.16969999510035], [-3.909229989788736, 51.17255999510273], [-3.9008899897839, 51.170809995101294], [-3.90070759427231, 51.17074986753261], [-3.9137267274765444, 51.16131270931087]]]]}}, {"type": "Feature", "properties": {"type": "postcode-cell", "postcode": "EX32 7LL", "postcodes": ["EX32 7LL"]}, "geometry": {"type": "Polygon", "coordinates": [[[-3.9313275631397615, 51.09576761772567], [-3.930737529120203, 51.101965029896974], [-3.927351980315946, 51.10414824148867], [-3.924514289849218, 51.10381272969392], [-3.9043275906899604, 51.10005105058667], [-3.9030542021111523, 51.09913363717787], [-3.9028499898183138, 51.09727999504065], [-3.902169989818447, 51.09596999503956], [-3.906599989822526, 51.09351999503754], [-3.907049989823884, 51.09117999503561], [-3.9116499898273123, 51.09042999503497], [-3.9132099898278168, 51.09162999503596], [-3.9154899898296343, 51.09099999503542], [-3.9188499898319953, 51.090769995035224], [-3.9219891638149713, 51.08994218268281], [-3.9313275631397615, 51.09576761772567]]]}}, {"type": "Feature", "properties": {"type": "postcode-cell", "postcode": "EX32 7JL", "postcodes": ["EX32 7JL"]}, "geometry": {"type": "Polygon", "coordinates": [[[-3.9341281880010714, 51.12046610839718], [-3.93395632544821, 51.122311902250665], [-3.9337407274639182, 51.12258698914474], [-3.930358948146652, 51.123576807176775], [-3.929863923243997, 51.12354971357826], [-3.925971846370546, 51.12281416144291], [-3.9195111163840055, 51.11844279508258], [-3.9201356964519145, 51.118213271624974], [-3.9341281880010714, 51.12046610839718]]]}}, {"type": "Feature", "properties": {"type": "postcode-cell", "postcode": "EX32 7JG", "postcodes": ["EX32 7JG"]}, "geometry": {"type": "Polygon", "coordinates": [[[-3.930358948146652, 51.123576807176775], [-3.9337407274639182, 51.12258698914474], [-3.9335243759530445, 51.12487774649194], [-3.930358948146652, 51.123576807176775]]]}}, {"type": "Feature", "properties": {"type": "postcode-cell", "postcode": "EX31 4SG", "postcodes": ["EX31 4SG"]}, "geometry": {"type": "Polygon", "coordinates": [[[-3.9391826074020506, 51.145320899058746], [-3.9262885359089483, 51.155967189730546], [-3.9110363825704697, 51.14368647693257], [-3.9120572198217443, 51.14253221850811], [-3.9239584578023603, 51.14060345543262], [-3.9391826074020506, 51.145320899058746]]]}}, {"type": "Feature", "properties": {"type": "postcode-cell", "postcode": "EX31 4EN", "postcodes": ["EX31 4EN"]}, "geometry": {"type": "Polygon", "coordinates": [[[-3.9307713587858744, 51.129819236840994], [-3.925971846370546, 51.12281416144291], [-3.929863923243997, 51.12354971357826], [-3.9327605257228804, 51.12721840511366], [-3.9307713587858744, 51.129819236840994]]]}}, {"type": "Feature", "properties": {"type": "postcode-cell", "postcode": "EX31 4TL", "postcodes": ["EX31 4TL"]}, "geometry": {"type": "Polygon", "coordinates": [[[-3.925971846370546, 51.12281416144291], [-3.9307713587858744, 51.129819236840994], [-3.9306535272633076, 51.13066945153259], [-3.9269028906682237, 51.132036050231285], [-3.922373978500102, 51.130230705961914], [-3.9207202218916697, 51.1288743112585], [-3.9176233554224265, 51.11870262190448], [-3.9195111163840055, 51.11844279508258], [-3.925971846370546, 51.12281416144291]]]}}, {"type": "Feature", "properties": {"type": "postcode-cell", "postcode": "EX32 7QQ", "postcodes": ["EX32 7QQ"]}, "geometry": {"type": "MultiPolygon", "coordinates": [[[[-3.9043275906899604, 51.10005105058667], [-3.9043479138046164, 51.10011819664679], [-3.903109989817424, 51.099639995042594], [-3.9030542021111523, 51.09913363717787], [-3.9043275906899604, 51.10005105058667]]], [[[-3.909728071325664, 51.1178865300834], [-3.893756663932725, 51.12494808053708], [-3.8942599898003305, 51.12436999506298], [-3.893329989799783, 51.12419999506285], [-3.89317998979996, 51.123579995062336], [-3.892419989799457, 51.12356999506233], [-3.8924599897997996, 51.12286999506174], [-3.890989989798746, 51.12300999506188], [-3.891099989799001, 51.122609995061524], [-3.890429989798692, 51.1222999950613], [-3.890559989799093, 51.1215999950607], [-3.889729989798781, 51.121059995060286], [-3.8897099897994822, 51.119469995058964], [-3.8891599897992126, 51.119249995058794], [-3.8878699897982205, 51.11952999505901], [-3.8862899897974033, 51.11898999505858], [-3.8854799897976586, 51.117219995057134], [-3.887209989799079, 51.116639995056644], [-3.888259989800416, 51.11524999505552], [-3.8911499898027784, 51.11430999505473], [-3.8920299898038593, 51.11321999505381], [-3.8928299898042757, 51.11348999505404], [-3.894809989805678, 51.113329995053896], [-3.8939799898063914, 51.11050999505157], [-3.8941599898070907, 51.109229995050526], [-3.8972599898090454, 51.10950999505073], [-3.8984199898099345, 51.109259995050515], [-3.902859989812458, 51.11027999505135], [-3.9043799898136706, 51.10985999505099], [-3.9051399898144927, 51.10916999505041], [-3.9064799898146356, 51.110849995051794], [-3.9075128618478097, 51.1105724140941], [-3.909728071325664, 51.1178865300834]]]]}}, {"type": "Feature", "properties": {"type": "postcode-cell", "postcode": "EX32 7JN", "postcodes": ["EX32 7JN"]}, "geometry": {"type": "Polygon", "coordinates": [[[-3.9207202218916697, 51.1288743112585], [-3.900755647807446, 51.130210323100094], [-3.8931226765293667, 51.12576304217176], [-3.893001501110254, 51.12561217618409], [-3.8932499897991293, 51.12552999506395], [-3.893756663932725, 51.12494808053708], [-3.909728071325664, 51.1178865300834], [-3.909896866025434, 51.117896780592744], [-3.9176233554224265, 51.11870262190448], [-3.9207202218916697, 51.1288743112585]]]}}, {"type": "Feature", "properties": {"type": "postcode-cell", "postcode": "EX31 4TY", "postcodes": ["EX31 4TY"]}, "geometry": {"type": "Polygon", "coordinates": [[[-3.9239584578023603, 51.14060345543262], [-3.9120572198217443, 51.14253221850811], [-3.907224009416106, 51.1357274915724], [-3.922373978500102, 51.130230705961914], [-3.9269028906682237, 51.132036050231285], [-3.9239584578023603, 51.14060345543262]]]}}, {"type": "Feature", "properties": {"type": "postcode-cell", "postcode": "EX31 4SQ", "postcodes": ["EX31 4SQ"]}, "geometry": {"type": "Polygon", "coordinates": [[[-3.925547434958873, 51.15858743787162], [-3.9137267274765444, 51.16131270931087], [-3.9068506888545182, 51.15046487030493], [-3.905012575739315, 51.14684065262344], [-3.9110363825704697, 51.14368647693257], [-3.9262885359089483, 51.155967189730546], [-3.925547434958873, 51.15858743787162]]]}}, {"type": "Feature", "properties": {"type": "postcode-cell", "postcode": "EX32 7LF", "postcodes": ["EX32 7LF"]}, "geometry": {"type": "Polygon", "coordinates": [[[-3.924514289849218, 51.10381272969392], [-3.909896866025434, 51.117896780592744], [-3.909728071325664, 51.1178865300834], [-3.9075128618478097, 51.1105724140941], [-3.9080799898159047, 51.11041999505144], [-3.908469989815927, 51.110949995051875], [-3.908349989816675, 51.10911999505036], [-3.909159989818153, 51.107039995048645], [-3.9082399898195814, 51.10249999504491], [-3.907699989819245, 51.10243999504487], [-3.905879989818801, 51.10070999504345], [-3.9043479138046164, 51.10011819664679], [-3.9043275906899604, 51.10005105058667], [-3.924514289849218, 51.10381272969392]]]}}, {"type": "Feature", "properties": {"type": "postcode-cell", "postcode": "EX31 4TN", "postcodes": ["EX31 4TN"]}, "geometry": {"type": "Polygon", "coordinates": [[[-3.9110363825704697, 51.14368647693257], [-3.905012575739315, 51.14684065262344], [-3.9015555953520265, 51.14721687338962], [-3.8890000257900628, 51.142640740652595], [-3.8931226765293667, 51.12576304217176], [-3.900755647807446, 51.130210323100094], [-3.907224009416106, 51.1357274915724], [-3.9120572198217443, 51.14253221850811], [-3.9110363825704697, 51.14368647693257]]]}}, {"type": "Feature", "properties": {"type": "postcode-cell", "postcode": "EX32 7JJ", "postcodes": ["EX32 7JJ"]}, "geometry": {"type": "Polygon", "coordinates": [[[-3.922373978500102, 51.130230705961914], [-3.907224009416106, 51.1357274915724], [-3.900755647807446, 51.130210323100094], [-3.9207202218916697, 51.1288743112585], [-3.922373978500102, 51.130230705961914]]]}}, {"type": "Feature", "properties": {"type": "postcode-cell", "postcode": "EX31 4UB", "postcodes": ["EX31 4UB"]}, "geometry": {"type": "Polygon", "coordinates": [[[-3.9068506888545182, 51.15046487030493], [-3.890050764358388, 51.17114949536303], [-3.8897146947484322, 51.15678317970111], [-3.9015555953520265, 51.14721687338962], [-3.905012575739315, 51.14684065262344], [-3.9068506888545182, 51.15046487030493]]]}}, {"type": "Feature", "properties": {"type": "postcode-cell", "postcode": "EX31 4TW", "postcodes": ["EX31 4TW"]}, "geometry": {"type": "Polygon", "coordinates": [[[-3.9015555953520265, 51.14721687338962], [-3.8897146947484322, 51.15678317970111], [-3.881626921092222, 51.151436997699925], [-3.880989794575857, 51.14441966731202], [-3.8890000257900628, 51.142640740652595], [-3.9015555953520265, 51.14721687338962]]]}}, {"type": "Feature", "properties": {"type": "postcode-cell", "postcode": "EX31 4TR", "postcodes": ["EX31 4TR"]}, "geometry": {"type": "Polygon", "coordinates": [[[-3.8890000257900628, 51.142640740652595], [-3.880989794575857, 51.14441966731202], [-3.852049342189737, 51.1363171619639], [-3.8566199897702083, 51.13514999507201], [-3.865719989777586, 51.132319995069636], [-3.869319989780249, 51.131769995069185], [-3.8719799897824014, 51.13095999506851], [-3.873309989783253, 51.13104999506859], [-3.877379989786661, 51.12954999506733], [-3.8805199897889135, 51.129229995067064], [-3.881249989789772, 51.12840999506638], [-3.8835699897916807, 51.12762999506572], [-3.8872599897944045, 51.127089995065255], [-3.8883299897948924, 51.127599995065665], [-3.890709989797044, 51.126369995064664], [-3.893001501110254, 51.12561217618409], [-3.8931226765293667, 51.12576304217176], [-3.8890000257900628, 51.142640740652595]]]}}, {"type": "Feature", "properties": {"type": "postcode-cell", "postcode": "EX31 4TS", "postcodes": ["EX31 4TS"]}, "geometry": {"type": "Polygon", "coordinates": [[[-3.881626921092222, 51.151436997699925], [-3.873285994027065, 51.15311177608226], [-3.8486927072050565, 51.13717416637149], [-3.852049342189737, 51.1363171619639], [-3.880989794575857, 51.14441966731202], [-3.881626921092222, 51.151436997699925]]]}}, {"type": "Feature", "properties": {"type": "postcode-cell", "postcode": "EX31 4TT", "postcodes": ["EX31 4TT"]}, "geometry": {"type": "Polygon", "coordinates": [[[-3.873285994027065, 51.15311177608226], [-3.86075354076821, 51.17568462463965], [-3.852279989749611, 51.17432999510436], [-3.8435599897441595, 51.17343999510364], [-3.8421799897429243, 51.17411999510419], [-3.8417099897422817, 51.174849995104815], [-3.8419299897421078, 51.175559995105395], [-3.840379989740938, 51.17584999510565], [-3.839819989740194, 51.17666999510636], [-3.8389199897403623, 51.174959995104906], [-3.837499989742841, 51.167359995098664], [-3.8364599897431932, 51.16503999509673], [-3.83534998974739, 51.15410999508772], [-3.8320699897465125, 51.151189995085325], [-3.834469989750984, 51.14485999508009], [-3.834739989752738, 51.14137999507724], [-3.8420099897587363, 51.13887999507514], [-3.8486927072050565, 51.13717416637149], [-3.873285994027065, 51.15311177608226]]]}}]}