{"type": "FeatureCollection", "features": [{"type": "Feature", "properties": {"type": "ward-outline", "name": "Braunton East"}, "geometry": {"type": "Polygon", "coordinates": [[[-4.09219, 51.15461], [-4.09394, 51.15351], [-4.094, 51.15265], [-4.09607, 51.15134], [-4.09779, 51.14786], [-4.10166, 51.1456], [-4.10499, 51.14195], [-4.10915, 51.1384], [-4.11097, 51.13887], [-4.11187, 51.13641], [-4.11127, 51.13643], [-4.11105, 51.13426], [-4.10836, 51.13476], [-4.10862, 51.13313], [-4.10779, 51.13167], [-4.1014, 51.13135], [-4.10134, 51.12985], [-4.10175, 51.12982], [-4.10079, 51.12673], [-4.10192, 51.12605], [-4.10375, 51.12555], [-4.10498, 51.12445], [-4.10564, 51.12313], [-4.1055, 51.1226], [-4.10467, 51.12215], [-4.10204, 51.12186], [-4.09785, 51.11997], [-4.09816, 51.11955], [-4.0975, 51.1191], [-4.09684, 51.11713], [-4.0973, 51.11604], [-4.09709, 51.11474], [-4.0977, 51.11437], [-4.09917, 51.11398], [-4.09996, 51.11406], [-4.10327, 51.1131], [-4.10585, 51.10985], [-4.10749, 51.10974], [-4.10893, 51.10878], [-4.10994, 51.10871], [-4.11185, 51.1108], [-4.11394, 51.11098], [-4.11599, 51.11073], [-4.11634, 51.10988], [-4.11775, 51.10937], [-4.11829, 51.10875], [-4.1198, 51.10883], [-4.12007, 51.10859], [-4.12072, 51.10646], [-4.12044, 51.1049], [-4.12089, 51.10474], [-4.12213, 51.10491], [-4.1226, 51.10535], [-4.1243, 51.10503], [-4.12543, 51.10518], [-4.12588, 51.10479], [-4.1297, 51.10458], [-4.13127, 51.10487], [-4.13187, 51.10463], [-4.13251, 51.10491], [-4.13353, 51.10421], [-4.13444, 51.10457], [-4.13787, 51.10462], [-4.14427, 51.10365], [-4.14421, 51.10396], [-4.14539, 51.10375], [-4.1457, 51.1048], [-4.14602, 51.10441], [-4.14757, 51.10444], [-4.15209, 51.10364], [-4.15558, 51.10229], [-4.15611, 51.10176], [-4.15814, 51.10162], [-4.15989, 51.1002], [-4.16143, 51.10061], [-4.16263, 51.10253], [-4.16105, 51.10814], [-4.16131, 51.10851], [-4.16783, 51.10894], [-4.16685, 51.11044], [-4.16859, 51.1107], [-4.16833, 51.1112], [-4.16895, 51.11137], [-4.16884, 51.11161], [-4.16916, 51.11169], [-4.16972, 51.11117], [-4.16999, 51.11135], [-4.16952, 51.11242], [-4.17042, 51.11315], [-4.16999, 51.11337], [-4.17055, 51.11359], [-4.17114, 51.11495], [-4.17433, 51.11617], [-4.17396, 51.11724], [-4.17421, 51.11801], [-4.17651, 51.12059], [-4.1772, 51.12216], [-4.17724, 51.12581], [-4.17614, 51.12823], [-4.17814, 51.13329], [-4.18023, 51.13563], [-4.1724, 51.13459], [-4.17211, 51.13627], [-4.17086, 51.13631], [-4.17145, 51.1373], [-4.16906, 51.13904], [-4.16769, 51.13913], [-4.16365, 51.1386], [-4.16116, 51.13953], [-4.15521, 51.13847], [-4.153, 51.13917], [-4.15219, 51.13912], [-4.15072, 51.14001], [-4.1499, 51.13981], [-4.14674, 51.14039], [-4.14502, 51.13973], [-4.13929, 51.1389], [-4.13618, 51.13897], [-4.13496, 51.13944], [-4.13404, 51.13924], [-4.13283, 51.13951], [-4.13088, 51.14054], [-4.13001, 51.14068], [-4.12886, 51.14171], [-4.1273, 51.14195], [-4.12201, 51.1458], [-4.12041, 51.1462], [-4.12004, 51.14602], [-4.11892, 51.14638], [-4.11796, 51.14629], [-4.11776, 51.14654], [-4.11616, 51.14657], [-4.11445, 51.1471], [-4.11382, 51.14809], [-4.11401, 51.14931], [-4.11094, 51.15099], [-4.10979, 51.15303], [-4.10967, 51.15408], [-4.10771, 51.15529], [-4.10068, 51.15449], [-4.09665, 51.15487], [-4.09219, 51.15461]]]}}, {"type": "Feature", "properties": {"type": "postcode-cell", "postcode": "EX33 1HU", "postcodes": ["EX33 1HU"]}, "geometry": {"type": "Polygon", "coordinates": [[[-4.165272662921637, 51.12713641643976], [-4.165318559722035, 51.125775413102744], [-4.16624134832168, 51.12457391007943], [-4.16923528473287, 51.1231999155096], [-4.176391065979747, 51.12045660168282], [-4.176509989993951, 51.120589995058864], [-4.177199989993737, 51.12215999506019], [-4.177239989992159, 51.12580999506319], [-4.176139989990337, 51.12822999506521], [-4.178070358971395, 51.13311384859203], [-4.165272662921637, 51.12713641643976]]]}}, {"type": "Feature", "properties": {"type": "postcode-cell", "postcode": "EX33 1HW", "postcodes": ["EX33 1HW"]}, "geometry": {"type": "Polygon", "coordinates": [[[-4.16624134832168, 51.12457391007943], [-4.164908464344623, 51.123099761644376], [-4.165385729926877, 51.117377653974884], [-4.16923528473287, 51.1231999155096], [-4.16624134832168, 51.12457391007943]]]}}, {"type": "Feature", "properties": {"type": "postcode-cell", "postcode": "EX33 1BS", "postcodes": ["EX33 1BS"]}, "geometry": {"type": "Polygon", "coordinates": [[[-4.1677818100167805, 51.11358870469558], [-4.16915494385206, 51.11287387908271], [-4.1699155368759895, 51.112740831279424], [-4.170419989993036, 51.113149995052716], [-4.1699899899926445, 51.11336999505289], [-4.170549989992934, 51.11358999505308], [-4.170781820573934, 51.114124394468455], [-4.1677818100167805, 51.11358870469558]]]}}, {"type": "Feature", "properties": {"type": "postcode-cell", "postcode": "EX33 1AS", "postcodes": ["EX33 1AS"]}, "geometry": {"type": "Polygon", "coordinates": [[[-4.1677818100167805, 51.11358870469558], [-4.166597413425381, 51.113997636854485], [-4.165956826049259, 51.11238002543946], [-4.166300594634141, 51.1119310582463], [-4.16726724534335, 51.11162674760599], [-4.168384568402128, 51.11164175713097], [-4.16915494385206, 51.11287387908271], [-4.1677818100167805, 51.11358870469558]]]}}, {"type": "Feature", "properties": {"type": "postcode-cell", "postcode": "EX33 1BG", "postcodes": ["EX33 1BG"]}, "geometry": {"type": "Polygon", "coordinates": [[[-4.1677818100167805, 51.11358870469558], [-4.170781820573934, 51.114124394468455], [-4.17113998999274, 51.11494999505422], [-4.174329989994394, 51.116169995055195], [-4.17395998999367, 51.117239995056096], [-4.174177286897305, 51.1179092710835], [-4.166207489092082, 51.116109824209744], [-4.166105551166113, 51.11479142430334], [-4.166597413425381, 51.113997636854485], [-4.1677818100167805, 51.11358870469558]]]}}, {"type": "Feature", "properties": {"type": "postcode-cell", "postcode": "EX33 1AX", "postcodes": ["EX33 1AX"]}, "geometry": {"type": "Polygon", "coordinates": [[[-4.16915494385206, 51.11287387908271], [-4.168384568402128, 51.11164175713097], [-4.168865154085307, 51.111346733862874], [-4.168949989992806, 51.111369995051234], [-4.168839989992629, 51.111609995051445], [-4.169159989992813, 51.1116899950515], [-4.169719989993425, 51.11116999505108], [-4.169989989993534, 51.11134999505123], [-4.16951998999274, 51.112419995052115], [-4.1699155368759895, 51.112740831279424], [-4.16915494385206, 51.11287387908271]]]}}, {"type": "Feature", "properties": {"type": "postcode-cell", "postcode": "EX33 1AU", "postcodes": ["EX33 1AU"]}, "geometry": {"type": "Polygon", "coordinates": [[[-4.168384568402128, 51.11164175713097], [-4.16726724534335, 51.11162674760599], [-4.167733456198828, 51.11057201086149], [-4.168589989992858, 51.11069999505068], [-4.1683299899924595, 51.1111999950511], [-4.168865154085307, 51.111346733862874], [-4.168384568402128, 51.11164175713097]]]}}, {"type": "Feature", "properties": {"type": "postcode-cell", "postcode": "EX33 1HB", "postcodes": ["EX33 1HB"]}, "geometry": {"type": "Polygon", "coordinates": [[[-4.1669444079229745, 51.109603272507755], [-4.165825013836319, 51.10880780468709], [-4.167829989993111, 51.10893999504923], [-4.167327955632211, 51.109708427867716], [-4.1669444079229745, 51.109603272507755]]]}}, {"type": "Feature", "properties": {"type": "postcode-cell", "postcode": "EX33 1HN", "postcodes": ["EX33 1HN"]}, "geometry": {"type": "Polygon", "coordinates": [[[-4.1652000959048205, 51.11652762766064], [-4.166207489092082, 51.116109824209744], [-4.174177286897305, 51.1179092710835], [-4.1742099899935035, 51.11800999505671], [-4.176391065979747, 51.12045660168282], [-4.16923528473287, 51.1231999155096], [-4.165385729926877, 51.117377653974884], [-4.1652000959048205, 51.11652762766064]]]}}, {"type": "Feature", "properties": {"type": "postcode-cell", "postcode": "EX33 1HP", "postcodes": ["EX33 1HP"]}, "geometry": {"type": "Polygon", "coordinates": [[[-4.165385729926877, 51.117377653974884], [-4.164908464344623, 51.123099761644376], [-4.1615933255784725, 51.12032936385815], [-4.163879451589246, 51.116786154588716], [-4.164142711592132, 51.116712765668126], [-4.1652000959048205, 51.11652762766064], [-4.165385729926877, 51.117377653974884]]]}}, {"type": "Feature", "properties": {"type": "postcode-cell", "postcode": "EX33 1AT", "postcodes": ["EX33 1AT"]}, "geometry": {"type": "Polygon", "coordinates": [[[-4.16698853569526, 51.11022794155732], [-4.166849989991778, 51.11043999505047], [-4.167733456198828, 51.11057201086149], [-4.16726724534335, 51.11162674760599], [-4.166300594634141, 51.1119310582463], [-4.165942779935172, 51.11097392877152], [-4.1663668662248226, 51.11050614499811], [-4.16698853569526, 51.11022794155732]]]}}, {"type": "Feature", "properties": {"type": "postcode-cell", "postcode": "EX33 1AL", "postcodes": ["EX33 1AL"]}, "geometry": {"type": "Polygon", "coordinates": [[[-4.1663668662248226, 51.11050614499811], [-4.16528130385947, 51.10995482361487], [-4.1653423357529, 51.10970735007454], [-4.1669444079229745, 51.109603272507755], [-4.167327955632211, 51.109708427867716], [-4.16698853569526, 51.11022794155732], [-4.1663668662248226, 51.11050614499811]]]}}, {"type": "Feature", "properties": {"type": "postcode-cell", "postcode": "EX33 2BG", "postcodes": ["EX33 2BG"]}, "geometry": {"type": "Polygon", "coordinates": [[[-4.162176187462566, 51.10240326526109], [-4.161183110317764, 51.101534733054834], [-4.16171906401923, 51.10107252962677], [-4.162589344655355, 51.102464965393054], [-4.162176187462566, 51.10240326526109]]]}}, {"type": "Feature", "properties": {"type": "postcode-cell", "postcode": "EX33 1FJ", "postcodes": ["EX33 1FJ"]}, "geometry": {"type": "Polygon", "coordinates": [[[-4.1663668662248226, 51.11050614499811], [-4.165942779935172, 51.11097392877152], [-4.164410528288279, 51.11061506015284], [-4.164404200458855, 51.11059944310384], [-4.164422534723123, 51.110498240564674], [-4.16528130385947, 51.10995482361487], [-4.1663668662248226, 51.11050614499811]]]}}, {"type": "Feature", "properties": {"type": "postcode-cell", "postcode": "EX33 1BB", "postcodes": ["EX33 1BB"]}, "geometry": {"type": "Polygon", "coordinates": [[[-4.166597413425381, 51.113997636854485], [-4.166105551166113, 51.11479142430334], [-4.164853193934121, 51.11429767616964], [-4.163291183477961, 51.112679384361996], [-4.163778190496921, 51.11208914302862], [-4.164442948668334, 51.112013382326616], [-4.165956826049259, 51.11238002543946], [-4.166597413425381, 51.113997636854485]]]}}, {"type": "Feature", "properties": {"type": "postcode-cell", "postcode": "EX33 1AR", "postcodes": ["EX33 1AR"]}, "geometry": {"type": "Polygon", "coordinates": [[[-4.166300594634141, 51.1119310582463], [-4.165956826049259, 51.11238002543946], [-4.164442948668334, 51.112013382326616], [-4.164157648655044, 51.11092669973575], [-4.164410528288279, 51.11061506015284], [-4.165942779935172, 51.11097392877152], [-4.166300594634141, 51.1119310582463]]]}}, {"type": "Feature", "properties": {"type": "postcode-cell", "postcode": "EX33 1QJ", "postcodes": ["EX33 1QJ"]}, "geometry": {"type": "Polygon", "coordinates": [[[-4.165323228741543, 51.10877471591332], [-4.165825013836319, 51.10880780468709], [-4.1669444079229745, 51.109603272507755], [-4.1653423357529, 51.10970735007454], [-4.164995641860139, 51.10935888868859], [-4.165323228741543, 51.10877471591332]]]}}, {"type": "Feature", "properties": {"type": "postcode-cell", "postcode": "EX33 1AG", "postcodes": ["EX33 1AG"]}, "geometry": {"type": "Polygon", "coordinates": [[[-4.164995641860139, 51.10935888868859], [-4.163996705056391, 51.109508358099916], [-4.164221174221245, 51.108932393419586], [-4.165259877689158, 51.10877053825367], [-4.165323228741543, 51.10877471591332], [-4.164995641860139, 51.10935888868859]]]}}, {"type": "Feature", "properties": {"type": "postcode-cell", "postcode": "EX33 2EJ", "postcodes": ["EX33 2EJ"]}, "geometry": {"type": "Polygon", "coordinates": [[[-4.16281415538711, 51.12862858849278], [-4.1620872206182815, 51.12841638308911], [-4.1566801921305725, 51.12656029593358], [-4.155668082400409, 51.12564278241293], [-4.157156462483377, 51.124669090910004], [-4.158953855044317, 51.1242082057756], [-4.165318559722035, 51.125775413102744], [-4.165272662921637, 51.12713641643976], [-4.16281415538711, 51.12862858849278]]]}}, {"type": "Feature", "properties": {"type": "postcode-cell", "postcode": "EX33 1HT", "postcodes": ["EX33 1HT"]}, "geometry": {"type": "Polygon", "coordinates": [[[-4.160165192784796, 51.135171033037395], [-4.1599113032315485, 51.13421504813838], [-4.162681916456227, 51.12873273094936], [-4.16281415538711, 51.12862858849278], [-4.165272662921637, 51.12713641643976], [-4.178070358971395, 51.13311384859203], [-4.178139989989492, 51.13328999506941], [-4.180229989989904, 51.13562999507135], [-4.172399989984966, 51.13458999507051], [-4.17210998998403, 51.1362699950719], [-4.170859989983152, 51.13630999507194], [-4.171449989983121, 51.13729999507275], [-4.169059989980716, 51.13903999507422], [-4.167689989979732, 51.1391299950743], [-4.163649989977182, 51.13859999507387], [-4.163552306971311, 51.13863648077957], [-4.160165192784796, 51.135171033037395]]]}}, {"type": "Feature", "properties": {"type": "postcode-cell", "postcode": "EX33 1BE", "postcodes": ["EX33 1BE"]}, "geometry": {"type": "Polygon", "coordinates": [[[-4.166105551166113, 51.11479142430334], [-4.166207489092082, 51.116109824209744], [-4.1652000959048205, 51.11652762766064], [-4.164142711592132, 51.116712765668126], [-4.161099694958086, 51.11399314155281], [-4.162063388292057, 51.11362888655572], [-4.164853193934121, 51.11429767616964], [-4.166105551166113, 51.11479142430334]]]}}, {"type": "Feature", "properties": {"type": "postcode-cell", "postcode": "EX33 2LL", "postcodes": ["EX33 2LL"]}, "geometry": {"type": "Polygon", "coordinates": [[[-4.16624134832168, 51.12457391007943], [-4.165318559722035, 51.125775413102744], [-4.158953855044317, 51.1242082057756], [-4.157649006276273, 51.12326277081156], [-4.156363727531337, 51.119347240900325], [-4.1615933255784725, 51.12032936385815], [-4.164908464344623, 51.123099761644376], [-4.16624134832168, 51.12457391007943]]]}}, {"type": "Feature", "properties": {"type": "postcode-cell", "postcode": "EX33 1AJ", "postcodes": ["EX33 1AJ"]}, "geometry": {"type": "Polygon", "coordinates": [[[-4.164422534723123, 51.110498240564674], [-4.1636895998246, 51.10958878149025], [-4.163996705056391, 51.109508358099916], [-4.164995641860139, 51.10935888868859], [-4.1653423357529, 51.10970735007454], [-4.16528130385947, 51.10995482361487], [-4.164422534723123, 51.110498240564674]]]}}, {"type": "Feature", "properties": {"type": "postcode-cell", "postcode": "EX33 1FA", "postcodes": ["EX33 1FA"]}, "geometry": {"type": "Polygon", "coordinates": [[[-4.163996705056391, 51.109508358099916], [-4.1636895998246, 51.10958878149025], [-4.163414187581537, 51.10953580393845], [-4.163063727912049, 51.108699472371384], [-4.163062037108738, 51.10862558076773], [-4.163579470382533, 51.108659711632214], [-4.164221174221245, 51.108932393419586], [-4.163996705056391, 51.109508358099916]]]}}, {"type": "Feature", "properties": {"type": "postcode-cell", "postcode": "EX33 1AP", "postcodes": ["EX33 1AP"]}, "geometry": {"type": "Polygon", "coordinates": [[[-4.164442948668334, 51.112013382326616], [-4.163778190496921, 51.11208914302862], [-4.163624938854121, 51.11203890084703], [-4.162994930634747, 51.111115397738395], [-4.164157648655044, 51.11092669973575], [-4.164442948668334, 51.112013382326616]]]}}, {"type": "Feature", "properties": {"type": "postcode-cell", "postcode": "EX33 1AN", "postcodes": ["EX33 1AN"]}, "geometry": {"type": "Polygon", "coordinates": [[[-4.164404200458855, 51.11059944310384], [-4.1622035623295615, 51.11030876948488], [-4.16207610132917, 51.1101123888572], [-4.163414187581537, 51.10953580393845], [-4.1636895998246, 51.10958878149025], [-4.164422534723123, 51.110498240564674], [-4.164404200458855, 51.11059944310384]]]}}, {"type": "Feature", "properties": {"type": "postcode-cell", "postcode": "EX33 1AH", "postcodes": ["EX33 1AH"]}, "geometry": {"type": "Polygon", "coordinates": [[[-4.164221174221245, 51.108932393419586], [-4.163579470382533, 51.108659711632214], [-4.165259877689158, 51.10877053825367], [-4.164221174221245, 51.108932393419586]]]}}, {"type": "Feature", "properties": {"type": "postcode-cell", "postcode": "EX33 1AF", "postcodes": ["EX33 1AF"]}, "geometry": {"type": "Polygon", "coordinates": [[[-4.163063727912049, 51.108699472371384], [-4.161720017383253, 51.109411543429744], [-4.161558757781411, 51.109107339702845], [-4.161595827320002, 51.1090234926898], [-4.161929812264673, 51.108550888920625], [-4.163062037108738, 51.10862558076773], [-4.163063727912049, 51.108699472371384]]]}}, {"type": "Feature", "properties": {"type": "postcode-cell", "postcode": "EX33 1AD", "postcodes": ["EX33 1AD"]}, "geometry": {"type": "Polygon", "coordinates": [[[-4.163414187581537, 51.10953580393845], [-4.16207610132917, 51.1101123888572], [-4.161759263721571, 51.11001354420539], [-4.1616863991215824, 51.1098932374598], [-4.161720017383253, 51.109411543429744], [-4.163063727912049, 51.108699472371384], [-4.163414187581537, 51.10953580393845]]]}}, {"type": "Feature", "properties": {"type": "postcode-cell", "postcode": "EX33 1BD", "postcodes": ["EX33 1BD"]}, "geometry": {"type": "Polygon", "coordinates": [[[-4.162063388292057, 51.11362888655572], [-4.162087817925, 51.1130082431931], [-4.1621461335695695, 51.11293170658001], [-4.163291183477961, 51.112679384361996], [-4.164853193934121, 51.11429767616964], [-4.162063388292057, 51.11362888655572]]]}}, {"type": "Feature", "properties": {"type": "postcode-cell", "postcode": "EX33 1HQ", "postcodes": ["EX33 1HQ"]}, "geometry": {"type": "Polygon", "coordinates": [[[-4.163778190496921, 51.11208914302862], [-4.163291183477961, 51.112679384361996], [-4.1621461335695695, 51.11293170658001], [-4.161891879411546, 51.112073039499485], [-4.162340083729573, 51.11193965617901], [-4.163624938854121, 51.11203890084703], [-4.163778190496921, 51.11208914302862]]]}}, {"type": "Feature", "properties": {"type": "postcode-cell", "postcode": "EX33 1AW", "postcodes": ["EX33 1AW"]}, "geometry": {"type": "Polygon", "coordinates": [[[-4.164410528288279, 51.11061506015284], [-4.164157648655044, 51.11092669973575], [-4.162994930634747, 51.111115397738395], [-4.162605409140203, 51.11104239030844], [-4.162259231361906, 51.11081133379175], [-4.1622035623295615, 51.11030876948488], [-4.164404200458855, 51.11059944310384], [-4.164410528288279, 51.11061506015284]]]}}, {"type": "Feature", "properties": {"type": "postcode-cell", "postcode": "EX33 2ES", "postcodes": ["EX33 2ES"]}, "geometry": {"type": "Polygon", "coordinates": [[[-4.1622035623295615, 51.11030876948488], [-4.162259231361906, 51.11081133379175], [-4.16122784232411, 51.11132668513069], [-4.160263911516215, 51.11066380874422], [-4.160312985434398, 51.11040628745211], [-4.161759263721571, 51.11001354420539], [-4.16207610132917, 51.1101123888572], [-4.1622035623295615, 51.11030876948488]]]}}, {"type": "Feature", "properties": {"type": "postcode-cell", "postcode": "EX33 1BA", "postcodes": ["EX33 1BA"]}, "geometry": {"type": "Polygon", "coordinates": [[[-4.163624938854121, 51.11203890084703], [-4.162340083729573, 51.11193965617901], [-4.162605409140203, 51.11104239030844], [-4.162994930634747, 51.111115397738395], [-4.163624938854121, 51.11203890084703]]]}}, {"type": "Feature", "properties": {"type": "postcode-cell", "postcode": "EX33 1HL", "postcodes": ["EX33 1HL"]}, "geometry": {"type": "Polygon", "coordinates": [[[-4.162605409140203, 51.11104239030844], [-4.162340083729573, 51.11193965617901], [-4.161891879411546, 51.112073039499485], [-4.1610708446998075, 51.11185192777777], [-4.16122784232411, 51.11132668513069], [-4.162259231361906, 51.11081133379175], [-4.162605409140203, 51.11104239030844]]]}}, {"type": "Feature", "properties": {"type": "postcode-cell", "postcode": "EX33 2HU", "postcodes": ["EX33 2HU"]}, "geometry": {"type": "Polygon", "coordinates": [[[-4.161183110317764, 51.101534733054834], [-4.160562652021495, 51.10167686452272], [-4.1597970202204015, 51.10131517969721], [-4.160203119158093, 51.10028336284867], [-4.161429989992382, 51.10060999504234], [-4.16171906401923, 51.10107252962677], [-4.161183110317764, 51.101534733054834]]]}}, {"type": "Feature", "properties": {"type": "postcode-cell", "postcode": "EX33 2FE", "postcodes": ["EX33 2FE"]}, "geometry": {"type": "Polygon", "coordinates": [[[-4.1618233060601, 51.104426518431005], [-4.161210726202234, 51.10415555767705], [-4.161170047762951, 51.10412212546642], [-4.161197566520251, 51.103632787001246], [-4.162395757715517, 51.103361750558136], [-4.162094911226193, 51.104430009975374], [-4.1618233060601, 51.104426518431005]]]}}, {"type": "Feature", "properties": {"type": "postcode-cell", "postcode": "EX33 2AW", "postcodes": ["EX33 2AW"]}, "geometry": {"type": "Polygon", "coordinates": [[[-4.161239576739379, 51.10520708752298], [-4.16126684827034, 51.10492347888503], [-4.1618233060601, 51.104426518431005], [-4.162094911226193, 51.104430009975374], [-4.161860400321171, 51.10526268904641], [-4.161239576739379, 51.10520708752298]]]}}, {"type": "Feature", "properties": {"type": "postcode-cell", "postcode": "EX33 2FD", "postcodes": ["EX33 2FD"]}, "geometry": {"type": "Polygon", "coordinates": [[[-4.161197566520251, 51.103632787001246], [-4.160880795237737, 51.10324756752012], [-4.161053660073563, 51.10311657667812], [-4.162446690619155, 51.1031808909841], [-4.162395757715517, 51.103361750558136], [-4.161197566520251, 51.103632787001246]]]}}, {"type": "Feature", "properties": {"type": "postcode-cell", "postcode": "EX33 2EP", "postcodes": ["EX33 2EP"]}, "geometry": {"type": "Polygon", "coordinates": [[[-4.162063388292057, 51.11362888655572], [-4.161099694958086, 51.11399314155281], [-4.160484585261366, 51.11404141765364], [-4.159779172065416, 51.11373374313582], [-4.160027914817253, 51.1127569949848], [-4.160182132893088, 51.11263429390056], [-4.162087817925, 51.1130082431931], [-4.162063388292057, 51.11362888655572]]]}}, {"type": "Feature", "properties": {"type": "postcode-cell", "postcode": "EX33 2ER", "postcodes": ["EX33 2ER"]}, "geometry": {"type": "Polygon", "coordinates": [[[-4.163879451589246, 51.116786154588716], [-4.159939622450929, 51.116505694232146], [-4.160484585261366, 51.11404141765364], [-4.161099694958086, 51.11399314155281], [-4.164142711592132, 51.116712765668126], [-4.163879451589246, 51.116786154588716]]]}}, {"type": "Feature", "properties": {"type": "postcode-cell", "postcode": "EX33 2EU", "postcodes": ["EX33 2EU"]}, "geometry": {"type": "Polygon", "coordinates": [[[-4.162087817925, 51.1130082431931], [-4.160182132893088, 51.11263429390056], [-4.160444504819116, 51.11202216466777], [-4.1610708446998075, 51.11185192777777], [-4.161891879411546, 51.112073039499485], [-4.1621461335695695, 51.11293170658001], [-4.162087817925, 51.1130082431931]]]}}, {"type": "Feature", "properties": {"type": "postcode-cell", "postcode": "EX33 2JA", "postcodes": ["EX33 2JA"]}, "geometry": {"type": "Polygon", "coordinates": [[[-4.161558757781411, 51.109107339702845], [-4.160497299697161, 51.10893273541403], [-4.160573487827267, 51.10879540248214], [-4.161020542065365, 51.10868328236408], [-4.161595827320002, 51.1090234926898], [-4.161558757781411, 51.109107339702845]]]}}, {"type": "Feature", "properties": {"type": "postcode-cell", "postcode": "EX33 2AN", "postcodes": ["EX33 2AN"]}, "geometry": {"type": "Polygon", "coordinates": [[[-4.161533211045265, 51.105791323991824], [-4.161075142562105, 51.10548211558699], [-4.161239576739379, 51.10520708752298], [-4.161860400321171, 51.10526268904641], [-4.1617077067797235, 51.10580484327758], [-4.161533211045265, 51.105791323991824]]]}}, {"type": "Feature", "properties": {"type": "postcode-cell", "postcode": "EX33 2AG", "postcodes": ["EX33 2AG"]}, "geometry": {"type": "Polygon", "coordinates": [[[-4.161318996291553, 51.10675429496843], [-4.160901294493947, 51.106506331744164], [-4.161020552281653, 51.10622881468865], [-4.161533211045265, 51.105791323991824], [-4.1617077067797235, 51.10580484327758], [-4.161434088473933, 51.106776322811356], [-4.161318996291553, 51.10675429496843]]]}}, {"type": "Feature", "properties": {"type": "postcode-cell", "postcode": "EX33 2BE", "postcodes": ["EX33 2BE"]}, "geometry": {"type": "Polygon", "coordinates": [[[-4.161262943079142, 51.102607544242055], [-4.162176187462566, 51.10240326526109], [-4.162589344655355, 51.102464965393054], [-4.162629989992361, 51.10252999504392], [-4.162446690619155, 51.1031808909841], [-4.161053660073563, 51.10311657667812], [-4.161262943079142, 51.102607544242055]]]}}, {"type": "Feature", "properties": {"type": "postcode-cell", "postcode": "EX33 2BA", "postcodes": ["EX33 2BA"]}, "geometry": {"type": "Polygon", "coordinates": [[[-4.161053660073563, 51.10311657667812], [-4.160880795237737, 51.10324756752012], [-4.160202531564858, 51.10322080523979], [-4.159567104619618, 51.10275419223892], [-4.159815859889963, 51.10245613403445], [-4.160286900144669, 51.10224941740364], [-4.161262943079142, 51.102607544242055], [-4.161053660073563, 51.10311657667812]]]}}, {"type": "Feature", "properties": {"type": "postcode-cell", "postcode": "EX33 2JJ", "postcodes": ["EX33 2JJ"]}, "geometry": {"type": "Polygon", "coordinates": [[[-4.161061311187463, 51.108079904123215], [-4.160842638591722, 51.10758841666295], [-4.161212147130964, 51.10756429486808], [-4.161066764125558, 51.10808044312437], [-4.161061311187463, 51.108079904123215]]]}}, {"type": "Feature", "properties": {"type": "postcode-cell", "postcode": "EX33 2AR", "postcodes": ["EX33 2AR"]}, "geometry": {"type": "Polygon", "coordinates": [[[-4.16126684827034, 51.10492347888503], [-4.160177456568418, 51.104870524425], [-4.160095161598316, 51.10482724289244], [-4.161210726202234, 51.10415555767705], [-4.1618233060601, 51.104426518431005], [-4.16126684827034, 51.10492347888503]]]}}, {"type": "Feature", "properties": {"type": "postcode-cell", "postcode": "EX33 2AJ", "postcodes": ["EX33 2AJ"]}, "geometry": {"type": "Polygon", "coordinates": [[[-4.161020552281653, 51.10622881468865], [-4.160243815630664, 51.105664735362346], [-4.160520631079098, 51.10552027709243], [-4.161075142562105, 51.10548211558699], [-4.161533211045265, 51.105791323991824], [-4.161020552281653, 51.10622881468865]]]}}, {"type": "Feature", "properties": {"type": "postcode-cell", "postcode": "EX33 2AP", "postcodes": ["EX33 2AP"]}, "geometry": {"type": "Polygon", "coordinates": [[[-4.161239576739379, 51.10520708752298], [-4.161075142562105, 51.10548211558699], [-4.160520631079098, 51.10552027709243], [-4.160177456568418, 51.104870524425], [-4.16126684827034, 51.10492347888503], [-4.161239576739379, 51.10520708752298]]]}}, {"type": "Feature", "properties": {"type": "postcode-cell", "postcode": "EX33 2DB", "postcodes": ["EX33 2DB"]}, "geometry": {"type": "Polygon", "coordinates": [[[-4.160842638591722, 51.10758841666295], [-4.160534749738307, 51.10753422610916], [-4.160364310557417, 51.10740995495233], [-4.161318996291553, 51.10675429496843], [-4.161434088473933, 51.106776322811356], [-4.161212147130964, 51.10756429486808], [-4.160842638591722, 51.10758841666295]]]}}, {"type": "Feature", "properties": {"type": "postcode-cell", "postcode": "EX33 2JB", "postcodes": ["EX33 2JB"]}, "geometry": {"type": "Polygon", "coordinates": [[[-4.161595827320002, 51.1090234926898], [-4.161020542065365, 51.10868328236408], [-4.161405886053565, 51.10851632218163], [-4.161929812264673, 51.108550888920625], [-4.161595827320002, 51.1090234926898]]]}}, {"type": "Feature", "properties": {"type": "postcode-cell", "postcode": "EX33 2BD", "postcodes": ["EX33 2BD"]}, "geometry": {"type": "Polygon", "coordinates": [[[-4.160286900144669, 51.10224941740364], [-4.160562652021495, 51.10167686452272], [-4.161183110317764, 51.101534733054834], [-4.162176187462566, 51.10240326526109], [-4.161262943079142, 51.102607544242055], [-4.160286900144669, 51.10224941740364]]]}}, {"type": "Feature", "properties": {"type": "postcode-cell", "postcode": "EX33 2JF", "postcodes": ["EX33 2JF"]}, "geometry": {"type": "Polygon", "coordinates": [[[-4.1604693516493, 51.1082666712531], [-4.161061311187463, 51.108079904123215], [-4.161066764125558, 51.10808044312437], [-4.161049989988808, 51.10813999504859], [-4.161268642378858, 51.10845115466496], [-4.1604693516493, 51.1082666712531]]]}}, {"type": "Feature", "properties": {"type": "postcode-cell", "postcode": "EX33 2EB", "postcodes": ["EX33 2EB"]}, "geometry": {"type": "Polygon", "coordinates": [[[-4.161720017383253, 51.109411543429744], [-4.1616863991215824, 51.1098932374598], [-4.160252519617591, 51.10924642918135], [-4.160268890943576, 51.1090790277821], [-4.160497299697161, 51.10893273541403], [-4.161558757781411, 51.109107339702845], [-4.161720017383253, 51.109411543429744]]]}}, {"type": "Feature", "properties": {"type": "postcode-cell", "postcode": "EX33 2JD", "postcodes": ["EX33 2JD"]}, "geometry": {"type": "Polygon", "coordinates": [[[-4.161020542065365, 51.10868328236408], [-4.160573487827267, 51.10879540248214], [-4.160421711117093, 51.10827301048296], [-4.1604693516493, 51.1082666712531], [-4.161268642378858, 51.10845115466496], [-4.161309989988821, 51.108509995048884], [-4.161405886053565, 51.10851632218163], [-4.161020542065365, 51.10868328236408]]]}}, {"type": "Feature", "properties": {"type": "postcode-cell", "postcode": "EX33 2AL", "postcodes": ["EX33 2AL"]}, "geometry": {"type": "Polygon", "coordinates": [[[-4.160901294493947, 51.106506331744164], [-4.160323829198755, 51.106505813207114], [-4.159458307501568, 51.10622891286558], [-4.158995549428355, 51.10600779487381], [-4.159013039774833, 51.10598952678194], [-4.160243815630664, 51.105664735362346], [-4.161020552281653, 51.10622881468865], [-4.160901294493947, 51.106506331744164]]]}}, {"type": "Feature", "properties": {"type": "postcode-cell", "postcode": "EX33 2EA", "postcodes": ["EX33 2EA"]}, "geometry": {"type": "Polygon", "coordinates": [[[-4.161759263721571, 51.11001354420539], [-4.160312985434398, 51.11040628745211], [-4.159740490106926, 51.11012064389971], [-4.159740490061216, 51.1096035688645], [-4.160252519617591, 51.10924642918135], [-4.1616863991215824, 51.1098932374598], [-4.161759263721571, 51.11001354420539]]]}}, {"type": "Feature", "properties": {"type": "postcode-cell", "postcode": "EX33 2EX", "postcodes": ["EX33 2EX"]}, "geometry": {"type": "Polygon", "coordinates": [[[-4.160444504819116, 51.11202216466777], [-4.159298741079267, 51.1114936178248], [-4.159330102057761, 51.111332151360486], [-4.160263911516215, 51.11066380874422], [-4.16122784232411, 51.11132668513069], [-4.1610708446998075, 51.11185192777777], [-4.160444504819116, 51.11202216466777]]]}}, {"type": "Feature", "properties": {"type": "postcode-cell", "postcode": "EX33 2EL", "postcodes": ["EX33 2EL"]}, "geometry": {"type": "Polygon", "coordinates": [[[-4.160027914817253, 51.1127569949848], [-4.158313972924497, 51.11237279705427], [-4.158705286543778, 51.11169716120032], [-4.159298741079267, 51.1114936178248], [-4.160444504819116, 51.11202216466777], [-4.160182132893088, 51.11263429390056], [-4.160027914817253, 51.1127569949848]]]}}, {"type": "Feature", "properties": {"type": "postcode-cell", "postcode": "EX33 2EW", "postcodes": ["EX33 2EW"]}, "geometry": {"type": "Polygon", "coordinates": [[[-4.1615933255784725, 51.12032936385815], [-4.156363727531337, 51.119347240900325], [-4.1541860483750295, 51.11816115767228], [-4.154991101828509, 51.117328522482445], [-4.159939622450929, 51.116505694232146], [-4.163879451589246, 51.116786154588716], [-4.1615933255784725, 51.12032936385815]]]}}, {"type": "Feature", "properties": {"type": "postcode-cell", "postcode": "EX33 2JT", "postcodes": ["EX33 2JT"]}, "geometry": {"type": "Polygon", "coordinates": [[[-4.1604693516493, 51.1082666712531], [-4.160421711117093, 51.10827301048296], [-4.160297505406485, 51.10821609983971], [-4.160534749738307, 51.10753422610916], [-4.160842638591722, 51.10758841666295], [-4.161061311187463, 51.108079904123215], [-4.1604693516493, 51.1082666712531]]]}}, {"type": "Feature", "properties": {"type": "postcode-cell", "postcode": "EX33 2PB", "postcodes": ["EX33 2PB"]}, "geometry": {"type": "Polygon", "coordinates": [[[-4.160268890943576, 51.1090790277821], [-4.1590963104694865, 51.108620908693084], [-4.159589143351317, 51.10821312870625], [-4.160297505406485, 51.10821609983971], [-4.160421711117093, 51.10827301048296], [-4.160573487827267, 51.10879540248214], [-4.160497299697161, 51.10893273541403], [-4.160268890943576, 51.1090790277821]]]}}, {"type": "Feature", "properties": {"type": "postcode-cell", "postcode": "EX33 2AX", "postcodes": ["EX33 2AX"]}, "geometry": {"type": "Polygon", "coordinates": [[[-4.161170047762951, 51.10412212546642], [-4.160708795263369, 51.10407483676509], [-4.15995587301475, 51.10363886914296], [-4.160202531564858, 51.10322080523979], [-4.160880795237737, 51.10324756752012], [-4.161197566520251, 51.103632787001246], [-4.161170047762951, 51.10412212546642]]]}}, {"type": "Feature", "properties": {"type": "postcode-cell", "postcode": "EX33 2DT", "postcodes": ["EX33 2DT"]}, "geometry": {"type": "Polygon", "coordinates": [[[-4.1597970202204015, 51.10131517969721], [-4.158437190049375, 51.10145420047808], [-4.158356337662297, 51.10144445041983], [-4.159889989991508, 51.10019999504202], [-4.160203119158093, 51.10028336284867], [-4.1597970202204015, 51.10131517969721]]]}}, {"type": "Feature", "properties": {"type": "postcode-cell", "postcode": "EX33 2JX", "postcodes": ["EX33 2JX"]}, "geometry": {"type": "Polygon", "coordinates": [[[-4.160286900144669, 51.10224941740364], [-4.159815859889963, 51.10245613403445], [-4.158437190049375, 51.10145420047808], [-4.1597970202204015, 51.10131517969721], [-4.160562652021495, 51.10167686452272], [-4.160286900144669, 51.10224941740364]]]}}, {"type": "Feature", "properties": {"type": "postcode-cell", "postcode": "EX33 2BL", "postcodes": ["EX33 2BL"]}, "geometry": {"type": "Polygon", "coordinates": [[[-4.160243815630664, 51.105664735362346], [-4.159013039774833, 51.10598952678194], [-4.159118859263663, 51.1049891000462], [-4.159737224957659, 51.104765833368994], [-4.160095161598316, 51.10482724289244], [-4.160177456568418, 51.104870524425], [-4.160520631079098, 51.10552027709243], [-4.160243815630664, 51.105664735362346]]]}}, {"type": "Feature", "properties": {"type": "postcode-cell", "postcode": "EX33 2JL", "postcodes": ["EX33 2JL"]}, "geometry": {"type": "Polygon", "coordinates": [[[-4.161318996291553, 51.10675429496843], [-4.160364310557417, 51.10740995495233], [-4.160068321878466, 51.10734576762124], [-4.160323829198755, 51.106505813207114], [-4.160901294493947, 51.106506331744164], [-4.161318996291553, 51.10675429496843]]]}}, {"type": "Feature", "properties": {"type": "postcode-cell", "postcode": "EX33 2AT", "postcodes": ["EX33 2AT"]}, "geometry": {"type": "Polygon", "coordinates": [[[-4.161210726202234, 51.10415555767705], [-4.160095161598316, 51.10482724289244], [-4.159737224957659, 51.104765833368994], [-4.159776890761483, 51.104331984519035], [-4.160708795263369, 51.10407483676509], [-4.161170047762951, 51.10412212546642], [-4.161210726202234, 51.10415555767705]]]}}, {"type": "Feature", "properties": {"type": "postcode-cell", "postcode": "EX33 2AY", "postcodes": ["EX33 2AY"]}, "geometry": {"type": "Polygon", "coordinates": [[[-4.15995587301475, 51.10363886914296], [-4.159303129737024, 51.10389848626497], [-4.158946511760415, 51.10385658154597], [-4.158485184054498, 51.10357927024844], [-4.1584948898526255, 51.103157792192114], [-4.158506866693293, 51.103132204051214], [-4.158774643898006, 51.102904024174734], [-4.159567104619618, 51.10275419223892], [-4.160202531564858, 51.10322080523979], [-4.15995587301475, 51.10363886914296]]]}}, {"type": "Feature", "properties": {"type": "postcode-cell", "postcode": "EX33 2AU", "postcodes": ["EX33 2AU"]}, "geometry": {"type": "Polygon", "coordinates": [[[-4.160708795263369, 51.10407483676509], [-4.159776890761483, 51.104331984519035], [-4.159303129737024, 51.10389848626497], [-4.15995587301475, 51.10363886914296], [-4.160708795263369, 51.10407483676509]]]}}, {"type": "Feature", "properties": {"type": "postcode-cell", "postcode": "EX33 2JS", "postcodes": ["EX33 2JS"]}, "geometry": {"type": "Polygon", "coordinates": [[[-4.160534749738307, 51.10753422610916], [-4.160297505406485, 51.10821609983971], [-4.159589143351317, 51.10821312870625], [-4.159348119902639, 51.10769096682185], [-4.159663214327732, 51.107403257260415], [-4.159845908349103, 51.10736033697821], [-4.160068321878466, 51.10734576762124], [-4.160364310557417, 51.10740995495233], [-4.160534749738307, 51.10753422610916]]]}}, {"type": "Feature", "properties": {"type": "postcode-cell", "postcode": "EX33 2JP", "postcodes": ["EX33 2JP", "EX33 2JR"]}, "geometry": {"type": "Polygon", "coordinates": [[[-4.160323829198755, 51.106505813207114], [-4.160068321878466, 51.10734576762124], [-4.159845908349103, 51.10736033697821], [-4.159458307501568, 51.10622891286558], [-4.160323829198755, 51.106505813207114]]]}}, {"type": "Feature", "properties": {"type": "postcode-cell", "postcode": "EX33 2LA", "postcodes": ["EX33 2LA"]}, "geometry": {"type": "Polygon", "coordinates": [[[-4.160252519617591, 51.10924642918135], [-4.159740490061216, 51.1096035688645], [-4.158504490108566, 51.109207066932335], [-4.158415776270388, 51.109115675113735], [-4.1585069201402325, 51.10887460714577], [-4.158907225244519, 51.1086600239027], [-4.1590963104694865, 51.108620908693084], [-4.160268890943576, 51.1090790277821], [-4.160252519617591, 51.10924642918135]]]}}, {"type": "Feature", "properties": {"type": "postcode-cell", "postcode": "EX33 2ED", "postcodes": ["EX33 2ED"]}, "geometry": {"type": "Polygon", "coordinates": [[[-4.160263911516215, 51.11066380874422], [-4.159330102057761, 51.111332151360486], [-4.158259428738324, 51.11040710912625], [-4.158504490116794, 51.11027126348961], [-4.159740490106926, 51.11012064389971], [-4.160312985434398, 51.11040628745211], [-4.160263911516215, 51.11066380874422]]]}}, {"type": "Feature", "properties": {"type": "postcode-cell", "postcode": "EX33 2BJ", "postcodes": ["EX33 2BJ"]}, "geometry": {"type": "Polygon", "coordinates": [[[-4.159776890761483, 51.104331984519035], [-4.159737224957659, 51.104765833368994], [-4.159118859263663, 51.1049891000462], [-4.158715216758155, 51.10479116738866], [-4.158582239209834, 51.104618796238086], [-4.158946511760415, 51.10385658154597], [-4.159303129737024, 51.10389848626497], [-4.159776890761483, 51.104331984519035]]]}}, {"type": "Feature", "properties": {"type": "postcode-cell", "postcode": "EX33 2HA", "postcodes": ["EX33 2HA"]}, "geometry": {"type": "Polygon", "coordinates": [[[-4.159845908349103, 51.10736033697821], [-4.159663214327732, 51.107403257260415], [-4.159046620322258, 51.10704552408482], [-4.158902431219636, 51.10671365875081], [-4.158866395681208, 51.106163330734404], [-4.1589925819616544, 51.1060086706999], [-4.158995549428355, 51.10600779487381], [-4.159458307501568, 51.10622891286558], [-4.159845908349103, 51.10736033697821]]]}}, {"type": "Feature", "properties": {"type": "postcode-cell", "postcode": "EX33 2PG", "postcodes": ["EX33 2PG"]}, "geometry": {"type": "Polygon", "coordinates": [[[-4.159589143351317, 51.10821312870625], [-4.1590963104694865, 51.108620908693084], [-4.158907225244519, 51.1086600239027], [-4.158247913333832, 51.10769342240303], [-4.159348119902639, 51.10769096682185], [-4.159589143351317, 51.10821312870625]]]}}, {"type": "Feature", "properties": {"type": "postcode-cell", "postcode": "EX33 2BB", "postcodes": ["EX33 2BB"]}, "geometry": {"type": "Polygon", "coordinates": [[[-4.159815859889963, 51.10245613403445], [-4.159567104619618, 51.10275419223892], [-4.158774643898006, 51.102904024174734], [-4.15768352210025, 51.10170955348396], [-4.1577039486744685, 51.10165006989699], [-4.158139989989679, 51.10161999504317], [-4.158356337662297, 51.10144445041983], [-4.158437190049375, 51.10145420047808], [-4.159815859889963, 51.10245613403445]]]}}, {"type": "Feature", "properties": {"type": "postcode-cell", "postcode": "EX33 2BS", "postcodes": ["EX33 2BS"]}, "geometry": {"type": "Polygon", "coordinates": [[[-4.158995549428355, 51.10600779487381], [-4.1589925819616544, 51.1060086706999], [-4.15672778545824, 51.105455910456115], [-4.156678340530419, 51.10536555787988], [-4.158715216758155, 51.10479116738866], [-4.159118859263663, 51.1049891000462], [-4.159013039774833, 51.10598952678194], [-4.158995549428355, 51.10600779487381]]]}}, {"type": "Feature", "properties": {"type": "postcode-cell", "postcode": "EX33 2PH", "postcodes": ["EX33 2PH"]}, "geometry": {"type": "Polygon", "coordinates": [[[-4.158902431219636, 51.10671365875081], [-4.158125345964429, 51.10723321403381], [-4.157707638772638, 51.10672501513887], [-4.158866395681208, 51.106163330734404], [-4.158902431219636, 51.10671365875081]]]}}, {"type": "Feature", "properties": {"type": "postcode-cell", "postcode": "EX33 2JW", "postcodes": ["EX33 2JW"]}, "geometry": {"type": "Polygon", "coordinates": [[[-4.159348119902639, 51.10769096682185], [-4.158247913333832, 51.10769342240303], [-4.158133938558882, 51.10765938116463], [-4.158191115514433, 51.10747897054099], [-4.159046620322258, 51.10704552408482], [-4.159663214327732, 51.107403257260415], [-4.159348119902639, 51.10769096682185]]]}}, {"type": "Feature", "properties": {"type": "postcode-cell", "postcode": "EX33 2LB", "postcodes": ["EX33 2LB"]}, "geometry": {"type": "Polygon", "coordinates": [[[-4.159740490061216, 51.1096035688645], [-4.159740490106926, 51.11012064389971], [-4.158504490116794, 51.11027126348961], [-4.158504490108566, 51.109207066932335], [-4.159740490061216, 51.1096035688645]]]}}, {"type": "Feature", "properties": {"type": "postcode-cell", "postcode": "EX33 2EN", "postcodes": ["EX33 2EN"]}, "geometry": {"type": "Polygon", "coordinates": [[[-4.160484585261366, 51.11404141765364], [-4.159939622450929, 51.116505694232146], [-4.154991101828509, 51.117328522482445], [-4.154996819504762, 51.11720592698808], [-4.15673491083914, 51.11412351550992], [-4.157263439116145, 51.1139216792258], [-4.159779172065416, 51.11373374313582], [-4.160484585261366, 51.11404141765364]]]}}, {"type": "Feature", "properties": {"type": "postcode-cell", "postcode": "EX33 2BW", "postcodes": ["EX33 2BW"]}, "geometry": {"type": "Polygon", "coordinates": [[[-4.158485184054498, 51.10357927024844], [-4.157496709481086, 51.10395937849586], [-4.156865093917494, 51.103793357548085], [-4.1567727374669765, 51.103271882870615], [-4.1584948898526255, 51.103157792192114], [-4.158485184054498, 51.10357927024844]]]}}, {"type": "Feature", "properties": {"type": "postcode-cell", "postcode": "EX33 2BN", "postcodes": ["EX33 2BN"]}, "geometry": {"type": "Polygon", "coordinates": [[[-4.158946511760415, 51.10385658154597], [-4.158582239209834, 51.104618796238086], [-4.157599489908174, 51.10436049647004], [-4.157496709481086, 51.10395937849586], [-4.158485184054498, 51.10357927024844], [-4.158946511760415, 51.10385658154597]]]}}, {"type": "Feature", "properties": {"type": "postcode-cell", "postcode": "EX33 2HY", "postcodes": ["EX33 2HY"]}, "geometry": {"type": "Polygon", "coordinates": [[[-4.158705286543778, 51.11169716120032], [-4.155911288370015, 51.11082957484952], [-4.155479279228913, 51.11066922172036], [-4.155474643429693, 51.11066474486363], [-4.158259428738324, 51.11040710912625], [-4.159330102057761, 51.111332151360486], [-4.159298741079267, 51.1114936178248], [-4.158705286543778, 51.11169716120032]]]}}, {"type": "Feature", "properties": {"type": "postcode-cell", "postcode": "EX33 2BR", "postcodes": ["EX33 2BR"]}, "geometry": {"type": "Polygon", "coordinates": [[[-4.158313972924497, 51.11237279705427], [-4.160027914817253, 51.1127569949848], [-4.159779172065416, 51.11373374313582], [-4.157263439116145, 51.1139216792258], [-4.158094064234808, 51.112512354864926], [-4.158271841868745, 51.112392426505586], [-4.158313972924497, 51.11237279705427]]]}}, {"type": "Feature", "properties": {"type": "postcode-cell", "postcode": "EX33 2EE", "postcodes": ["EX33 2EE"]}, "geometry": {"type": "Polygon", "coordinates": [[[-4.158271841868745, 51.112392426505586], [-4.155911288370015, 51.11082957484952], [-4.158705286543778, 51.11169716120032], [-4.158313972924497, 51.11237279705427], [-4.158271841868745, 51.112392426505586]]]}}, {"type": "Feature", "properties": {"type": "postcode-cell", "postcode": "EX33 2HB", "postcodes": ["EX33 2HB"]}, "geometry": {"type": "Polygon", "coordinates": [[[-4.159046620322258, 51.10704552408482], [-4.158191115514433, 51.10747897054099], [-4.158125345964429, 51.10723321403381], [-4.158902431219636, 51.10671365875081], [-4.159046620322258, 51.10704552408482]]]}}, {"type": "Feature", "properties": {"type": "postcode-cell", "postcode": "EX33 2JZ", "postcodes": ["EX33 2JZ"]}, "geometry": {"type": "Polygon", "coordinates": [[[-4.158247913333832, 51.10769342240303], [-4.158907225244519, 51.1086600239027], [-4.1585069201402325, 51.10887460714577], [-4.15765276209871, 51.10845771268945], [-4.157978761448809, 51.10769317557752], [-4.158133938558882, 51.10765938116463], [-4.158247913333832, 51.10769342240303]]]}}, {"type": "Feature", "properties": {"type": "postcode-cell", "postcode": "EX33 2HD", "postcodes": ["EX33 2HD"]}, "geometry": {"type": "Polygon", "coordinates": [[[-4.158133938558882, 51.10765938116463], [-4.157978761448809, 51.10769317557752], [-4.156957565411328, 51.10756469049606], [-4.1564925308011755, 51.10702392031494], [-4.1567111061897375, 51.10677520577291], [-4.157707638772638, 51.10672501513887], [-4.158125345964429, 51.10723321403381], [-4.158191115514433, 51.10747897054099], [-4.158133938558882, 51.10765938116463]]]}}, {"type": "Feature", "properties": {"type": "postcode-cell", "postcode": "EX33 2LD", "postcodes": ["EX33 2LD"]}, "geometry": {"type": "Polygon", "coordinates": [[[-4.158504490108566, 51.109207066932335], [-4.158504490116794, 51.11027126348961], [-4.158259428738324, 51.11040710912625], [-4.155474643429693, 51.11066474486363], [-4.155435643793787, 51.11064774767911], [-4.1558403349972215, 51.109765974024576], [-4.158415776270388, 51.109115675113735], [-4.158504490108566, 51.109207066932335]]]}}, {"type": "Feature", "properties": {"type": "postcode-cell", "postcode": "EX33 2HQ", "postcodes": ["EX33 2HQ"]}, "geometry": {"type": "Polygon", "coordinates": [[[-4.155881833609981, 51.107103602009325], [-4.1564925308011755, 51.10702392031494], [-4.156957565411328, 51.10756469049606], [-4.156876558625244, 51.10767463610076], [-4.1553479460788685, 51.10801387858177], [-4.155881833609981, 51.107103602009325]]]}}, {"type": "Feature", "properties": {"type": "postcode-cell", "postcode": "EX33 2NT", "postcodes": ["EX33 2NT"]}, "geometry": {"type": "Polygon", "coordinates": [[[-4.1553479460788685, 51.10801387858177], [-4.155273091347185, 51.10808307531888], [-4.154363146349081, 51.10750100773324], [-4.155067115986193, 51.10691835127051], [-4.155881833609981, 51.107103602009325], [-4.1553479460788685, 51.10801387858177]]]}}, {"type": "Feature", "properties": {"type": "postcode-cell", "postcode": "EX33 2NW", "postcodes": ["EX33 2NW"]}, "geometry": {"type": "Polygon", "coordinates": [[[-4.154991101828509, 51.117328522482445], [-4.1541860483750295, 51.11816115767228], [-4.1499090743224745, 51.11912041576436], [-4.14368343972612, 51.116641467790394], [-4.141460235863338, 51.11245549312752], [-4.141624519811794, 51.112426727618754], [-4.152510246466032, 51.11394886753988], [-4.154996819504762, 51.11720592698808], [-4.154991101828509, 51.117328522482445]]]}}, {"type": "Feature", "properties": {"type": "postcode-cell", "postcode": "EX33 2AZ", "postcodes": ["EX33 2AZ"]}, "geometry": {"type": "Polygon", "coordinates": [[[-4.158774643898006, 51.102904024174734], [-4.158506866693293, 51.103132204051214], [-4.157020237277181, 51.102647591370314], [-4.156959832645072, 51.10228627571798], [-4.15768352210025, 51.10170955348396], [-4.158774643898006, 51.102904024174734]]]}}, {"type": "Feature", "properties": {"type": "postcode-cell", "postcode": "EX33 2HE", "postcodes": ["EX33 2HE"]}, "geometry": {"type": "Polygon", "coordinates": [[[-4.158866395681208, 51.106163330734404], [-4.157707638772638, 51.10672501513887], [-4.1567111061897375, 51.10677520577291], [-4.156467431169606, 51.10594168280742], [-4.15672778545824, 51.105455910456115], [-4.1589925819616544, 51.1060086706999], [-4.158866395681208, 51.106163330734404]]]}}, {"type": "Feature", "properties": {"type": "postcode-cell", "postcode": "EX33 2BQ", "postcodes": ["EX33 2BQ"]}, "geometry": {"type": "Polygon", "coordinates": [[[-4.158715216758155, 51.10479116738866], [-4.156678340530419, 51.10536555787988], [-4.156623328191824, 51.10531075425094], [-4.157599489908174, 51.10436049647004], [-4.158582239209834, 51.104618796238086], [-4.158715216758155, 51.10479116738866]]]}}, {"type": "Feature", "properties": {"type": "postcode-cell", "postcode": "EX33 2NZ", "postcodes": ["EX33 2NZ"]}, "geometry": {"type": "Polygon", "coordinates": [[[-4.158415776270388, 51.109115675113735], [-4.1558403349972215, 51.109765974024576], [-4.1557525140834795, 51.108994208139464], [-4.156650992403681, 51.108505534706325], [-4.15765276209871, 51.10845771268945], [-4.1585069201402325, 51.10887460714577], [-4.158415776270388, 51.109115675113735]]]}}, {"type": "Feature", "properties": {"type": "postcode-cell", "postcode": "EX33 2EH", "postcodes": ["EX33 2EH"]}, "geometry": {"type": "Polygon", "coordinates": [[[-4.158094064234808, 51.112512354864926], [-4.156008039229454, 51.11180719170381], [-4.155479279228913, 51.11066922172036], [-4.155911288370015, 51.11082957484952], [-4.158271841868745, 51.112392426505586], [-4.158094064234808, 51.112512354864926]]]}}, {"type": "Feature", "properties": {"type": "postcode-cell", "postcode": "EX33 2BT", "postcodes": ["EX33 2BT"]}, "geometry": {"type": "Polygon", "coordinates": [[[-4.157599489908174, 51.10436049647004], [-4.156623328191824, 51.10531075425094], [-4.155208179500686, 51.10470526315101], [-4.155132807141158, 51.104513447235064], [-4.15520305481504, 51.1043892753181], [-4.156865093917494, 51.103793357548085], [-4.157496709481086, 51.10395937849586], [-4.157599489908174, 51.10436049647004]]]}}, {"type": "Feature", "properties": {"type": "postcode-cell", "postcode": "EX33 2BH", "postcodes": ["EX33 2BH"]}, "geometry": {"type": "Polygon", "coordinates": [[[-4.15768352210025, 51.10170955348396], [-4.156959832645072, 51.10228627571798], [-4.1555201629649785, 51.10231313883096], [-4.155579989987627, 51.10228999504376], [-4.156109989988225, 51.1017599950433], [-4.1577039486744685, 51.10165006989699], [-4.15768352210025, 51.10170955348396]]]}}, {"type": "Feature", "properties": {"type": "postcode-cell", "postcode": "EX33 2QA", "postcodes": ["EX33 2QA"]}, "geometry": {"type": "Polygon", "coordinates": [[[-4.1584948898526255, 51.103157792192114], [-4.1567727374669765, 51.103271882870615], [-4.156676596539455, 51.103160476120735], [-4.157020237277181, 51.102647591370314], [-4.158506866693293, 51.103132204051214], [-4.1584948898526255, 51.103157792192114]]]}}, {"type": "Feature", "properties": {"type": "postcode-cell", "postcode": "EX33 2HF", "postcodes": ["EX33 2HF"]}, "geometry": {"type": "Polygon", "coordinates": [[[-4.15672778545824, 51.105455910456115], [-4.156467431169606, 51.10594168280742], [-4.155357585539784, 51.10618213899528], [-4.154254306375229, 51.10544918997644], [-4.155208179500686, 51.10470526315101], [-4.156623328191824, 51.10531075425094], [-4.156678340530419, 51.10536555787988], [-4.15672778545824, 51.105455910456115]]]}}, {"type": "Feature", "properties": {"type": "postcode-cell", "postcode": "EX33 2BP", "postcodes": ["EX33 2BP"]}, "geometry": {"type": "Polygon", "coordinates": [[[-4.157020237277181, 51.102647591370314], [-4.156676596539455, 51.103160476120735], [-4.156048978647224, 51.10310702894355], [-4.155040878249232, 51.10249854582245], [-4.1555201629649785, 51.10231313883096], [-4.156959832645072, 51.10228627571798], [-4.157020237277181, 51.102647591370314]]]}}, {"type": "Feature", "properties": {"type": "postcode-cell", "postcode": "EX33 2JY", "postcodes": ["EX33 2JY"]}, "geometry": {"type": "Polygon", "coordinates": [[[-4.156957565411328, 51.10756469049606], [-4.157978761448809, 51.10769317557752], [-4.15765276209871, 51.10845771268945], [-4.156650992403681, 51.108505534706325], [-4.156876558625244, 51.10767463610076], [-4.156957565411328, 51.10756469049606]]]}}, {"type": "Feature", "properties": {"type": "postcode-cell", "postcode": "EX33 2LE", "postcodes": ["EX33 2LE"]}, "geometry": {"type": "Polygon", "coordinates": [[[-4.1558403349972215, 51.109765974024576], [-4.155435643793787, 51.11064774767911], [-4.153471090511607, 51.11085379552266], [-4.1507728827765815, 51.11050124629464], [-4.149814860900562, 51.11026084834483], [-4.150824422063248, 51.1085445414301], [-4.15183492015161, 51.108237805944], [-4.155277981334516, 51.10860517785979], [-4.1557525140834795, 51.108994208139464], [-4.1558403349972215, 51.109765974024576]]]}}, {"type": "Feature", "properties": {"type": "postcode-cell", "postcode": "EX33 2EQ", "postcodes": ["EX33 2EQ"]}, "geometry": {"type": "Polygon", "coordinates": [[[-4.157263439116145, 51.1139216792258], [-4.15673491083914, 51.11412351550992], [-4.156066035079241, 51.113436401372525], [-4.156008039229454, 51.11180719170381], [-4.158094064234808, 51.112512354864926], [-4.157263439116145, 51.1139216792258]]]}}, {"type": "Feature", "properties": {"type": "postcode-cell", "postcode": "EX33 2EY", "postcodes": ["EX33 2EY"]}, "geometry": {"type": "Polygon", "coordinates": [[[-4.155474643429693, 51.11066474486363], [-4.155479279228913, 51.11066922172036], [-4.156008039229454, 51.11180719170381], [-4.156066035079241, 51.113436401372525], [-4.1539673120918765, 51.11285088620028], [-4.153471090511607, 51.11085379552266], [-4.155435643793787, 51.11064774767911], [-4.155474643429693, 51.11066474486363]]]}}, {"type": "Feature", "properties": {"type": "postcode-cell", "postcode": "EX33 2LH", "postcodes": ["EX33 2LH"]}, "geometry": {"type": "Polygon", "coordinates": [[[-4.1557525140834795, 51.108994208139464], [-4.155277981334516, 51.10860517785979], [-4.155273091347185, 51.10808307531888], [-4.1553479460788685, 51.10801387858177], [-4.156876558625244, 51.10767463610076], [-4.156650992403681, 51.108505534706325], [-4.1557525140834795, 51.108994208139464]]]}}, {"type": "Feature", "properties": {"type": "postcode-cell", "postcode": "EX33 2BX", "postcodes": ["EX33 2BX"]}, "geometry": {"type": "Polygon", "coordinates": [[[-4.15520305481504, 51.1043892753181], [-4.155132473935484, 51.10407425816183], [-4.156048978647224, 51.10310702894355], [-4.156676596539455, 51.103160476120735], [-4.1567727374669765, 51.103271882870615], [-4.156865093917494, 51.103793357548085], [-4.15520305481504, 51.1043892753181]]]}}, {"type": "Feature", "properties": {"type": "postcode-cell", "postcode": "EX33 2HG", "postcodes": ["EX33 2HG"]}, "geometry": {"type": "Polygon", "coordinates": [[[-4.1564925308011755, 51.10702392031494], [-4.155881833609981, 51.107103602009325], [-4.155067115986193, 51.10691835127051], [-4.154843529347721, 51.10667801838805], [-4.155357585539784, 51.10618213899528], [-4.156467431169606, 51.10594168280742], [-4.1567111061897375, 51.10677520577291], [-4.1564925308011755, 51.10702392031494]]]}}, {"type": "Feature", "properties": {"type": "postcode-cell", "postcode": "EX33 2LW", "postcodes": ["EX33 2LW"]}, "geometry": {"type": "Polygon", "coordinates": [[[-4.158953855044317, 51.1242082057756], [-4.157156462483377, 51.124669090910004], [-4.154781276558446, 51.12456788699035], [-4.15197551268007, 51.122903192649765], [-4.157649006276273, 51.12326277081156], [-4.158953855044317, 51.1242082057756]]]}}, {"type": "Feature", "properties": {"type": "postcode-cell", "postcode": "EX33 2EZ", "postcodes": ["EX33 2EZ"]}, "geometry": {"type": "Polygon", "coordinates": [[[-4.15673491083914, 51.11412351550992], [-4.154996819504762, 51.11720592698808], [-4.152510246466032, 51.11394886753988], [-4.152663728960538, 51.113658969357274], [-4.1539673120918765, 51.11285088620028], [-4.156066035079241, 51.113436401372525], [-4.15673491083914, 51.11412351550992]]]}}, {"type": "Feature", "properties": {"type": "postcode-cell", "postcode": "EX33 2BU", "postcodes": ["EX33 2BU"]}, "geometry": {"type": "Polygon", "coordinates": [[[-4.156048978647224, 51.10310702894355], [-4.155132473935484, 51.10407425816183], [-4.154229489660285, 51.10281241641369], [-4.155040878249232, 51.10249854582245], [-4.156048978647224, 51.10310702894355]]]}}, {"type": "Feature", "properties": {"type": "postcode-cell", "postcode": "EX31 4DF", "postcodes": ["EX31 4DF"]}, "geometry": {"type": "Polygon", "coordinates": [[[-4.138465785788749, 51.10533867864626], [-4.139011634387745, 51.11015936459191], [-4.13896480726476, 51.11128189160886], [-4.135120403162371, 51.11208393470368], [-4.1181835753072695, 51.11054231590737], [-4.117380855027104, 51.109503514649425], [-4.117749989958582, 51.10936999504976], [-4.118289989959228, 51.10874999504923], [-4.119799989960223, 51.10882999504929], [-4.120069989960516, 51.10858999504909], [-4.120719989961901, 51.10645999504732], [-4.120439989962401, 51.104899995046026], [-4.1208899899627776, 51.10473999504592], [-4.122129989963553, 51.10490999504604], [-4.122599989963679, 51.10534999504641], [-4.124299989964983, 51.105029995046124], [-4.12542998996569, 51.10517999504626], [-4.12587998996617, 51.10478999504591], [-4.129699989968878, 51.10457999504577], [-4.1312699899698275, 51.10486999504598], [-4.131869989970345, 51.10462999504579], [-4.132509989970658, 51.10490999504601], [-4.133529989971667, 51.104209995045444], [-4.13443998997213, 51.10456999504572], [-4.137869989974457, 51.10461999504574], [-4.138224481473593, 51.10456627761897], [-4.138465785788749, 51.10533867864626]]]}}, {"type": "Feature", "properties": {"type": "postcode-cell", "postcode": "EX33 2HR", "postcodes": ["EX33 2HR"]}, "geometry": {"type": "Polygon", "coordinates": [[[-4.155132807141158, 51.104513447235064], [-4.153415835677759, 51.10424227143074], [-4.153199286206523, 51.104019539540175], [-4.153223115141257, 51.10320170005588], [-4.154229489660285, 51.10281241641369], [-4.155132473935484, 51.10407425816183], [-4.15520305481504, 51.1043892753181], [-4.155132807141158, 51.104513447235064]]]}}, {"type": "Feature", "properties": {"type": "postcode-cell", "postcode": "EX33 2NA", "postcodes": ["EX33 2NA"]}, "geometry": {"type": "Polygon", "coordinates": [[[-4.1620872206182815, 51.12841638308911], [-4.1550254631283625, 51.126770154543465], [-4.155106753749092, 51.1263440172464], [-4.1566801921305725, 51.12656029593358], [-4.1620872206182815, 51.12841638308911]]]}}, {"type": "Feature", "properties": {"type": "postcode-cell", "postcode": "EX33 2HJ", "postcodes": ["EX33 2HJ"]}, "geometry": {"type": "Polygon", "coordinates": [[[-4.155357585539784, 51.10618213899528], [-4.154843529347721, 51.10667801838805], [-4.153479414462518, 51.10633365572329], [-4.15327349748954, 51.10595395978205], [-4.153283360973359, 51.10585133384904], [-4.154254306375229, 51.10544918997644], [-4.155357585539784, 51.10618213899528]]]}}, {"type": "Feature", "properties": {"type": "postcode-cell", "postcode": "EX33 2LN", "postcodes": ["EX33 2LN"]}, "geometry": {"type": "Polygon", "coordinates": [[[-4.156363727531337, 51.119347240900325], [-4.157649006276273, 51.12326277081156], [-4.15197551268007, 51.122903192649765], [-4.149520345720217, 51.122334495291284], [-4.1499090743224745, 51.11912041576436], [-4.1541860483750295, 51.11816115767228], [-4.156363727531337, 51.119347240900325]]]}}, {"type": "Feature", "properties": {"type": "postcode-cell", "postcode": "EX33 2NS", "postcodes": ["EX33 2NS"]}, "geometry": {"type": "Polygon", "coordinates": [[[-4.16281415538711, 51.12862858849278], [-4.162681916456227, 51.12873273094936], [-4.160714591429495, 51.12877583670989], [-4.1546877389957055, 51.12747405963512], [-4.154688869916014, 51.12706139943903], [-4.1550254631283625, 51.126770154543465], [-4.1620872206182815, 51.12841638308911], [-4.16281415538711, 51.12862858849278]]]}}, {"type": "Feature", "properties": {"type": "postcode-cell", "postcode": "EX33 2LZ", "postcodes": ["EX33 2LZ"]}, "geometry": {"type": "Polygon", "coordinates": [[[-4.1566801921305725, 51.12656029593358], [-4.155106753749092, 51.1263440172464], [-4.155004038444047, 51.12609437420436], [-4.15516224873495, 51.12585604166144], [-4.155668082400409, 51.12564278241293], [-4.1566801921305725, 51.12656029593358]]]}}, {"type": "Feature", "properties": {"type": "postcode-cell", "postcode": "EX33 2LF", "postcodes": ["EX33 2LF"]}, "geometry": {"type": "Polygon", "coordinates": [[[-4.155277981334516, 51.10860517785979], [-4.15183492015161, 51.108237805944], [-4.152855455070002, 51.1075935709719], [-4.154363146349081, 51.10750100773324], [-4.155273091347185, 51.10808307531888], [-4.155277981334516, 51.10860517785979]]]}}, {"type": "Feature", "properties": {"type": "postcode-cell", "postcode": "EX33 2NE", "postcodes": ["EX33 2NE"]}, "geometry": {"type": "Polygon", "coordinates": [[[-4.1599113032315485, 51.13421504813838], [-4.150615799530159, 51.1311721638443], [-4.150671839732452, 51.13102710641682], [-4.155617483830858, 51.129293278895055], [-4.160714591429495, 51.12877583670989], [-4.162681916456227, 51.12873273094936], [-4.1599113032315485, 51.13421504813838]]]}}, {"type": "Feature", "properties": {"type": "postcode-cell", "postcode": "EX33 2HL", "postcodes": ["EX33 2HL"]}, "geometry": {"type": "Polygon", "coordinates": [[[-4.154254306375229, 51.10544918997644], [-4.153283360973359, 51.10585133384904], [-4.152796688529491, 51.105557648869045], [-4.152573429117435, 51.104934665507834], [-4.152677553585528, 51.10477166542372], [-4.153415835677759, 51.10424227143074], [-4.155132807141158, 51.104513447235064], [-4.155208179500686, 51.10470526315101], [-4.154254306375229, 51.10544918997644]]]}}, {"type": "Feature", "properties": {"type": "postcode-cell", "postcode": "EX33 2HH", "postcodes": ["EX33 2HH"]}, "geometry": {"type": "Polygon", "coordinates": [[[-4.155067115986193, 51.10691835127051], [-4.154363146349081, 51.10750100773324], [-4.152855455070002, 51.1075935709719], [-4.153479414462518, 51.10633365572329], [-4.154843529347721, 51.10667801838805], [-4.155067115986193, 51.10691835127051]]]}}, {"type": "Feature", "properties": {"type": "postcode-cell", "postcode": "EX33 2LY", "postcodes": ["EX33 2LY"]}, "geometry": {"type": "Polygon", "coordinates": [[[-4.15516224873495, 51.12585604166144], [-4.154412841584428, 51.12539622671765], [-4.154331727591384, 51.12504321073945], [-4.154781276558446, 51.12456788699035], [-4.157156462483377, 51.124669090910004], [-4.155668082400409, 51.12564278241293], [-4.15516224873495, 51.12585604166144]]]}}, {"type": "Feature", "properties": {"type": "postcode-cell", "postcode": "EX33 1HS", "postcodes": ["EX33 1HS"]}, "geometry": {"type": "Polygon", "coordinates": [[[-4.152121220511374, 51.1376960162498], [-4.153838221096667, 51.135880339072386], [-4.160165192784796, 51.135171033037395], [-4.163552306971311, 51.13863648077957], [-4.1611599899750615, 51.139529995074646], [-4.1552099899714365, 51.13846999507378], [-4.153100810984741, 51.13913806217761], [-4.152121220511374, 51.1376960162498]]]}}, {"type": "Feature", "properties": {"type": "postcode-cell", "postcode": "EX33 1HR", "postcodes": ["EX33 1HR"]}, "geometry": {"type": "Polygon", "coordinates": [[[-4.160165192784796, 51.135171033037395], [-4.153838221096667, 51.135880339072386], [-4.145135011136332, 51.13390335554644], [-4.150615799530159, 51.1311721638443], [-4.1599113032315485, 51.13421504813838], [-4.160165192784796, 51.135171033037395]]]}}, {"type": "Feature", "properties": {"type": "postcode-cell", "postcode": "EX33 2ND", "postcodes": ["EX33 2ND"]}, "geometry": {"type": "Polygon", "coordinates": [[[-4.160714591429495, 51.12877583670989], [-4.155617483830858, 51.129293278895055], [-4.154110137432491, 51.127847226852026], [-4.1546877389957055, 51.12747405963512], [-4.160714591429495, 51.12877583670989]]]}}, {"type": "Feature", "properties": {"type": "postcode-cell", "postcode": "EX33 2LS", "postcodes": ["EX33 2LS"]}, "geometry": {"type": "Polygon", "coordinates": [[[-4.155106753749092, 51.1263440172464], [-4.1550254631283625, 51.126770154543465], [-4.154688869916014, 51.12706139943903], [-4.153210988992268, 51.12667458646012], [-4.153226299892496, 51.12664778442955], [-4.153339163984653, 51.126538379424694], [-4.154826624299694, 51.12610373118691], [-4.155004038444047, 51.12609437420436], [-4.155106753749092, 51.1263440172464]]]}}, {"type": "Feature", "properties": {"type": "postcode-cell", "postcode": "EX33 2FP", "postcodes": ["EX33 2FP"]}, "geometry": {"type": "Polygon", "coordinates": [[[-4.155617483830858, 51.129293278895055], [-4.150671839732452, 51.13102710641682], [-4.150072843076469, 51.12812220917798], [-4.15013758815012, 51.128106757029315], [-4.154110137432491, 51.127847226852026], [-4.155617483830858, 51.129293278895055]]]}}, {"type": "Feature", "properties": {"type": "postcode-cell", "postcode": "EX33 2HP", "postcodes": ["EX33 2HP"]}, "geometry": {"type": "Polygon", "coordinates": [[[-4.153199286206523, 51.104019539540175], [-4.151605055198972, 51.10394519768597], [-4.151072442648311, 51.10382010949729], [-4.15208998998464, 51.103639995044894], [-4.153223115141257, 51.10320170005588], [-4.153199286206523, 51.104019539540175]]]}}, {"type": "Feature", "properties": {"type": "postcode-cell", "postcode": "EX33 2LP", "postcodes": ["EX33 2LP"]}, "geometry": {"type": "Polygon", "coordinates": [[[-4.15197551268007, 51.122903192649765], [-4.154781276558446, 51.12456788699035], [-4.154331727591384, 51.12504321073945], [-4.151810761104475, 51.12497584750043], [-4.151784040867127, 51.12496851071083], [-4.148416230544891, 51.12375871167483], [-4.149520345720217, 51.122334495291284], [-4.15197551268007, 51.122903192649765]]]}}, {"type": "Feature", "properties": {"type": "postcode-cell", "postcode": "EX33 2PD", "postcodes": ["EX33 2PD"]}, "geometry": {"type": "Polygon", "coordinates": [[[-4.15183492015161, 51.108237805944], [-4.150824422063248, 51.1085445414301], [-4.149986543808149, 51.106950834454295], [-4.15327349748954, 51.10595395978205], [-4.153479414462518, 51.10633365572329], [-4.152855455070002, 51.1075935709719], [-4.15183492015161, 51.108237805944]]]}}, {"type": "Feature", "properties": {"type": "postcode-cell", "postcode": "EX33 2HS", "postcodes": ["EX33 2HS"]}, "geometry": {"type": "Polygon", "coordinates": [[[-4.15327349748954, 51.10595395978205], [-4.149986543808149, 51.106950834454295], [-4.149497377799487, 51.10647286118352], [-4.150416666809882, 51.10558655542871], [-4.152796688529491, 51.105557648869045], [-4.153283360973359, 51.10585133384904], [-4.15327349748954, 51.10595395978205]]]}}, {"type": "Feature", "properties": {"type": "postcode-cell", "postcode": "EX33 2NR", "postcodes": ["EX33 2NR"]}, "geometry": {"type": "Polygon", "coordinates": [[[-4.15516224873495, 51.12585604166144], [-4.155004038444047, 51.12609437420436], [-4.154826624299694, 51.12610373118691], [-4.1534708395461335, 51.125814012537624], [-4.1533471176709655, 51.125646594680084], [-4.154412841584428, 51.12539622671765], [-4.15516224873495, 51.12585604166144]]]}}, {"type": "Feature", "properties": {"type": "postcode-cell", "postcode": "EX33 2EF", "postcodes": ["EX33 2EF"]}, "geometry": {"type": "Polygon", "coordinates": [[[-4.1539673120918765, 51.11285088620028], [-4.152663728960538, 51.113658969357274], [-4.1507728827765815, 51.11050124629464], [-4.153471090511607, 51.11085379552266], [-4.1539673120918765, 51.11285088620028]]]}}, {"type": "Feature", "properties": {"type": "postcode-cell", "postcode": "EX33 2LJ", "postcodes": ["EX33 2LJ"]}, "geometry": {"type": "Polygon", "coordinates": [[[-4.151810761104475, 51.12497584750043], [-4.1533471176709655, 51.125646594680084], [-4.1534708395461335, 51.125814012537624], [-4.153339163984653, 51.126538379424694], [-4.153226299892496, 51.12664778442955], [-4.151784040867127, 51.12496851071083], [-4.151810761104475, 51.12497584750043]]]}}, {"type": "Feature", "properties": {"type": "postcode-cell", "postcode": "EX33 2HW", "postcodes": ["EX33 2HW"]}, "geometry": {"type": "Polygon", "coordinates": [[[-4.152677553585528, 51.10477166542372], [-4.151605055198972, 51.10394519768597], [-4.153199286206523, 51.104019539540175], [-4.153415835677759, 51.10424227143074], [-4.152677553585528, 51.10477166542372]]]}}, {"type": "Feature", "properties": {"type": "postcode-cell", "postcode": "EX33 2LT", "postcodes": ["EX33 2LT"]}, "geometry": {"type": "Polygon", "coordinates": [[[-4.154826624299694, 51.12610373118691], [-4.153339163984653, 51.126538379424694], [-4.1534708395461335, 51.125814012537624], [-4.154826624299694, 51.12610373118691]]]}}, {"type": "Feature", "properties": {"type": "postcode-cell", "postcode": "EX33 2NB", "postcodes": ["EX33 2NB"]}, "geometry": {"type": "Polygon", "coordinates": [[[-4.1546877389957055, 51.12747405963512], [-4.154110137432491, 51.127847226852026], [-4.15013758815012, 51.128106757029315], [-4.153210988992268, 51.12667458646012], [-4.154688869916014, 51.12706139943903], [-4.1546877389957055, 51.12747405963512]]]}}, {"type": "Feature", "properties": {"type": "postcode-cell", "postcode": "EX33 2EG", "postcodes": ["EX33 2EG"]}, "geometry": {"type": "Polygon", "coordinates": [[[-4.152510246466032, 51.11394886753988], [-4.141624519811794, 51.112426727618754], [-4.149814860900562, 51.11026084834483], [-4.1507728827765815, 51.11050124629464], [-4.152663728960538, 51.113658969357274], [-4.152510246466032, 51.11394886753988]]]}}, {"type": "Feature", "properties": {"type": "postcode-cell", "postcode": "EX33 2LR", "postcodes": ["EX33 2LR"]}, "geometry": {"type": "Polygon", "coordinates": [[[-4.154412841584428, 51.12539622671765], [-4.1533471176709655, 51.125646594680084], [-4.151810761104475, 51.12497584750043], [-4.154331727591384, 51.12504321073945], [-4.154412841584428, 51.12539622671765]]]}}, {"type": "Feature", "properties": {"type": "postcode-cell", "postcode": "EX33 2LU", "postcodes": ["EX33 2LU"]}, "geometry": {"type": "Polygon", "coordinates": [[[-4.15013758815012, 51.128106757029315], [-4.150072843076469, 51.12812220917798], [-4.146531868269449, 51.12521583215531], [-4.148416230544891, 51.12375871167483], [-4.151784040867127, 51.12496851071083], [-4.153226299892496, 51.12664778442955], [-4.153210988992268, 51.12667458646012], [-4.15013758815012, 51.128106757029315]]]}}, {"type": "Feature", "properties": {"type": "postcode-cell", "postcode": "EX33 2FH", "postcodes": ["EX33 2FH"]}, "geometry": {"type": "Polygon", "coordinates": [[[-4.148428293896596, 51.10596010253521], [-4.138465785788749, 51.10533867864626], [-4.138224481473593, 51.10456627761897], [-4.144269989979272, 51.103649995044925], [-4.144209989979095, 51.10395999504519], [-4.145389989979996, 51.10374999504501], [-4.145699989979745, 51.10479999504585], [-4.146019989980135, 51.104409995045536], [-4.147569989981186, 51.104439995045546], [-4.148011350071714, 51.10436188709432], [-4.148428293896596, 51.10596010253521]]]}}, {"type": "Feature", "properties": {"type": "postcode-cell", "postcode": "EX33 2PE", "postcodes": ["EX33 2PE"]}, "geometry": {"type": "Polygon", "coordinates": [[[-4.151151969599723, 51.104702995455696], [-4.150426947751039, 51.105516344108445], [-4.149172471465962, 51.104156393064144], [-4.151007881144371, 51.10383153708288], [-4.151151969599723, 51.104702995455696]]]}}, {"type": "Feature", "properties": {"type": "postcode-cell", "postcode": "EX33 2HN", "postcodes": ["EX33 2HN"]}, "geometry": {"type": "Polygon", "coordinates": [[[-4.151605055198972, 51.10394519768597], [-4.152677553585528, 51.10477166542372], [-4.152573429117435, 51.104934665507834], [-4.151151969599723, 51.104702995455696], [-4.151007881144371, 51.10383153708288], [-4.151072442648311, 51.10382010949729], [-4.151605055198972, 51.10394519768597]]]}}, {"type": "Feature", "properties": {"type": "postcode-cell", "postcode": "EX33 2NG", "postcodes": ["EX33 2NG"]}, "geometry": {"type": "Polygon", "coordinates": [[[-4.153838221096667, 51.135880339072386], [-4.152121220511374, 51.1376960162498], [-4.1431547727033795, 51.13693092467892], [-4.143052685749205, 51.13442970117427], [-4.145135011136332, 51.13390335554644], [-4.153838221096667, 51.135880339072386]]]}}, {"type": "Feature", "properties": {"type": "postcode-cell", "postcode": "EX33 2PF", "postcodes": ["EX33 2PF"]}, "geometry": {"type": "Polygon", "coordinates": [[[-4.152796688529491, 51.105557648869045], [-4.150416666809882, 51.10558655542871], [-4.150426947751039, 51.105516344108445], [-4.151151969599723, 51.104702995455696], [-4.152573429117435, 51.104934665507834], [-4.152796688529491, 51.105557648869045]]]}}, {"type": "Feature", "properties": {"type": "postcode-cell", "postcode": "EX33 2LG", "postcodes": ["EX33 2LG"]}, "geometry": {"type": "Polygon", "coordinates": [[[-4.149814860900562, 51.11026084834483], [-4.141624519811794, 51.112426727618754], [-4.141460235863338, 51.11245549312752], [-4.13896480726476, 51.11128189160886], [-4.139011634387745, 51.11015936459191], [-4.149180291151272, 51.106406580860835], [-4.149497377799487, 51.10647286118352], [-4.149986543808149, 51.106950834454295], [-4.150824422063248, 51.1085445414301], [-4.149814860900562, 51.11026084834483]]]}}, {"type": "Feature", "properties": {"type": "postcode-cell", "postcode": "EX33 2HT", "postcodes": ["EX33 2HT"]}, "geometry": {"type": "Polygon", "coordinates": [[[-4.149497377799487, 51.10647286118352], [-4.149180291151272, 51.106406580860835], [-4.148428293896596, 51.10596010253521], [-4.148011350071714, 51.10436188709432], [-4.149172471465962, 51.104156393064144], [-4.150426947751039, 51.105516344108445], [-4.150416666809882, 51.10558655542871], [-4.149497377799487, 51.10647286118352]]]}}, {"type": "Feature", "properties": {"type": "postcode-cell", "postcode": "EX33 2NN", "postcodes": ["EX33 2NN"]}, "geometry": {"type": "Polygon", "coordinates": [[[-4.146531868269449, 51.12521583215531], [-4.1367765476675356, 51.126594449033234], [-4.1339467269166255, 51.124369073989044], [-4.14368343972612, 51.116641467790394], [-4.1499090743224745, 51.11912041576436], [-4.149520345720217, 51.122334495291284], [-4.148416230544891, 51.12375871167483], [-4.146531868269449, 51.12521583215531]]]}}, {"type": "Feature", "properties": {"type": "postcode-cell", "postcode": "EX33 2LX", "postcodes": ["EX33 2LX"]}, "geometry": {"type": "Polygon", "coordinates": [[[-4.150615799530159, 51.1311721638443], [-4.145135011136332, 51.13390335554644], [-4.143052685749205, 51.13442970117427], [-4.137187120515888, 51.13105449786762], [-4.1367765476675356, 51.126594449033234], [-4.146531868269449, 51.12521583215531], [-4.150072843076469, 51.12812220917798], [-4.150671839732452, 51.13102710641682], [-4.150615799530159, 51.1311721638443]]]}}, {"type": "Feature", "properties": {"type": "postcode-cell", "postcode": "EX33 2FF", "postcodes": ["EX33 2FF"]}, "geometry": {"type": "Polygon", "coordinates": [[[-4.14368343972612, 51.116641467790394], [-4.1339467269166255, 51.124369073989044], [-4.128250384560921, 51.12283713476371], [-4.135120403162371, 51.11208393470368], [-4.13896480726476, 51.11128189160886], [-4.141460235863338, 51.11245549312752], [-4.14368343972612, 51.116641467790394]]]}}, {"type": "Feature", "properties": {"type": "postcode-cell", "postcode": "EX33 2NF", "postcodes": ["EX33 2NF"]}, "geometry": {"type": "Polygon", "coordinates": [[[-4.1431547727033795, 51.13693092467892], [-4.152121220511374, 51.1376960162498], [-4.153100810984741, 51.13913806217761], [-4.152999989969608, 51.139169995074354], [-4.152189989969074, 51.13911999507434], [-4.150719989967672, 51.140009995075054], [-4.1498999899671976, 51.13980999507492], [-4.146739989964771, 51.14038999507541], [-4.145019989963879, 51.13972999507486], [-4.142602881905853, 51.139379911017336], [-4.1431547727033795, 51.13693092467892]]]}}, {"type": "Feature", "properties": {"type": "postcode-cell", "postcode": "EX33 2NH", "postcodes": ["EX33 2NH"]}, "geometry": {"type": "Polygon", "coordinates": [[[-4.110900985904166, 51.14166803069391], [-4.137187120515888, 51.13105449786762], [-4.143052685749205, 51.13442970117427], [-4.1431547727033795, 51.13693092467892], [-4.142602881905853, 51.139379911017336], [-4.139289989960309, 51.13889999507418], [-4.136179989958142, 51.13896999507424], [-4.134959989957099, 51.13943999507464], [-4.134039989956555, 51.139239995074476], [-4.132829989955606, 51.139509995074704], [-4.130879989953816, 51.14053999507558], [-4.1300099899531535, 51.140679995075686], [-4.128859989951912, 51.141709995076546], [-4.1272999899507345, 51.141949995076736], [-4.122009989945408, 51.14579999507994], [-4.120409989944133, 51.14619999508031], [-4.12003998994396, 51.14601999508015], [-4.1189199899430315, 51.146379995080444], [-4.1179599899424115, 51.14628999508037], [-4.117759989942166, 51.14653999508059], [-4.116159989941056, 51.146569995080604], [-4.114449989939652, 51.147099995081064], [-4.113819989938779, 51.14808999508188], [-4.1140099899383715, 51.149309995082895], [-4.110939989935527, 51.15098999508431], [-4.109789989933837, 51.15302999508599], [-4.109669989933293, 51.15407999508687], [-4.107709989931412, 51.15528999508787], [-4.10067998992695, 51.15448999508723], [-4.096649989924021, 51.15486999508756], [-4.095545850370038, 51.15480564435449], [-4.110900985904166, 51.14166803069391]]]}}, {"type": "Feature", "properties": {"type": "postcode-cell", "postcode": "EX33 2LQ", "postcodes": ["EX33 2LQ"]}, "geometry": {"type": "Polygon", "coordinates": [[[-4.139011634387745, 51.11015936459191], [-4.138465785788749, 51.10533867864626], [-4.148428293896596, 51.10596010253521], [-4.149180291151272, 51.106406580860835], [-4.139011634387745, 51.11015936459191]]]}}, {"type": "Feature", "properties": {"type": "postcode-cell", "postcode": "EX33 2NP", "postcodes": ["EX33 2NP"]}, "geometry": {"type": "Polygon", "coordinates": [[[-4.128250384560921, 51.12283713476371], [-4.1222483291065375, 51.12270819913811], [-4.116933282906523, 51.11898832657957], [-4.1181835753072695, 51.11054231590737], [-4.135120403162371, 51.11208393470368], [-4.128250384560921, 51.12283713476371]]]}}, {"type": "Feature", "properties": {"type": "postcode-cell", "postcode": "EX33 2NL", "postcodes": ["EX33 2NL"]}, "geometry": {"type": "Polygon", "coordinates": [[[-4.137187120515888, 51.13105449786762], [-4.110900985904166, 51.14166803069391], [-4.1222483291065375, 51.12270819913811], [-4.128250384560921, 51.12283713476371], [-4.1339467269166255, 51.124369073989044], [-4.1367765476675356, 51.126594449033234], [-4.137187120515888, 51.13105449786762]]]}}, {"type": "Feature", "properties": {"type": "postcode-cell", "postcode": "EX31 4EH", "postcodes": ["EX31 4EH"]}, "geometry": {"type": "Polygon", "coordinates": [[[-4.116933282906523, 51.11898832657957], [-4.1222483291065375, 51.12270819913811], [-4.110900985904166, 51.14166803069391], [-4.095545850370038, 51.15480564435449], [-4.092189989921084, 51.15460999508735], [-4.0939399899227675, 51.15350999508644], [-4.09399998992319, 51.152649995085724], [-4.0960699899251845, 51.15133999508462], [-4.097789989927901, 51.14785999508174], [-4.10165998993155, 51.145599995079856], [-4.104989989935445, 51.1419499950768], [-4.109149989939861, 51.138399995073854], [-4.110969989940901, 51.13886999507424], [-4.111869989942603, 51.13640999507218], [-4.111269989942183, 51.13642999507221], [-4.11104998994299, 51.134259995070416], [-4.108359989940928, 51.13475999507083], [-4.108619989941828, 51.13312999506948], [-4.107789989941907, 51.13166999506829], [-4.101399989937674, 51.13134999506803], [-4.101339989938296, 51.129849995066785], [-4.101749989938589, 51.12981999506675], [-4.100789989939299, 51.126729995064196], [-4.101919989940374, 51.12604999506361], [-4.103749989941847, 51.125549995063196], [-4.104979989943173, 51.12444999506229], [-4.105639989944209, 51.12312999506119], [-4.105499989944348, 51.12259999506075], [-4.1046699899439805, 51.12214999506039], [-4.102039989942309, 51.121859995060156], [-4.10086209510032, 51.121328708472646], [-4.116933282906523, 51.11898832657957]]]}}, {"type": "Feature", "properties": {"type": "postcode-cell", "postcode": "EX31 4EJ", "postcodes": ["EX31 4EJ"]}, "geometry": {"type": "Polygon", "coordinates": [[[-4.1181835753072695, 51.11054231590737], [-4.116933282906523, 51.11898832657957], [-4.10086209510032, 51.121328708472646], [-4.097849989940284, 51.1199699950586], [-4.0981599899406795, 51.11954999505825], [-4.097499989940427, 51.119099995057894], [-4.096839989940847, 51.11712999505625], [-4.097299989941646, 51.116039995055345], [-4.097089989942078, 51.114739995054265], [-4.097699989942659, 51.11436999505396], [-4.099169989943835, 51.113979995053626], [-4.099959989944339, 51.11405999505371], [-4.103269989947031, 51.113099995052906], [-4.105849989950232, 51.1098499950502], [-4.1074899899514, 51.1097399950501], [-4.108929989952809, 51.10877999504928], [-4.109939989953532, 51.10870999504923], [-4.111849989953913, 51.11079999505096], [-4.113939989955263, 51.1109799950511], [-4.115989989956777, 51.11072999505089], [-4.116339989957391, 51.109879995050164], [-4.117380855027104, 51.109503514649425], [-4.1181835753072695, 51.11054231590737]]]}}]}