{"type": "FeatureCollection", "features": [{"type": "Feature", "properties": {"type": "ward-outline", "name": "Burrator"}, "geometry": {"type": "Polygon", "coordinates": [[[-3.96439, 50.4964], [-3.96477, 50.49631], [-3.96532, 50.49418], [-3.96755, 50.49197], [-3.96797, 50.48982], [-3.97044, 50.48813], [-3.97132, 50.48781], [-3.97169, 50.48803], [-3.97516, 50.48795], [-3.97617, 50.48744], [-3.97866, 50.487], [-3.97936, 50.48649], [-3.98217, 50.48557], [-3.9849, 50.48388], [-3.98469, 50.48332], [-3.98785, 50.4815], [-3.99094, 50.48119], [-3.99236, 50.47908], [-3.99391, 50.47833], [-3.99393, 50.47787], [-3.99478, 50.47739], [-4.00126, 50.47734], [-4.00529, 50.4764], [-4.00444, 50.47586], [-4.00674, 50.47419], [-4.00655, 50.47302], [-4.00705, 50.47248], [-4.00649, 50.47214], [-4.0079, 50.46967], [-4.00929, 50.46944], [-4.01107, 50.46958], [-4.01764, 50.46832], [-4.02305, 50.46873], [-4.02445, 50.4674], [-4.02408, 50.46464], [-4.02335, 50.46318], [-4.02393, 50.46203], [-4.0256, 50.46233], [-4.02741, 50.46174], [-4.02892, 50.46292], [-4.02893, 50.46237], [-4.02982, 50.46249], [-4.02957, 50.46338], [-4.0302, 50.46382], [-4.03125, 50.46376], [-4.03209, 50.46315], [-4.03272, 50.46325], [-4.03392, 50.46278], [-4.03548, 50.46377], [-4.03624, 50.4638], [-4.03748, 50.46348], [-4.03866, 50.46264], [-4.04249, 50.46186], [-4.04292, 50.46145], [-4.04262, 50.46046], [-4.0442, 50.45985], [-4.04613, 50.45955], [-4.04749, 50.45885], [-4.05066, 50.45876], [-4.05311, 50.45732], [-4.05717, 50.45673], [-4.05842, 50.45594], [-4.06018, 50.45403], [-4.06402, 50.45431], [-4.0654, 50.45486], [-4.06683, 50.45447], [-4.06801, 50.4545], [-4.06785, 50.45536], [-4.0667, 50.45604], [-4.06634, 50.45712], [-4.06515, 50.45823], [-4.06517, 50.45963], [-4.06799, 50.45962], [-4.06937, 50.4593], [-4.07012, 50.45948], [-4.07137, 50.4609], [-4.07277, 50.46151], [-4.07274, 50.4625], [-4.07601, 50.46395], [-4.07648, 50.46521], [-4.07619, 50.46564], [-4.07791, 50.46726], [-4.07726, 50.46747], [-4.07716, 50.46783], [-4.07779, 50.46991], [-4.07765, 50.47326], [-4.08039, 50.47531], [-4.08076, 50.47682], [-4.08211, 50.47776], [-4.08321, 50.48023], [-4.08209, 50.48127], [-4.08403, 50.48251], [-4.08429, 50.48355], [-4.08632, 50.48618], [-4.08499, 50.48648], [-4.07951, 50.48903], [-4.07749, 50.4892], [-4.07508, 50.48889], [-4.07311, 50.48947], [-4.07291, 50.49207], [-4.07096, 50.49598], [-4.07427, 50.49618], [-4.08197, 50.49856], [-4.0864, 50.49909], [-4.08777, 50.499], [-4.09216, 50.50128], [-4.09437, 50.49997], [-4.10009, 50.50022], [-4.1012, 50.50214], [-4.10051, 50.50456], [-4.10145, 50.50536], [-4.10403, 50.50506], [-4.10939, 50.5057], [-4.10876, 50.50751], [-4.11064, 50.50845], [-4.11045, 50.51016], [-4.11064, 50.51063], [-4.11149, 50.51092], [-4.11106, 50.51118], [-4.11052, 50.51094], [-4.11153, 50.51377], [-4.11551, 50.51388], [-4.11735, 50.51473], [-4.11794, 50.51464], [-4.11659, 50.51822], [-4.1144, 50.51911], [-4.11373, 50.51901], [-4.11168, 50.52042], [-4.1115, 50.5209], [-4.10977, 50.52129], [-4.10836, 50.52028], [-4.1066, 50.52008], [-4.10513, 50.52033], [-4.10525, 50.52059], [-4.10242, 50.52103], [-4.09622, 50.52534], [-4.09429, 50.52443], [-4.09427, 50.52365], [-4.09226, 50.52283], [-4.09436, 50.52087], [-4.09369, 50.51891], [-4.09238, 50.51706], [-4.09251, 50.51527], [-4.09089, 50.51524], [-4.08912, 50.51591], [-4.08748, 50.51528], [-4.08749, 50.51486], [-4.08104, 50.51345], [-4.08226, 50.51215], [-4.08104, 50.51167], [-4.07996, 50.51311], [-4.07833, 50.51382], [-4.07894, 50.51475], [-4.07448, 50.51532], [-4.07131, 50.51655], [-4.07, 50.51815], [-4.06808, 50.51907], [-4.06556, 50.52124], [-4.0643, 50.52174], [-4.06303, 50.52181], [-4.06305, 50.52406], [-4.0616, 50.52494], [-4.06161, 50.5264], [-4.06004, 50.52733], [-4.05852, 50.5297], [-4.05666, 50.53026], [-4.05547, 50.53127], [-4.05549, 50.53188], [-4.0564, 50.53275], [-4.05682, 50.5347], [-4.0565, 50.53526], [-4.05714, 50.53582], [-4.05617, 50.53766], [-4.05659, 50.53905], [-4.05594, 50.53999], [-4.05532, 50.54025], [-4.05575, 50.54136], [-4.05534, 50.54256], [-4.05579, 50.54352], [-4.05409, 50.54807], [-4.05184, 50.54838], [-4.0515, 50.54893], [-4.04914, 50.54968], [-4.04468, 50.55015], [-4.04112, 50.55143], [-4.03805, 50.55202], [-4.03646, 50.55165], [-4.03319, 50.54967], [-4.03037, 50.54729], [-4.02928, 50.54589], [-4.02738, 50.54525], [-4.02836, 50.54361], [-4.02823, 50.54293], [-4.02541, 50.54022], [-4.02418, 50.53948], [-4.02206, 50.53945], [-4.01967, 50.54067], [-4.01816, 50.54101], [-4.00583, 50.54029], [-4.0044, 50.54076], [-4.00238, 50.54227], [-3.99641, 50.54355], [-3.98106, 50.53419], [-3.96929, 50.51258], [-3.97601, 50.50036], [-3.96439, 50.4964]]]}}, {"type": "Feature", "properties": {"type": "postcode-cell", "postcode": "PL20 7UA", "postcodes": ["PL20 7UA"]}, "geometry": {"type": "Polygon", "coordinates": [[[-4.10184949283481, 50.518671716919854], [-4.108757980932374, 50.51611379722744], [-4.1117094154248015, 50.51605440626144], [-4.117190590665672, 50.51662735742121], [-4.116589990223474, 50.51821999457226], [-4.114399990221621, 50.51910999457302], [-4.113729990221224, 50.51900999457295], [-4.1116799902192245, 50.5204199945741], [-4.1114999902188885, 50.520899994574464], [-4.109769990217569, 50.521289994574815], [-4.108359990217097, 50.52027999457405], [-4.1065999902160275, 50.52007999457391], [-4.1051299902149445, 50.52032999457414], [-4.105249990214903, 50.520589994574344], [-4.102419990212832, 50.52102999457472], [-4.09621999020677, 50.52533999457823], [-4.0942899902059136, 50.52442999457753], [-4.094270758792569, 50.5236799701999], [-4.10184949283481, 50.518671716919854]]]}}, {"type": "Feature", "properties": {"type": "postcode-cell", "postcode": "PL20 7RZ", "postcodes": ["PL20 7RZ"]}, "geometry": {"type": "Polygon", "coordinates": [[[-4.1117094154248015, 50.51605440626144], [-4.108488069995927, 50.51015752894259], [-4.110613918209589, 50.50868464905231], [-4.1104499902231, 50.51015999456604], [-4.11063999022301, 50.51062999456641], [-4.111489990223439, 50.51091999456664], [-4.111059990223037, 50.51117999456685], [-4.110519990222793, 50.51093999456667], [-4.111529990222165, 50.51376999456888], [-4.115509990224742, 50.51387999456886], [-4.117349990225569, 50.51472999456951], [-4.117939990226002, 50.51463999456944], [-4.117190590665672, 50.51662735742121], [-4.1117094154248015, 50.51605440626144]]]}}, {"type": "Feature", "properties": {"type": "postcode-cell", "postcode": "PL20 7RW", "postcodes": ["PL20 7RW"]}, "geometry": {"type": "Polygon", "coordinates": [[[-4.1089620962753886, 50.50653234712782], [-4.102872191027706, 50.50614328690356], [-4.102727799080597, 50.50607721745073], [-4.102253798511105, 50.50526653500407], [-4.104029990221196, 50.50505999456215], [-4.10938999022444, 50.50569999456255], [-4.109105184761214, 50.5065182620306], [-4.1089620962753886, 50.50653234712782]]]}}, {"type": "Feature", "properties": {"type": "postcode-cell", "postcode": "PL20 7UF", "postcodes": ["PL20 7UF"]}, "geometry": {"type": "Polygon", "coordinates": [[[-4.102657145341174, 50.515629342349584], [-4.104165359997139, 50.513063968555436], [-4.106261726398259, 50.512601888793846], [-4.108757980932374, 50.51611379722744], [-4.10184949283481, 50.518671716919854], [-4.102657145341174, 50.515629342349584]]]}}, {"type": "Feature", "properties": {"type": "postcode-cell", "postcode": "PL20 7TU", "postcodes": ["PL20 7TU"]}, "geometry": {"type": "Polygon", "coordinates": [[[-4.10184949283481, 50.518671716919854], [-4.094270758792569, 50.5236799701999], [-4.094269990206256, 50.523649994576935], [-4.093422544938605, 50.523304278423], [-4.094324230071726, 50.5209033723555], [-4.094359990207589, 50.520869994574774], [-4.094348922842547, 50.52083761981894], [-4.097091486014449, 50.513533526445954], [-4.098598534174257, 50.51321092383103], [-4.101515702886664, 50.51363373523129], [-4.102657145341174, 50.515629342349584], [-4.10184949283481, 50.518671716919854]]]}}, {"type": "Feature", "properties": {"type": "postcode-cell", "postcode": "PL20 7RY", "postcodes": ["PL20 7RY"]}, "geometry": {"type": "Polygon", "coordinates": [[[-4.107659433255132, 50.51053069482725], [-4.108488069995927, 50.51015752894259], [-4.1117094154248015, 50.51605440626144], [-4.108757980932374, 50.51611379722744], [-4.106261726398259, 50.512601888793846], [-4.107659433255132, 50.51053069482725]]]}}, {"type": "Feature", "properties": {"type": "postcode-cell", "postcode": "PL20 7RX", "postcodes": ["PL20 7RX"]}, "geometry": {"type": "Polygon", "coordinates": [[[-4.106261726398259, 50.512601888793846], [-4.104165359997139, 50.513063968555436], [-4.104134591666997, 50.51305421464454], [-4.102775196150111, 50.51233375555185], [-4.102607480193058, 50.51216053026706], [-4.1021404585786225, 50.51150136105114], [-4.105750693736545, 50.510384429968965], [-4.107659433255132, 50.51053069482725], [-4.106261726398259, 50.512601888793846]]]}}, {"type": "Feature", "properties": {"type": "postcode-cell", "postcode": "PL20 7TY", "postcodes": ["PL20 7TY"]}, "geometry": {"type": "Polygon", "coordinates": [[[-4.102657145341174, 50.515629342349584], [-4.101515702886664, 50.51363373523129], [-4.101798655126017, 50.51335311153112], [-4.104134591666997, 50.51305421464454], [-4.104165359997139, 50.513063968555436], [-4.102657145341174, 50.515629342349584]]]}}, {"type": "Feature", "properties": {"type": "postcode-cell", "postcode": "PL20 7RU", "postcodes": ["PL20 7RU"]}, "geometry": {"type": "Polygon", "coordinates": [[[-4.1089620962753886, 50.50653234712782], [-4.109105184761214, 50.5065182620306], [-4.108759990223197, 50.507509994563996], [-4.1106399902240085, 50.50844999456471], [-4.110613918209589, 50.50868464905231], [-4.108488069995927, 50.51015752894259], [-4.107659433255132, 50.51053069482725], [-4.105750693736545, 50.510384429968965], [-4.104013330230979, 50.5098530534174], [-4.102907904703242, 50.50853938112651], [-4.10367937235369, 50.5079090974339], [-4.1089620962753886, 50.50653234712782]]]}}, {"type": "Feature", "properties": {"type": "postcode-cell", "postcode": "PL20 7UQ", "postcodes": ["PL20 7UQ"]}, "geometry": {"type": "Polygon", "coordinates": [[[-4.10367937235369, 50.5079090974339], [-4.102222677811951, 50.507214427946664], [-4.102872191027706, 50.50614328690356], [-4.1089620962753886, 50.50653234712782], [-4.10367937235369, 50.5079090974339]]]}}, {"type": "Feature", "properties": {"type": "postcode-cell", "postcode": "PL20 7RL", "postcodes": ["PL20 7RL"]}, "geometry": {"type": "Polygon", "coordinates": [[[-4.098326433931571, 50.50519577804156], [-4.097218906634242, 50.50455082732197], [-4.095733921890696, 50.502922651041395], [-4.100077538890194, 50.50291807799611], [-4.100950480538641, 50.503015114070315], [-4.100509990219105, 50.50455999456184], [-4.1006139727081585, 50.504648492033034], [-4.098326433931571, 50.50519577804156]]]}}, {"type": "Feature", "properties": {"type": "postcode-cell", "postcode": "PL20 7RQ", "postcodes": ["PL20 7RQ"]}, "geometry": {"type": "Polygon", "coordinates": [[[-4.102727799080597, 50.50607721745073], [-4.101091061431439, 50.506301406950676], [-4.100771850535399, 50.50626722445733], [-4.100517467569908, 50.506140668025864], [-4.100391438469987, 50.50596318838039], [-4.100948017189265, 50.50493278786316], [-4.101449990219359, 50.50535999456246], [-4.102253798511105, 50.50526653500407], [-4.102727799080597, 50.50607721745073]]]}}, {"type": "Feature", "properties": {"type": "postcode-cell", "postcode": "PL20 6EB", "postcodes": ["PL20 6EB"]}, "geometry": {"type": "Polygon", "coordinates": [[[-4.100077538890194, 50.50291807799611], [-4.0993367152728295, 50.50018708795208], [-4.100089990220814, 50.50021999455845], [-4.101199990220666, 50.502139994559904], [-4.100950480538641, 50.503015114070315], [-4.100077538890194, 50.50291807799611]]]}}, {"type": "Feature", "properties": {"type": "postcode-cell", "postcode": "PL20 7RT", "postcodes": ["PL20 7RT"]}, "geometry": {"type": "Polygon", "coordinates": [[[-4.10367937235369, 50.5079090974339], [-4.102907904703242, 50.50853938112651], [-4.1024205002774465, 50.50857832025412], [-4.10121819279331, 50.50756488880655], [-4.1017937903060995, 50.507285972412795], [-4.102222677811951, 50.507214427946664], [-4.10367937235369, 50.5079090974339]]]}}, {"type": "Feature", "properties": {"type": "postcode-cell", "postcode": "PL20 7UB", "postcodes": ["PL20 7UB"]}, "geometry": {"type": "Polygon", "coordinates": [[[-4.105750693736545, 50.510384429968965], [-4.1021404585786225, 50.51150136105114], [-4.101876727314336, 50.51141077963854], [-4.101557901768463, 50.51081372301013], [-4.102589634891742, 50.510003375849536], [-4.104013330230979, 50.5098530534174], [-4.105750693736545, 50.510384429968965]]]}}, {"type": "Feature", "properties": {"type": "postcode-cell", "postcode": "PL20 7TJ", "postcodes": ["PL20 7TJ"]}, "geometry": {"type": "Polygon", "coordinates": [[[-4.102775196150111, 50.51233375555185], [-4.101410191539383, 50.51291459422063], [-4.100245884932687, 50.512756346142865], [-4.102607480193058, 50.51216053026706], [-4.102775196150111, 50.51233375555185]]]}}, {"type": "Feature", "properties": {"type": "postcode-cell", "postcode": "PL20 7SQ", "postcodes": ["PL20 7SQ"]}, "geometry": {"type": "Polygon", "coordinates": [[[-4.104013330230979, 50.5098530534174], [-4.102589634891742, 50.510003375849536], [-4.102338760343378, 50.50984738546577], [-4.101737095402055, 50.508980873199654], [-4.102200943761193, 50.50867419525478], [-4.1024205002774465, 50.50857832025412], [-4.102907904703242, 50.50853938112651], [-4.104013330230979, 50.5098530534174]]]}}, {"type": "Feature", "properties": {"type": "postcode-cell", "postcode": "PL20 7SD", "postcodes": ["PL20 7SD"]}, "geometry": {"type": "Polygon", "coordinates": [[[-4.102200943761193, 50.50867419525478], [-4.100799012591941, 50.508244459082626], [-4.101078685553588, 50.50761337439049], [-4.101136019206786, 50.50756883498316], [-4.10121819279331, 50.50756488880655], [-4.1024205002774465, 50.50857832025412], [-4.102200943761193, 50.50867419525478]]]}}, {"type": "Feature", "properties": {"type": "postcode-cell", "postcode": "PL20 7SR", "postcodes": ["PL20 7SR"]}, "geometry": {"type": "Polygon", "coordinates": [[[-4.102589634891742, 50.510003375849536], [-4.101557901768463, 50.51081372301013], [-4.1009983426530985, 50.5105742721611], [-4.101125068730515, 50.50975305532851], [-4.102338760343378, 50.50984738546577], [-4.102589634891742, 50.510003375849536]]]}}, {"type": "Feature", "properties": {"type": "postcode-cell", "postcode": "PL20 7RS", "postcodes": ["PL20 7RS"]}, "geometry": {"type": "Polygon", "coordinates": [[[-4.102222677811951, 50.507214427946664], [-4.1017937903060995, 50.507285972412795], [-4.101091061431439, 50.506301406950676], [-4.102727799080597, 50.50607721745073], [-4.102872191027706, 50.50614328690356], [-4.102222677811951, 50.507214427946664]]]}}, {"type": "Feature", "properties": {"type": "postcode-cell", "postcode": "PL20 7TZ", "postcodes": ["PL20 7TZ"]}, "geometry": {"type": "Polygon", "coordinates": [[[-4.104134591666997, 50.51305421464454], [-4.101798655126017, 50.51335311153112], [-4.101410191539383, 50.51291459422063], [-4.102775196150111, 50.51233375555185], [-4.104134591666997, 50.51305421464454]]]}}, {"type": "Feature", "properties": {"type": "postcode-cell", "postcode": "PL20 7TX", "postcodes": ["PL20 7TX"]}, "geometry": {"type": "Polygon", "coordinates": [[[-4.101515702886664, 50.51363373523129], [-4.098598534174257, 50.51321092383103], [-4.099901020401612, 50.512738445813476], [-4.100245884932687, 50.512756346142865], [-4.101410191539383, 50.51291459422063], [-4.101798655126017, 50.51335311153112], [-4.101515702886664, 50.51363373523129]]]}}, {"type": "Feature", "properties": {"type": "postcode-cell", "postcode": "PL20 7RR", "postcodes": ["PL20 7RR"]}, "geometry": {"type": "Polygon", "coordinates": [[[-4.10121819279331, 50.50756488880655], [-4.101136019206786, 50.50756883498316], [-4.100559728936634, 50.50721712357265], [-4.100771850535399, 50.50626722445733], [-4.101091061431439, 50.506301406950676], [-4.1017937903060995, 50.507285972412795], [-4.10121819279331, 50.50756488880655]]]}}, {"type": "Feature", "properties": {"type": "postcode-cell", "postcode": "PL20 7SH", "postcodes": ["PL20 7SH"]}, "geometry": {"type": "Polygon", "coordinates": [[[-4.102338760343378, 50.50984738546577], [-4.101125068730515, 50.50975305532851], [-4.100934836352296, 50.50947452231868], [-4.101376029475979, 50.50905613247005], [-4.101737095402055, 50.508980873199654], [-4.102338760343378, 50.50984738546577]]]}}, {"type": "Feature", "properties": {"type": "postcode-cell", "postcode": "PL20 7SF", "postcodes": ["PL20 7SF"]}, "geometry": {"type": "Polygon", "coordinates": [[[-4.101737095402055, 50.508980873199654], [-4.101376029475979, 50.50905613247005], [-4.100293787871479, 50.508585762029355], [-4.100799012591941, 50.508244459082626], [-4.102200943761193, 50.50867419525478], [-4.101737095402055, 50.508980873199654]]]}}, {"type": "Feature", "properties": {"type": "postcode-cell", "postcode": "PL20 7RD", "postcodes": ["PL20 7RD"]}, "geometry": {"type": "Polygon", "coordinates": [[[-4.101078685553588, 50.50761337439049], [-4.0992543041882765, 50.50809065901994], [-4.098999000512628, 50.50790709633236], [-4.099573682473929, 50.50730688136176], [-4.099938789774577, 50.50719674407766], [-4.100559728936634, 50.50721712357265], [-4.101136019206786, 50.50756883498316], [-4.101078685553588, 50.50761337439049]]]}}, {"type": "Feature", "properties": {"type": "postcode-cell", "postcode": "PL20 7TH", "postcodes": ["PL20 7TH"]}, "geometry": {"type": "Polygon", "coordinates": [[[-4.102607480193058, 50.51216053026706], [-4.100245884932687, 50.512756346142865], [-4.099901020401612, 50.512738445813476], [-4.100963451786408, 50.511722957842906], [-4.101876727314336, 50.51141077963854], [-4.1021404585786225, 50.51150136105114], [-4.102607480193058, 50.51216053026706]]]}}, {"type": "Feature", "properties": {"type": "postcode-cell", "postcode": "PL20 7SG", "postcodes": ["PL20 7SG"]}, "geometry": {"type": "Polygon", "coordinates": [[[-4.101125068730515, 50.50975305532851], [-4.1009983426530985, 50.5105742721611], [-4.100991196997569, 50.51057371019906], [-4.100094221285224, 50.510043979687765], [-4.100187910488943, 50.509556542710534], [-4.1002094440852765, 50.50952332342212], [-4.100934836352296, 50.50947452231868], [-4.101125068730515, 50.50975305532851]]]}}, {"type": "Feature", "properties": {"type": "postcode-cell", "postcode": "PL20 7SW", "postcodes": ["PL20 7SW"]}, "geometry": {"type": "Polygon", "coordinates": [[[-4.101876727314336, 50.51141077963854], [-4.100963451786408, 50.511722957842906], [-4.09988397289787, 50.51136571672573], [-4.09994258102433, 50.51080757392265], [-4.100991196997569, 50.51057371019906], [-4.1009983426530985, 50.5105742721611], [-4.101557901768463, 50.51081372301013], [-4.101876727314336, 50.51141077963854]]]}}, {"type": "Feature", "properties": {"type": "postcode-cell", "postcode": "PL20 7RJ", "postcodes": ["PL20 7RJ"]}, "geometry": {"type": "Polygon", "coordinates": [[[-4.100559728936634, 50.50721712357265], [-4.099938789774577, 50.50719674407766], [-4.099775039007644, 50.50657792206999], [-4.100517467569908, 50.506140668025864], [-4.100771850535399, 50.50626722445733], [-4.100559728936634, 50.50721712357265]]]}}, {"type": "Feature", "properties": {"type": "postcode-cell", "postcode": "PL20 7TT", "postcodes": ["PL20 7TT"]}, "geometry": {"type": "Polygon", "coordinates": [[[-4.099901020401612, 50.512738445813476], [-4.098598534174257, 50.51321092383103], [-4.097091486014449, 50.513533526445954], [-4.096839492528396, 50.51285484407108], [-4.096912365094572, 50.51257067062044], [-4.097352848673613, 50.51210639258547], [-4.097601111156931, 50.51200469994671], [-4.09988397289787, 50.51136571672573], [-4.100963451786408, 50.511722957842906], [-4.099901020401612, 50.512738445813476]]]}}, {"type": "Feature", "properties": {"type": "postcode-cell", "postcode": "PL20 7SJ", "postcodes": ["PL20 7SJ"]}, "geometry": {"type": "Polygon", "coordinates": [[[-4.101376029475979, 50.50905613247005], [-4.100934836352296, 50.50947452231868], [-4.1002094440852765, 50.50952332342212], [-4.100040005806086, 50.5093998226158], [-4.099792077367773, 50.508734940312124], [-4.099805348837178, 50.50860011435266], [-4.100293787871479, 50.508585762029355], [-4.101376029475979, 50.50905613247005]]]}}, {"type": "Feature", "properties": {"type": "postcode-cell", "postcode": "PL20 7SE", "postcodes": ["PL20 7SE"]}, "geometry": {"type": "Polygon", "coordinates": [[[-4.100799012591941, 50.508244459082626], [-4.100293787871479, 50.508585762029355], [-4.099805348837178, 50.50860011435266], [-4.099436497707307, 50.50839479899118], [-4.0992543041882765, 50.50809065901994], [-4.101078685553588, 50.50761337439049], [-4.100799012591941, 50.508244459082626]]]}}, {"type": "Feature", "properties": {"type": "postcode-cell", "postcode": "PL20 7QG", "postcodes": ["PL20 7QG"]}, "geometry": {"type": "MultiPolygon", "coordinates": [[[[-4.097091486014449, 50.513533526445954], [-4.094348922842547, 50.52083761981894], [-4.093689990208044, 50.518909994573235], [-4.092379990208025, 50.5170599945718], [-4.0925099902089315, 50.51526999457038], [-4.0908899902078755, 50.51523999457039], [-4.090669230105361, 50.51532356161571], [-4.090069911932366, 50.512323840093806], [-4.090544929107447, 50.511370885211754], [-4.090597524495743, 50.51137204965956], [-4.0928143011744735, 50.51160154510542], [-4.096839492528396, 50.51285484407108], [-4.097091486014449, 50.513533526445954]]], [[[-4.093422544938605, 50.523304278423], [-4.092259990205308, 50.52282999457633], [-4.094324230071726, 50.5209033723555], [-4.093422544938605, 50.523304278423]]]]}}, {"type": "Feature", "properties": {"type": "postcode-cell", "postcode": "PL20 7TR", "postcodes": ["PL20 7TR"]}, "geometry": {"type": "Polygon", "coordinates": [[[-4.098330238357279, 50.510879385677484], [-4.099356392577563, 50.510511461779465], [-4.099570829658432, 50.51071436491974], [-4.097601111156931, 50.51200469994671], [-4.097352848673613, 50.51210639258547], [-4.097409025496216, 50.51193101474903], [-4.098330238357279, 50.510879385677484]]]}}, {"type": "Feature", "properties": {"type": "postcode-cell", "postcode": "PL20 7TW", "postcodes": ["PL20 7TW"]}, "geometry": {"type": "Polygon", "coordinates": [[[-4.097409025496216, 50.51193101474903], [-4.09741056422076, 50.51103913323117], [-4.0975270510313875, 50.510836908877735], [-4.0981069158222425, 50.51044051781653], [-4.098429706228097, 50.51058615548737], [-4.098330238357279, 50.510879385677484], [-4.097409025496216, 50.51193101474903]]]}}, {"type": "Feature", "properties": {"type": "postcode-cell", "postcode": "PL20 6AW", "postcodes": ["PL20 6AW"]}, "geometry": {"type": "Polygon", "coordinates": [[[-4.071807032371532, 50.486079427785995], [-4.074717366697414, 50.48101436342493], [-4.08314383430376, 50.48008145230894], [-4.083209990218862, 50.48022999454308], [-4.082089990217645, 50.48126999454391], [-4.0840299902183546, 50.48250999454485], [-4.084289990218048, 50.483549994545655], [-4.086319990218178, 50.48617999454766], [-4.084989990217166, 50.48647999454795], [-4.081120459796273, 50.488280652019135], [-4.071807032371532, 50.486079427785995]]]}}, {"type": "Feature", "properties": {"type": "postcode-cell", "postcode": "PL6 7AP", "postcodes": ["PL6 7AP"]}, "geometry": {"type": "Polygon", "coordinates": [[[-4.0585674423201334, 50.46727535166091], [-4.050369953865097, 50.45876823259876], [-4.050659990207379, 50.45875999452691], [-4.053109990209646, 50.45731999452576], [-4.057169990212574, 50.456729994525205], [-4.058419990213757, 50.455939994524556], [-4.060179990215788, 50.45402999452303], [-4.064019990218175, 50.454309994523186], [-4.065399990218828, 50.45485999452359], [-4.066829990219944, 50.45446999452324], [-4.068009990220704, 50.454499994523246], [-4.067849990220202, 50.455359994523924], [-4.066699990219136, 50.456039994524474], [-4.066339990218404, 50.45711999452533], [-4.065149990217112, 50.4582299945262], [-4.065169990216483, 50.45962999452732], [-4.0679899902183365, 50.45961999452725], [-4.0693699902193865, 50.45929999452697], [-4.070119990219795, 50.45947999452709], [-4.071369990219961, 50.46089999452817], [-4.072769990220601, 50.461509994528626], [-4.072739990220125, 50.4624999945294], [-4.076009990221605, 50.46394999453047], [-4.076479990221336, 50.46520999453146], [-4.0761899902209455, 50.46563999453178], [-4.077909990221332, 50.467259994533016], [-4.077259990220808, 50.4674699945332], [-4.077159990220578, 50.46782999453348], [-4.077253311007825, 50.468138113630225], [-4.0585674423201334, 50.46727535166091]]]}}, {"type": "Feature", "properties": {"type": "postcode-cell", "postcode": "PL20 7SP", "postcodes": ["PL20 7SP"]}, "geometry": {"type": "Polygon", "coordinates": [[[-4.100991196997569, 50.51057371019906], [-4.09994258102433, 50.51080757392265], [-4.099570829658432, 50.51071436491974], [-4.099356392577563, 50.510511461779465], [-4.099220546238159, 50.510218621528594], [-4.100094221285224, 50.510043979687765], [-4.100991196997569, 50.51057371019906]]]}}, {"type": "Feature", "properties": {"type": "postcode-cell", "postcode": "PL20 7RG", "postcodes": ["PL20 7RG"]}, "geometry": {"type": "Polygon", "coordinates": [[[-4.100517467569908, 50.506140668025864], [-4.099775039007644, 50.50657792206999], [-4.099073038875702, 50.50662698326202], [-4.098772704642817, 50.5057358106015], [-4.100391438469987, 50.50596318838039], [-4.100517467569908, 50.506140668025864]]]}}, {"type": "Feature", "properties": {"type": "postcode-cell", "postcode": "PL20 7FN", "postcodes": ["PL20 7FN"]}, "geometry": {"type": "Polygon", "coordinates": [[[-4.1002094440852765, 50.50952332342212], [-4.100187910488943, 50.509556542710534], [-4.098765267112244, 50.50996665023319], [-4.098417353970379, 50.509737764359365], [-4.098366778267089, 50.50961692503195], [-4.098812960322029, 50.5094779098274], [-4.100040005806086, 50.5093998226158], [-4.1002094440852765, 50.50952332342212]]]}}, {"type": "Feature", "properties": {"type": "postcode-cell", "postcode": "PL20 7RA", "postcodes": ["PL20 7RA"]}, "geometry": {"type": "Polygon", "coordinates": [[[-4.100391438469987, 50.50596318838039], [-4.098772704642817, 50.5057358106015], [-4.09850769139184, 50.50561073702603], [-4.098326433931571, 50.50519577804156], [-4.1006139727081585, 50.504648492033034], [-4.100948017189265, 50.50493278786316], [-4.100391438469987, 50.50596318838039]]]}}, {"type": "Feature", "properties": {"type": "postcode-cell", "postcode": "PL20 7SL", "postcodes": ["PL20 7SL"]}, "geometry": {"type": "Polygon", "coordinates": [[[-4.100094221285224, 50.510043979687765], [-4.099220546238159, 50.510218621528594], [-4.098826587937148, 50.510027831464065], [-4.098765267112244, 50.50996665023319], [-4.100187910488943, 50.509556542710534], [-4.100094221285224, 50.510043979687765]]]}}, {"type": "Feature", "properties": {"type": "postcode-cell", "postcode": "PL20 7RF", "postcodes": ["PL20 7RF"]}, "geometry": {"type": "Polygon", "coordinates": [[[-4.099938789774577, 50.50719674407766], [-4.099573682473929, 50.50730688136176], [-4.098943615230398, 50.50675245953057], [-4.099073038875702, 50.50662698326202], [-4.099775039007644, 50.50657792206999], [-4.099938789774577, 50.50719674407766]]]}}, {"type": "Feature", "properties": {"type": "postcode-cell", "postcode": "PL20 7SS", "postcodes": ["PL20 7SS"]}, "geometry": {"type": "Polygon", "coordinates": [[[-4.100040005806086, 50.5093998226158], [-4.098812960322029, 50.5094779098274], [-4.099792077367773, 50.508734940312124], [-4.100040005806086, 50.5093998226158]]]}}, {"type": "Feature", "properties": {"type": "postcode-cell", "postcode": "PL20 7TS", "postcodes": ["PL20 7TS"]}, "geometry": {"type": "Polygon", "coordinates": [[[-4.09988397289787, 50.51136571672573], [-4.097601111156931, 50.51200469994671], [-4.099570829658432, 50.51071436491974], [-4.09994258102433, 50.51080757392265], [-4.09988397289787, 50.51136571672573]]]}}, {"type": "Feature", "properties": {"type": "postcode-cell", "postcode": "PL20 7ST", "postcodes": ["PL20 7ST"]}, "geometry": {"type": "Polygon", "coordinates": [[[-4.099805348837178, 50.50860011435266], [-4.099792077367773, 50.508734940312124], [-4.098812960322029, 50.5094779098274], [-4.098366778267089, 50.50961692503195], [-4.098228620666171, 50.50951748361352], [-4.0983634942908065, 50.50900133331087], [-4.099436497707307, 50.50839479899118], [-4.099805348837178, 50.50860011435266]]]}}, {"type": "Feature", "properties": {"type": "postcode-cell", "postcode": "PL20 7RE", "postcodes": ["PL20 7RE"]}, "geometry": {"type": "Polygon", "coordinates": [[[-4.098999000512628, 50.50790709633236], [-4.098345692412609, 50.50780415481459], [-4.098317511600484, 50.507783663045075], [-4.0980745567972825, 50.507416081857684], [-4.098639321210341, 50.506822521574996], [-4.098943615230398, 50.50675245953057], [-4.099573682473929, 50.50730688136176], [-4.098999000512628, 50.50790709633236]]]}}, {"type": "Feature", "properties": {"type": "postcode-cell", "postcode": "PL20 6EE", "postcodes": ["PL20 6EE"]}, "geometry": {"type": "Polygon", "coordinates": [[[-4.0955709371798665, 50.502873535713164], [-4.091744618206959, 50.502682001177384], [-4.090988165839299, 50.50256621636196], [-4.089766419323652, 50.500036912748996], [-4.0921599902151025, 50.50127999455941], [-4.094369990217158, 50.49996999455833], [-4.0987348718665135, 50.500160793048174], [-4.0955709371798665, 50.502873535713164]]]}}, {"type": "Feature", "properties": {"type": "postcode-cell", "postcode": "PL20 6ED", "postcodes": ["PL20 6ED"]}, "geometry": {"type": "Polygon", "coordinates": [[[-4.100077538890194, 50.50291807799611], [-4.095733921890696, 50.502922651041395], [-4.0955709371798665, 50.502873535713164], [-4.0987348718665135, 50.500160793048174], [-4.0993367152728295, 50.50018708795208], [-4.100077538890194, 50.50291807799611]]]}}, {"type": "Feature", "properties": {"type": "postcode-cell", "postcode": "PL20 7SU", "postcodes": ["PL20 7SU"]}, "geometry": {"type": "Polygon", "coordinates": [[[-4.099436497707307, 50.50839479899118], [-4.0983634942908065, 50.50900133331087], [-4.097704914366348, 50.50844019894835], [-4.098345692412609, 50.50780415481459], [-4.098999000512628, 50.50790709633236], [-4.0992543041882765, 50.50809065901994], [-4.099436497707307, 50.50839479899118]]]}}, {"type": "Feature", "properties": {"type": "postcode-cell", "postcode": "PL20 7SY", "postcodes": ["PL20 7SY"]}, "geometry": {"type": "Polygon", "coordinates": [[[-4.098772704642817, 50.5057358106015], [-4.099073038875702, 50.50662698326202], [-4.098943615230398, 50.50675245953057], [-4.098639321210341, 50.506822521574996], [-4.097701275884886, 50.50630075457998], [-4.09850769139184, 50.50561073702603], [-4.098772704642817, 50.5057358106015]]]}}, {"type": "Feature", "properties": {"type": "postcode-cell", "postcode": "PL20 7TN", "postcodes": ["PL20 7TN"]}, "geometry": {"type": "Polygon", "coordinates": [[[-4.098429706228097, 50.51058615548737], [-4.098826587937148, 50.510027831464065], [-4.099220546238159, 50.510218621528594], [-4.099356392577563, 50.510511461779465], [-4.098330238357279, 50.510879385677484], [-4.098429706228097, 50.51058615548737]]]}}, {"type": "Feature", "properties": {"type": "postcode-cell", "postcode": "PL20 7TL", "postcodes": ["PL20 7TL"]}, "geometry": {"type": "Polygon", "coordinates": [[[-4.098765267112244, 50.50996665023319], [-4.098826587937148, 50.510027831464065], [-4.098429706228097, 50.51058615548737], [-4.0981069158222425, 50.51044051781653], [-4.098084357691586, 50.50998875770515], [-4.098417353970379, 50.509737764359365], [-4.098765267112244, 50.50996665023319]]]}}, {"type": "Feature", "properties": {"type": "postcode-cell", "postcode": "PL20 7SN", "postcodes": ["PL20 7SN"]}, "geometry": {"type": "Polygon", "coordinates": [[[-4.09850769139184, 50.50561073702603], [-4.097701275884886, 50.50630075457998], [-4.096656145834884, 50.506651686613296], [-4.096357582355033, 50.506368650001704], [-4.097218906634242, 50.50455082732197], [-4.098326433931571, 50.50519577804156], [-4.09850769139184, 50.50561073702603]]]}}, {"type": "Feature", "properties": {"type": "postcode-cell", "postcode": "PL20 7QF", "postcodes": ["PL20 7QF"]}, "geometry": {"type": "Polygon", "coordinates": [[[-4.097352848673613, 50.51210639258547], [-4.096912365094572, 50.51257067062044], [-4.096777953625723, 50.51239218100356], [-4.09647582769866, 50.51038732988952], [-4.096792882825042, 50.510313659685586], [-4.097138963719398, 50.51056544968859], [-4.09741056422076, 50.51103913323117], [-4.097409025496216, 50.51193101474903], [-4.097352848673613, 50.51210639258547]]]}}, {"type": "Feature", "properties": {"type": "postcode-cell", "postcode": "PL20 7TP", "postcodes": ["PL20 7TP"]}, "geometry": {"type": "Polygon", "coordinates": [[[-4.0981069158222425, 50.51044051781653], [-4.0975270510313875, 50.510836908877735], [-4.097805481312506, 50.510147214070486], [-4.098084357691586, 50.50998875770515], [-4.0981069158222425, 50.51044051781653]]]}}, {"type": "Feature", "properties": {"type": "postcode-cell", "postcode": "PL20 7QE", "postcodes": ["PL20 7QE"]}, "geometry": {"type": "Polygon", "coordinates": [[[-4.098366778267089, 50.50961692503195], [-4.098417353970379, 50.509737764359365], [-4.098084357691586, 50.50998875770515], [-4.097805481312506, 50.510147214070486], [-4.097318930045373, 50.510163607708435], [-4.096891027580751, 50.509994953705636], [-4.096456233969485, 50.509317205641736], [-4.098228620666171, 50.50951748361352], [-4.098366778267089, 50.50961692503195]]]}}, {"type": "Feature", "properties": {"type": "postcode-cell", "postcode": "PL20 7SX", "postcodes": ["PL20 7SX"]}, "geometry": {"type": "Polygon", "coordinates": [[[-4.0980745567972825, 50.507416081857684], [-4.09664086578603, 50.50679658149615], [-4.096656145834884, 50.506651686613296], [-4.097701275884886, 50.50630075457998], [-4.098639321210341, 50.506822521574996], [-4.0980745567972825, 50.507416081857684]]]}}, {"type": "Feature", "properties": {"type": "postcode-cell", "postcode": "PL20 7SZ", "postcodes": ["PL20 7SZ"]}, "geometry": {"type": "Polygon", "coordinates": [[[-4.098317511600484, 50.507783663045075], [-4.096074442117649, 50.50793406599358], [-4.095966454210318, 50.50736241302905], [-4.09664086578603, 50.50679658149615], [-4.0980745567972825, 50.507416081857684], [-4.098317511600484, 50.507783663045075]]]}}, {"type": "Feature", "properties": {"type": "postcode-cell", "postcode": "PL20 7UD", "postcodes": ["PL20 7UD"]}, "geometry": {"type": "Polygon", "coordinates": [[[-4.098345692412609, 50.50780415481459], [-4.097704914366348, 50.50844019894835], [-4.09602803983661, 50.50880711091659], [-4.0958640417355126, 50.508630321351774], [-4.096074442117649, 50.50793406599358], [-4.098317511600484, 50.507783663045075], [-4.098345692412609, 50.50780415481459]]]}}, {"type": "Feature", "properties": {"type": "postcode-cell", "postcode": "PL20 7TG", "postcodes": ["PL20 7TG"]}, "geometry": {"type": "Polygon", "coordinates": [[[-4.098228620666171, 50.50951748361352], [-4.096456233969485, 50.509317205641736], [-4.096102804141646, 50.509191065540016], [-4.09602803983661, 50.50880711091659], [-4.097704914366348, 50.50844019894835], [-4.0983634942908065, 50.50900133331087], [-4.098228620666171, 50.50951748361352]]]}}, {"type": "Feature", "properties": {"type": "postcode-cell", "postcode": "PL20 7QB", "postcodes": ["PL20 7QB"]}, "geometry": {"type": "Polygon", "coordinates": [[[-4.09741056422076, 50.51103913323117], [-4.097138963719398, 50.51056544968859], [-4.097318930045373, 50.510163607708435], [-4.097805481312506, 50.510147214070486], [-4.0975270510313875, 50.510836908877735], [-4.09741056422076, 50.51103913323117]]]}}, {"type": "Feature", "properties": {"type": "postcode-cell", "postcode": "PL20 7SA", "postcodes": ["PL20 7SA"]}, "geometry": {"type": "Polygon", "coordinates": [[[-4.09602803983661, 50.50880711091659], [-4.096102804141646, 50.509191065540016], [-4.095899473238498, 50.50935315697076], [-4.095131608595343, 50.509670650266564], [-4.09473083157831, 50.50974518689676], [-4.0939075088816415, 50.50962643028791], [-4.09283969762533, 50.509197858440366], [-4.094511052310832, 50.50845318499087], [-4.0958640417355126, 50.508630321351774], [-4.09602803983661, 50.50880711091659]]]}}, {"type": "Feature", "properties": {"type": "postcode-cell", "postcode": "PL20 7TA", "postcodes": ["PL20 7TA"]}, "geometry": {"type": "Polygon", "coordinates": [[[-4.095733921890696, 50.502922651041395], [-4.097218906634242, 50.50455082732197], [-4.096357582355033, 50.506368650001704], [-4.095363101838478, 50.50605282559932], [-4.091744618206959, 50.502682001177384], [-4.0955709371798665, 50.502873535713164], [-4.095733921890696, 50.502922651041395]]]}}, {"type": "Feature", "properties": {"type": "postcode-cell", "postcode": "PL20 7QH", "postcodes": ["PL20 7QH"]}, "geometry": {"type": "Polygon", "coordinates": [[[-4.096456233969485, 50.509317205641736], [-4.096891027580751, 50.509994953705636], [-4.096792882825042, 50.510313659685586], [-4.09647582769866, 50.51038732988952], [-4.096070735981796, 50.51026340146867], [-4.095899473238498, 50.50935315697076], [-4.096102804141646, 50.509191065540016], [-4.096456233969485, 50.509317205641736]]]}}, {"type": "Feature", "properties": {"type": "postcode-cell", "postcode": "PL20 7QD", "postcodes": ["PL20 7QD"]}, "geometry": {"type": "Polygon", "coordinates": [[[-4.097318930045373, 50.510163607708435], [-4.097138963719398, 50.51056544968859], [-4.096792882825042, 50.510313659685586], [-4.096891027580751, 50.509994953705636], [-4.097318930045373, 50.510163607708435]]]}}, {"type": "Feature", "properties": {"type": "postcode-cell", "postcode": "PL20 7TE", "postcodes": ["PL20 7TE"]}, "geometry": {"type": "Polygon", "coordinates": [[[-4.09664086578603, 50.50679658149615], [-4.095966454210318, 50.50736241302905], [-4.0941529738919895, 50.50712365220116], [-4.095363101838478, 50.50605282559932], [-4.096357582355033, 50.506368650001704], [-4.096656145834884, 50.506651686613296], [-4.09664086578603, 50.50679658149615]]]}}, {"type": "Feature", "properties": {"type": "postcode-cell", "postcode": "PL20 6AP", "postcodes": ["PL20 6AP"]}, "geometry": {"type": "Polygon", "coordinates": [[[-4.071391775251181, 50.48659491538203], [-4.071807032371532, 50.486079427785995], [-4.081120459796273, 50.488280652019135], [-4.079509990212391, 50.48902999455005], [-4.077489990210986, 50.48919999455019], [-4.075079990209545, 50.48888999455], [-4.073848528820655, 50.4892525623243], [-4.071391775251181, 50.48659491538203]]]}}, {"type": "Feature", "properties": {"type": "postcode-cell", "postcode": "PL20 7QQ", "postcodes": ["PL20 7QQ"]}, "geometry": {"type": "Polygon", "coordinates": [[[-4.096912365094572, 50.51257067062044], [-4.096839492528396, 50.51285484407108], [-4.0928143011744735, 50.51160154510542], [-4.0945687730418525, 50.510712518480524], [-4.0954645445639795, 50.51092656594306], [-4.095477254572702, 50.51093287536878], [-4.096777953625723, 50.51239218100356], [-4.096912365094572, 50.51257067062044]]]}}, {"type": "Feature", "properties": {"type": "postcode-cell", "postcode": "PL20 7QP", "postcodes": ["PL20 7QP"]}, "geometry": {"type": "Polygon", "coordinates": [[[-4.096777953625723, 50.51239218100356], [-4.095477254572702, 50.51093287536878], [-4.096070735981796, 50.51026340146867], [-4.09647582769866, 50.51038732988952], [-4.096777953625723, 50.51239218100356]]]}}, {"type": "Feature", "properties": {"type": "postcode-cell", "postcode": "PL20 7QJ", "postcodes": ["PL20 7QJ"]}, "geometry": {"type": "Polygon", "coordinates": [[[-4.096070735981796, 50.51026340146867], [-4.095477254572702, 50.51093287536878], [-4.0954645445639795, 50.51092656594306], [-4.095131608595343, 50.509670650266564], [-4.095899473238498, 50.50935315697076], [-4.096070735981796, 50.51026340146867]]]}}, {"type": "Feature", "properties": {"type": "postcode-cell", "postcode": "PL20 7TD", "postcodes": ["PL20 7TD"]}, "geometry": {"type": "Polygon", "coordinates": [[[-4.095363101838478, 50.50605282559932], [-4.0941529738919895, 50.50712365220116], [-4.09353390559838, 50.507197334631066], [-4.093311130840637, 50.50715088142548], [-4.089924845234053, 50.50379412116157], [-4.090988165839299, 50.50256621636196], [-4.091744618206959, 50.502682001177384], [-4.095363101838478, 50.50605282559932]]]}}, {"type": "Feature", "properties": {"type": "postcode-cell", "postcode": "PL20 7TB", "postcodes": ["PL20 7TB"]}, "geometry": {"type": "Polygon", "coordinates": [[[-4.096074442117649, 50.50793406599358], [-4.0958640417355126, 50.508630321351774], [-4.094511052310832, 50.50845318499087], [-4.09353390559838, 50.507197334631066], [-4.0941529738919895, 50.50712365220116], [-4.095966454210318, 50.50736241302905], [-4.096074442117649, 50.50793406599358]]]}}, {"type": "Feature", "properties": {"type": "postcode-cell", "postcode": "PL20 7QW", "postcodes": ["PL20 7QW"]}, "geometry": {"type": "Polygon", "coordinates": [[[-4.0954645445639795, 50.51092656594306], [-4.0945687730418525, 50.510712518480524], [-4.094448253234162, 50.51052501778207], [-4.09473083157831, 50.50974518689676], [-4.095131608595343, 50.509670650266564], [-4.0954645445639795, 50.51092656594306]]]}}, {"type": "Feature", "properties": {"type": "postcode-cell", "postcode": "PL20 7QS", "postcodes": ["PL20 7QS"]}, "geometry": {"type": "Polygon", "coordinates": [[[-4.094448253234162, 50.51052501778207], [-4.093723353075199, 50.5103752659883], [-4.0939075088816415, 50.50962643028791], [-4.09473083157831, 50.50974518689676], [-4.094448253234162, 50.51052501778207]]]}}, {"type": "Feature", "properties": {"type": "postcode-cell", "postcode": "PL20 7UG", "postcodes": ["PL20 7UG"]}, "geometry": {"type": "Polygon", "coordinates": [[[-4.093311130840637, 50.50715088142548], [-4.091151893645556, 50.509197475482615], [-4.089664494485781, 50.50960670392278], [-4.084577031825999, 50.50721053000199], [-4.089924845234053, 50.50379412116157], [-4.093311130840637, 50.50715088142548]]]}}, {"type": "Feature", "properties": {"type": "postcode-cell", "postcode": "PL20 7QL", "postcodes": ["PL20 7QL"]}, "geometry": {"type": "Polygon", "coordinates": [[[-4.0939075088816415, 50.50962643028791], [-4.093723353075199, 50.5103752659883], [-4.090597524495743, 50.51137204965956], [-4.090544929107447, 50.511370885211754], [-4.089664494485781, 50.50960670392278], [-4.091151893645556, 50.509197475482615], [-4.09283969762533, 50.509197858440366], [-4.0939075088816415, 50.50962643028791]]]}}, {"type": "Feature", "properties": {"type": "postcode-cell", "postcode": "PL20 7TF", "postcodes": ["PL20 7TF"]}, "geometry": {"type": "Polygon", "coordinates": [[[-4.094511052310832, 50.50845318499087], [-4.09283969762533, 50.509197858440366], [-4.091151893645556, 50.509197475482615], [-4.093311130840637, 50.50715088142548], [-4.09353390559838, 50.507197334631066], [-4.094511052310832, 50.50845318499087]]]}}, {"type": "Feature", "properties": {"type": "postcode-cell", "postcode": "PL20 7QR", "postcodes": ["PL20 7QR"]}, "geometry": {"type": "Polygon", "coordinates": [[[-4.0945687730418525, 50.510712518480524], [-4.0928143011744735, 50.51160154510542], [-4.090597524495743, 50.51137204965956], [-4.093723353075199, 50.5103752659883], [-4.094448253234162, 50.51052501778207], [-4.0945687730418525, 50.510712518480524]]]}}, {"type": "Feature", "properties": {"type": "postcode-cell", "postcode": "PL20 6JL", "postcodes": ["PL20 6JL"]}, "geometry": {"type": "Polygon", "coordinates": [[[-4.089924845234053, 50.50379412116157], [-4.084577031825999, 50.50721053000199], [-4.0812791396554475, 50.507654192807244], [-4.079395074703291, 50.50643511217033], [-4.076366402822707, 50.503279028405274], [-4.076120675418717, 50.502974794481155], [-4.07674120736107, 50.502362960735006], [-4.083603221158515, 50.498755413478804], [-4.086399990212315, 50.49908999455779], [-4.087769990213257, 50.4989999945577], [-4.089766419323652, 50.500036912748996], [-4.090988165839299, 50.50256621636196], [-4.089924845234053, 50.50379412116157]]]}}, {"type": "Feature", "properties": {"type": "postcode-cell", "postcode": "PL20 7QT", "postcodes": ["PL20 7QT"]}, "geometry": {"type": "MultiPolygon", "coordinates": [[[[-4.090669230105361, 50.51532356161571], [-4.089119990206402, 50.515909994570954], [-4.087479990205611, 50.51527999457049], [-4.0874899902058095, 50.514859994570166], [-4.081039990202206, 50.51344999456917], [-4.082059133529419, 50.51236402787626], [-4.090069911932366, 50.512323840093806], [-4.090669230105361, 50.51532356161571]]], [[[-4.078435785352576, 50.513981291748316], [-4.078939990200229, 50.51474999457023], [-4.077806191924574, 50.514894914486945], [-4.078435785352576, 50.513981291748316]]], [[[-4.079541581999302, 50.512376543826875], [-4.080513707072081, 50.51237171738403], [-4.079959990201648, 50.51310999456891], [-4.07863997866976, 50.513684972288935], [-4.079541581999302, 50.512376543826875]]]]}}, {"type": "Feature", "properties": {"type": "postcode-cell", "postcode": "PL20 7QZ", "postcodes": ["PL20 7QZ"]}, "geometry": {"type": "Polygon", "coordinates": [[[-4.089664494485781, 50.50960670392278], [-4.090544929107447, 50.511370885211754], [-4.090069911932366, 50.512323840093806], [-4.082059133529419, 50.51236402787626], [-4.082259990203606, 50.51214999456811], [-4.08103999020302, 50.511669994567754], [-4.080513707072081, 50.51237171738403], [-4.079541581999302, 50.512376543826875], [-4.0812791396554475, 50.507654192807244], [-4.084577031825999, 50.50721053000199], [-4.089664494485781, 50.50960670392278]]]}}, {"type": "Feature", "properties": {"type": "postcode-cell", "postcode": "PL20 6NJ", "postcodes": ["PL20 6NJ"]}, "geometry": {"type": "Polygon", "coordinates": [[[-4.076120675418717, 50.502974794481155], [-4.073553683300425, 50.502722660619035], [-4.07008590647257, 50.500038741961696], [-4.069170635806275, 50.498461687483406], [-4.071232122873386, 50.49599644124023], [-4.074269990205664, 50.49617999455574], [-4.074987014322626, 50.49640165209721], [-4.07674120736107, 50.502362960735006], [-4.076120675418717, 50.502974794481155]]]}}, {"type": "Feature", "properties": {"type": "postcode-cell", "postcode": "PL20 6JY", "postcodes": ["PL20 6JY"]}, "geometry": {"type": "Polygon", "coordinates": [[[-4.045693790399889, 50.51354093635377], [-4.0644785142519035, 50.51005663064203], [-4.071077486051321, 50.513184775529794], [-4.073605698889078, 50.515659245529505], [-4.071309990194379, 50.51654999457177], [-4.069999990192786, 50.51814999457306], [-4.068281454797654, 50.518973462591134], [-4.045693790399889, 50.51354093635377]]]}}, {"type": "Feature", "properties": {"type": "postcode-cell", "postcode": "PL20 6JU", "postcodes": ["PL20 6JU"]}, "geometry": {"type": "Polygon", "coordinates": [[[-4.079541581999302, 50.512376543826875], [-4.07863997866976, 50.513684972288935], [-4.0783299902002526, 50.5138199945695], [-4.078435785352576, 50.513981291748316], [-4.077806191924574, 50.514894914486945], [-4.074479990197031, 50.51531999457075], [-4.073605698889078, 50.515659245529505], [-4.071077486051321, 50.513184775529794], [-4.0712088366342485, 50.51034122529038], [-4.071634421718653, 50.50964805243873], [-4.072585835484742, 50.50868902347853], [-4.073123643995974, 50.508310439869774], [-4.079395074703291, 50.50643511217033], [-4.0812791396554475, 50.507654192807244], [-4.079541581999302, 50.512376543826875]]]}}, {"type": "Feature", "properties": {"type": "postcode-cell", "postcode": "PL20 6JJ", "postcodes": ["PL20 6JJ"]}, "geometry": {"type": "Polygon", "coordinates": [[[-4.07674120736107, 50.502362960735006], [-4.074987014322626, 50.49640165209721], [-4.081969990209641, 50.49855999455745], [-4.083603221158515, 50.498755413478804], [-4.07674120736107, 50.502362960735006]]]}}, {"type": "Feature", "properties": {"type": "postcode-cell", "postcode": "PL20 6PS", "postcodes": ["PL20 6PS"]}, "geometry": {"type": "Polygon", "coordinates": [[[-4.074717366697414, 50.48101436342493], [-4.071807032371532, 50.486079427785995], [-4.071391775251181, 50.48659491538203], [-4.065050524765298, 50.48847186957268], [-4.060632435525897, 50.48470917852139], [-4.057396590235372, 50.48127164417713], [-4.0608498382044464, 50.47869655366401], [-4.073183824693295, 50.48018676192231], [-4.074717366697414, 50.48101436342493]]]}}, {"type": "Feature", "properties": {"type": "postcode-cell", "postcode": "PL20 6JE", "postcodes": ["PL20 6JE"]}, "geometry": {"type": "Polygon", "coordinates": [[[-4.074717366697414, 50.48101436342493], [-4.073183824693295, 50.48018676192231], [-4.071652585778135, 50.47456211119861], [-4.077396816693131, 50.46861192080729], [-4.077789990220035, 50.4699099945351], [-4.077649990218407, 50.473259994537734], [-4.080389990219265, 50.475309994539266], [-4.080759990218815, 50.476819994540435], [-4.082109990219272, 50.47775999454118], [-4.08314383430376, 50.48008145230894], [-4.074717366697414, 50.48101436342493]]]}}, {"type": "Feature", "properties": {"type": "postcode-cell", "postcode": "PL20 6PR", "postcodes": ["PL20 6PR"]}, "geometry": {"type": "Polygon", "coordinates": [[[-4.065482854133111, 50.49319209664243], [-4.063554926079974, 50.489747576530426], [-4.065050524765298, 50.48847186957268], [-4.071391775251181, 50.48659491538203], [-4.073848528820655, 50.4892525623243], [-4.073109990207983, 50.4894699945505], [-4.072909990206656, 50.49206999455252], [-4.07143251383424, 50.49503258465908], [-4.065482854133111, 50.49319209664243]]]}}, {"type": "Feature", "properties": {"type": "postcode-cell", "postcode": "PL20 6PZ", "postcodes": ["PL20 6PZ"]}, "geometry": {"type": "Polygon", "coordinates": [[[-4.071652585778135, 50.47456211119861], [-4.05889884380803, 50.46882388830934], [-4.0585674423201334, 50.46727535166091], [-4.077253311007825, 50.468138113630225], [-4.077396816693131, 50.46861192080729], [-4.071652585778135, 50.47456211119861]]]}}, {"type": "Feature", "properties": {"type": "postcode-cell", "postcode": "PL20 6LA", "postcodes": ["PL20 6LA"]}, "geometry": {"type": "Polygon", "coordinates": [[[-4.0708276959564165, 50.509983116232], [-4.070167683074248, 50.50825836793313], [-4.070608302119242, 50.50824768317915], [-4.071634421718653, 50.50964805243873], [-4.0712088366342485, 50.51034122529038], [-4.0708276959564165, 50.509983116232]]]}}, {"type": "Feature", "properties": {"type": "postcode-cell", "postcode": "PL20 6JX", "postcodes": ["PL20 6JX"]}, "geometry": {"type": "Polygon", "coordinates": [[[-4.0712088366342485, 50.51034122529038], [-4.071077486051321, 50.513184775529794], [-4.0644785142519035, 50.51005663064203], [-4.065657389962621, 50.5083015196523], [-4.0693520871799205, 50.50885368789022], [-4.0708276959564165, 50.509983116232], [-4.0712088366342485, 50.51034122529038]]]}}, {"type": "Feature", "properties": {"type": "postcode-cell", "postcode": "PL20 6JS", "postcodes": ["PL20 6JS"]}, "geometry": {"type": "Polygon", "coordinates": [[[-4.079395074703291, 50.50643511217033], [-4.073123643995974, 50.508310439869774], [-4.071282369352289, 50.50768271861053], [-4.071180718723316, 50.507515938713595], [-4.076366402822707, 50.503279028405274], [-4.079395074703291, 50.50643511217033]]]}}, {"type": "Feature", "properties": {"type": "postcode-cell", "postcode": "PL20 6JT", "postcodes": ["PL20 6JT"]}, "geometry": {"type": "Polygon", "coordinates": [[[-4.072585835484742, 50.50868902347853], [-4.070712269044642, 50.50820465886866], [-4.071282369352289, 50.50768271861053], [-4.073123643995974, 50.508310439869774], [-4.072585835484742, 50.50868902347853]]]}}, {"type": "Feature", "properties": {"type": "postcode-cell", "postcode": "PL20 6PX", "postcodes": ["PL20 6PX"]}, "geometry": {"type": "Polygon", "coordinates": [[[-4.057975178660321, 50.47261382453964], [-4.04686641697663, 50.47690464581547], [-4.040441748254161, 50.47033880197618], [-4.046647530310389, 50.4592836178637], [-4.0474899902052615, 50.45884999452703], [-4.050369953865097, 50.45876823259876], [-4.0585674423201334, 50.46727535166091], [-4.05889884380803, 50.46882388830934], [-4.057975178660321, 50.47261382453964]]]}}, {"type": "Feature", "properties": {"type": "postcode-cell", "postcode": "PL20 6PY", "postcodes": ["PL20 6PY"]}, "geometry": {"type": "Polygon", "coordinates": [[[-4.05889884380803, 50.46882388830934], [-4.071652585778135, 50.47456211119861], [-4.073183824693295, 50.48018676192231], [-4.0608498382044464, 50.47869655366401], [-4.057975178660321, 50.47261382453964], [-4.05889884380803, 50.46882388830934]]]}}, {"type": "Feature", "properties": {"type": "postcode-cell", "postcode": "PL20 6JW", "postcodes": ["PL20 6JW"]}, "geometry": {"type": "Polygon", "coordinates": [[[-4.076366402822707, 50.503279028405274], [-4.071180718723316, 50.507515938713595], [-4.071018630463596, 50.50746719693412], [-4.070140940359355, 50.50691084923206], [-4.069069805974676, 50.50432087667045], [-4.069401246640187, 50.504135991334834], [-4.073553683300425, 50.502722660619035], [-4.076120675418717, 50.502974794481155], [-4.076366402822707, 50.503279028405274]]]}}, {"type": "Feature", "properties": {"type": "postcode-cell", "postcode": "PL20 6JP", "postcodes": ["PL20 6JP"]}, "geometry": {"type": "Polygon", "coordinates": [[[-4.071282369352289, 50.50768271861053], [-4.070712269044642, 50.50820465886866], [-4.070608302119242, 50.50824768317915], [-4.070167683074248, 50.50825836793313], [-4.0701666904930365, 50.5082582208372], [-4.069709717214877, 50.50787553539671], [-4.071018630463596, 50.50746719693412], [-4.071180718723316, 50.507515938713595], [-4.071282369352289, 50.50768271861053]]]}}, {"type": "Feature", "properties": {"type": "postcode-cell", "postcode": "PL20 6FA", "postcodes": ["PL20 6FA"]}, "geometry": {"type": "Polygon", "coordinates": [[[-4.071634421718653, 50.50964805243873], [-4.070608302119242, 50.50824768317915], [-4.070712269044642, 50.50820465886866], [-4.072585835484742, 50.50868902347853], [-4.071634421718653, 50.50964805243873]]]}}, {"type": "Feature", "properties": {"type": "postcode-cell", "postcode": "PL20 6LZ", "postcodes": ["PL20 6LZ"]}, "geometry": {"type": "Polygon", "coordinates": [[[-4.07143251383424, 50.49503258465908], [-4.070959990203583, 50.49597999455565], [-4.071232122873386, 50.49599644124023], [-4.069170635806275, 50.498461687483406], [-4.066865618719731, 50.49809987421738], [-4.066526842708165, 50.498024194430236], [-4.064466444380604, 50.4946852102863], [-4.065482854133111, 50.49319209664243], [-4.07143251383424, 50.49503258465908]]]}}, {"type": "Feature", "properties": {"type": "postcode-cell", "postcode": "PL20 6JN", "postcodes": ["PL20 6JN"]}, "geometry": {"type": "Polygon", "coordinates": [[[-4.070140940359355, 50.50691084923206], [-4.069542246674303, 50.50780425452737], [-4.065786891309069, 50.50787047314387], [-4.065651883060116, 50.5055808967839], [-4.069069805974676, 50.50432087667045], [-4.070140940359355, 50.50691084923206]]]}}, {"type": "Feature", "properties": {"type": "postcode-cell", "postcode": "PL20 6JQ", "postcodes": ["PL20 6JQ"]}, "geometry": {"type": "Polygon", "coordinates": [[[-4.069542246674303, 50.50780425452737], [-4.070140940359355, 50.50691084923206], [-4.071018630463596, 50.50746719693412], [-4.069709717214877, 50.50787553539671], [-4.069542246674303, 50.50780425452737]]]}}, {"type": "Feature", "properties": {"type": "postcode-cell", "postcode": "PL20 6JF", "postcodes": ["PL20 6JF"]}, "geometry": {"type": "Polygon", "coordinates": [[[-4.069709717214877, 50.50787553539671], [-4.0701666904930365, 50.5082582208372], [-4.0693520871799205, 50.50885368789022], [-4.065657389962621, 50.5083015196523], [-4.065786891309069, 50.50787047314387], [-4.069542246674303, 50.50780425452737], [-4.069709717214877, 50.50787553539671]]]}}, {"type": "Feature", "properties": {"type": "postcode-cell", "postcode": "PL20 6JR", "postcodes": ["PL20 6JR"]}, "geometry": {"type": "Polygon", "coordinates": [[[-4.070167683074248, 50.50825836793313], [-4.0708276959564165, 50.509983116232], [-4.0693520871799205, 50.50885368789022], [-4.0701666904930365, 50.5082582208372], [-4.070167683074248, 50.50825836793313]]]}}, {"type": "Feature", "properties": {"type": "postcode-cell", "postcode": "PL20 6NN", "postcodes": ["PL20 6NN"]}, "geometry": {"type": "Polygon", "coordinates": [[[-4.069401246640187, 50.504135991334834], [-4.067677136483948, 50.50316118084281], [-4.065902810538331, 50.501452310183005], [-4.065937551949499, 50.50123618812317], [-4.0673377533822945, 50.500575911188776], [-4.07008590647257, 50.500038741961696], [-4.073553683300425, 50.502722660619035], [-4.069401246640187, 50.504135991334834]]]}}, {"type": "Feature", "properties": {"type": "postcode-cell", "postcode": "PL20 6PB", "postcodes": ["PL20 6PB"]}, "geometry": {"type": "Polygon", "coordinates": [[[-4.065657389962621, 50.5083015196523], [-4.0644785142519035, 50.51005663064203], [-4.045693790399889, 50.51354093635377], [-4.04437638189643, 50.51344133528172], [-4.062689690191705, 50.504810080235664], [-4.065651883060116, 50.5055808967839], [-4.065786891309069, 50.50787047314387], [-4.065657389962621, 50.5083015196523]]]}}, {"type": "Feature", "properties": {"type": "postcode-cell", "postcode": "PL20 6LW", "postcodes": ["PL20 6LW"]}, "geometry": {"type": "Polygon", "coordinates": [[[-4.050316545478252, 50.52441207440131], [-4.042381829447898, 50.51348223760837], [-4.04437638189643, 50.51344133528172], [-4.045693790399889, 50.51354093635377], [-4.068281454797654, 50.518973462591134], [-4.0680799901911, 50.519069994573805], [-4.065559990188445, 50.52123999457555], [-4.064299990187387, 50.52173999457598], [-4.063029990186521, 50.52180999457604], [-4.063049990185501, 50.524059994577804], [-4.0615999901841455, 50.524939994578546], [-4.06160596539697, 50.52581241002479], [-4.050316545478252, 50.52441207440131]]]}}, {"type": "Feature", "properties": {"type": "postcode-cell", "postcode": "PL20 6NR", "postcodes": ["PL20 6NR"]}, "geometry": {"type": "Polygon", "coordinates": [[[-4.061939664755834, 50.503608345667615], [-4.061190309048059, 50.50309125633206], [-4.063097504870328, 50.500598844295155], [-4.063428373845714, 50.500645671713116], [-4.063969900494293, 50.501698798636376], [-4.063489496089561, 50.50261883581033], [-4.061939664755834, 50.503608345667615]]]}}, {"type": "Feature", "properties": {"type": "postcode-cell", "postcode": "PL20 6NT", "postcodes": ["PL20 6NT"]}, "geometry": {"type": "Polygon", "coordinates": [[[-4.063489496089561, 50.50261883581033], [-4.065153254984715, 50.50216440727547], [-4.067677136483948, 50.50316118084281], [-4.069401246640187, 50.504135991334834], [-4.069069805974676, 50.50432087667045], [-4.065651883060116, 50.5055808967839], [-4.062689690191705, 50.504810080235664], [-4.061939664755834, 50.503608345667615], [-4.063489496089561, 50.50261883581033]]]}}, {"type": "Feature", "properties": {"type": "postcode-cell", "postcode": "PL20 6PL", "postcodes": ["PL20 6PL"]}, "geometry": {"type": "Polygon", "coordinates": [[[-4.057508647886583, 50.486246913211424], [-4.057041793805042, 50.48625523498881], [-4.05545272512406, 50.48169298757009], [-4.057396590235372, 50.48127164417713], [-4.060632435525897, 50.48470917852139], [-4.057508647886583, 50.486246913211424]]]}}, {"type": "Feature", "properties": {"type": "postcode-cell", "postcode": "PL20 6PP", "postcodes": ["PL20 6PP"]}, "geometry": {"type": "Polygon", "coordinates": [[[-4.060632435525897, 50.48470917852139], [-4.065050524765298, 50.48847186957268], [-4.063554926079974, 50.489747576530426], [-4.060972672874193, 50.49013500851209], [-4.057508647886583, 50.486246913211424], [-4.060632435525897, 50.48470917852139]]]}}, {"type": "Feature", "properties": {"type": "postcode-cell", "postcode": "PL20 6NU", "postcodes": ["PL20 6NU"]}, "geometry": {"type": "Polygon", "coordinates": [[[-4.0673377533822945, 50.500575911188776], [-4.065347041785212, 50.50026254948456], [-4.065279091228117, 50.50021657059744], [-4.066865618719731, 50.49809987421738], [-4.069170635806275, 50.498461687483406], [-4.07008590647257, 50.500038741961696], [-4.0673377533822945, 50.500575911188776]]]}}, {"type": "Feature", "properties": {"type": "postcode-cell", "postcode": "PL20 6NS", "postcodes": ["PL20 6NS"]}, "geometry": {"type": "Polygon", "coordinates": [[[-4.065902810538331, 50.501452310183005], [-4.067677136483948, 50.50316118084281], [-4.065153254984715, 50.50216440727547], [-4.065211115144255, 50.50198889800973], [-4.065902810538331, 50.501452310183005]]]}}, {"type": "Feature", "properties": {"type": "postcode-cell", "postcode": "PL20 6NW", "postcodes": ["PL20 6NW"]}, "geometry": {"type": "Polygon", "coordinates": [[[-4.065211115144255, 50.50198889800973], [-4.064670879618989, 50.501495860156986], [-4.064945257124822, 50.5010488801764], [-4.065937551949499, 50.50123618812317], [-4.065902810538331, 50.501452310183005], [-4.065211115144255, 50.50198889800973]]]}}, {"type": "Feature", "properties": {"type": "postcode-cell", "postcode": "PL20 6NX", "postcodes": ["PL20 6NX"]}, "geometry": {"type": "Polygon", "coordinates": [[[-4.065279091228117, 50.50021657059744], [-4.064658649692451, 50.50005964782158], [-4.064510646012246, 50.498723794850285], [-4.065116841003808, 50.49828986678128], [-4.066526842708165, 50.498024194430236], [-4.066865618719731, 50.49809987421738], [-4.065279091228117, 50.50021657059744]]]}}, {"type": "Feature", "properties": {"type": "postcode-cell", "postcode": "PL20 6NG", "postcodes": ["PL20 6NG"]}, "geometry": {"type": "Polygon", "coordinates": [[[-4.065937551949499, 50.50123618812317], [-4.064945257124822, 50.5010488801764], [-4.06494330269947, 50.50104736692903], [-4.065347041785212, 50.50026254948456], [-4.0673377533822945, 50.500575911188776], [-4.065937551949499, 50.50123618812317]]]}}, {"type": "Feature", "properties": {"type": "postcode-cell", "postcode": "PL20 6NY", "postcodes": ["PL20 6NY"]}, "geometry": {"type": "Polygon", "coordinates": [[[-4.065279091228117, 50.50021657059744], [-4.065347041785212, 50.50026254948456], [-4.06494330269947, 50.50104736692903], [-4.0634434763392715, 50.50064442758085], [-4.064658649692451, 50.50005964782158], [-4.065279091228117, 50.50021657059744]]]}}, {"type": "Feature", "properties": {"type": "postcode-cell", "postcode": "PL20 6NF", "postcodes": ["PL20 6NF"]}, "geometry": {"type": "Polygon", "coordinates": [[[-4.064466444380604, 50.4946852102863], [-4.061623924057797, 50.49607863971794], [-4.057757733381907, 50.49070102789555], [-4.060972672874193, 50.49013500851209], [-4.063554926079974, 50.489747576530426], [-4.065482854133111, 50.49319209664243], [-4.064466444380604, 50.4946852102863]]]}}, {"type": "Feature", "properties": {"type": "postcode-cell", "postcode": "PL20 6NL", "postcodes": ["PL20 6NL"]}, "geometry": {"type": "Polygon", "coordinates": [[[-4.065211115144255, 50.50198889800973], [-4.065153254984715, 50.50216440727547], [-4.063489496089561, 50.50261883581033], [-4.063969900494293, 50.501698798636376], [-4.064670879618989, 50.501495860156986], [-4.065211115144255, 50.50198889800973]]]}}, {"type": "Feature", "properties": {"type": "postcode-cell", "postcode": "PL20 6NP", "postcodes": ["PL20 6NP"]}, "geometry": {"type": "Polygon", "coordinates": [[[-4.06494330269947, 50.50104736692903], [-4.064945257124822, 50.5010488801764], [-4.064670879618989, 50.501495860156986], [-4.063969900494293, 50.501698798636376], [-4.063428373845714, 50.500645671713116], [-4.0634434763392715, 50.50064442758085], [-4.06494330269947, 50.50104736692903]]]}}, {"type": "Feature", "properties": {"type": "postcode-cell", "postcode": "PL20 6LY", "postcodes": ["PL20 6LY"]}, "geometry": {"type": "Polygon", "coordinates": [[[-4.066526842708165, 50.498024194430236], [-4.065116841003808, 50.49828986678128], [-4.062306307936541, 50.49728080391521], [-4.061572279888646, 50.49615171363797], [-4.0616151914929555, 50.49608443990359], [-4.061623924057797, 50.49607863971794], [-4.064466444380604, 50.4946852102863], [-4.066526842708165, 50.498024194430236]]]}}, {"type": "Feature", "properties": {"type": "postcode-cell", "postcode": "PL20 6PJ", "postcodes": ["PL20 6PJ"]}, "geometry": {"type": "Polygon", "coordinates": [[[-4.057757733381907, 50.49070102789555], [-4.0549101119460556, 50.49108085696134], [-4.055486487635428, 50.48772269783412], [-4.057041793805042, 50.48625523498881], [-4.057508647886583, 50.486246913211424], [-4.060972672874193, 50.49013500851209], [-4.057757733381907, 50.49070102789555]]]}}, {"type": "Feature", "properties": {"type": "postcode-cell", "postcode": "PL20 6NQ", "postcodes": ["PL20 6NQ"]}, "geometry": {"type": "Polygon", "coordinates": [[[-4.063428373845714, 50.500645671713116], [-4.063097504870328, 50.500598844295155], [-4.062788250891802, 50.50036573805304], [-4.062660503603183, 50.49933010815681], [-4.064510646012246, 50.498723794850285], [-4.064658649692451, 50.50005964782158], [-4.0634434763392715, 50.50064442758085], [-4.063428373845714, 50.500645671713116]]]}}, {"type": "Feature", "properties": {"type": "postcode-cell", "postcode": "PL20 6LJ", "postcodes": ["PL20 6LJ"]}, "geometry": {"type": "Polygon", "coordinates": [[[-4.048836408834608, 50.5301416449671], [-4.050316545478252, 50.52441207440131], [-4.06160596539697, 50.52581241002479], [-4.061609990183482, 50.52639999457968], [-4.060039990182024, 50.527329994580434], [-4.058519990179936, 50.52969999458231], [-4.056659990178456, 50.53025999458281], [-4.05546999017721, 50.53126999458362], [-4.055489990176942, 50.531879994584095], [-4.056399990177144, 50.53274999458477], [-4.0566538335322555, 50.53392857385042], [-4.048836408834608, 50.5301416449671]]]}}, {"type": "Feature", "properties": {"type": "postcode-cell", "postcode": "PL20 6LU", "postcodes": ["PL20 6LU"]}, "geometry": {"type": "Polygon", "coordinates": [[[-4.062660503603183, 50.49933010815681], [-4.061281051888959, 50.498876542297054], [-4.062306307936541, 50.49728080391521], [-4.065116841003808, 50.49828986678128], [-4.064510646012246, 50.498723794850285], [-4.062660503603183, 50.49933010815681]]]}}, {"type": "Feature", "properties": {"type": "postcode-cell", "postcode": "PL20 6PD", "postcodes": ["PL20 6PD"]}, "geometry": {"type": "Polygon", "coordinates": [[[-4.062689690191705, 50.504810080235664], [-4.04437638189643, 50.51344133528172], [-4.042381829447898, 50.51348223760837], [-4.03920368716253, 50.51251254690587], [-4.05211036846156, 50.50033883613461], [-4.053247148437483, 50.50033906608186], [-4.056073904386392, 50.50109909951513], [-4.061190309048059, 50.50309125633206], [-4.061939664755834, 50.503608345667615], [-4.062689690191705, 50.504810080235664]]]}}, {"type": "Feature", "properties": {"type": "postcode-cell", "postcode": "PL20 6LX", "postcodes": ["PL20 6LX"]}, "geometry": {"type": "Polygon", "coordinates": [[[-4.062660503603183, 50.49933010815681], [-4.062788250891802, 50.50036573805304], [-4.056073904386392, 50.50109909951513], [-4.053247148437483, 50.50033906608186], [-4.05528567166534, 50.49967756087402], [-4.061281051888959, 50.498876542297054], [-4.062660503603183, 50.49933010815681]]]}}, {"type": "Feature", "properties": {"type": "postcode-cell", "postcode": "PL20 6NZ", "postcodes": ["PL20 6NZ"]}, "geometry": {"type": "Polygon", "coordinates": [[[-4.063097504870328, 50.500598844295155], [-4.061190309048059, 50.50309125633206], [-4.056073904386392, 50.50109909951513], [-4.062788250891802, 50.50036573805304], [-4.063097504870328, 50.500598844295155]]]}}, {"type": "Feature", "properties": {"type": "postcode-cell", "postcode": "PL20 6NA", "postcodes": ["PL20 6NA"]}, "geometry": {"type": "Polygon", "coordinates": [[[-4.053247148437483, 50.50033906608186], [-4.05211036846156, 50.50033883613461], [-4.0503494255210635, 50.49412613548855], [-4.060755571612747, 50.496437138412965], [-4.05528567166534, 50.49967756087402], [-4.053247148437483, 50.50033906608186]]]}}, {"type": "Feature", "properties": {"type": "postcode-cell", "postcode": "PL20 6NB", "postcodes": ["PL20 6NB"]}, "geometry": {"type": "Polygon", "coordinates": [[[-4.05528567166534, 50.49967756087402], [-4.060755571612747, 50.496437138412965], [-4.061572279888646, 50.49615171363797], [-4.062306307936541, 50.49728080391521], [-4.061281051888959, 50.498876542297054], [-4.05528567166534, 50.49967756087402]]]}}, {"type": "Feature", "properties": {"type": "postcode-cell", "postcode": "PL20 6ND", "postcodes": ["PL20 6ND"]}, "geometry": {"type": "Polygon", "coordinates": [[[-4.060755571612747, 50.496437138412965], [-4.0503494255210635, 50.49412613548855], [-4.049699709344598, 50.492424657526286], [-4.052283108403209, 50.49186935759736], [-4.0616151914929555, 50.49608443990359], [-4.061572279888646, 50.49615171363797], [-4.060755571612747, 50.496437138412965]]]}}, {"type": "Feature", "properties": {"type": "postcode-cell", "postcode": "PL20 6NE", "postcodes": ["PL20 6NE"]}, "geometry": {"type": "Polygon", "coordinates": [[[-4.0616151914929555, 50.49608443990359], [-4.052283108403209, 50.49186935759736], [-4.0549101119460556, 50.49108085696134], [-4.057757733381907, 50.49070102789555], [-4.061623924057797, 50.49607863971794], [-4.0616151914929555, 50.49608443990359]]]}}, {"type": "Feature", "properties": {"type": "postcode-cell", "postcode": "PL20 6PW", "postcodes": ["PL20 6PW"]}, "geometry": {"type": "Polygon", "coordinates": [[[-4.04622059389373, 50.49120340428883], [-4.050287121178575, 50.482053859860265], [-4.054512090958388, 50.48185183874183], [-4.055486487635428, 50.48772269783412], [-4.0549101119460556, 50.49108085696134], [-4.052283108403209, 50.49186935759736], [-4.049699709344598, 50.492424657526286], [-4.04622059389373, 50.49120340428883]]]}}, {"type": "Feature", "properties": {"type": "postcode-cell", "postcode": "PL20 6PE", "postcodes": ["PL20 6PE"]}, "geometry": {"type": "Polygon", "coordinates": [[[-4.049699709344598, 50.492424657526286], [-4.0503494255210635, 50.49412613548855], [-4.05211036846156, 50.50033883613461], [-4.03920368716253, 50.51251254690587], [-4.014434097700968, 50.51167051474945], [-4.0411904188076075, 50.49122809249566], [-4.04622059389373, 50.49120340428883], [-4.049699709344598, 50.492424657526286]]]}}, {"type": "Feature", "properties": {"type": "postcode-cell", "postcode": "PL20 6PT", "postcodes": ["PL20 6PT"]}, "geometry": {"type": "Polygon", "coordinates": [[[-4.057396590235372, 50.48127164417713], [-4.05545272512406, 50.48169298757009], [-4.054512090958388, 50.48185183874183], [-4.050287121178575, 50.482053859860265], [-4.046198766695191, 50.47981703227377], [-4.04686641697663, 50.47690464581547], [-4.057975178660321, 50.47261382453964], [-4.0608498382044464, 50.47869655366401], [-4.057396590235372, 50.48127164417713]]]}}, {"type": "Feature", "properties": {"type": "postcode-cell", "postcode": "PL20 6LL", "postcodes": ["PL20 6LL"]}, "geometry": {"type": "Polygon", "coordinates": [[[-4.010426851995144, 50.512168353103405], [-4.014434097700968, 50.51167051474945], [-4.03920368716253, 50.51251254690587], [-4.042381829447898, 50.51348223760837], [-4.050316545478252, 50.52441207440131], [-4.048836408834608, 50.5301416449671], [-4.0240898948036214, 50.53947872044319], [-4.022059990151502, 50.53944999459063], [-4.0196699901493735, 50.540669994591646], [-4.018159990148226, 50.54100999459194], [-4.005829990140471, 50.54028999459158], [-4.004399990139321, 50.54075999459197], [-4.002379990137302, 50.542269994593205], [-3.9964099901328014, 50.54354999459431], [-3.981059990127073, 50.53418999458724], [-3.972752663147065, 50.51893978625265], [-4.010426851995144, 50.512168353103405]]]}}, {"type": "Feature", "properties": {"type": "postcode-cell", "postcode": "PL20 6PN", "postcodes": ["PL20 6PN"]}, "geometry": {"type": "Polygon", "coordinates": [[[-4.057041793805042, 50.48625523498881], [-4.055486487635428, 50.48772269783412], [-4.054512090958388, 50.48185183874183], [-4.05545272512406, 50.48169298757009], [-4.057041793805042, 50.48625523498881]]]}}, {"type": "Feature", "properties": {"type": "postcode-cell", "postcode": "PL20 6LN", "postcodes": ["PL20 6LN"]}, "geometry": {"type": "Polygon", "coordinates": [[[-4.048836408834608, 50.5301416449671], [-4.0566538335322555, 50.53392857385042], [-4.056819990176525, 50.53469999458628], [-4.056499990176057, 50.53525999458674], [-4.057139990176223, 50.53581999458715], [-4.056169990174741, 50.537659994588644], [-4.056589990174378, 50.53904999458972], [-4.05593999017352, 50.53998999459045], [-4.055319990172992, 50.54024999459068], [-4.0557499901727665, 50.541359994591545], [-4.055339990171947, 50.5425599945925], [-4.055789990171804, 50.543519994593225], [-4.054089990168599, 50.54806999459686], [-4.051839990166975, 50.548379994597134], [-4.0514999901665, 50.54892999459757], [-4.049139990164604, 50.54967999459819], [-4.04467999016145, 50.55014999459866], [-4.041119990158525, 50.55142999459974], [-4.038049990156235, 50.55201999460024], [-4.036459990155357, 50.55164999459998], [-4.033189990154117, 50.54966999459847], [-4.030369990153354, 50.54728999459663], [-4.029279990153283, 50.54588999459555], [-4.027379990152328, 50.545249994595096], [-4.028359990153726, 50.5436099945938], [-4.028229990153953, 50.54292999459325], [-4.025409990153348, 50.54021999459119], [-4.024179990152879, 50.53947999459062], [-4.0240898948036214, 50.53947872044319], [-4.048836408834608, 50.5301416449671]]]}}, {"type": "Feature", "properties": {"type": "postcode-cell", "postcode": "PL20 6PH", "postcodes": ["PL20 6PH"]}, "geometry": {"type": "Polygon", "coordinates": [[[-4.04622059389373, 50.49120340428883], [-4.0411904188076075, 50.49122809249566], [-4.035927698390302, 50.48670524342611], [-4.039977349922684, 50.4807357982047], [-4.046198766695191, 50.47981703227377], [-4.050287121178575, 50.482053859860265], [-4.04622059389373, 50.49120340428883]]]}}, {"type": "Feature", "properties": {"type": "postcode-cell", "postcode": "PL7 5EL", "postcodes": ["PL7 5EL"]}, "geometry": {"type": "Polygon", "coordinates": [[[-4.040441748254161, 50.47033880197618], [-4.031055890262489, 50.47541452953533], [-4.011156287554427, 50.47678316375747], [-4.00444398823492, 50.47586253453272], [-4.00443999016928, 50.47585999454115], [-4.006739990171553, 50.47418999453979], [-4.006549990171969, 50.47301999453888], [-4.007049990172546, 50.472479994538475], [-4.006489990172335, 50.47213999453822], [-4.007899990174399, 50.469669994536275], [-4.009289990175411, 50.46943999453607], [-4.011069990176509, 50.46957999453613], [-4.017639990181381, 50.468319994535015], [-4.023049990184724, 50.468729994535224], [-4.024449990186253, 50.467399994534155], [-4.024079990187285, 50.46463999453202], [-4.023349990187484, 50.46317999453088], [-4.023929990188391, 50.462029994529985], [-4.0255999901893444, 50.4623299945302], [-4.027409990190797, 50.46173999452971], [-4.028919990191241, 50.46291999453057], [-4.028929990191501, 50.46236999453014], [-4.029819990192026, 50.46248999453022], [-4.029569990191454, 50.46337999453093], [-4.030199990191663, 50.46381999453125], [-4.031249990192376, 50.46375999453119], [-4.032089990193207, 50.463149994530674], [-4.032719990193571, 50.46324999453076], [-4.033919990194574, 50.46277999453036], [-4.035479990195138, 50.463769994531134], [-4.036239990195621, 50.46379999453113], [-4.037479990196579, 50.46347999453084], [-4.038659990197737, 50.46263999453017], [-4.0424899902006, 50.46185999452948], [-4.042919990201073, 50.461449994529154], [-4.042619990201334, 50.46045999452839], [-4.0441999902026495, 50.45984999452789], [-4.046129990204049, 50.45954999452763], [-4.046647530310389, 50.4592836178637], [-4.040441748254161, 50.47033880197618]]]}}, {"type": "Feature", "properties": {"type": "postcode-cell", "postcode": "PL20 6PQ", "postcodes": ["PL20 6PQ"]}, "geometry": {"type": "Polygon", "coordinates": [[[-4.035927698390302, 50.48670524342611], [-4.030328689988134, 50.4859688908997], [-4.011156287554427, 50.47678316375747], [-4.031055890262489, 50.47541452953533], [-4.039977349922684, 50.4807357982047], [-4.035927698390302, 50.48670524342611]]]}}, {"type": "Feature", "properties": {"type": "postcode-cell", "postcode": "PL20 6PU", "postcodes": ["PL20 6PU"]}, "geometry": {"type": "Polygon", "coordinates": [[[-4.046198766695191, 50.47981703227377], [-4.039977349922684, 50.4807357982047], [-4.031055890262489, 50.47541452953533], [-4.040441748254161, 50.47033880197618], [-4.04686641697663, 50.47690464581547], [-4.046198766695191, 50.47981703227377]]]}}, {"type": "Feature", "properties": {"type": "postcode-cell", "postcode": "PL20 6PF", "postcodes": ["PL20 6PF"]}, "geometry": {"type": "Polygon", "coordinates": [[[-4.0411904188076075, 50.49122809249566], [-4.014434097700968, 50.51167051474945], [-4.010426851995144, 50.512168353103405], [-4.030328689988134, 50.4859688908997], [-4.035927698390302, 50.48670524342611], [-4.0411904188076075, 50.49122809249566]]]}}, {"type": "Feature", "properties": {"type": "postcode-cell", "postcode": "PL20 6PG", "postcodes": ["PL20 6PG"]}, "geometry": {"type": "Polygon", "coordinates": [[[-4.011156287554427, 50.47678316375747], [-4.030328689988134, 50.4859688908997], [-4.010426851995144, 50.512168353103405], [-3.972752663147065, 50.51893978625265], [-3.9692899901293774, 50.51257999457052], [-3.9760099901394104, 50.500359994560824], [-3.9643899901336708, 50.49639999455797], [-3.9647699901339593, 50.49630999455788], [-3.9653199901353076, 50.49417999455621], [-3.9675499901377815, 50.49196999455446], [-3.9679699901390513, 50.48981999455274], [-3.970439990141441, 50.488129994551386], [-3.9713199901421614, 50.48780999455113], [-3.9716899901423006, 50.48802999455127], [-3.9751599901445984, 50.48794999455116], [-3.976169990145495, 50.48743999455074], [-3.9786599901473174, 50.48699999455035], [-3.9793599901480086, 50.486489994549935], [-3.982169990150266, 50.48556999454917], [-3.9848999901528264, 50.48387999454778], [-3.9846899901529502, 50.483319994547365], [-3.987849990155853, 50.481499994545885], [-3.99093999015801, 50.481189994545566], [-3.9923599901599123, 50.4790799945439], [-3.9939099901612685, 50.47832999454328], [-3.9939299901614955, 50.47786999454293], [-3.994779990162271, 50.47738999454254], [-4.001259990166521, 50.477339994542376], [-4.005289990169584, 50.47639999454155], [-4.00444398823492, 50.47586253453272], [-4.011156287554427, 50.47678316375747]]]}}]}