{"type": "FeatureCollection", "features": [{"type": "Feature", "properties": {"type": "ward-outline", "name": "Canonsleigh"}, "geometry": {"type": "Polygon", "coordinates": [[[-3.29385, 50.95514], [-3.29541, 50.95417], [-3.29683, 50.95196], [-3.2993, 50.94564], [-3.29959, 50.94376], [-3.30116, 50.94141], [-3.30167, 50.93901], [-3.30674, 50.93559], [-3.30669, 50.93519], [-3.30792, 50.9343], [-3.3079, 50.93204], [-3.30457, 50.93045], [-3.30402, 50.92794], [-3.30283, 50.92581], [-3.30737, 50.925], [-3.3144, 50.92436], [-3.31472, 50.92387], [-3.32102, 50.92311], [-3.32312, 50.92258], [-3.326, 50.92249], [-3.32639, 50.92148], [-3.32617, 50.92051], [-3.327, 50.91994], [-3.33128, 50.92051], [-3.33649, 50.91963], [-3.33633, 50.91933], [-3.33706, 50.91913], [-3.33435, 50.91724], [-3.3342, 50.91583], [-3.33613, 50.91421], [-3.33669, 50.91314], [-3.33652, 50.91183], [-3.3387, 50.91026], [-3.33912, 50.90951], [-3.34248, 50.90923], [-3.34973, 50.90968], [-3.35482, 50.91053], [-3.36137, 50.91238], [-3.36804, 50.91125], [-3.36853, 50.91135], [-3.36866, 50.91176], [-3.37374, 50.91237], [-3.37887, 50.91401], [-3.38173, 50.91259], [-3.38058, 50.91208], [-3.38099, 50.91157], [-3.38239, 50.91206], [-3.38255, 50.91177], [-3.38639, 50.91348], [-3.39496, 50.91915], [-3.39728, 50.91977], [-3.39784, 50.9195], [-3.39879, 50.91958], [-3.40023, 50.92119], [-3.40469, 50.9199], [-3.40812, 50.91939], [-3.42022, 50.91933], [-3.42725, 50.9189], [-3.42965, 50.92071], [-3.43226, 50.92176], [-3.43078, 50.92265], [-3.43083, 50.92365], [-3.432, 50.92548], [-3.43286, 50.92809], [-3.43247, 50.92896], [-3.42537, 50.93059], [-3.42393, 50.93214], [-3.42547, 50.93439], [-3.42549, 50.93526], [-3.42703, 50.93652], [-3.4273, 50.9375], [-3.43052, 50.93923], [-3.43086, 50.93988], [-3.43025, 50.9413], [-3.42647, 50.94366], [-3.42585, 50.9447], [-3.42586, 50.94531], [-3.42773, 50.94787], [-3.42865, 50.95005], [-3.42834, 50.95144], [-3.43342, 50.95174], [-3.43384, 50.9515], [-3.43888, 50.9514], [-3.44303, 50.95184], [-3.44418, 50.95155], [-3.4445, 50.95326], [-3.44363, 50.95407], [-3.44207, 50.95467], [-3.44138, 50.95552], [-3.44142, 50.95679], [-3.44213, 50.95791], [-3.44096, 50.96182], [-3.44279, 50.96313], [-3.45, 50.96435], [-3.45217, 50.965], [-3.45493, 50.96645], [-3.45638, 50.96887], [-3.45562, 50.97156], [-3.4544, 50.97384], [-3.45273, 50.97569], [-3.451, 50.97681], [-3.44269, 50.97935], [-3.43517, 50.98044], [-3.43101, 50.98051], [-3.42509, 50.98144], [-3.41573, 50.98373], [-3.41212, 50.98369], [-3.41136, 50.98548], [-3.4147, 50.98721], [-3.41509, 50.98953], [-3.41463, 50.99175], [-3.41547, 50.99589], [-3.41613, 50.99663], [-3.41611, 50.99777], [-3.41536, 50.99876], [-3.41579, 51.00044], [-3.41574, 51.00414], [-3.41534, 51.00443], [-3.41567, 51.0057], [-3.41528, 51.00584], [-3.41527, 51.00651], [-3.41436, 51.00656], [-3.41467, 51.0072], [-3.41395, 51.00749], [-3.41419, 51.00779], [-3.41374, 51.00794], [-3.41383, 51.00827], [-3.41344, 51.00819], [-3.41271, 51.00906], [-3.4131, 51.0095], [-3.4114, 51.01083], [-3.41184, 51.01171], [-3.41107, 51.01256], [-3.41216, 51.01331], [-3.41251, 51.01508], [-3.41401, 51.01556], [-3.4136, 51.01655], [-3.41446, 51.01648], [-3.41476, 51.01687], [-3.41523, 51.01681], [-3.41585, 51.0177], [-3.41417, 51.0197], [-3.40753, 51.01952], [-3.40293, 51.02012], [-3.39978, 51.01973], [-3.3899, 51.01978], [-3.38049, 51.01849], [-3.37908, 51.01659], [-3.3789, 51.01561], [-3.38085, 51.01339], [-3.38014, 51.01156], [-3.38049, 51.00814], [-3.38019, 51.00703], [-3.38087, 51.0067], [-3.38241, 51.00454], [-3.38142, 50.99921], [-3.38191, 50.99825], [-3.38168, 50.99704], [-3.3821, 50.99592], [-3.38343, 50.99454], [-3.38266, 50.99187], [-3.38307, 50.99103], [-3.383, 50.98928], [-3.3813, 50.98679], [-3.38047, 50.98431], [-3.38047, 50.98254], [-3.37923, 50.98058], [-3.37866, 50.97751], [-3.37245, 50.97728], [-3.36916, 50.97858], [-3.36617, 50.97895], [-3.36464, 50.97883], [-3.36227, 50.97813], [-3.35982, 50.9781], [-3.3553, 50.97932], [-3.35154, 50.97976], [-3.35076, 50.98012], [-3.33941, 50.98111], [-3.33522, 50.98278], [-3.33367, 50.98279], [-3.33134, 50.98179], [-3.33083, 50.9811], [-3.32784, 50.97985], [-3.32715, 50.97913], [-3.32588, 50.97909], [-3.32318, 50.97753], [-3.32291, 50.97717], [-3.32367, 50.97687], [-3.32244, 50.97639], [-3.32331, 50.97614], [-3.32284, 50.97561], [-3.32356, 50.97498], [-3.32346, 50.97448], [-3.32137, 50.97277], [-3.32041, 50.97242], [-3.32031, 50.971], [-3.31987, 50.97055], [-3.31894, 50.97074], [-3.31767, 50.97037], [-3.31737, 50.97117], [-3.31576, 50.96964], [-3.31215, 50.9675], [-3.30547, 50.96496], [-3.30182, 50.96306], [-3.30028, 50.96176], [-3.30156, 50.96058], [-3.30009, 50.9587], [-3.29826, 50.95853], [-3.29828, 50.95813], [-3.29563, 50.95665], [-3.29385, 50.95514]]]}}, {"type": "Feature", "properties": {"type": "postcode-cell", "postcode": "EX16 7QJ", "postcodes": ["EX16 7QJ"]}, "geometry": {"type": "Polygon", "coordinates": [[[-3.44607424249791, 50.977420205790175], [-3.441852585718923, 50.96495284024162], [-3.4417111298348777, 50.96294380491261], [-3.4422109904646034, 50.962715531364644], [-3.442789989578777, 50.96312999493501], [-3.4499999895828077, 50.96434999493595], [-3.4521699895838895, 50.96499999493645], [-3.4549299895849708, 50.96644999493758], [-3.456379989584756, 50.96886999493952], [-3.4556199895830035, 50.97155999494166], [-3.4543999895811455, 50.97383999494352], [-3.452729989579204, 50.975689994945], [-3.4509999895775683, 50.97680999494591], [-3.4467904121662523, 50.97809678495669], [-3.44607424249791, 50.977420205790175]]]}}, {"type": "Feature", "properties": {"type": "postcode-cell", "postcode": "EX16 7NB", "postcodes": ["EX16 7NB"]}, "geometry": {"type": "Polygon", "coordinates": [[[-3.44607424249791, 50.977420205790175], [-3.4321865483350873, 50.97533399081147], [-3.4307072093144795, 50.97384676184049], [-3.4281981542830544, 50.970523350270966], [-3.441852585718923, 50.96495284024162], [-3.44607424249791, 50.977420205790175]]]}}, {"type": "Feature", "properties": {"type": "postcode-cell", "postcode": "EX16 7LZ", "postcodes": ["EX16 7LZ"]}, "geometry": {"type": "Polygon", "coordinates": [[[-3.422489099214339, 50.96978896919092], [-3.4218610410105805, 50.97031819183022], [-3.417798515463142, 50.97296244972581], [-3.410549688647912, 50.97298485728738], [-3.408457989328653, 50.969294783502704], [-3.4215111055805494, 50.95968040597765], [-3.4229323534328895, 50.969304294066006], [-3.4226778006011638, 50.969617484673954], [-3.422489099214339, 50.96978896919092]]]}}, {"type": "Feature", "properties": {"type": "postcode-cell", "postcode": "EX16 7NF", "postcodes": ["EX16 7NF"]}, "geometry": {"type": "Polygon", "coordinates": [[[-3.4226778006011638, 50.969617484673954], [-3.425880227123523, 50.972546654424555], [-3.4257480236577114, 50.97328700530188], [-3.425352800938576, 50.973213872031174], [-3.422489099214339, 50.96978896919092], [-3.4226778006011638, 50.969617484673954]]]}}, {"type": "Feature", "properties": {"type": "postcode-cell", "postcode": "EX16 7QH", "postcodes": ["EX16 7QH"]}, "geometry": {"type": "Polygon", "coordinates": [[[-3.4417111298348777, 50.96294380491261], [-3.4223935099060303, 50.95795250604022], [-3.4212973615782842, 50.95667414327047], [-3.4221024877807147, 50.95459107770317], [-3.4285297759283937, 50.950589026933564], [-3.428339989575079, 50.95143999492582], [-3.433419989578176, 50.95173999492601], [-3.4338399895785585, 50.951499994925804], [-3.4388799895818227, 50.951399994925666], [-3.4430299895842635, 50.951839994925976], [-3.444179989585134, 50.95154999492573], [-3.44449998958453, 50.95325999492709], [-3.4436299895835925, 50.95406999492776], [-3.442069989582313, 50.954669994928246], [-3.4413799895814723, 50.95551999492894], [-3.4414199895808952, 50.95678999492998], [-3.4421299895808217, 50.95790999493085], [-3.440959989578224, 50.961819994934], [-3.4422109904646034, 50.962715531364644], [-3.4417111298348777, 50.96294380491261]]]}}, {"type": "Feature", "properties": {"type": "postcode-cell", "postcode": "EX16 7DQ", "postcodes": ["EX16 7DQ"]}, "geometry": {"type": "Polygon", "coordinates": [[[-3.4206275881462647, 50.92617459037247], [-3.4145446953750014, 50.91935829302443], [-3.420219989585121, 50.91932999490024], [-3.427249989589796, 50.91889999489981], [-3.4296499895904646, 50.92070999490121], [-3.43225998959163, 50.921759994902025], [-3.4307799895902673, 50.92264999490276], [-3.430829989589824, 50.92364999490357], [-3.4319999895897007, 50.92547999490502], [-3.432013873646004, 50.9255221338558], [-3.4206275881462647, 50.92617459037247]]]}}, {"type": "Feature", "properties": {"type": "postcode-cell", "postcode": "EX16 7NJ", "postcodes": ["EX16 7NJ"]}, "geometry": {"type": "Polygon", "coordinates": [[[-3.4467904121662523, 50.97809678495669], [-3.4426899895710537, 50.979349994948045], [-3.43516998956573, 50.980439994948995], [-3.431009989563038, 50.980509994949095], [-3.425089989558818, 50.98143999494988], [-3.421406664110127, 50.98234126643079], [-3.421487222388047, 50.98056293364306], [-3.4280844084304616, 50.9759389452248], [-3.428289068944518, 50.97589147130429], [-3.4321865483350873, 50.97533399081147], [-3.44607424249791, 50.977420205790175], [-3.4467904121662523, 50.97809678495669]]]}}, {"type": "Feature", "properties": {"type": "postcode-cell", "postcode": "EX16 7NH", "postcodes": ["EX16 7NH"]}, "geometry": {"type": "Polygon", "coordinates": [[[-3.441852585718923, 50.96495284024162], [-3.4281981542830544, 50.970523350270966], [-3.4229323534328895, 50.969304294066006], [-3.4215111055805494, 50.95968040597765], [-3.4223935099060303, 50.95795250604022], [-3.4417111298348777, 50.96294380491261], [-3.441852585718923, 50.96495284024162]]]}}, {"type": "Feature", "properties": {"type": "postcode-cell", "postcode": "EX16 7PG", "postcodes": ["EX16 7PG"]}, "geometry": {"type": "Polygon", "coordinates": [[[-3.4215111055805494, 50.95968040597765], [-3.408457989328653, 50.969294783502704], [-3.4037575273044376, 50.968091309138536], [-3.4009490023662132, 50.96005404293306], [-3.409710518332607, 50.956405378938044], [-3.4212973615782842, 50.95667414327047], [-3.4223935099060303, 50.95795250604022], [-3.4215111055805494, 50.95968040597765]]]}}, {"type": "Feature", "properties": {"type": "postcode-cell", "postcode": "EX16 7NU", "postcodes": ["EX16 7NU"]}, "geometry": {"type": "Polygon", "coordinates": [[[-3.4075150207078484, 51.007405877292925], [-3.406509472980025, 51.00548630563202], [-3.4044109286948268, 50.99659458300278], [-3.4074907569406503, 50.99249399651256], [-3.4147342440382986, 50.99226386320866], [-3.415469989545846, 50.995889994961594], [-3.416129989545917, 50.99662999496218], [-3.4161099895453666, 50.9977699949631], [-3.415359989544419, 50.998759994963876], [-3.4157899895439, 51.00043999496522], [-3.415739989542119, 51.00413999496822], [-3.4153399895417276, 51.00442999496847], [-3.41566998954134, 51.00569999496946], [-3.415279989541024, 51.0058399949696], [-3.415269989540701, 51.00650999497014], [-3.4143599895400967, 51.00655999497019], [-3.414669989539993, 51.00719999497069], [-3.4139499895393945, 51.00748999497092], [-3.414189989539405, 51.00778999497116], [-3.413739989539048, 51.00793999497129], [-3.4138299895389492, 51.00826999497158], [-3.413439989538739, 51.008189994971495], [-3.412857678998296, 51.008883984471126], [-3.4075150207078484, 51.007405877292925]]]}}, {"type": "Feature", "properties": {"type": "postcode-cell", "postcode": "EX16 7ND", "postcodes": ["EX16 7ND"]}, "geometry": {"type": "Polygon", "coordinates": [[[-3.4307072093144795, 50.97384676184049], [-3.425880227123523, 50.972546654424555], [-3.4226778006011638, 50.969617484673954], [-3.4229323534328895, 50.969304294066006], [-3.4281981542830544, 50.970523350270966], [-3.4307072093144795, 50.97384676184049]]]}}, {"type": "Feature", "properties": {"type": "postcode-cell", "postcode": "EX16 7NG", "postcodes": ["EX16 7NG"]}, "geometry": {"type": "Polygon", "coordinates": [[[-3.424586251963544, 50.97488383999424], [-3.4244623575109454, 50.97334830710123], [-3.425352800938576, 50.973213872031174], [-3.4257480236577114, 50.97328700530188], [-3.428289068944518, 50.97589147130429], [-3.4280844084304616, 50.9759389452248], [-3.424586251963544, 50.97488383999424]]]}}, {"type": "Feature", "properties": {"type": "postcode-cell", "postcode": "EX16 7NA", "postcodes": ["EX16 7NA"]}, "geometry": {"type": "Polygon", "coordinates": [[[-3.4280844084304616, 50.9759389452248], [-3.421487222388047, 50.98056293364306], [-3.420948656238409, 50.9799015208081], [-3.4194537493652786, 50.97436994430963], [-3.424586251963544, 50.97488383999424], [-3.4280844084304616, 50.9759389452248]]]}}, {"type": "Feature", "properties": {"type": "postcode-cell", "postcode": "EX16 7NE", "postcodes": ["EX16 7NE"]}, "geometry": {"type": "Polygon", "coordinates": [[[-3.4321865483350873, 50.97533399081147], [-3.428289068944518, 50.97589147130429], [-3.4257480236577114, 50.97328700530188], [-3.425880227123523, 50.972546654424555], [-3.4307072093144795, 50.97384676184049], [-3.4321865483350873, 50.97533399081147]]]}}, {"type": "Feature", "properties": {"type": "postcode-cell", "postcode": "EX16 7SA", "postcodes": ["EX16 7SA"]}, "geometry": {"type": "Polygon", "coordinates": [[[-3.425352800938576, 50.973213872031174], [-3.4244623575109454, 50.97334830710123], [-3.4218610410105805, 50.97031819183022], [-3.422489099214339, 50.96978896919092], [-3.425352800938576, 50.973213872031174]]]}}, {"type": "Feature", "properties": {"type": "postcode-cell", "postcode": "EX16 7NQ", "postcodes": ["EX16 7NQ"]}, "geometry": {"type": "Polygon", "coordinates": [[[-3.4218610410105805, 50.97031819183022], [-3.4244623575109454, 50.97334830710123], [-3.424586251963544, 50.97488383999424], [-3.4194537493652786, 50.97436994430963], [-3.417798515463142, 50.97296244972581], [-3.4218610410105805, 50.97031819183022]]]}}, {"type": "Feature", "properties": {"type": "postcode-cell", "postcode": "EX16 7QQ", "postcodes": ["EX16 7QQ"]}, "geometry": {"type": "Polygon", "coordinates": [[[-3.4221024877807147, 50.95459107770317], [-3.415534317616569, 50.94531688300765], [-3.4232519046178465, 50.937426042514396], [-3.4271366164637325, 50.936907016209425], [-3.427299989581014, 50.93749999491468], [-3.4305199895822476, 50.939229994916026], [-3.430859989582156, 50.93987999491653], [-3.4302499895810947, 50.94129999491766], [-3.426469989577571, 50.9436599949196], [-3.4258499895766827, 50.94469999492045], [-3.4258599895764, 50.94530999492094], [-3.427729989576378, 50.94786999492296], [-3.4286499895759346, 50.9500499949247], [-3.4285297759283937, 50.950589026933564], [-3.4221024877807147, 50.95459107770317]]]}}, {"type": "Feature", "properties": {"type": "postcode-cell", "postcode": "EX16 7LX", "postcodes": ["EX16 7LX"]}, "geometry": {"type": "Polygon", "coordinates": [[[-3.4232519046178465, 50.937426042514396], [-3.4100890322642554, 50.93345631313836], [-3.4124840671879935, 50.9279657319974], [-3.4206275881462647, 50.92617459037247], [-3.432013873646004, 50.9255221338558], [-3.432859989589013, 50.92808999490708], [-3.4324699895883515, 50.92895999490779], [-3.425369989583059, 50.93058999490916], [-3.423929989581408, 50.93213999491042], [-3.425469989581323, 50.9343899949122], [-3.425489989580923, 50.93525999491288], [-3.427029989581309, 50.936519994913894], [-3.4271366164637325, 50.936907016209425], [-3.4232519046178465, 50.937426042514396]]]}}, {"type": "Feature", "properties": {"type": "postcode-cell", "postcode": "EX16 7PF", "postcodes": ["EX16 7PF"]}, "geometry": {"type": "Polygon", "coordinates": [[[-3.4212973615782842, 50.95667414327047], [-3.409710518332607, 50.956405378938044], [-3.3998338735129905, 50.94954383470841], [-3.412353113426061, 50.94458781689646], [-3.415534317616569, 50.94531688300765], [-3.4221024877807147, 50.95459107770317], [-3.4212973615782842, 50.95667414327047]]]}}, {"type": "Feature", "properties": {"type": "postcode-cell", "postcode": "EX16 7NR", "postcodes": ["EX16 7NR"]}, "geometry": {"type": "Polygon", "coordinates": [[[-3.421487222388047, 50.98056293364306], [-3.421406664110127, 50.98234126643079], [-3.41572998955176, 50.98372999495184], [-3.4132879118884785, 50.98370294813961], [-3.412418014983545, 50.98357174983942], [-3.4099357380805495, 50.975356631022535], [-3.420948656238409, 50.9799015208081], [-3.421487222388047, 50.98056293364306]]]}}, {"type": "Feature", "properties": {"type": "postcode-cell", "postcode": "EX16 7NP", "postcodes": ["EX16 7NP"]}, "geometry": {"type": "Polygon", "coordinates": [[[-3.420948656238409, 50.9799015208081], [-3.4099357380805495, 50.975356631022535], [-3.4093795010312746, 50.97464816952644], [-3.410549688647912, 50.97298485728738], [-3.417798515463142, 50.97296244972581], [-3.4194537493652786, 50.97436994430963], [-3.420948656238409, 50.9799015208081]]]}}, {"type": "Feature", "properties": {"type": "postcode-cell", "postcode": "EX16 7LY", "postcodes": ["EX16 7LY"]}, "geometry": {"type": "Polygon", "coordinates": [[[-3.415534317616569, 50.94531688300765], [-3.412353113426061, 50.94458781689646], [-3.404013238100613, 50.93926339241571], [-3.4099066939519966, 50.93351738062421], [-3.4100890322642554, 50.93345631313836], [-3.4232519046178465, 50.937426042514396], [-3.415534317616569, 50.94531688300765]]]}}, {"type": "Feature", "properties": {"type": "postcode-cell", "postcode": "EX15 3EX", "postcodes": ["EX15 3EX"]}, "geometry": {"type": "Polygon", "coordinates": [[[-3.349648622267084, 50.91378474355385], [-3.3478271559061894, 50.913535514792684], [-3.3450625175022073, 50.91294302525275], [-3.3451541575032975, 50.90939603122037], [-3.3497299895450516, 50.90967999489334], [-3.354819989547861, 50.91052999489396], [-3.357725901611455, 50.91135081251075], [-3.349648622267084, 50.91378474355385]]]}}, {"type": "Feature", "properties": {"type": "postcode-cell", "postcode": "EX16 7NW", "postcodes": ["EX16 7NW"]}, "geometry": {"type": "Polygon", "coordinates": [[[-3.4099357380805495, 50.975356631022535], [-3.412418014983545, 50.98357174983942], [-3.4074379723276706, 50.98437290055445], [-3.395614206091801, 50.97955671630846], [-3.3964482629530166, 50.97869189829152], [-3.4093795010312746, 50.97464816952644], [-3.4099357380805495, 50.975356631022535]]]}}, {"type": "Feature", "properties": {"type": "postcode-cell", "postcode": "EX16 7DH", "postcodes": ["EX16 7DH"]}, "geometry": {"type": "Polygon", "coordinates": [[[-3.4124840671879935, 50.9279657319974], [-3.409103989668356, 50.925124819243564], [-3.4062215978225896, 50.92139102373582], [-3.405408685268894, 50.91979314268877], [-3.408119989577403, 50.91938999490042], [-3.4145446953750014, 50.91935829302443], [-3.4206275881462647, 50.92617459037247], [-3.4124840671879935, 50.9279657319974]]]}}, {"type": "Feature", "properties": {"type": "postcode-cell", "postcode": "EX16 7DN", "postcodes": ["EX16 7DN"]}, "geometry": {"type": "Polygon", "coordinates": [[[-3.4062215978225896, 50.92139102373582], [-3.400159348257124, 50.92705982461314], [-3.3905072371252936, 50.92627939863535], [-3.3898329485002403, 50.92574513917089], [-3.389933945187584, 50.92542722432721], [-3.3930071318071677, 50.92252592975745], [-3.398280981469627, 50.919537132057776], [-3.398789989571389, 50.91957999490066], [-3.400229989571539, 50.921189994901944], [-3.4046899895749814, 50.919899994900845], [-3.405408685268894, 50.91979314268877], [-3.4062215978225896, 50.92139102373582]]]}}, {"type": "Feature", "properties": {"type": "postcode-cell", "postcode": "EX16 7NN", "postcodes": ["EX16 7NN"]}, "geometry": {"type": "Polygon", "coordinates": [[[-3.4132879118884785, 50.98370294813961], [-3.4121199895494754, 50.983689994951824], [-3.411359989548143, 50.985479994953266], [-3.414699989549459, 50.98720999495463], [-3.4150899895486084, 50.989529994956484], [-3.4146299895472647, 50.99174999495826], [-3.4147342440382986, 50.99226386320866], [-3.4074907569406503, 50.99249399651256], [-3.4046779943787118, 50.989704175735746], [-3.4074379723276706, 50.98437290055445], [-3.412418014983545, 50.98357174983942], [-3.4132879118884785, 50.98370294813961]]]}}, {"type": "Feature", "properties": {"type": "postcode-cell", "postcode": "EX16 7PE", "postcodes": ["EX16 7PE"]}, "geometry": {"type": "Polygon", "coordinates": [[[-3.412353113426061, 50.94458781689646], [-3.3998338735129905, 50.94954383470841], [-3.3982650103513925, 50.94907622087291], [-3.4015821672366346, 50.93973589923194], [-3.404013238100613, 50.93926339241571], [-3.412353113426061, 50.94458781689646]]]}}, {"type": "Feature", "properties": {"type": "postcode-cell", "postcode": "EX16 7DW", "postcodes": ["EX16 7DW"]}, "geometry": {"type": "Polygon", "coordinates": [[[-3.4100890322642554, 50.93345631313836], [-3.4099066939519966, 50.93351738062421], [-3.4017211570933377, 50.93122025605179], [-3.401496451509982, 50.92794588612913], [-3.409103989668356, 50.925124819243564], [-3.4124840671879935, 50.9279657319974], [-3.4100890322642554, 50.93345631313836]]]}}, {"type": "Feature", "properties": {"type": "postcode-cell", "postcode": "EX16 9BQ", "postcodes": ["EX16 9BQ"]}, "geometry": {"type": "Polygon", "coordinates": [[[-3.3971272344059935, 51.008309519384774], [-3.4075150207078484, 51.007405877292925], [-3.412857678998296, 51.008883984471126], [-3.4127099895378628, 51.00905999497222], [-3.413099989537902, 51.00949999497255], [-3.411399989536188, 51.01082999497364], [-3.4118399895360536, 51.011709994974346], [-3.41106998953516, 51.012559994975035], [-3.412159989535502, 51.01330999497562], [-3.412509989534891, 51.01507999497704], [-3.4140099895356233, 51.01555999497742], [-3.4135999895348923, 51.01654999497822], [-3.4144599895354744, 51.016479994978155], [-3.4147599895354834, 51.016869994978464], [-3.4152299895358125, 51.016809994978416], [-3.415849989535788, 51.017699994979125], [-3.414169989533768, 51.01969999498075], [-3.4075299895296096, 51.019519994980655], [-3.402929989526387, 51.02011999498117], [-3.3997799895245606, 51.01972999498091], [-3.3898999895182302, 51.019779994981015], [-3.3878076354975124, 51.019493229851456], [-3.3971272344059935, 51.008309519384774]]]}}, {"type": "Feature", "properties": {"type": "postcode-cell", "postcode": "EX16 7NT", "postcodes": ["EX16 7NT"]}, "geometry": {"type": "Polygon", "coordinates": [[[-3.4044109286948268, 50.99659458300278], [-3.3991338654927, 50.9953093504424], [-3.396198555468449, 50.98947201936973], [-3.4046779943787118, 50.989704175735746], [-3.4074907569406503, 50.99249399651256], [-3.4044109286948268, 50.99659458300278]]]}}, {"type": "Feature", "properties": {"type": "postcode-cell", "postcode": "EX16 7PH", "postcodes": ["EX16 7PH"]}, "geometry": {"type": "Polygon", "coordinates": [[[-3.409710518332607, 50.956405378938044], [-3.4009490023662132, 50.96005404293306], [-3.3940651686927565, 50.960107118220996], [-3.3909825934969082, 50.959176731764515], [-3.393018052247206, 50.94957041219839], [-3.3982650103513925, 50.94907622087291], [-3.3998338735129905, 50.94954383470841], [-3.409710518332607, 50.956405378938044]]]}}, {"type": "Feature", "properties": {"type": "postcode-cell", "postcode": "EX16 7PQ", "postcodes": ["EX16 7PQ"]}, "geometry": {"type": "Polygon", "coordinates": [[[-3.4093795010312746, 50.97464816952644], [-3.3964482629530166, 50.97869189829152], [-3.3957206124867723, 50.9699243706189], [-3.4037575273044376, 50.968091309138536], [-3.408457989328653, 50.969294783502704], [-3.410549688647912, 50.97298485728738], [-3.4093795010312746, 50.97464816952644]]]}}, {"type": "Feature", "properties": {"type": "postcode-cell", "postcode": "EX16 7NS", "postcodes": ["EX16 7NS"]}, "geometry": {"type": "Polygon", "coordinates": [[[-3.4046779943787118, 50.989704175735746], [-3.396198555468449, 50.98947201936973], [-3.3919443763625923, 50.9883878806642], [-3.388818590692682, 50.985964983196915], [-3.3937652513182055, 50.98014366926671], [-3.395614206091801, 50.97955671630846], [-3.4074379723276706, 50.98437290055445], [-3.4046779943787118, 50.989704175735746]]]}}, {"type": "Feature", "properties": {"type": "postcode-cell", "postcode": "EX16 7DL", "postcodes": ["EX16 7DL"]}, "geometry": {"type": "Polygon", "coordinates": [[[-3.400159348257124, 50.92705982461314], [-3.4062215978225896, 50.92139102373582], [-3.409103989668356, 50.925124819243564], [-3.401496451509982, 50.92794588612913], [-3.400159348257124, 50.92705982461314]]]}}, {"type": "Feature", "properties": {"type": "postcode-cell", "postcode": "EX16 7DP", "postcodes": ["EX16 7DP"]}, "geometry": {"type": "Polygon", "coordinates": [[[-3.401496451509982, 50.92794588612913], [-3.4017211570933377, 50.93122025605179], [-3.394326390345885, 50.93119983552783], [-3.3905072371252936, 50.92627939863535], [-3.400159348257124, 50.92705982461314], [-3.401496451509982, 50.92794588612913]]]}}, {"type": "Feature", "properties": {"type": "postcode-cell", "postcode": "EX16 7DR", "postcodes": ["EX16 7DR"]}, "geometry": {"type": "Polygon", "coordinates": [[[-3.4099066939519966, 50.93351738062421], [-3.404013238100613, 50.93926339241571], [-3.4015821672366346, 50.93973589923194], [-3.391329069330728, 50.93787207883173], [-3.394326390345885, 50.93119983552783], [-3.4017211570933377, 50.93122025605179], [-3.4099066939519966, 50.93351738062421]]]}}, {"type": "Feature", "properties": {"type": "postcode-cell", "postcode": "EX16 7FQ", "postcodes": ["EX16 7FQ"]}, "geometry": {"type": "Polygon", "coordinates": [[[-3.3876935270270914, 50.91735124077006], [-3.3867125315607196, 50.91654049391658], [-3.384856287638137, 50.9127970486967], [-3.3863899895664256, 50.91347999489594], [-3.3936473836994288, 50.918281693023424], [-3.3876935270270914, 50.91735124077006]]]}}, {"type": "Feature", "properties": {"type": "postcode-cell", "postcode": "EX16 7PD", "postcodes": ["EX16 7PD"]}, "geometry": {"type": "Polygon", "coordinates": [[[-3.4037575273044376, 50.968091309138536], [-3.3957206124867723, 50.9699243706189], [-3.3935422369635426, 50.96902341008131], [-3.3940651686927565, 50.960107118220996], [-3.4009490023662132, 50.96005404293306], [-3.4037575273044376, 50.968091309138536]]]}}, {"type": "Feature", "properties": {"type": "postcode-cell", "postcode": "EX16 7DS", "postcodes": ["EX16 7DS"]}, "geometry": {"type": "Polygon", "coordinates": [[[-3.3905072371252936, 50.92627939863535], [-3.394326390345885, 50.93119983552783], [-3.391329069330728, 50.93787207883173], [-3.3872475043857277, 50.93890369181344], [-3.3857310457207603, 50.9370242343556], [-3.3863814304933024, 50.92759835908138], [-3.3876296734949927, 50.9264599489081], [-3.3898329485002403, 50.92574513917089], [-3.3905072371252936, 50.92627939863535]]]}}, {"type": "Feature", "properties": {"type": "postcode-cell", "postcode": "EX16 7FP", "postcodes": ["EX16 7FP"]}, "geometry": {"type": "Polygon", "coordinates": [[[-3.3930071318071677, 50.92252592975745], [-3.3888570052187283, 50.91982729952761], [-3.3876935270270914, 50.91735124077006], [-3.3936473836994288, 50.918281693023424], [-3.394959989569164, 50.91914999490038], [-3.397279989570339, 50.91976999490083], [-3.397839989570824, 50.91949999490062], [-3.398280981469627, 50.919537132057776], [-3.3930071318071677, 50.92252592975745]]]}}, {"type": "Feature", "properties": {"type": "postcode-cell", "postcode": "EX16 7HB", "postcodes": ["EX16 7HB"]}, "geometry": {"type": "Polygon", "coordinates": [[[-3.4015821672366346, 50.93973589923194], [-3.3982650103513925, 50.94907622087291], [-3.393018052247206, 50.94957041219839], [-3.384518443076526, 50.946665307501426], [-3.382085756580547, 50.943659322335776], [-3.3837593861917266, 50.94157691087335], [-3.3872475043857277, 50.93890369181344], [-3.391329069330728, 50.93787207883173], [-3.4015821672366346, 50.93973589923194]]]}}, {"type": "Feature", "properties": {"type": "postcode-cell", "postcode": "TA21 0NL", "postcodes": ["TA21 0NL"]}, "geometry": {"type": "Polygon", "coordinates": [[[-3.395614206091801, 50.97955671630846], [-3.3937652513182055, 50.98014366926671], [-3.3844457157878987, 50.97576969604563], [-3.384743831381231, 50.969160404594064], [-3.3935422369635426, 50.96902341008131], [-3.3957206124867723, 50.9699243706189], [-3.3964482629530166, 50.97869189829152], [-3.395614206091801, 50.97955671630846]]]}}, {"type": "Feature", "properties": {"type": "postcode-cell", "postcode": "EX16 7NX", "postcodes": ["EX16 7NX"]}, "geometry": {"type": "Polygon", "coordinates": [[[-3.406509472980025, 51.00548630563202], [-3.391410997904062, 50.99635115193633], [-3.3991338654927, 50.9953093504424], [-3.4044109286948268, 50.99659458300278], [-3.406509472980025, 51.00548630563202]]]}}, {"type": "Feature", "properties": {"type": "postcode-cell", "postcode": "EX16 7PB", "postcodes": ["EX16 7PB"]}, "geometry": {"type": "Polygon", "coordinates": [[[-3.396198555468449, 50.98947201936973], [-3.3991338654927, 50.9953093504424], [-3.391410997904062, 50.99635115193633], [-3.391244645054993, 50.996326749442304], [-3.3919443763625923, 50.9883878806642], [-3.396198555468449, 50.98947201936973]]]}}, {"type": "Feature", "properties": {"type": "postcode-cell", "postcode": "TA21 0NP", "postcodes": ["TA21 0NP"]}, "geometry": {"type": "Polygon", "coordinates": [[[-3.3935422369635426, 50.96902341008131], [-3.384743831381231, 50.969160404594064], [-3.3828146532212675, 50.96808417047872], [-3.3872561911206187, 50.95960312178876], [-3.3909825934969082, 50.959176731764515], [-3.3940651686927565, 50.960107118220996], [-3.3935422369635426, 50.96902341008131]]]}}, {"type": "Feature", "properties": {"type": "postcode-cell", "postcode": "EX16 7NY", "postcodes": ["EX16 7NY"]}, "geometry": {"type": "Polygon", "coordinates": [[[-3.4075150207078484, 51.007405877292925], [-3.3971272344059935, 51.008309519384774], [-3.390109808237393, 51.00663304372828], [-3.389818206103714, 50.99689427517757], [-3.391244645054993, 50.996326749442304], [-3.391410997904062, 50.99635115193633], [-3.406509472980025, 51.00548630563202], [-3.4075150207078484, 51.007405877292925]]]}}, {"type": "Feature", "properties": {"type": "postcode-cell", "postcode": "TA4 2BE", "postcodes": ["TA4 2BE"]}, "geometry": {"type": "Polygon", "coordinates": [[[-3.390109808237393, 51.00663304372828], [-3.3971272344059935, 51.008309519384774], [-3.3878076354975124, 51.019493229851456], [-3.3804899895128395, 51.01848999498008], [-3.3790799895128396, 51.01658999497855], [-3.3788999895131893, 51.01560999497777], [-3.3808499895154855, 51.01338999497598], [-3.3801399895158992, 51.01155999497451], [-3.38048998951774, 51.008139994971756], [-3.3801899895180756, 51.00702999497087], [-3.380869989518666, 51.006699994970596], [-3.3809914152898215, 51.00652969143226], [-3.390109808237393, 51.00663304372828]]]}}, {"type": "Feature", "properties": {"type": "postcode-cell", "postcode": "EX16 7BR", "postcodes": ["EX16 7BR"]}, "geometry": {"type": "Polygon", "coordinates": [[[-3.3930071318071677, 50.92252592975745], [-3.389933945187584, 50.92542722432721], [-3.387606277402182, 50.924086671685586], [-3.384577564768467, 50.922044376786396], [-3.384260922153251, 50.91970821835927], [-3.385191570947422, 50.91903362094578], [-3.386524051123642, 50.91891090630455], [-3.3888570052187283, 50.91982729952761], [-3.3930071318071677, 50.92252592975745]]]}}, {"type": "Feature", "properties": {"type": "postcode-cell", "postcode": "EX16 7PA", "postcodes": ["EX16 7PA"]}, "geometry": {"type": "Polygon", "coordinates": [[[-3.3919443763625923, 50.9883878806642], [-3.391244645054993, 50.996326749442304], [-3.389818206103714, 50.99689427517757], [-3.3818798453525267, 50.99650705284219], [-3.3820999895245536, 50.99591999496192], [-3.3834299895260567, 50.99453999496082], [-3.3826599895268306, 50.99186999495867], [-3.383069989527489, 50.99102999495799], [-3.3829999895282747, 50.98927999495659], [-3.3815126518402074, 50.98710149893597], [-3.388818590692682, 50.985964983196915], [-3.3919443763625923, 50.9883878806642]]]}}, {"type": "Feature", "properties": {"type": "postcode-cell", "postcode": "EX16 7NZ", "postcodes": ["EX16 7NZ"]}, "geometry": {"type": "Polygon", "coordinates": [[[-3.390109808237393, 51.00663304372828], [-3.3809914152898215, 51.00652969143226], [-3.3824099895206685, 51.004539994968844], [-3.3814199895225636, 50.99920999496458], [-3.381909989523328, 50.99824999496378], [-3.381679989523756, 50.99703999496282], [-3.3818798453525267, 50.99650705284219], [-3.389818206103714, 50.99689427517757], [-3.390109808237393, 51.00663304372828]]]}}, {"type": "Feature", "properties": {"type": "postcode-cell", "postcode": "EX16 7FD", "postcodes": ["EX16 7FD"]}, "geometry": {"type": "MultiPolygon", "coordinates": [[[[-3.381536426648728, 50.9125041555369], [-3.3805799895634125, 50.9120799948949], [-3.3809899895639135, 50.91156999489449], [-3.3813222469956106, 50.91168628746382], [-3.381536426648728, 50.9125041555369]]], [[[-3.382514450775783, 50.91623846120064], [-3.380317738443608, 50.91934244114126], [-3.3800331614133743, 50.91937783992469], [-3.376697497700432, 50.9172555484282], [-3.372060459146698, 50.91216834529193], [-3.373739989558946, 50.9123699948952], [-3.378869989561411, 50.91400999489645], [-3.3815785927681206, 50.9126651678378], [-3.382514450775783, 50.91623846120064]]]]}}, {"type": "Feature", "properties": {"type": "postcode-cell", "postcode": "EX16 7FR", "postcodes": ["EX16 7FR"]}, "geometry": {"type": "Polygon", "coordinates": [[[-3.3876935270270914, 50.91735124077006], [-3.3888570052187283, 50.91982729952761], [-3.386524051123642, 50.91891090630455], [-3.3863169996660485, 50.91830206039763], [-3.3867125315607196, 50.91654049391658], [-3.3876935270270914, 50.91735124077006]]]}}, {"type": "Feature", "properties": {"type": "postcode-cell", "postcode": "TA21 0NJ", "postcodes": ["TA21 0NJ"]}, "geometry": {"type": "MultiPolygon", "coordinates": [[[[-3.388818590692682, 50.985964983196915], [-3.3815126518402074, 50.98710149893597], [-3.3812999895283724, 50.9867899949546], [-3.3804699895290202, 50.98430999495262], [-3.3804699895298613, 50.98253999495121], [-3.3792299895300033, 50.98057999494964], [-3.378659989531097, 50.97750999494719], [-3.373678872876359, 50.97732553555041], [-3.3844457157878987, 50.97576969604563], [-3.3937652513182055, 50.98014366926671], [-3.388818590692682, 50.985964983196915]]], [[[-3.3705309781371873, 50.97778020863465], [-3.371560354541396, 50.977631538684385], [-3.370194758511758, 50.97817113740636], [-3.3705309781371873, 50.97778020863465]]]]}}, {"type": "Feature", "properties": {"type": "postcode-cell", "postcode": "EX16 7HA", "postcodes": ["EX16 7HA"]}, "geometry": {"type": "Polygon", "coordinates": [[[-3.3909825934969082, 50.959176731764515], [-3.3872561911206187, 50.95960312178876], [-3.3770497284917247, 50.95681428937071], [-3.384518443076526, 50.946665307501426], [-3.393018052247206, 50.94957041219839], [-3.3909825934969082, 50.959176731764515]]]}}, {"type": "Feature", "properties": {"type": "postcode-cell", "postcode": "EX16 7BN", "postcodes": ["EX16 7BN"]}, "geometry": {"type": "Polygon", "coordinates": [[[-3.3867125315607196, 50.91654049391658], [-3.3863169996660485, 50.91830206039763], [-3.3839689629109238, 50.91783870865539], [-3.382915405209663, 50.91717774352884], [-3.382514450775783, 50.91623846120064], [-3.3815785927681206, 50.9126651678378], [-3.381729989563897, 50.91258999489528], [-3.381536426648728, 50.9125041555369], [-3.3813222469956106, 50.91168628746382], [-3.3823899895645675, 50.912059994894854], [-3.3825499895648075, 50.91176999489462], [-3.384856287638137, 50.9127970486967], [-3.3867125315607196, 50.91654049391658]]]}}, {"type": "Feature", "properties": {"type": "postcode-cell", "postcode": "EX16 7DU", "postcodes": ["EX16 7DU"]}, "geometry": {"type": "Polygon", "coordinates": [[[-3.3872475043857277, 50.93890369181344], [-3.3837593861917266, 50.94157691087335], [-3.373493932928006, 50.934031557193876], [-3.3748126119359405, 50.93187344490821], [-3.375945261822069, 50.931505971477534], [-3.379338064529349, 50.93176234134045], [-3.3857310457207603, 50.9370242343556], [-3.3872475043857277, 50.93890369181344]]]}}, {"type": "Feature", "properties": {"type": "postcode-cell", "postcode": "EX16 7TA", "postcodes": ["EX16 7TA"]}, "geometry": {"type": "Polygon", "coordinates": [[[-3.385191570947422, 50.91903362094578], [-3.3839689629109238, 50.91783870865539], [-3.3863169996660485, 50.91830206039763], [-3.386524051123642, 50.91891090630455], [-3.385191570947422, 50.91903362094578]]]}}, {"type": "Feature", "properties": {"type": "postcode-cell", "postcode": "EX16 7BQ", "postcodes": ["EX16 7BQ"]}, "geometry": {"type": "Polygon", "coordinates": [[[-3.389933945187584, 50.92542722432721], [-3.3898329485002403, 50.92574513917089], [-3.3876296734949927, 50.9264599489081], [-3.381224486338205, 50.9259518655602], [-3.379985731613968, 50.92572202871531], [-3.379578737218211, 50.92341315863287], [-3.3802204821268718, 50.922849029834026], [-3.387606277402182, 50.924086671685586], [-3.389933945187584, 50.92542722432721]]]}}, {"type": "Feature", "properties": {"type": "postcode-cell", "postcode": "TA21 0NH", "postcodes": ["TA21 0NH"]}, "geometry": {"type": "Polygon", "coordinates": [[[-3.384743831381231, 50.969160404594064], [-3.3844457157878987, 50.97576969604563], [-3.373678872876359, 50.97732553555041], [-3.3724499895272584, 50.97727999494707], [-3.371560354541396, 50.977631538684385], [-3.3705309781371873, 50.97778020863465], [-3.370329628289687, 50.97234420821349], [-3.377624839738031, 50.967901968445176], [-3.3828146532212675, 50.96808417047872], [-3.384743831381231, 50.969160404594064]]]}}, {"type": "Feature", "properties": {"type": "postcode-cell", "postcode": "EX16 7DT", "postcodes": ["EX16 7DT"]}, "geometry": {"type": "Polygon", "coordinates": [[[-3.3857310457207603, 50.9370242343556], [-3.379338064529349, 50.93176234134045], [-3.3863814304933024, 50.92759835908138], [-3.3857310457207603, 50.9370242343556]]]}}, {"type": "Feature", "properties": {"type": "postcode-cell", "postcode": "EX16 7BE", "postcodes": ["EX16 7BE"]}, "geometry": {"type": "Polygon", "coordinates": [[[-3.3839689629109238, 50.91783870865539], [-3.385191570947422, 50.91903362094578], [-3.384260922153251, 50.91970821835927], [-3.382654835155829, 50.91891042328122], [-3.382915405209663, 50.91717774352884], [-3.3839689629109238, 50.91783870865539]]]}}, {"type": "Feature", "properties": {"type": "postcode-cell", "postcode": "EX16 7BP", "postcodes": ["EX16 7BP"]}, "geometry": {"type": "Polygon", "coordinates": [[[-3.3819879997572952, 50.92005904606766], [-3.3817382975752794, 50.91942524808375], [-3.382654835155829, 50.91891042328122], [-3.384260922153251, 50.91970821835927], [-3.384577564768467, 50.922044376786396], [-3.3831211021589467, 50.92159648161811], [-3.3819879997572952, 50.92005904606766]]]}}, {"type": "Feature", "properties": {"type": "postcode-cell", "postcode": "EX16 7SG", "postcodes": ["EX16 7SG"]}, "geometry": {"type": "Polygon", "coordinates": [[[-3.3831211021589467, 50.92159648161811], [-3.3826681288433327, 50.921567140564775], [-3.3802546026360654, 50.92059732284793], [-3.380245838305567, 50.92038990913537], [-3.3819879997572952, 50.92005904606766], [-3.3831211021589467, 50.92159648161811]]]}}, {"type": "Feature", "properties": {"type": "postcode-cell", "postcode": "EX16 7BG", "postcodes": ["EX16 7BG"]}, "geometry": {"type": "Polygon", "coordinates": [[[-3.3831211021589467, 50.92159648161811], [-3.384577564768467, 50.922044376786396], [-3.387606277402182, 50.924086671685586], [-3.3802204821268718, 50.922849029834026], [-3.380103823083336, 50.922620902705404], [-3.381471769861314, 50.92174590905808], [-3.3826681288433327, 50.921567140564775], [-3.3831211021589467, 50.92159648161811]]]}}, {"type": "Feature", "properties": {"type": "postcode-cell", "postcode": "EX16 7BL", "postcodes": ["EX16 7BL"]}, "geometry": {"type": "Polygon", "coordinates": [[[-3.382915405209663, 50.91717774352884], [-3.382654835155829, 50.91891042328122], [-3.3817382975752794, 50.91942524808375], [-3.380317738443608, 50.91934244114126], [-3.382514450775783, 50.91623846120064], [-3.382915405209663, 50.91717774352884]]]}}, {"type": "Feature", "properties": {"type": "postcode-cell", "postcode": "TA21 0QD", "postcodes": ["TA21 0QD"]}, "geometry": {"type": "Polygon", "coordinates": [[[-3.347335332994293, 50.96212309900225], [-3.345739734273485, 50.9605412619222], [-3.3455896340949662, 50.960356812088776], [-3.3457523971098757, 50.95953664829175], [-3.347123478816517, 50.9586384228503], [-3.3494167375913184, 50.95747559929003], [-3.3500827779752766, 50.957459282217016], [-3.355649659758172, 50.960223447106685], [-3.354489121521244, 50.96235875903539], [-3.3507759875009393, 50.96456266109698], [-3.347335332994293, 50.96212309900225]]]}}, {"type": "Feature", "properties": {"type": "postcode-cell", "postcode": "TA21 0PA", "postcodes": ["TA21 0PA"]}, "geometry": {"type": "Polygon", "coordinates": [[[-3.3507759875009393, 50.96456266109698], [-3.3499011876977725, 50.965606873387344], [-3.3427500842304148, 50.96567212787329], [-3.342427995811749, 50.96462323314757], [-3.34239392194561, 50.96432839815132], [-3.3425443277950575, 50.96300154125496], [-3.343339797490091, 50.962013219848714], [-3.345545604165286, 50.961923897139414], [-3.347335332994293, 50.96212309900225], [-3.3507759875009393, 50.96456266109698]]]}}, {"type": "Feature", "properties": {"type": "postcode-cell", "postcode": "EX16 7BY", "postcodes": ["EX16 7BY"]}, "geometry": {"type": "Polygon", "coordinates": [[[-3.379578737218211, 50.92341315863287], [-3.3783960106162563, 50.922692782050056], [-3.378990510589051, 50.92239974401991], [-3.3796024010247057, 50.92240910220111], [-3.380103823083336, 50.922620902705404], [-3.3802204821268718, 50.922849029834026], [-3.379578737218211, 50.92341315863287]]]}}, {"type": "Feature", "properties": {"type": "postcode-cell", "postcode": "EX16 7EA", "postcodes": ["EX16 7EA"]}, "geometry": {"type": "Polygon", "coordinates": [[[-3.3863814304933024, 50.92759835908138], [-3.379338064529349, 50.93176234134045], [-3.375945261822069, 50.931505971477534], [-3.375972443351498, 50.930975733299874], [-3.381224486338205, 50.9259518655602], [-3.3876296734949927, 50.9264599489081], [-3.3863814304933024, 50.92759835908138]]]}}, {"type": "Feature", "properties": {"type": "postcode-cell", "postcode": "EX16 7SF", "postcodes": ["EX16 7SF"]}, "geometry": {"type": "Polygon", "coordinates": [[[-3.3819879997572952, 50.92005904606766], [-3.380245838305567, 50.92038990913537], [-3.3799398743120865, 50.91958250839379], [-3.3800331614133743, 50.91937783992469], [-3.380317738443608, 50.91934244114126], [-3.3817382975752794, 50.91942524808375], [-3.3819879997572952, 50.92005904606766]]]}}, {"type": "Feature", "properties": {"type": "postcode-cell", "postcode": "EX16 7BH", "postcodes": ["EX16 7BH"]}, "geometry": {"type": "Polygon", "coordinates": [[[-3.3802546026360654, 50.92059732284793], [-3.378920435747913, 50.92117631787973], [-3.378196372469864, 50.921015243456296], [-3.378082729453548, 50.92041766429042], [-3.3799398743120865, 50.91958250839379], [-3.380245838305567, 50.92038990913537], [-3.3802546026360654, 50.92059732284793]]]}}, {"type": "Feature", "properties": {"type": "postcode-cell", "postcode": "EX16 7SN", "postcodes": ["EX16 7SN"]}, "geometry": {"type": "Polygon", "coordinates": [[[-3.381471769861314, 50.92174590905808], [-3.3801850932063964, 50.92170178075731], [-3.3790294203241285, 50.921278445166436], [-3.378920435747913, 50.92117631787973], [-3.3802546026360654, 50.92059732284793], [-3.3826681288433327, 50.921567140564775], [-3.381471769861314, 50.92174590905808]]]}}, {"type": "Feature", "properties": {"type": "postcode-cell", "postcode": "EX16 7EL", "postcodes": ["EX16 7EL"]}, "geometry": {"type": "Polygon", "coordinates": [[[-3.3665661871131047, 50.91228352579691], [-3.352966574238081, 50.91692012890282], [-3.3507643201410366, 50.91631118720034], [-3.349648622267084, 50.91378474355385], [-3.357725901611455, 50.91135081251075], [-3.3613699895511173, 50.91237999489534], [-3.3678656684925605, 50.91127953308053], [-3.3665661871131047, 50.91228352579691]]]}}, {"type": "Feature", "properties": {"type": "postcode-cell", "postcode": "EX16 7FA", "postcodes": ["EX16 7FA"]}, "geometry": {"type": "Polygon", "coordinates": [[[-3.3760752252071997, 50.92039476836404], [-3.3758115844940115, 50.92079677473909], [-3.3742402459363343, 50.92128050268864], [-3.368531578976248, 50.91229106239403], [-3.3684351273838646, 50.9113306354623], [-3.368529989556133, 50.91134999489445], [-3.3686599895560225, 50.91175999489476], [-3.3714742989190385, 50.91209796297253], [-3.3760752252071997, 50.92039476836404]]]}}, {"type": "Feature", "properties": {"type": "postcode-cell", "postcode": "TA21 0NN", "postcodes": ["TA21 0NN"]}, "geometry": {"type": "Polygon", "coordinates": [[[-3.3828146532212675, 50.96808417047872], [-3.377624839738031, 50.967901968445176], [-3.371149323071364, 50.960677161361204], [-3.371196212441505, 50.95778669464478], [-3.3770497284917247, 50.95681428937071], [-3.3872561911206187, 50.95960312178876], [-3.3828146532212675, 50.96808417047872]]]}}, {"type": "Feature", "properties": {"type": "postcode-cell", "postcode": "EX16 7BZ", "postcodes": ["EX16 7BZ"]}, "geometry": {"type": "Polygon", "coordinates": [[[-3.380103823083336, 50.922620902705404], [-3.3796024010247057, 50.92240910220111], [-3.3801850932063964, 50.92170178075731], [-3.381471769861314, 50.92174590905808], [-3.380103823083336, 50.922620902705404]]]}}, {"type": "Feature", "properties": {"type": "postcode-cell", "postcode": "EX16 7BS", "postcodes": ["EX16 7BS"]}, "geometry": {"type": "Polygon", "coordinates": [[[-3.3801850932063964, 50.92170178075731], [-3.3796024010247057, 50.92240910220111], [-3.378990510589051, 50.92239974401991], [-3.3790294203241285, 50.921278445166436], [-3.3801850932063964, 50.92170178075731]]]}}, {"type": "Feature", "properties": {"type": "postcode-cell", "postcode": "TA21 0NQ", "postcodes": ["TA21 0NQ"]}, "geometry": {"type": "Polygon", "coordinates": [[[-3.349156092446004, 50.97781012176871], [-3.3525238170366984, 50.971579864265415], [-3.3639755632381516, 50.96891458497111], [-3.370329628289687, 50.97234420821349], [-3.3705309781371873, 50.97778020863465], [-3.370194758511758, 50.97817113740636], [-3.369159989524551, 50.978579994948134], [-3.366169989522478, 50.978949994948486], [-3.364639989521563, 50.9788299949484], [-3.3622699895203905, 50.97812999494785], [-3.35981998951885, 50.978099994947854], [-3.3552999895154025, 50.979319994948874], [-3.3515399895128084, 50.97975999494924], [-3.3507599895121425, 50.98011999494958], [-3.350476434824467, 50.980144741839126], [-3.349156092446004, 50.97781012176871]]]}}, {"type": "Feature", "properties": {"type": "postcode-cell", "postcode": "TA21 0NW", "postcodes": ["TA21 0NW"]}, "geometry": {"type": "Polygon", "coordinates": [[[-3.3639755632381516, 50.96891458497111], [-3.3639601663688374, 50.96673158732005], [-3.371149323071364, 50.960677161361204], [-3.377624839738031, 50.967901968445176], [-3.370329628289687, 50.97234420821349], [-3.3639755632381516, 50.96891458497111]]]}}, {"type": "Feature", "properties": {"type": "postcode-cell", "postcode": "EX16 7BT", "postcodes": ["EX16 7BT"]}, "geometry": {"type": "Polygon", "coordinates": [[[-3.378920435747913, 50.92117631787973], [-3.3790294203241285, 50.921278445166436], [-3.378990510589051, 50.92239974401991], [-3.3783960106162563, 50.922692782050056], [-3.377652145418409, 50.92273131240346], [-3.3773670629417434, 50.92171295876954], [-3.3776629632399815, 50.92126236033728], [-3.378196372469864, 50.921015243456296], [-3.378920435747913, 50.92117631787973]]]}}, {"type": "Feature", "properties": {"type": "postcode-cell", "postcode": "EX16 7UA", "postcodes": ["EX16 7UA"]}, "geometry": {"type": "Polygon", "coordinates": [[[-3.379985731613968, 50.92572202871531], [-3.378750587268665, 50.92568441923124], [-3.3771859542582474, 50.923068783575694], [-3.377652145418409, 50.92273131240346], [-3.3783960106162563, 50.922692782050056], [-3.379578737218211, 50.92341315863287], [-3.379985731613968, 50.92572202871531]]]}}, {"type": "Feature", "properties": {"type": "postcode-cell", "postcode": "EX16 7BJ", "postcodes": ["EX16 7BJ"]}, "geometry": {"type": "Polygon", "coordinates": [[[-3.3799398743120865, 50.91958250839379], [-3.378082729453548, 50.92041766429042], [-3.377561028458585, 50.92001198977937], [-3.376697497700432, 50.9172555484282], [-3.3800331614133743, 50.91937783992469], [-3.3799398743120865, 50.91958250839379]]]}}, {"type": "Feature", "properties": {"type": "postcode-cell", "postcode": "EX16 7FL", "postcodes": ["EX16 7FL"]}, "geometry": {"type": "Polygon", "coordinates": [[[-3.381224486338205, 50.9259518655602], [-3.375972443351498, 50.930975733299874], [-3.3752505532311115, 50.92633248682038], [-3.378750587268665, 50.92568441923124], [-3.379985731613968, 50.92572202871531], [-3.381224486338205, 50.9259518655602]]]}}, {"type": "Feature", "properties": {"type": "postcode-cell", "postcode": "EX16 7EZ", "postcodes": ["EX16 7EZ"]}, "geometry": {"type": "Polygon", "coordinates": [[[-3.3770497284917247, 50.95681428937071], [-3.371196212441505, 50.95778669464478], [-3.3711202011303736, 50.957757093373274], [-3.366757401311192, 50.951118497500254], [-3.3805139733982923, 50.94367521173514], [-3.382085756580547, 50.943659322335776], [-3.384518443076526, 50.946665307501426], [-3.3770497284917247, 50.95681428937071]]]}}, {"type": "Feature", "properties": {"type": "postcode-cell", "postcode": "EX16 7DA", "postcodes": ["EX16 7DA"]}, "geometry": {"type": "Polygon", "coordinates": [[[-3.377561028458585, 50.92001198977937], [-3.3760752252071997, 50.92039476836404], [-3.3714742989190385, 50.91209796297253], [-3.372060459146698, 50.91216834529193], [-3.376697497700432, 50.9172555484282], [-3.377561028458585, 50.92001198977937]]]}}, {"type": "Feature", "properties": {"type": "postcode-cell", "postcode": "EX16 7BX", "postcodes": ["EX16 7BX"]}, "geometry": {"type": "Polygon", "coordinates": [[[-3.3771859542582474, 50.923068783575694], [-3.3733128720498615, 50.92302484347305], [-3.3740425998333476, 50.922015557026015], [-3.3773670629417434, 50.92171295876954], [-3.377652145418409, 50.92273131240346], [-3.3771859542582474, 50.923068783575694]]]}}, {"type": "Feature", "properties": {"type": "postcode-cell", "postcode": "EX16 7FB", "postcodes": ["EX16 7FB"]}, "geometry": {"type": "Polygon", "coordinates": [[[-3.378196372469864, 50.921015243456296], [-3.3776629632399815, 50.92126236033728], [-3.3758115844940115, 50.92079677473909], [-3.3760752252071997, 50.92039476836404], [-3.377561028458585, 50.92001198977937], [-3.378082729453548, 50.92041766429042], [-3.378196372469864, 50.921015243456296]]]}}, {"type": "Feature", "properties": {"type": "postcode-cell", "postcode": "EX16 7DE", "postcodes": ["EX16 7DE"]}, "geometry": {"type": "Polygon", "coordinates": [[[-3.3773670629417434, 50.92171295876954], [-3.3740425998333476, 50.922015557026015], [-3.3742402459363343, 50.92128050268864], [-3.3758115844940115, 50.92079677473909], [-3.3776629632399815, 50.92126236033728], [-3.3773670629417434, 50.92171295876954]]]}}, {"type": "Feature", "properties": {"type": "postcode-cell", "postcode": "EX16 7DX", "postcodes": ["EX16 7DX"]}, "geometry": {"type": "Polygon", "coordinates": [[[-3.382085756580547, 50.943659322335776], [-3.3805139733982923, 50.94367521173514], [-3.369066971883524, 50.94111992101819], [-3.368019347417754, 50.936707974437525], [-3.373493932928006, 50.934031557193876], [-3.3837593861917266, 50.94157691087335], [-3.382085756580547, 50.943659322335776]]]}}, {"type": "Feature", "properties": {"type": "postcode-cell", "postcode": "EX16 7BU", "postcodes": ["EX16 7BU"]}, "geometry": {"type": "Polygon", "coordinates": [[[-3.378750587268665, 50.92568441923124], [-3.3752505532311115, 50.92633248682038], [-3.3703674492889086, 50.92469730853057], [-3.3733128720498615, 50.92302484347305], [-3.3771859542582474, 50.923068783575694], [-3.378750587268665, 50.92568441923124]]]}}, {"type": "Feature", "properties": {"type": "postcode-cell", "postcode": "EX16 7DZ", "postcodes": ["EX16 7DZ"]}, "geometry": {"type": "Polygon", "coordinates": [[[-3.375945261822069, 50.931505971477534], [-3.3748126119359405, 50.93187344490821], [-3.3674298662924746, 50.92935831066397], [-3.369723712163744, 50.92479715563607], [-3.369981103562508, 50.924708435679804], [-3.3703674492889086, 50.92469730853057], [-3.3752505532311115, 50.92633248682038], [-3.375972443351498, 50.930975733299874], [-3.375945261822069, 50.931505971477534]]]}}, {"type": "Feature", "properties": {"type": "postcode-cell", "postcode": "EX16 7EG", "postcodes": ["EX16 7EG"]}, "geometry": {"type": "Polygon", "coordinates": [[[-3.3733128720498615, 50.92302484347305], [-3.3703674492889086, 50.92469730853057], [-3.369981103562508, 50.924708435679804], [-3.368407353487131, 50.913714312856676], [-3.368531578976248, 50.91229106239403], [-3.3742402459363343, 50.92128050268864], [-3.3740425998333476, 50.922015557026015], [-3.3733128720498615, 50.92302484347305]]]}}, {"type": "Feature", "properties": {"type": "postcode-cell", "postcode": "EX16 7EH", "postcodes": ["EX16 7EH"]}, "geometry": {"type": "Polygon", "coordinates": [[[-3.368407353487131, 50.913714312856676], [-3.363800398493765, 50.92360042760729], [-3.3585181228459735, 50.923850694230836], [-3.356062655949099, 50.92274042039259], [-3.357642481108556, 50.92003853335954], [-3.3665661871131047, 50.91228352579691], [-3.3678656684925605, 50.91127953308053], [-3.368039989555873, 50.91124999489436], [-3.3684351273838646, 50.9113306354623], [-3.368531578976248, 50.91229106239403], [-3.368407353487131, 50.913714312856676]]]}}, {"type": "Feature", "properties": {"type": "postcode-cell", "postcode": "EX16 7EY", "postcodes": ["EX16 7EY"]}, "geometry": {"type": "Polygon", "coordinates": [[[-3.3805139733982923, 50.94367521173514], [-3.366757401311192, 50.951118497500254], [-3.3635490970531676, 50.949663860953265], [-3.3639223307664334, 50.94426256012542], [-3.36833709973311, 50.94137297904352], [-3.369066971883524, 50.94111992101819], [-3.3805139733982923, 50.94367521173514]]]}}, {"type": "Feature", "properties": {"type": "postcode-cell", "postcode": "EX16 7DY", "postcodes": ["EX16 7DY"]}, "geometry": {"type": "Polygon", "coordinates": [[[-3.368019347417754, 50.936707974437525], [-3.359881059675321, 50.93272307727953], [-3.3611325184480223, 50.93135326604078], [-3.3674298662924746, 50.92935831066397], [-3.3748126119359405, 50.93187344490821], [-3.373493932928006, 50.934031557193876], [-3.368019347417754, 50.936707974437525]]]}}, {"type": "Feature", "properties": {"type": "postcode-cell", "postcode": "EX16 7ET", "postcodes": ["EX16 7ET"]}, "geometry": {"type": "Polygon", "coordinates": [[[-3.3639223307664334, 50.94426256012542], [-3.356353205323171, 50.94299963344385], [-3.354907547392144, 50.93894073082219], [-3.3558002354334726, 50.93827542270156], [-3.36833709973311, 50.94137297904352], [-3.3639223307664334, 50.94426256012542]]]}}, {"type": "Feature", "properties": {"type": "postcode-cell", "postcode": "TA21 0NS", "postcodes": ["TA21 0NS"]}, "geometry": {"type": "Polygon", "coordinates": [[[-3.371149323071364, 50.960677161361204], [-3.3639601663688374, 50.96673158732005], [-3.354489121521244, 50.96235875903539], [-3.355649659758172, 50.960223447106685], [-3.358706929510168, 50.958806158505006], [-3.3711202011303736, 50.957757093373274], [-3.371196212441505, 50.95778669464478], [-3.371149323071364, 50.960677161361204]]]}}, {"type": "Feature", "properties": {"type": "postcode-cell", "postcode": "EX16 7EN", "postcodes": ["EX16 7EN"]}, "geometry": {"type": "Polygon", "coordinates": [[[-3.3611325184480223, 50.93135326604078], [-3.3585181228459735, 50.923850694230836], [-3.363800398493765, 50.92360042760729], [-3.369723712163744, 50.92479715563607], [-3.3674298662924746, 50.92935831066397], [-3.3611325184480223, 50.93135326604078]]]}}, {"type": "Feature", "properties": {"type": "postcode-cell", "postcode": "EX16 7EQ", "postcodes": ["EX16 7EQ"]}, "geometry": {"type": "Polygon", "coordinates": [[[-3.369723712163744, 50.92479715563607], [-3.363800398493765, 50.92360042760729], [-3.368407353487131, 50.913714312856676], [-3.369981103562508, 50.924708435679804], [-3.369723712163744, 50.92479715563607]]]}}, {"type": "Feature", "properties": {"type": "postcode-cell", "postcode": "EX16 7EU", "postcodes": ["EX16 7EU"]}, "geometry": {"type": "Polygon", "coordinates": [[[-3.368019347417754, 50.936707974437525], [-3.369066971883524, 50.94111992101819], [-3.36833709973311, 50.94137297904352], [-3.3558002354334726, 50.93827542270156], [-3.358630135590003, 50.933050943606176], [-3.359881059675321, 50.93272307727953], [-3.368019347417754, 50.936707974437525]]]}}, {"type": "Feature", "properties": {"type": "postcode-cell", "postcode": "EX16 7HL", "postcodes": ["EX16 7HL"]}, "geometry": {"type": "Polygon", "coordinates": [[[-3.358630135590003, 50.933050943606176], [-3.3504653990473745, 50.93120400628464], [-3.3481584503287296, 50.925832465033736], [-3.3515531601454875, 50.9232333352221], [-3.356062655949099, 50.92274042039259], [-3.3585181228459735, 50.923850694230836], [-3.3611325184480223, 50.93135326604078], [-3.359881059675321, 50.93272307727953], [-3.358630135590003, 50.933050943606176]]]}}, {"type": "Feature", "properties": {"type": "postcode-cell", "postcode": "TA21 0QA", "postcodes": ["TA21 0QA"]}, "geometry": {"type": "Polygon", "coordinates": [[[-3.3711202011303736, 50.957757093373274], [-3.358706929510168, 50.958806158505006], [-3.3548916750609066, 50.950630147332824], [-3.3549102059120197, 50.950480351403364], [-3.3635490970531676, 50.949663860953265], [-3.366757401311192, 50.951118497500254], [-3.3711202011303736, 50.957757093373274]]]}}, {"type": "Feature", "properties": {"type": "postcode-cell", "postcode": "TA21 0HQ", "postcodes": ["TA21 0HQ"]}, "geometry": {"type": "Polygon", "coordinates": [[[-3.3243573589883257, 50.97578932618504], [-3.345193254115066, 50.976322988964725], [-3.349156092446004, 50.97781012176871], [-3.350476434824467, 50.980144741839126], [-3.3394099895044778, 50.981109994950444], [-3.3352199895010304, 50.98277999495184], [-3.3336699895000446, 50.98278999495187], [-3.3313399894990448, 50.98178999495109], [-3.3308299894990525, 50.98109999495054], [-3.3278399894977553, 50.97984999494958], [-3.3271499894976597, 50.979129994949], [-3.325879989496878, 50.97908999494899], [-3.323179989495913, 50.977529994947766], [-3.3229099894959138, 50.977169994947495], [-3.3236699894965356, 50.976869994947215], [-3.3229810614940702, 50.97660114783108], [-3.3243573589883257, 50.97578932618504]]]}}, {"type": "Feature", "properties": {"type": "postcode-cell", "postcode": "TA21 0NR", "postcodes": ["TA21 0NR"]}, "geometry": {"type": "Polygon", "coordinates": [[[-3.354489121521244, 50.96235875903539], [-3.3639601663688374, 50.96673158732005], [-3.3639755632381516, 50.96891458497111], [-3.3525238170366984, 50.971579864265415], [-3.3499011876977725, 50.965606873387344], [-3.3507759875009393, 50.96456266109698], [-3.354489121521244, 50.96235875903539]]]}}, {"type": "Feature", "properties": {"type": "postcode-cell", "postcode": "TA21 0NF", "postcodes": ["TA21 0NF"]}, "geometry": {"type": "Polygon", "coordinates": [[[-3.345193254115066, 50.976322988964725], [-3.336553273433944, 50.96837859677213], [-3.3366070874583666, 50.96819755254336], [-3.342363505513601, 50.96577400431562], [-3.3427500842304148, 50.96567212787329], [-3.3499011876977725, 50.965606873387344], [-3.3525238170366984, 50.971579864265415], [-3.349156092446004, 50.97781012176871], [-3.345193254115066, 50.976322988964725]]]}}, {"type": "Feature", "properties": {"type": "postcode-cell", "postcode": "EX16 7EW", "postcodes": ["EX16 7EW"]}, "geometry": {"type": "Polygon", "coordinates": [[[-3.354907547392144, 50.93894073082219], [-3.347097901201627, 50.93918749353144], [-3.3425643953270434, 50.93498324487392], [-3.3504653990473745, 50.93120400628464], [-3.358630135590003, 50.933050943606176], [-3.3558002354334726, 50.93827542270156], [-3.354907547392144, 50.93894073082219]]]}}, {"type": "Feature", "properties": {"type": "postcode-cell", "postcode": "TA21 0QB", "postcodes": ["TA21 0QB"]}, "geometry": {"type": "Polygon", "coordinates": [[[-3.355649659758172, 50.960223447106685], [-3.3500827779752766, 50.957459282217016], [-3.3503767038145438, 50.95507515658529], [-3.3548916750609066, 50.950630147332824], [-3.358706929510168, 50.958806158505006], [-3.355649659758172, 50.960223447106685]]]}}, {"type": "Feature", "properties": {"type": "postcode-cell", "postcode": "EX16 7EX", "postcodes": ["EX16 7EX"]}, "geometry": {"type": "Polygon", "coordinates": [[[-3.3635490970531676, 50.949663860953265], [-3.3549102059120197, 50.950480351403364], [-3.35305491176581, 50.94952142752032], [-3.3521809691040714, 50.946225648912694], [-3.356353205323171, 50.94299963344385], [-3.3639223307664334, 50.94426256012542], [-3.3635490970531676, 50.949663860953265]]]}}, {"type": "Feature", "properties": {"type": "postcode-cell", "postcode": "TA21 0PZ", "postcodes": ["TA21 0PZ"]}, "geometry": {"type": "Polygon", "coordinates": [[[-3.3548916750609066, 50.950630147332824], [-3.3503767038145438, 50.95507515658529], [-3.3435928776568873, 50.9528983589233], [-3.3413061864072136, 50.95178076009238], [-3.3417898259833985, 50.95131767609165], [-3.35305491176581, 50.94952142752032], [-3.3549102059120197, 50.950480351403364], [-3.3548916750609066, 50.950630147332824]]]}}, {"type": "Feature", "properties": {"type": "postcode-cell", "postcode": "TA21 0PS", "postcodes": ["TA21 0PS"]}, "geometry": {"type": "Polygon", "coordinates": [[[-3.3457523971098757, 50.95953664829175], [-3.342254237034912, 50.95807497801749], [-3.34378803980674, 50.95784100307316], [-3.347123478816517, 50.9586384228503], [-3.3457523971098757, 50.95953664829175]]]}}, {"type": "Feature", "properties": {"type": "postcode-cell", "postcode": "EX16 7EJ", "postcodes": ["EX16 7EJ"]}, "geometry": {"type": "Polygon", "coordinates": [[[-3.3515531601454875, 50.9232333352221], [-3.3486865484138058, 50.92041146544023], [-3.3507643201410366, 50.91631118720034], [-3.352966574238081, 50.91692012890282], [-3.357642481108556, 50.92003853335954], [-3.356062655949099, 50.92274042039259], [-3.3515531601454875, 50.9232333352221]]]}}, {"type": "Feature", "properties": {"type": "postcode-cell", "postcode": "EX16 7ES", "postcodes": ["EX16 7ES"]}, "geometry": {"type": "Polygon", "coordinates": [[[-3.356353205323171, 50.94299963344385], [-3.3521809691040714, 50.946225648912694], [-3.3458529133204973, 50.9436483153399], [-3.3451538367182736, 50.942832579438715], [-3.347097901201627, 50.93918749353144], [-3.354907547392144, 50.93894073082219], [-3.356353205323171, 50.94299963344385]]]}}, {"type": "Feature", "properties": {"type": "postcode-cell", "postcode": "EX16 7HD", "postcodes": ["EX16 7HD"]}, "geometry": {"type": "Polygon", "coordinates": [[[-3.352966574238081, 50.91692012890282], [-3.3665661871131047, 50.91228352579691], [-3.357642481108556, 50.92003853335954], [-3.352966574238081, 50.91692012890282]]]}}, {"type": "Feature", "properties": {"type": "postcode-cell", "postcode": "EX15 3EU", "postcodes": ["EX15 3EU"]}, "geometry": {"type": "Polygon", "coordinates": [[[-3.3507643201410366, 50.91631118720034], [-3.3486865484138058, 50.92041146544023], [-3.346175069527879, 50.91961104025882], [-3.3478271559061894, 50.913535514792684], [-3.349648622267084, 50.91378474355385], [-3.3507643201410366, 50.91631118720034]]]}}, {"type": "Feature", "properties": {"type": "postcode-cell", "postcode": "EX16 7ER", "postcodes": ["EX16 7ER"]}, "geometry": {"type": "Polygon", "coordinates": [[[-3.35305491176581, 50.94952142752032], [-3.3417898259833985, 50.95131767609165], [-3.341409749797034, 50.94954452229852], [-3.3458529133204973, 50.9436483153399], [-3.3521809691040714, 50.946225648912694], [-3.35305491176581, 50.94952142752032]]]}}, {"type": "Feature", "properties": {"type": "postcode-cell", "postcode": "EX15 3ET", "postcodes": ["EX15 3ET"]}, "geometry": {"type": "Polygon", "coordinates": [[[-3.3486865484138058, 50.92041146544023], [-3.3515531601454875, 50.9232333352221], [-3.3481584503287296, 50.925832465033736], [-3.3377223277319596, 50.92570082980107], [-3.3363148753103533, 50.92105743868715], [-3.33631464237113, 50.919659616390305], [-3.336489989531946, 50.91962999490142], [-3.336329989531987, 50.91932999490119], [-3.337059989532545, 50.919129994901034], [-3.336314468002005, 50.918610077317325], [-3.3363143012915293, 50.917604064832204], [-3.346175069527879, 50.91961104025882], [-3.3486865484138058, 50.92041146544023]]]}}, {"type": "Feature", "properties": {"type": "postcode-cell", "postcode": "EX15 3EY", "postcodes": ["EX15 3EY"]}, "geometry": {"type": "Polygon", "coordinates": [[[-3.3450625175022073, 50.91294302525275], [-3.335367550610491, 50.91622824325809], [-3.334251403268158, 50.91578684118725], [-3.3361299895343066, 50.914209994897114], [-3.3366899895351714, 50.91313999489624], [-3.3365199895356903, 50.91182999489521], [-3.3386999895378158, 50.91025999489392], [-3.339119989538438, 50.909509994893334], [-3.3424799895406916, 50.90922999489307], [-3.3451541575032975, 50.90939603122037], [-3.3450625175022073, 50.91294302525275]]]}}, {"type": "Feature", "properties": {"type": "postcode-cell", "postcode": "TA21 0PY", "postcodes": ["TA21 0PY"]}, "geometry": {"type": "Polygon", "coordinates": [[[-3.3503767038145438, 50.95507515658529], [-3.3500827779752766, 50.957459282217016], [-3.3494167375913184, 50.95747559929003], [-3.3487000939910025, 50.957264353317555], [-3.3435928776568873, 50.9528983589233], [-3.3503767038145438, 50.95507515658529]]]}}, {"type": "Feature", "properties": {"type": "postcode-cell", "postcode": "EX15 3ES", "postcodes": ["EX15 3ES"]}, "geometry": {"type": "Polygon", "coordinates": [[[-3.3478271559061894, 50.913535514792684], [-3.346175069527879, 50.91961104025882], [-3.3363143012915293, 50.917604064832204], [-3.335367550610491, 50.91622824325809], [-3.3450625175022073, 50.91294302525275], [-3.3478271559061894, 50.913535514792684]]]}}, {"type": "Feature", "properties": {"type": "postcode-cell", "postcode": "TA21 0PD", "postcodes": ["TA21 0PD"]}, "geometry": {"type": "Polygon", "coordinates": [[[-3.347335332994293, 50.96212309900225], [-3.345545604165286, 50.961923897139414], [-3.3434544992102446, 50.96156553171521], [-3.343398119705885, 50.96150588174665], [-3.345739734273485, 50.9605412619222], [-3.347335332994293, 50.96212309900225]]]}}, {"type": "Feature", "properties": {"type": "postcode-cell", "postcode": "TA21 0PX", "postcodes": ["TA21 0PX"]}, "geometry": {"type": "Polygon", "coordinates": [[[-3.3487000939910025, 50.957264353317555], [-3.3466312365021866, 50.95704406523887], [-3.338100686959218, 50.95344675904731], [-3.3413061864072136, 50.95178076009238], [-3.3435928776568873, 50.9528983589233], [-3.3487000939910025, 50.957264353317555]]]}}, {"type": "Feature", "properties": {"type": "postcode-cell", "postcode": "EX16 7EP", "postcodes": ["EX16 7EP"]}, "geometry": {"type": "Polygon", "coordinates": [[[-3.3458529133204973, 50.9436483153399], [-3.341409749797034, 50.94954452229852], [-3.3405226292135133, 50.9487649844641], [-3.3399996179758062, 50.94568258667044], [-3.3408447922734004, 50.94452148251485], [-3.3417955671095423, 50.94351797898727], [-3.3423361623001004, 50.943172403261734], [-3.3446372595905993, 50.94284624154856], [-3.3451538367182736, 50.942832579438715], [-3.3458529133204973, 50.9436483153399]]]}}, {"type": "Feature", "properties": {"type": "postcode-cell", "postcode": "EX16 7LG", "postcodes": ["EX16 7LG"]}, "geometry": {"type": "MultiPolygon", "coordinates": [[[[-3.336314468002005, 50.918610077317325], [-3.334349989531737, 50.91723999489954], [-3.334199989532316, 50.91582999489841], [-3.334251403268158, 50.91578684118725], [-3.335367550610491, 50.91622824325809], [-3.3363143012915293, 50.917604064832204], [-3.336314468002005, 50.918610077317325]]], [[[-3.3363148753103533, 50.92105743868715], [-3.328756934774305, 50.92273908218417], [-3.3273695440243056, 50.92230532657264], [-3.326178361418919, 50.92050424562777], [-3.3269999895258127, 50.91993999490177], [-3.3312799895282397, 50.920509994902176], [-3.33631464237113, 50.919659616390305], [-3.3363148753103533, 50.92105743868715]]]]}}, {"type": "Feature", "properties": {"type": "postcode-cell", "postcode": "TA21 0PT", "postcodes": ["TA21 0PT"]}, "geometry": {"type": "Polygon", "coordinates": [[[-3.3466312365021866, 50.95704406523887], [-3.3487000939910025, 50.957264353317555], [-3.3494167375913184, 50.95747559929003], [-3.347123478816517, 50.9586384228503], [-3.34378803980674, 50.95784100307316], [-3.3466312365021866, 50.95704406523887]]]}}, {"type": "Feature", "properties": {"type": "postcode-cell", "postcode": "TA21 0PU", "postcodes": ["TA21 0PU"]}, "geometry": {"type": "Polygon", "coordinates": [[[-3.34378803980674, 50.95784100307316], [-3.342254237034912, 50.95807497801749], [-3.3379983203055947, 50.95751313120192], [-3.3332825021257073, 50.955826860358314], [-3.3339059382057505, 50.95509419411273], [-3.338100686959218, 50.95344675904731], [-3.3466312365021866, 50.95704406523887], [-3.34378803980674, 50.95784100307316]]]}}, {"type": "Feature", "properties": {"type": "postcode-cell", "postcode": "EX16 7FJ", "postcodes": ["EX16 7FJ"]}, "geometry": {"type": "Polygon", "coordinates": [[[-3.3504653990473745, 50.93120400628464], [-3.3425643953270434, 50.93498324487392], [-3.3326054594214636, 50.93391187944117], [-3.331591732714577, 50.93266677812335], [-3.3318982916592113, 50.93077048891784], [-3.3377223277319596, 50.92570082980107], [-3.3481584503287296, 50.925832465033736], [-3.3504653990473745, 50.93120400628464]]]}}, {"type": "Feature", "properties": {"type": "postcode-cell", "postcode": "EX16 7JB", "postcodes": ["EX16 7JB"]}, "geometry": {"type": "Polygon", "coordinates": [[[-3.3413061864072136, 50.95178076009238], [-3.338100686959218, 50.95344675904731], [-3.3339059382057505, 50.95509419411273], [-3.333123179421541, 50.9537148592699], [-3.3325006738055536, 50.946389008807735], [-3.3345994218346005, 50.94655386165957], [-3.3392300785921494, 50.948064514306154], [-3.3405226292135133, 50.9487649844641], [-3.341409749797034, 50.94954452229852], [-3.3417898259833985, 50.95131767609165], [-3.3413061864072136, 50.95178076009238]]]}}, {"type": "Feature", "properties": {"type": "postcode-cell", "postcode": "TA21 0PR", "postcodes": ["TA21 0PR"]}, "geometry": {"type": "Polygon", "coordinates": [[[-3.3455896340949662, 50.960356812088776], [-3.3447518199648965, 50.96037551631344], [-3.3416008093633103, 50.959620882866446], [-3.340347344844023, 50.959151124035536], [-3.3379983203055947, 50.95751313120192], [-3.342254237034912, 50.95807497801749], [-3.3457523971098757, 50.95953664829175], [-3.3455896340949662, 50.960356812088776]]]}}, {"type": "Feature", "properties": {"type": "postcode-cell", "postcode": "EX16 7SB", "postcodes": ["EX16 7SB"]}, "geometry": {"type": "Polygon", "coordinates": [[[-3.3367064520200636, 50.944789014850635], [-3.331188784981343, 50.94526056275253], [-3.3310105273648003, 50.94513681268064], [-3.331057508724489, 50.94372350674789], [-3.3368156387783334, 50.943566010756534], [-3.33693619511161, 50.943742537422075], [-3.3367064520200636, 50.944789014850635]]]}}, {"type": "Feature", "properties": {"type": "postcode-cell", "postcode": "EX16 7HS", "postcodes": ["EX16 7HS"]}, "geometry": {"type": "Polygon", "coordinates": [[[-3.33693619511161, 50.943742537422075], [-3.338182538599154, 50.94456048861809], [-3.3377127962972812, 50.944932002621144], [-3.337136907463535, 50.945004116017785], [-3.3367064520200636, 50.944789014850635], [-3.33693619511161, 50.943742537422075]]]}}, {"type": "Feature", "properties": {"type": "postcode-cell", "postcode": "EX16 7HN", "postcodes": ["EX16 7HN"]}, "geometry": {"type": "Polygon", "coordinates": [[[-3.3451538367182736, 50.942832579438715], [-3.3446372595905993, 50.94284624154856], [-3.33167129132156, 50.93641364204821], [-3.3326054594214636, 50.93391187944117], [-3.3425643953270434, 50.93498324487392], [-3.347097901201627, 50.93918749353144], [-3.3451538367182736, 50.942832579438715]]]}}, {"type": "Feature", "properties": {"type": "postcode-cell", "postcode": "TA21 0PG", "postcodes": ["TA21 0PG"]}, "geometry": {"type": "Polygon", "coordinates": [[[-3.3416008093633103, 50.959620882866446], [-3.3432458566469347, 50.96094464345203], [-3.3430418827288424, 50.96120168858419], [-3.3409918151056766, 50.96008020449414], [-3.340347344844023, 50.959151124035536], [-3.3416008093633103, 50.959620882866446]]]}}, {"type": "Feature", "properties": {"type": "postcode-cell", "postcode": "TA21 0PF", "postcodes": ["TA21 0PF"]}, "geometry": {"type": "Polygon", "coordinates": [[[-3.345739734273485, 50.9605412619222], [-3.343398119705885, 50.96150588174665], [-3.34301121889442, 50.96129129078521], [-3.3430418827288424, 50.96120168858419], [-3.3432458566469347, 50.96094464345203], [-3.3447518199648965, 50.96037551631344], [-3.3455896340949662, 50.960356812088776], [-3.345739734273485, 50.9605412619222]]]}}, {"type": "Feature", "properties": {"type": "postcode-cell", "postcode": "TA21 0PQ", "postcodes": ["TA21 0PQ"]}, "geometry": {"type": "Polygon", "coordinates": [[[-3.3432458566469347, 50.96094464345203], [-3.3416008093633103, 50.959620882866446], [-3.3447518199648965, 50.96037551631344], [-3.3432458566469347, 50.96094464345203]]]}}, {"type": "Feature", "properties": {"type": "postcode-cell", "postcode": "TA21 0PB", "postcodes": ["TA21 0PB"]}, "geometry": {"type": "Polygon", "coordinates": [[[-3.345545604165286, 50.961923897139414], [-3.343339797490091, 50.962013219848714], [-3.3434544992102446, 50.96156553171521], [-3.345545604165286, 50.961923897139414]]]}}, {"type": "Feature", "properties": {"type": "postcode-cell", "postcode": "TA21 0PE", "postcodes": ["TA21 0PE"]}, "geometry": {"type": "Polygon", "coordinates": [[[-3.343339797490091, 50.962013219848714], [-3.3425443277950575, 50.96300154125496], [-3.3421037539028706, 50.961552702279526], [-3.34301121889442, 50.96129129078521], [-3.343398119705885, 50.96150588174665], [-3.3434544992102446, 50.96156553171521], [-3.343339797490091, 50.962013219848714]]]}}, {"type": "Feature", "properties": {"type": "postcode-cell", "postcode": "TA21 0PN", "postcodes": ["TA21 0PN"]}, "geometry": {"type": "Polygon", "coordinates": [[[-3.340347344844023, 50.959151124035536], [-3.3409918151056766, 50.96008020449414], [-3.3416755270439835, 50.96140189641119], [-3.3409712121872643, 50.961709748533146], [-3.338436043399731, 50.96136092510955], [-3.335004033101882, 50.96017663714313], [-3.3320965852648157, 50.95868221094004], [-3.3332505619978243, 50.95584494599173], [-3.3332825021257073, 50.955826860358314], [-3.3379983203055947, 50.95751313120192], [-3.340347344844023, 50.959151124035536]]]}}, {"type": "Feature", "properties": {"type": "postcode-cell", "postcode": "TA21 0NG", "postcodes": ["TA21 0NG"]}, "geometry": {"type": "Polygon", "coordinates": [[[-3.345193254115066, 50.976322988964725], [-3.3243573589883257, 50.97578932618504], [-3.3264081232229854, 50.97271823578941], [-3.336553273433944, 50.96837859677213], [-3.345193254115066, 50.976322988964725]]]}}, {"type": "Feature", "properties": {"type": "postcode-cell", "postcode": "TA21 0ND", "postcodes": ["TA21 0ND"]}, "geometry": {"type": "Polygon", "coordinates": [[[-3.3366070874583666, 50.96819755254336], [-3.3325147064014673, 50.96458071177941], [-3.331452654278521, 50.95945455022496], [-3.3320965852648157, 50.95868221094004], [-3.335004033101882, 50.96017663714313], [-3.342363505513601, 50.96577400431562], [-3.3366070874583666, 50.96819755254336]]]}}, {"type": "Feature", "properties": {"type": "postcode-cell", "postcode": "TA21 0PH", "postcodes": ["TA21 0PH"]}, "geometry": {"type": "Polygon", "coordinates": [[[-3.3421037539028706, 50.961552702279526], [-3.3416755270439835, 50.96140189641119], [-3.3409918151056766, 50.96008020449414], [-3.3430418827288424, 50.96120168858419], [-3.34301121889442, 50.96129129078521], [-3.3421037539028706, 50.961552702279526]]]}}, {"type": "Feature", "properties": {"type": "postcode-cell", "postcode": "TA21 0PJ", "postcodes": ["TA21 0PJ"]}, "geometry": {"type": "Polygon", "coordinates": [[[-3.34239392194561, 50.96432839815132], [-3.3409950042734966, 50.96216900236978], [-3.3409712121872643, 50.961709748533146], [-3.3416755270439835, 50.96140189641119], [-3.3421037539028706, 50.961552702279526], [-3.3425443277950575, 50.96300154125496], [-3.34239392194561, 50.96432839815132]]]}}, {"type": "Feature", "properties": {"type": "postcode-cell", "postcode": "EX16 7HY", "postcodes": ["EX16 7HY"]}, "geometry": {"type": "Polygon", "coordinates": [[[-3.3392300785921494, 50.948064514306154], [-3.338042146599028, 50.94584210069548], [-3.3382154522791785, 50.94565991719243], [-3.338695708789954, 50.94553752901411], [-3.3399996179758062, 50.94568258667044], [-3.3405226292135133, 50.9487649844641], [-3.3392300785921494, 50.948064514306154]]]}}, {"type": "Feature", "properties": {"type": "postcode-cell", "postcode": "TA21 0PL", "postcodes": ["TA21 0PL"]}, "geometry": {"type": "Polygon", "coordinates": [[[-3.3409950042734966, 50.96216900236978], [-3.3396338536306187, 50.962057303506604], [-3.338436043399731, 50.96136092510955], [-3.3409712121872643, 50.961709748533146], [-3.3409950042734966, 50.96216900236978]]]}}, {"type": "Feature", "properties": {"type": "postcode-cell", "postcode": "TA21 0PW", "postcodes": ["TA21 0PW"]}, "geometry": {"type": "Polygon", "coordinates": [[[-3.342427995811749, 50.96462323314757], [-3.3396338536306187, 50.962057303506604], [-3.3409950042734966, 50.96216900236978], [-3.34239392194561, 50.96432839815132], [-3.342427995811749, 50.96462323314757]]]}}, {"type": "Feature", "properties": {"type": "postcode-cell", "postcode": "EX16 7LJ", "postcodes": ["EX16 7LJ"]}, "geometry": {"type": "Polygon", "coordinates": [[[-3.3315566389615703, 50.936626681358085], [-3.3292567031978924, 50.93914910684807], [-3.325170433952874, 50.94024444844539], [-3.314718530418787, 50.936780032507606], [-3.316729337551363, 50.932749280467675], [-3.331591732714577, 50.93266677812335], [-3.3326054594214636, 50.93391187944117], [-3.33167129132156, 50.93641364204821], [-3.3315566389615703, 50.936626681358085]]]}}, {"type": "Feature", "properties": {"type": "postcode-cell", "postcode": "EX16 7HW", "postcodes": ["EX16 7HW"]}, "geometry": {"type": "Polygon", "coordinates": [[[-3.33167129132156, 50.93641364204821], [-3.3446372595905993, 50.94284624154856], [-3.3423361623001004, 50.943172403261734], [-3.3385198171922843, 50.94248078636145], [-3.3315566389615703, 50.936626681358085], [-3.33167129132156, 50.93641364204821]]]}}, {"type": "Feature", "properties": {"type": "postcode-cell", "postcode": "TA21 0PP", "postcodes": ["TA21 0PP"]}, "geometry": {"type": "Polygon", "coordinates": [[[-3.338436043399731, 50.96136092510955], [-3.3396338536306187, 50.962057303506604], [-3.342427995811749, 50.96462323314757], [-3.3427500842304148, 50.96567212787329], [-3.342363505513601, 50.96577400431562], [-3.335004033101882, 50.96017663714313], [-3.338436043399731, 50.96136092510955]]]}}, {"type": "Feature", "properties": {"type": "postcode-cell", "postcode": "EX16 7HQ", "postcodes": ["EX16 7HQ"]}, "geometry": {"type": "Polygon", "coordinates": [[[-3.3399996179758062, 50.94568258667044], [-3.338695708789954, 50.94553752901411], [-3.338769116248864, 50.945157730163345], [-3.3408447922734004, 50.94452148251485], [-3.3399996179758062, 50.94568258667044]]]}}, {"type": "Feature", "properties": {"type": "postcode-cell", "postcode": "EX16 7HR", "postcodes": ["EX16 7HR"]}, "geometry": {"type": "Polygon", "coordinates": [[[-3.3417955671095423, 50.94351797898727], [-3.338207435691866, 50.94455878256162], [-3.338182538599154, 50.94456048861809], [-3.33693619511161, 50.943742537422075], [-3.3368156387783334, 50.943566010756534], [-3.3385198171922843, 50.94248078636145], [-3.3423361623001004, 50.943172403261734], [-3.3417955671095423, 50.94351797898727]]]}}, {"type": "Feature", "properties": {"type": "postcode-cell", "postcode": "EX16 7HP", "postcodes": ["EX16 7HP"]}, "geometry": {"type": "Polygon", "coordinates": [[[-3.3368156387783334, 50.943566010756534], [-3.331057508724489, 50.94372350674789], [-3.3292567031978924, 50.93914910684807], [-3.3315566389615703, 50.936626681358085], [-3.3385198171922843, 50.94248078636145], [-3.3368156387783334, 50.943566010756534]]]}}, {"type": "Feature", "properties": {"type": "postcode-cell", "postcode": "EX16 7HZ", "postcodes": ["EX16 7HZ"]}, "geometry": {"type": "Polygon", "coordinates": [[[-3.3392300785921494, 50.948064514306154], [-3.3345994218346005, 50.94655386165957], [-3.336666202720761, 50.94581191305656], [-3.338042146599028, 50.94584210069548], [-3.3392300785921494, 50.948064514306154]]]}}, {"type": "Feature", "properties": {"type": "postcode-cell", "postcode": "EX16 7HU", "postcodes": ["EX16 7HU"]}, "geometry": {"type": "Polygon", "coordinates": [[[-3.3408447922734004, 50.94452148251485], [-3.338769116248864, 50.945157730163345], [-3.338207435691866, 50.94455878256162], [-3.3417955671095423, 50.94351797898727], [-3.3408447922734004, 50.94452148251485]]]}}, {"type": "Feature", "properties": {"type": "postcode-cell", "postcode": "EX16 7HX", "postcodes": ["EX16 7HX"]}, "geometry": {"type": "Polygon", "coordinates": [[[-3.338042146599028, 50.94584210069548], [-3.336666202720761, 50.94581191305656], [-3.337136907463535, 50.945004116017785], [-3.3377127962972812, 50.944932002621144], [-3.3382154522791785, 50.94565991719243], [-3.338042146599028, 50.94584210069548]]]}}, {"type": "Feature", "properties": {"type": "postcode-cell", "postcode": "EX16 7HT", "postcodes": ["EX16 7HT"]}, "geometry": {"type": "Polygon", "coordinates": [[[-3.338695708789954, 50.94553752901411], [-3.3382154522791785, 50.94565991719243], [-3.3377127962972812, 50.944932002621144], [-3.338182538599154, 50.94456048861809], [-3.338207435691866, 50.94455878256162], [-3.338769116248864, 50.945157730163345], [-3.338695708789954, 50.94553752901411]]]}}, {"type": "Feature", "properties": {"type": "postcode-cell", "postcode": "EX16 7HH", "postcodes": ["EX16 7HH"]}, "geometry": {"type": "Polygon", "coordinates": [[[-3.336666202720761, 50.94581191305656], [-3.3345994218346005, 50.94655386165957], [-3.3325006738055536, 50.946389008807735], [-3.331188784981343, 50.94526056275253], [-3.3367064520200636, 50.944789014850635], [-3.337136907463535, 50.945004116017785], [-3.336666202720761, 50.94581191305656]]]}}, {"type": "Feature", "properties": {"type": "postcode-cell", "postcode": "TA21 0NA", "postcodes": ["TA21 0NA"]}, "geometry": {"type": "Polygon", "coordinates": [[[-3.331452654278521, 50.95945455022496], [-3.3181072823882687, 50.96325283453077], [-3.3140277842096153, 50.96034117287854], [-3.316185649680907, 50.95475658665155], [-3.3194636480716877, 50.953776241254594], [-3.3332505619978243, 50.95584494599173], [-3.3320965852648157, 50.95868221094004], [-3.331452654278521, 50.95945455022496]]]}}, {"type": "Feature", "properties": {"type": "postcode-cell", "postcode": "EX16 7JD", "postcodes": ["EX16 7JD"]}, "geometry": {"type": "Polygon", "coordinates": [[[-3.3339059382057505, 50.95509419411273], [-3.3332825021257073, 50.955826860358314], [-3.3332505619978243, 50.95584494599173], [-3.3194636480716877, 50.953776241254594], [-3.3209820025654344, 50.94875571295552], [-3.3230358457487226, 50.948086746292354], [-3.3254765346346886, 50.947996342125236], [-3.333123179421541, 50.9537148592699], [-3.3339059382057505, 50.95509419411273]]]}}, {"type": "Feature", "properties": {"type": "postcode-cell", "postcode": "EX16 7LB", "postcodes": ["EX16 7LB"]}, "geometry": {"type": "Polygon", "coordinates": [[[-3.331591732714577, 50.93266677812335], [-3.316729337551363, 50.932749280467675], [-3.3124458810301656, 50.929725626339795], [-3.320561285225838, 50.92451858579435], [-3.323836227696739, 50.925644618022226], [-3.328150349516401, 50.92800254686722], [-3.3318982916592113, 50.93077048891784], [-3.331591732714577, 50.93266677812335]]]}}, {"type": "Feature", "properties": {"type": "postcode-cell", "postcode": "EX16 7JF", "postcodes": ["EX16 7JF"]}, "geometry": {"type": "Polygon", "coordinates": [[[-3.331188784981343, 50.94526056275253], [-3.3325006738055536, 50.946389008807735], [-3.333123179421541, 50.9537148592699], [-3.3254765346346886, 50.947996342125236], [-3.328956319134184, 50.945881685651024], [-3.3310105273648003, 50.94513681268064], [-3.331188784981343, 50.94526056275253]]]}}, {"type": "Feature", "properties": {"type": "postcode-cell", "postcode": "EX16 7LQ", "postcodes": ["EX16 7LQ"]}, "geometry": {"type": "Polygon", "coordinates": [[[-3.3318982916592113, 50.93077048891784], [-3.328150349516401, 50.92800254686722], [-3.328756934774305, 50.92273908218417], [-3.3363148753103533, 50.92105743868715], [-3.3377223277319596, 50.92570082980107], [-3.3318982916592113, 50.93077048891784]]]}}, {"type": "Feature", "properties": {"type": "postcode-cell", "postcode": "EX16 7JH", "postcodes": ["EX16 7JH"]}, "geometry": {"type": "Polygon", "coordinates": [[[-3.3310105273648003, 50.94513681268064], [-3.328956319134184, 50.945881685651024], [-3.325267861906623, 50.94486960642227], [-3.32457761005804, 50.9416785297561], [-3.3247331674680574, 50.94051625865532], [-3.325170433952874, 50.94024444844539], [-3.3292567031978924, 50.93914910684807], [-3.331057508724489, 50.94372350674789], [-3.3310105273648003, 50.94513681268064]]]}}, {"type": "Feature", "properties": {"type": "postcode-cell", "postcode": "TA21 0NE", "postcodes": ["TA21 0NE"]}, "geometry": {"type": "Polygon", "coordinates": [[[-3.336553273433944, 50.96837859677213], [-3.3264081232229854, 50.97271823578941], [-3.3240408604207183, 50.96711577465912], [-3.3325147064014673, 50.96458071177941], [-3.3366070874583666, 50.96819755254336], [-3.336553273433944, 50.96837859677213]]]}}, {"type": "Feature", "properties": {"type": "postcode-cell", "postcode": "TA21 0JT", "postcodes": ["TA21 0JT"]}, "geometry": {"type": "Polygon", "coordinates": [[[-3.307303745880243, 50.962383514242205], [-3.309365521880022, 50.960729214131334], [-3.3140277842096153, 50.96034117287854], [-3.3181072823882687, 50.96325283453077], [-3.31815864359864, 50.963596515329385], [-3.3137758252079, 50.968463825286605], [-3.312149989493727, 50.96749999493985], [-3.305469989490726, 50.9649599949379], [-3.30514118624478, 50.96478884821293], [-3.307303745880243, 50.962383514242205]]]}}, {"type": "Feature", "properties": {"type": "postcode-cell", "postcode": "TA21 0LY", "postcodes": ["TA21 0LY"]}, "geometry": {"type": "Polygon", "coordinates": [[[-3.307303745880243, 50.962383514242205], [-3.30514118624478, 50.96478884821293], [-3.301819989489332, 50.96305999493642], [-3.300482136824966, 50.96193064415265], [-3.307303745880243, 50.962383514242205]]]}}, {"type": "Feature", "properties": {"type": "postcode-cell", "postcode": "TA21 0JY", "postcodes": ["TA21 0JY"]}, "geometry": {"type": "Polygon", "coordinates": [[[-3.3229810614940702, 50.97660114783108], [-3.3224399894959884, 50.976389994946864], [-3.323309989496657, 50.97613999494666], [-3.3228399894966123, 50.97560999494625], [-3.3235599894973693, 50.97497999494571], [-3.323459989497543, 50.974479994945334], [-3.3213699894970374, 50.97276999494398], [-3.3204099894965977, 50.9724199949437], [-3.320309989497213, 50.97099999494257], [-3.319869989497149, 50.97054999494222], [-3.3189399894964686, 50.97073999494236], [-3.317669989495844, 50.9703699949421], [-3.3173699894952726, 50.971169994942734], [-3.315759989494985, 50.96963999494153], [-3.3137758252079, 50.968463825286605], [-3.31815864359864, 50.963596515329385], [-3.3240408604207183, 50.96711577465912], [-3.3264081232229854, 50.97271823578941], [-3.3243573589883257, 50.97578932618504], [-3.3229810614940702, 50.97660114783108]]]}}, {"type": "Feature", "properties": {"type": "postcode-cell", "postcode": "EX16 7LE", "postcodes": ["EX16 7LE"]}, "geometry": {"type": "Polygon", "coordinates": [[[-3.3273695440243056, 50.92230532657264], [-3.323836227696739, 50.925644618022226], [-3.320561285225838, 50.92451858579435], [-3.3200319455196716, 50.92322921158323], [-3.3210199895205306, 50.92310999490437], [-3.3231199895221066, 50.92257999490395], [-3.325999989523964, 50.92248999490383], [-3.3263899895246927, 50.921479994903], [-3.3261699895250176, 50.92050999490223], [-3.326178361418919, 50.92050424562777], [-3.3273695440243056, 50.92230532657264]]]}}, {"type": "Feature", "properties": {"type": "postcode-cell", "postcode": "EX16 7LH", "postcodes": ["EX16 7LH"]}, "geometry": {"type": "Polygon", "coordinates": [[[-3.328150349516401, 50.92800254686722], [-3.323836227696739, 50.925644618022226], [-3.3273695440243056, 50.92230532657264], [-3.328756934774305, 50.92273908218417], [-3.328150349516401, 50.92800254686722]]]}}, {"type": "Feature", "properties": {"type": "postcode-cell", "postcode": "TA21 0NB", "postcodes": ["TA21 0NB"]}, "geometry": {"type": "Polygon", "coordinates": [[[-3.3325147064014673, 50.96458071177941], [-3.3240408604207183, 50.96711577465912], [-3.31815864359864, 50.963596515329385], [-3.3181072823882687, 50.96325283453077], [-3.331452654278521, 50.95945455022496], [-3.3325147064014673, 50.96458071177941]]]}}, {"type": "Feature", "properties": {"type": "postcode-cell", "postcode": "EX16 7LA", "postcodes": ["EX16 7LA"]}, "geometry": {"type": "Polygon", "coordinates": [[[-3.320561285225838, 50.92451858579435], [-3.3124458810301656, 50.929725626339795], [-3.3040403930788687, 50.92803311448775], [-3.3040199895075144, 50.92793999490841], [-3.3028299895077864, 50.925809994906714], [-3.3073699895110305, 50.924999994906045], [-3.314399989515762, 50.924359994905444], [-3.3147199895161976, 50.92386999490504], [-3.3200319455196716, 50.92322921158323], [-3.320561285225838, 50.92451858579435]]]}}, {"type": "Feature", "properties": {"type": "postcode-cell", "postcode": "EX16 7JQ", "postcodes": ["EX16 7JQ"]}, "geometry": {"type": "Polygon", "coordinates": [[[-3.328956319134184, 50.945881685651024], [-3.3254765346346886, 50.947996342125236], [-3.3230358457487226, 50.948086746292354], [-3.323090144612459, 50.94640870470303], [-3.324766647914914, 50.94495001208512], [-3.325267861906623, 50.94486960642227], [-3.328956319134184, 50.945881685651024]]]}}, {"type": "Feature", "properties": {"type": "postcode-cell", "postcode": "EX16 7GW", "postcodes": ["EX16 7GW"]}, "geometry": {"type": "Polygon", "coordinates": [[[-3.32457761005804, 50.9416785297561], [-3.323599398571842, 50.94440578928915], [-3.3230581068970797, 50.94472971520292], [-3.32244905693675, 50.944531611967484], [-3.321334028069087, 50.94358025949331], [-3.322651449432097, 50.94132221640395], [-3.3227694402650276, 50.94123424026486], [-3.3247331674680574, 50.94051625865532], [-3.32457761005804, 50.9416785297561]]]}}, {"type": "Feature", "properties": {"type": "postcode-cell", "postcode": "EX16 7JJ", "postcodes": ["EX16 7JJ"]}, "geometry": {"type": "Polygon", "coordinates": [[[-3.3228854456853925, 50.94590840435982], [-3.3230581068970797, 50.94472971520292], [-3.323599398571842, 50.94440578928915], [-3.324766647914914, 50.94495001208512], [-3.323090144612459, 50.94640870470303], [-3.3228854456853925, 50.94590840435982]]]}}, {"type": "Feature", "properties": {"type": "postcode-cell", "postcode": "EX16 7HE", "postcodes": ["EX16 7HE"]}, "geometry": {"type": "Polygon", "coordinates": [[[-3.323090144612459, 50.94640870470303], [-3.3230358457487226, 50.948086746292354], [-3.3209820025654344, 50.94875571295552], [-3.3158587731572804, 50.94592895037775], [-3.320012604803018, 50.94458885647556], [-3.3214139458859617, 50.94496441237755], [-3.3228854456853925, 50.94590840435982], [-3.323090144612459, 50.94640870470303]]]}}, {"type": "Feature", "properties": {"type": "postcode-cell", "postcode": "EX16 7JL", "postcodes": ["EX16 7JL"]}, "geometry": {"type": "Polygon", "coordinates": [[[-3.325267861906623, 50.94486960642227], [-3.324766647914914, 50.94495001208512], [-3.323599398571842, 50.94440578928915], [-3.32457761005804, 50.9416785297561], [-3.325267861906623, 50.94486960642227]]]}}, {"type": "Feature", "properties": {"type": "postcode-cell", "postcode": "EX16 7HJ", "postcodes": ["EX16 7HJ"]}, "geometry": {"type": "Polygon", "coordinates": [[[-3.3228854456853925, 50.94590840435982], [-3.3214139458859617, 50.94496441237755], [-3.32244905693675, 50.944531611967484], [-3.3230581068970797, 50.94472971520292], [-3.3228854456853925, 50.94590840435982]]]}}, {"type": "Feature", "properties": {"type": "postcode-cell", "postcode": "EX16 7JN", "postcodes": ["EX16 7JN"]}, "geometry": {"type": "Polygon", "coordinates": [[[-3.32244905693675, 50.944531611967484], [-3.3214139458859617, 50.94496441237755], [-3.320012604803018, 50.94458885647556], [-3.321334028069087, 50.94358025949331], [-3.32244905693675, 50.944531611967484]]]}}, {"type": "Feature", "properties": {"type": "postcode-cell", "postcode": "EX16 7FN", "postcodes": ["EX16 7FN"]}, "geometry": {"type": "Polygon", "coordinates": [[[-3.3132305702299645, 50.94536109584989], [-3.319480857139094, 50.942138745928446], [-3.3222644048488856, 50.941456487272646], [-3.315102576581265, 50.94572981321431], [-3.3132305702299645, 50.94536109584989]]]}}, {"type": "Feature", "properties": {"type": "postcode-cell", "postcode": "EX16 7JE", "postcodes": ["EX16 7JE"]}, "geometry": {"type": "Polygon", "coordinates": [[[-3.315102576581265, 50.94572981321431], [-3.3158587731572804, 50.94592895037775], [-3.3209820025654344, 50.94875571295552], [-3.3194636480716877, 50.953776241254594], [-3.316185649680907, 50.95475658665155], [-3.313249889594952, 50.95339306216724], [-3.3077346079646825, 50.94641879854234], [-3.308375500759877, 50.94579248875218], [-3.3107542009275566, 50.94503908682179], [-3.3132305702299645, 50.94536109584989], [-3.315102576581265, 50.94572981321431]]]}}, {"type": "Feature", "properties": {"type": "postcode-cell", "postcode": "EX16 7JP", "postcodes": ["EX16 7JP"]}, "geometry": {"type": "Polygon", "coordinates": [[[-3.313492333910396, 50.940257068056866], [-3.3227694402650276, 50.94123424026486], [-3.322651449432097, 50.94132221640395], [-3.3222644048488856, 50.941456487272646], [-3.319480857139094, 50.942138745928446], [-3.3128659465403194, 50.94159614442774], [-3.313492333910396, 50.940257068056866]]]}}, {"type": "Feature", "properties": {"type": "postcode-cell", "postcode": "EX16 7JU", "postcodes": ["EX16 7JU"]}, "geometry": {"type": "Polygon", "coordinates": [[[-3.3128659465403194, 50.94159614442774], [-3.3107542009275566, 50.94503908682179], [-3.308375500759877, 50.94579248875218], [-3.3066475082024023, 50.943992704372576], [-3.306037185707556, 50.93794261952841], [-3.306471776775627, 50.93716822171344], [-3.3134375896272346, 50.93774518209951], [-3.313492333910396, 50.940257068056866], [-3.3128659465403194, 50.94159614442774]]]}}, {"type": "Feature", "properties": {"type": "postcode-cell", "postcode": "EX16 7JR", "postcodes": ["EX16 7JR"]}, "geometry": {"type": "Polygon", "coordinates": [[[-3.3247331674680574, 50.94051625865532], [-3.3227694402650276, 50.94123424026486], [-3.313492333910396, 50.940257068056866], [-3.3134375896272346, 50.93774518209951], [-3.314718530418787, 50.936780032507606], [-3.325170433952874, 50.94024444844539], [-3.3247331674680574, 50.94051625865532]]]}}, {"type": "Feature", "properties": {"type": "postcode-cell", "postcode": "EX16 7JW", "postcodes": ["EX16 7JW"]}, "geometry": {"type": "Polygon", "coordinates": [[[-3.315102576581265, 50.94572981321431], [-3.3222644048488856, 50.941456487272646], [-3.322651449432097, 50.94132221640395], [-3.321334028069087, 50.94358025949331], [-3.320012604803018, 50.94458885647556], [-3.3158587731572804, 50.94592895037775], [-3.315102576581265, 50.94572981321431]]]}}, {"type": "Feature", "properties": {"type": "postcode-cell", "postcode": "EX16 7JS", "postcodes": ["EX16 7JS"]}, "geometry": {"type": "Polygon", "coordinates": [[[-3.3132305702299645, 50.94536109584989], [-3.3107542009275566, 50.94503908682179], [-3.3128659465403194, 50.94159614442774], [-3.319480857139094, 50.942138745928446], [-3.3132305702299645, 50.94536109584989]]]}}, {"type": "Feature", "properties": {"type": "postcode-cell", "postcode": "EX16 7JX", "postcodes": ["EX16 7JX"]}, "geometry": {"type": "Polygon", "coordinates": [[[-3.314718530418787, 50.936780032507606], [-3.3134375896272346, 50.93774518209951], [-3.306471776775627, 50.93716822171344], [-3.3054824132902705, 50.93643836773002], [-3.3067399895055667, 50.93558999491446], [-3.3066899895057253, 50.93518999491414], [-3.3079199895069267, 50.934299994913424], [-3.3078999895079964, 50.93203999491164], [-3.3045699895066596, 50.9304499949104], [-3.3040403930788687, 50.92803311448775], [-3.3124458810301656, 50.929725626339795], [-3.316729337551363, 50.932749280467675], [-3.314718530418787, 50.936780032507606]]]}}, {"type": "Feature", "properties": {"type": "postcode-cell", "postcode": "TA21 0DL", "postcodes": ["TA21 0DL"]}, "geometry": {"type": "Polygon", "coordinates": [[[-3.3140277842096153, 50.96034117287854], [-3.309365521880022, 50.960729214131334], [-3.30161075525261, 50.95734049848488], [-3.3015994022767097, 50.95494923942534], [-3.313249889594952, 50.95339306216724], [-3.316185649680907, 50.95475658665155], [-3.3140277842096153, 50.96034117287854]]]}}, {"type": "Feature", "properties": {"type": "postcode-cell", "postcode": "EX16 7LT", "postcodes": ["EX16 7LT"]}, "geometry": {"type": "Polygon", "coordinates": [[[-3.306471776775627, 50.93716822171344], [-3.306037185707556, 50.93794261952841], [-3.301401894823977, 50.94027164677305], [-3.301669989500739, 50.93900999491725], [-3.3054824132902705, 50.93643836773002], [-3.306471776775627, 50.93716822171344]]]}}, {"type": "Feature", "properties": {"type": "postcode-cell", "postcode": "EX16 7JT", "postcodes": ["EX16 7JT"]}, "geometry": {"type": "Polygon", "coordinates": [[[-3.3077346079646825, 50.94641879854234], [-3.313249889594952, 50.95339306216724], [-3.3015994022767097, 50.95494923942534], [-3.297526357768447, 50.95017836948678], [-3.297922584896745, 50.94916457964391], [-3.3077346079646825, 50.94641879854234]]]}}, {"type": "Feature", "properties": {"type": "postcode-cell", "postcode": "EX16 7JY", "postcodes": ["EX16 7JY"]}, "geometry": {"type": "Polygon", "coordinates": [[[-3.3066475082024023, 50.943992704372576], [-3.308375500759877, 50.94579248875218], [-3.3077346079646825, 50.94641879854234], [-3.297922584896745, 50.94916457964391], [-3.299299989496075, 50.945639994922566], [-3.2995899894971563, 50.943759994921045], [-3.30115998949927, 50.94140999491916], [-3.3012459677156265, 50.94100540832867], [-3.3066475082024023, 50.943992704372576]]]}}, {"type": "Feature", "properties": {"type": "postcode-cell", "postcode": "TA21 0LR", "postcodes": ["TA21 0LR"]}, "geometry": {"type": "Polygon", "coordinates": [[[-3.309365521880022, 50.960729214131334], [-3.307303745880243, 50.962383514242205], [-3.300482136824966, 50.96193064415265], [-3.3002799894889825, 50.961759994935406], [-3.301559989490354, 50.96057999493445], [-3.3000899894903255, 50.958699994932964], [-3.2990857183843088, 50.958606705699616], [-3.30161075525261, 50.95734049848488], [-3.309365521880022, 50.960729214131334]]]}}, {"type": "Feature", "properties": {"type": "postcode-cell", "postcode": "TA21 0LX", "postcodes": ["TA21 0LX"]}, "geometry": {"type": "Polygon", "coordinates": [[[-3.3015994022767097, 50.95494923942534], [-3.30161075525261, 50.95734049848488], [-3.2990857183843088, 50.958606705699616], [-3.298259989489255, 50.95852999493285], [-3.2982799894894583, 50.95812999493252], [-3.2956299894884946, 50.956649994931354], [-3.2938499894880975, 50.95513999493019], [-3.295409989489543, 50.9541699949294], [-3.2968299894914956, 50.951959994927634], [-3.297526357768447, 50.95017836948678], [-3.3015994022767097, 50.95494923942534]]]}}, {"type": "Feature", "properties": {"type": "postcode-cell", "postcode": "EX16 7LL", "postcodes": ["EX16 7LL"]}, "geometry": {"type": "Polygon", "coordinates": [[[-3.3012459677156265, 50.94100540832867], [-3.301401894823977, 50.94027164677305], [-3.306037185707556, 50.93794261952841], [-3.3066475082024023, 50.943992704372576], [-3.3012459677156265, 50.94100540832867]]]}}]}