{"type": "FeatureCollection", "features": [{"type": "Feature", "properties": {"type": "ward-outline", "name": "Chagford"}, "geometry": {"type": "Polygon", "coordinates": [[[-3.81162, 50.69102], [-3.81099, 50.68939], [-3.80787, 50.68462], [-3.80775, 50.68281], [-3.80703, 50.68161], [-3.80284, 50.67862], [-3.79848, 50.67769], [-3.79808, 50.67577], [-3.79722, 50.67491], [-3.79902, 50.67316], [-3.79941, 50.67176], [-3.80059, 50.67034], [-3.80161, 50.66975], [-3.80157, 50.66873], [-3.80453, 50.66736], [-3.8035, 50.66657], [-3.80624, 50.66536], [-3.80966, 50.66463], [-3.80948, 50.6629], [-3.8104, 50.66246], [-3.81108, 50.6596], [-3.812, 50.659], [-3.81193, 50.65875], [-3.80966, 50.65899], [-3.80724, 50.65859], [-3.8059, 50.6567], [-3.80465, 50.65591], [-3.80683, 50.6555], [-3.80938, 50.65567], [-3.81021, 50.65516], [-3.80991, 50.65419], [-3.81079, 50.65424], [-3.8117, 50.65367], [-3.81348, 50.65338], [-3.81423, 50.65293], [-3.81415, 50.6513], [-3.81598, 50.6516], [-3.8174, 50.6514], [-3.81852, 50.65231], [-3.82003, 50.65222], [-3.82012, 50.65167], [-3.82069, 50.65179], [-3.82194, 50.65139], [-3.82382, 50.6516], [-3.82451, 50.65205], [-3.82665, 50.65177], [-3.82885, 50.65048], [-3.82881, 50.64897], [-3.82928, 50.64793], [-3.83026, 50.64765], [-3.83175, 50.64778], [-3.83276, 50.64891], [-3.83476, 50.64971], [-3.83775, 50.64982], [-3.84176, 50.64823], [-3.84358, 50.64694], [-3.84393, 50.64526], [-3.84361, 50.64305], [-3.84528, 50.64102], [-3.84592, 50.6357], [-3.84838, 50.63444], [-3.84887, 50.63353], [-3.85037, 50.63232], [-3.85278, 50.63161], [-3.85445, 50.63164], [-3.85598, 50.63068], [-3.85774, 50.62896], [-3.8581, 50.62619], [-3.86056, 50.62582], [-3.86205, 50.62514], [-3.86426, 50.62344], [-3.86731, 50.61931], [-3.8698, 50.61689], [-3.87336, 50.6143], [-3.87913, 50.61616], [-3.88198, 50.63827], [-3.88532, 50.63987], [-3.88589, 50.64148], [-3.8868, 50.64173], [-3.8906, 50.64533], [-3.89608, 50.64635], [-3.90017, 50.64677], [-3.89519, 50.65299], [-3.89671, 50.65529], [-3.89777, 50.65838], [-3.89668, 50.66064], [-3.88954, 50.66843], [-3.88804, 50.66916], [-3.88452, 50.66989], [-3.88479, 50.67072], [-3.8775, 50.67175], [-3.87363, 50.67339], [-3.87111, 50.67125], [-3.86998, 50.67066], [-3.86856, 50.67039], [-3.86814, 50.67088], [-3.86716, 50.67096], [-3.8659, 50.67159], [-3.86531, 50.6722], [-3.86528, 50.67334], [-3.86383, 50.67412], [-3.86149, 50.67456], [-3.86043, 50.67398], [-3.85981, 50.67398], [-3.85847, 50.67517], [-3.85899, 50.67609], [-3.85812, 50.67702], [-3.85654, 50.67697], [-3.8559, 50.67515], [-3.85511, 50.67541], [-3.85335, 50.67475], [-3.85224, 50.67575], [-3.8502, 50.67652], [-3.8508, 50.67786], [-3.84945, 50.67829], [-3.84913, 50.67922], [-3.85019, 50.68091], [-3.85012, 50.68228], [-3.84775, 50.68596], [-3.84715, 50.68902], [-3.84466, 50.69128], [-3.84529, 50.69423], [-3.84491, 50.69717], [-3.8394, 50.69609], [-3.83868, 50.69547], [-3.83692, 50.69485], [-3.83555, 50.69294], [-3.83381, 50.69171], [-3.83304, 50.69161], [-3.83143, 50.69067], [-3.82923, 50.69069], [-3.82795, 50.68991], [-3.82597, 50.68993], [-3.82395, 50.68918], [-3.82071, 50.68906], [-3.81582, 50.69011], [-3.81282, 50.6901], [-3.81162, 50.69102]]]}}, {"type": "Feature", "properties": {"type": "postcode-cell", "postcode": "TQ13 8ET", "postcodes": ["TQ13 8ET"]}, "geometry": {"type": "Polygon", "coordinates": [[[-3.8781235675665475, 50.662792450603945], [-3.897342470044361, 50.659266438626304], [-3.896679990013526, 50.66063999468828], [-3.8895399900052605, 50.668429994694556], [-3.8880399900039437, 50.669159994695136], [-3.884519990001304, 50.66988999469578], [-3.8847899900011016, 50.67071999469645], [-3.8774999899958598, 50.671749994697365], [-3.877497405033585, 50.67175109021409], [-3.8781235675665475, 50.662792450603945]]]}}, {"type": "Feature", "properties": {"type": "postcode-cell", "postcode": "TQ13 8EY", "postcodes": ["TQ13 8EY"]}, "geometry": {"type": "Polygon", "coordinates": [[[-3.876914935436505, 50.65235654923704], [-3.8740959818751977, 50.645681826265054], [-3.888347697224313, 50.64319632648922], [-3.8905999900166317, 50.64532999467625], [-3.896079990019736, 50.64634999467696], [-3.900169990022217, 50.64676999467724], [-3.8951899900160862, 50.65298999468224], [-3.8967099900160167, 50.655289994684026], [-3.897635214750472, 50.65798713613791], [-3.876914935436505, 50.65235654923704]]]}}, {"type": "Feature", "properties": {"type": "postcode-cell", "postcode": "TQ13 8EX", "postcodes": ["TQ13 8EX"]}, "geometry": {"type": "Polygon", "coordinates": [[[-3.897635214750472, 50.65798713613791], [-3.897769990015283, 50.65837999468646], [-3.897342470044361, 50.659266438626304], [-3.8781235675665475, 50.662792450603945], [-3.87140856404585, 50.66209473139081], [-3.8684969555201785, 50.659668361693925], [-3.8694318265558354, 50.65584141506708], [-3.876914935436505, 50.65235654923704], [-3.897635214750472, 50.65798713613791]]]}}, {"type": "Feature", "properties": {"type": "postcode-cell", "postcode": "TQ13 8ES", "postcodes": ["TQ13 8ES"]}, "geometry": {"type": "Polygon", "coordinates": [[[-3.8781235675665475, 50.662792450603945], [-3.877497405033585, 50.67175109021409], [-3.873629989992571, 50.6733899946987], [-3.871109989991919, 50.67124999469705], [-3.8699799899914544, 50.67065999469659], [-3.868559989990654, 50.67038999469641], [-3.868139989990152, 50.67087999469681], [-3.8671599899894744, 50.670959994696894], [-3.866559186611295, 50.67126040016133], [-3.8663319114885883, 50.67101142010801], [-3.869196493020093, 50.66473808423143], [-3.87140856404585, 50.66209473139081], [-3.8781235675665475, 50.662792450603945]]]}}, {"type": "Feature", "properties": {"type": "postcode-cell", "postcode": "TQ13 8RN", "postcodes": ["TQ13 8RN"]}, "geometry": {"type": "Polygon", "coordinates": [[[-3.8679245847637116, 50.63832765866403], [-3.848664041834905, 50.63594609679791], [-3.847081035369225, 50.63510532765056], [-3.848379989994177, 50.634439994668334], [-3.848869989994917, 50.63352999466761], [-3.8503699899964556, 50.632319994666624], [-3.852779989998351, 50.63160999466603], [-3.8544499899994227, 50.63163999466602], [-3.855979990000863, 50.630679994665236], [-3.8577399900028073, 50.62895999466389], [-3.858099990004326, 50.62618999466167], [-3.860559990006096, 50.625819994661335], [-3.8620499900073817, 50.625139994660785], [-3.8642599900096073, 50.6234399946594], [-3.8673099900135095, 50.619309994656106], [-3.869799990016251, 50.61688999465416], [-3.8733599900197713, 50.61429999465205], [-3.8791299900226623, 50.616159994653415], [-3.880662812169981, 50.62805433572061], [-3.8679245847637116, 50.63832765866403]]]}}, {"type": "Feature", "properties": {"type": "postcode-cell", "postcode": "TQ13 8EA", "postcodes": ["TQ13 8EA"]}, "geometry": {"type": "Polygon", "coordinates": [[[-3.8740959818751977, 50.645681826265054], [-3.872574216900754, 50.64518288132518], [-3.8692256476618843, 50.64253946587922], [-3.8679245847637116, 50.63832765866403], [-3.880662812169981, 50.62805433572061], [-3.8819799900142753, 50.63826999467082], [-3.885319990015712, 50.63986999467203], [-3.885889990015338, 50.64147999467328], [-3.886799990015813, 50.641729994673454], [-3.888347697224313, 50.64319632648922], [-3.8740959818751977, 50.645681826265054]]]}}, {"type": "Feature", "properties": {"type": "postcode-cell", "postcode": "TQ13 8DZ", "postcodes": ["TQ13 8DZ"]}, "geometry": {"type": "Polygon", "coordinates": [[[-3.8694318265558354, 50.65584141506708], [-3.863452271953531, 50.651785850649304], [-3.872574216900754, 50.64518288132518], [-3.8740959818751977, 50.645681826265054], [-3.876914935436505, 50.65235654923704], [-3.8694318265558354, 50.65584141506708]]]}}, {"type": "Feature", "properties": {"type": "postcode-cell", "postcode": "TQ13 8HQ", "postcodes": ["TQ13 8HQ"]}, "geometry": {"type": "Polygon", "coordinates": [[[-3.854073308692753, 50.67310869951948], [-3.8588410118529173, 50.67484051261349], [-3.858469989981857, 50.67516999470036], [-3.85898998998177, 50.67608999470108], [-3.858119989980772, 50.67701999470182], [-3.8565399899797645, 50.67696999470182], [-3.855899989980188, 50.67514999470039], [-3.855109989979553, 50.675409994700594], [-3.8533499899787125, 50.6747499947001], [-3.8532099571530893, 50.674876153292196], [-3.854073308692753, 50.67310869951948]]]}}, {"type": "Feature", "properties": {"type": "postcode-cell", "postcode": "TQ13 8DY", "postcodes": ["TQ13 8DY"]}, "geometry": {"type": "Polygon", "coordinates": [[[-3.8684969555201785, 50.659668361693925], [-3.8597874584306373, 50.65990961855397], [-3.857919920266678, 50.65234459629693], [-3.858663128506572, 50.65133587998939], [-3.863452271953531, 50.651785850649304], [-3.8694318265558354, 50.65584141506708], [-3.8684969555201785, 50.659668361693925]]]}}, {"type": "Feature", "properties": {"type": "postcode-cell", "postcode": "TQ13 8EB", "postcodes": ["TQ13 8EB"]}, "geometry": {"type": "Polygon", "coordinates": [[[-3.872574216900754, 50.64518288132518], [-3.863452271953531, 50.651785850649304], [-3.858663128506572, 50.65133587998939], [-3.855027918456698, 50.647484857038215], [-3.8692256476618843, 50.64253946587922], [-3.872574216900754, 50.64518288132518]]]}}, {"type": "Feature", "properties": {"type": "postcode-cell", "postcode": "TQ13 8DU", "postcodes": ["TQ13 8DU"]}, "geometry": {"type": "Polygon", "coordinates": [[[-3.869196493020093, 50.66473808423143], [-3.859454585941907, 50.66495611723204], [-3.8588673066863084, 50.66023725736252], [-3.8597874584306373, 50.65990961855397], [-3.8684969555201785, 50.659668361693925], [-3.87140856404585, 50.66209473139081], [-3.869196493020093, 50.66473808423143]]]}}, {"type": "Feature", "properties": {"type": "postcode-cell", "postcode": "TQ13 8EF", "postcodes": ["TQ13 8EF"]}, "geometry": {"type": "Polygon", "coordinates": [[[-3.8692256476618843, 50.64253946587922], [-3.855027918456698, 50.647484857038215], [-3.8538754723205475, 50.64710618026848], [-3.848664041834905, 50.63594609679791], [-3.8679245847637116, 50.63832765866403], [-3.8692256476618843, 50.64253946587922]]]}}, {"type": "Feature", "properties": {"type": "postcode-cell", "postcode": "TQ13 8HG", "postcodes": ["TQ13 8HG"]}, "geometry": {"type": "Polygon", "coordinates": [[[-3.866559186611295, 50.67126040016133], [-3.865899989988359, 50.67158999469741], [-3.8653099899876944, 50.67219999469789], [-3.865279989987146, 50.673339994698814], [-3.8638299899858386, 50.67411999469944], [-3.86148998998411, 50.67455999469982], [-3.8604299899836847, 50.67397999469937], [-3.8598099899832827, 50.67397999469939], [-3.8588410118529173, 50.67484051261349], [-3.854073308692753, 50.67310869951948], [-3.854025568246921, 50.67203795954818], [-3.8568523410303026, 50.66900393664726], [-3.857188660902339, 50.66897397608239], [-3.8663319114885883, 50.67101142010801], [-3.866559186611295, 50.67126040016133]]]}}, {"type": "Feature", "properties": {"type": "postcode-cell", "postcode": "TQ13 8DX", "postcodes": ["TQ13 8DX"]}, "geometry": {"type": "Polygon", "coordinates": [[[-3.8663319114885883, 50.67101142010801], [-3.857188660902339, 50.66897397608239], [-3.859454585941907, 50.66495611723204], [-3.869196493020093, 50.66473808423143], [-3.8663319114885883, 50.67101142010801]]]}}, {"type": "Feature", "properties": {"type": "postcode-cell", "postcode": "TQ13 8DT", "postcodes": ["TQ13 8DT"]}, "geometry": {"type": "Polygon", "coordinates": [[[-3.859454585941907, 50.66495611723204], [-3.857188660902339, 50.66897397608239], [-3.8568523410303026, 50.66900393664726], [-3.8477891911679962, 50.66516906788391], [-3.8478405402680864, 50.660514935246795], [-3.8588673066863084, 50.66023725736252], [-3.859454585941907, 50.66495611723204]]]}}, {"type": "Feature", "properties": {"type": "postcode-cell", "postcode": "TQ13 8EQ", "postcodes": ["TQ13 8EQ"]}, "geometry": {"type": "Polygon", "coordinates": [[[-3.8538754723205475, 50.64710618026848], [-3.846401722569318, 50.64954571311014], [-3.839751051989637, 50.64902658660607], [-3.8417599899834687, 50.648229994679305], [-3.843579989985249, 50.64693999467825], [-3.8439299899862585, 50.645259994676934], [-3.8436099899870766, 50.643049994675195], [-3.845279989989107, 50.64101999467356], [-3.8459199899919954, 50.63569999466938], [-3.847081035369225, 50.63510532765056], [-3.848664041834905, 50.63594609679791], [-3.8538754723205475, 50.64710618026848]]]}}, {"type": "Feature", "properties": {"type": "postcode-cell", "postcode": "TQ13 8EE", "postcodes": ["TQ13 8EE"]}, "geometry": {"type": "Polygon", "coordinates": [[[-3.857919920266678, 50.65234459629693], [-3.8488133584496236, 50.65662278153308], [-3.846401722569318, 50.64954571311014], [-3.8538754723205475, 50.64710618026848], [-3.855027918456698, 50.647484857038215], [-3.858663128506572, 50.65133587998939], [-3.857919920266678, 50.65234459629693]]]}}, {"type": "Feature", "properties": {"type": "postcode-cell", "postcode": "TQ13 8ED", "postcodes": ["TQ13 8ED"]}, "geometry": {"type": "Polygon", "coordinates": [[[-3.8588673066863084, 50.66023725736252], [-3.8478405402680864, 50.660514935246795], [-3.8469849281344106, 50.65980403850222], [-3.8488133584496236, 50.65662278153308], [-3.857919920266678, 50.65234459629693], [-3.8597874584306373, 50.65990961855397], [-3.8588673066863084, 50.66023725736252]]]}}, {"type": "Feature", "properties": {"type": "postcode-cell", "postcode": "TQ13 8DE", "postcodes": ["TQ13 8DE"]}, "geometry": {"type": "Polygon", "coordinates": [[[-3.827443564053425, 50.68514244981524], [-3.8290898807519183, 50.684014608122844], [-3.8324973258804067, 50.68298348890004], [-3.843494324677171, 50.68457084839969], [-3.8476303540989987, 50.686570167632965], [-3.8471499899680603, 50.689019994711494], [-3.844659989965392, 50.691279994713334], [-3.8452899899644333, 50.69422999471565], [-3.8449099899628245, 50.69716999471799], [-3.839399989959732, 50.69608999471721], [-3.8386799899595516, 50.69546999471673], [-3.8369199899586888, 50.694849994716265], [-3.835549989958681, 50.69293999471478], [-3.8338099899581195, 50.69170999471382], [-3.833039989957666, 50.69160999471375], [-3.8314299899570514, 50.69066999471304], [-3.8292299899556106, 50.69068999471307], [-3.8286610815742796, 50.690343321164136], [-3.827443564053425, 50.68514244981524]]]}}, {"type": "Feature", "properties": {"type": "postcode-cell", "postcode": "TQ13 8HZ", "postcodes": ["TQ13 8HZ"]}, "geometry": {"type": "Polygon", "coordinates": [[[-3.8472230728503884, 50.672619499577266], [-3.846206269605784, 50.67408730062417], [-3.8436020703976923, 50.67345365413044], [-3.846003482797265, 50.67222707122432], [-3.847110195077867, 50.67198323828382], [-3.8473142761339774, 50.67214449509368], [-3.8472230728503884, 50.672619499577266]]]}}, {"type": "Feature", "properties": {"type": "postcode-cell", "postcode": "TQ13 8HF", "postcodes": ["TQ13 8HF"]}, "geometry": {"type": "Polygon", "coordinates": [[[-3.8473142761339774, 50.67214449509368], [-3.854025568246921, 50.67203795954818], [-3.854073308692753, 50.67310869951948], [-3.8532099571530893, 50.674876153292196], [-3.8522399899775266, 50.67574999470093], [-3.851591871800958, 50.6759946341035], [-3.8472230728503884, 50.672619499577266], [-3.8473142761339774, 50.67214449509368]]]}}, {"type": "Feature", "properties": {"type": "postcode-cell", "postcode": "TQ13 8DS", "postcodes": ["TQ13 8DS"]}, "geometry": {"type": "Polygon", "coordinates": [[[-3.8568523410303026, 50.66900393664726], [-3.854025568246921, 50.67203795954818], [-3.8473142761339774, 50.67214449509368], [-3.847110195077867, 50.67198323828382], [-3.84481137308715, 50.66844117619182], [-3.8454396715891868, 50.66676535584581], [-3.8477891911679962, 50.66516906788391], [-3.8568523410303026, 50.66900393664726]]]}}, {"type": "Feature", "properties": {"type": "postcode-cell", "postcode": "TQ13 8EG", "postcodes": ["TQ13 8EG"]}, "geometry": {"type": "Polygon", "coordinates": [[[-3.8469849281344106, 50.65980403850222], [-3.846453902422961, 50.65971420220177], [-3.8377769768423997, 50.65457288959464], [-3.836439479773404, 50.64977179145006], [-3.837749989980125, 50.64981999468062], [-3.839751051989637, 50.64902658660607], [-3.846401722569318, 50.64954571311014], [-3.8488133584496236, 50.65662278153308], [-3.8469849281344106, 50.65980403850222]]]}}, {"type": "Feature", "properties": {"type": "postcode-cell", "postcode": "TQ13 8HE", "postcodes": ["TQ13 8HE"]}, "geometry": {"type": "Polygon", "coordinates": [[[-3.8472230728503884, 50.672619499577266], [-3.851591871800958, 50.6759946341035], [-3.8501999899758403, 50.676519994701536], [-3.850799989975609, 50.67785999470261], [-3.8498455167972048, 50.67816401450566], [-3.8459277503974003, 50.67478091733399], [-3.846206269605784, 50.67408730062417], [-3.8472230728503884, 50.672619499577266]]]}}, {"type": "Feature", "properties": {"type": "postcode-cell", "postcode": "TQ13 8EJ", "postcodes": ["TQ13 8EJ"]}, "geometry": {"type": "Polygon", "coordinates": [[[-3.8478405402680864, 50.660514935246795], [-3.8477891911679962, 50.66516906788391], [-3.8454396715891868, 50.66676535584581], [-3.842313270752478, 50.66664194932687], [-3.835654398419697, 50.66580164419731], [-3.832265152445293, 50.66323563424073], [-3.8330192777669962, 50.66234839592755], [-3.846453902422961, 50.65971420220177], [-3.8469849281344106, 50.65980403850222], [-3.8478405402680864, 50.660514935246795]]]}}, {"type": "Feature", "properties": {"type": "postcode-cell", "postcode": "TQ13 8LA", "postcodes": ["TQ13 8LA"]}, "geometry": {"type": "Polygon", "coordinates": [[[-3.843494324677171, 50.68457084839969], [-3.841964325695218, 50.68171506527487], [-3.8419438770149235, 50.676485206065934], [-3.842752884322457, 50.67525774682978], [-3.8459277503974003, 50.67478091733399], [-3.8498455167972048, 50.67816401450566], [-3.849449989974531, 50.67828999470296], [-3.8491299899738936, 50.67921999470372], [-3.8501899899738006, 50.68090999470501], [-3.8501199899731198, 50.682279994706114], [-3.847749989969868, 50.68595999470906], [-3.8476303540989987, 50.686570167632965], [-3.843494324677171, 50.68457084839969]]]}}, {"type": "Feature", "properties": {"type": "postcode-cell", "postcode": "TQ13 8EN", "postcodes": ["TQ13 8EN"]}, "geometry": {"type": "MultiPolygon", "coordinates": [[[[-3.828832350858442, 50.64981413593609], [-3.8288099899747112, 50.64896999468011], [-3.829279989975499, 50.64792999467927], [-3.8302218628079023, 50.64766088837094], [-3.828832350858442, 50.64981413593609]]], [[[-3.824897790905821, 50.655910162638556], [-3.822747790982069, 50.65655890419541], [-3.8100945243155637, 50.65478666081523], [-3.809909989960018, 50.65418999468452], [-3.8107899899605635, 50.65423999468455], [-3.81169998996142, 50.653669994684094], [-3.81347998996271, 50.65337999468383], [-3.8142299899634056, 50.65292999468346], [-3.8141499899641143, 50.65129999468218], [-3.815979989965159, 50.65159999468238], [-3.817399989966173, 50.6513999946822], [-3.818519989966477, 50.65230999468291], [-3.8200299899675003, 50.65221999468281], [-3.820119989967813, 50.65166999468239], [-3.8206899899681286, 50.65178999468246], [-3.8219399899691253, 50.65138999468213], [-3.8238199899702474, 50.65159999468226], [-3.824509989970483, 50.6520499946826], [-3.826649989972007, 50.65176999468234], [-3.828130276663752, 50.65090202064743], [-3.824897790905821, 50.655910162638556]]]]}}, {"type": "Feature", "properties": {"type": "postcode-cell", "postcode": "TQ13 8AL", "postcodes": ["TQ13 8AL"]}, "geometry": {"type": "Polygon", "coordinates": [[[-3.842077136643359, 50.673687212845785], [-3.8431717842073576, 50.67314162535883], [-3.8435263561245634, 50.67345153074378], [-3.842666524486749, 50.675154929298685], [-3.842163931719529, 50.67476938444794], [-3.841871390023891, 50.67414673615513], [-3.842077136643359, 50.673687212845785]]]}}, {"type": "Feature", "properties": {"type": "postcode-cell", "postcode": "TQ13 8AW", "postcodes": ["TQ13 8AW"]}, "geometry": {"type": "Polygon", "coordinates": [[[-3.841871390023891, 50.67414673615513], [-3.840906643925859, 50.673658463426044], [-3.840870799649594, 50.67322062450744], [-3.8409486876373045, 50.67316855686362], [-3.8418797068659503, 50.673122368263854], [-3.842077136643359, 50.673687212845785], [-3.841871390023891, 50.67414673615513]]]}}, {"type": "Feature", "properties": {"type": "postcode-cell", "postcode": "TQ13 8AR", "postcodes": ["TQ13 8AR"]}, "geometry": {"type": "Polygon", "coordinates": [[[-3.846206269605784, 50.67408730062417], [-3.8459277503974003, 50.67478091733399], [-3.842752884322457, 50.67525774682978], [-3.842666524486749, 50.675154929298685], [-3.8435263561245634, 50.67345153074378], [-3.8436020703976923, 50.67345365413044], [-3.846206269605784, 50.67408730062417]]]}}, {"type": "Feature", "properties": {"type": "postcode-cell", "postcode": "TQ13 8BH", "postcodes": ["TQ13 8BH"]}, "geometry": {"type": "Polygon", "coordinates": [[[-3.846003482797265, 50.67222707122432], [-3.8431418392299017, 50.67271033839133], [-3.8423073271208263, 50.67238140590472], [-3.842790017200387, 50.67001101417754], [-3.844448223536337, 50.668643132125204], [-3.84481137308715, 50.66844117619182], [-3.847110195077867, 50.67198323828382], [-3.846003482797265, 50.67222707122432]]]}}, {"type": "Feature", "properties": {"type": "postcode-cell", "postcode": "TQ13 8AS", "postcodes": ["TQ13 8AS"]}, "geometry": {"type": "Polygon", "coordinates": [[[-3.846003482797265, 50.67222707122432], [-3.8436020703976923, 50.67345365413044], [-3.8435263561245634, 50.67345153074378], [-3.8431717842073576, 50.67314162535883], [-3.8431418392299017, 50.67271033839133], [-3.846003482797265, 50.67222707122432]]]}}, {"type": "Feature", "properties": {"type": "postcode-cell", "postcode": "TQ13 8AN", "postcodes": ["TQ13 8AN"]}, "geometry": {"type": "Polygon", "coordinates": [[[-3.8431717842073576, 50.67314162535883], [-3.842077136643359, 50.673687212845785], [-3.8418797068659503, 50.673122368263854], [-3.842234636261234, 50.672407797067095], [-3.8423073271208263, 50.67238140590472], [-3.8431418392299017, 50.67271033839133], [-3.8431717842073576, 50.67314162535883]]]}}, {"type": "Feature", "properties": {"type": "postcode-cell", "postcode": "TQ13 8BD", "postcodes": ["TQ13 8BD"]}, "geometry": {"type": "Polygon", "coordinates": [[[-3.841834976986438, 50.670405745982436], [-3.84068644279927, 50.67059340226814], [-3.837797751072721, 50.670528586409965], [-3.836910302789758, 50.66980529434805], [-3.844448223536337, 50.668643132125204], [-3.842790017200387, 50.67001101417754], [-3.841834976986438, 50.670405745982436]]]}}, {"type": "Feature", "properties": {"type": "postcode-cell", "postcode": "TQ13 8UB", "postcodes": ["TQ13 8UB"]}, "geometry": {"type": "Polygon", "coordinates": [[[-3.842790017200387, 50.67001101417754], [-3.8423073271208263, 50.67238140590472], [-3.842234636261234, 50.672407797067095], [-3.8412097037574076, 50.67244610180169], [-3.8407647094120323, 50.67230059328001], [-3.8406431985431473, 50.671961175535365], [-3.8406207782216186, 50.67165476801087], [-3.841834976986438, 50.670405745982436], [-3.842790017200387, 50.67001101417754]]]}}, {"type": "Feature", "properties": {"type": "postcode-cell", "postcode": "TQ13 8UT", "postcodes": ["TQ13 8UT"]}, "geometry": {"type": "Polygon", "coordinates": [[[-3.842163931719529, 50.67476938444794], [-3.8412469159969334, 50.67465494007093], [-3.8400604368060516, 50.67402150826245], [-3.8399748312154878, 50.673925454696644], [-3.8399777396288504, 50.6739096075266], [-3.840240772199543, 50.673723565146176], [-3.840906643925859, 50.673658463426044], [-3.841871390023891, 50.67414673615513], [-3.842163931719529, 50.67476938444794]]]}}, {"type": "Feature", "properties": {"type": "postcode-cell", "postcode": "TQ13 8BU", "postcodes": ["TQ13 8BU"]}, "geometry": {"type": "Polygon", "coordinates": [[[-3.842752884322457, 50.67525774682978], [-3.8419438770149235, 50.676485206065934], [-3.8399814358407105, 50.67576947601283], [-3.8396471378679164, 50.67527724997352], [-3.8399146458039533, 50.67467846445453], [-3.8399940824967214, 50.674664541110715], [-3.8412469159969334, 50.67465494007093], [-3.842163931719529, 50.67476938444794], [-3.842666524486749, 50.675154929298685], [-3.842752884322457, 50.67525774682978]]]}}, {"type": "Feature", "properties": {"type": "postcode-cell", "postcode": "TQ13 8AP", "postcodes": ["TQ13 8AP"]}, "geometry": {"type": "Polygon", "coordinates": [[[-3.8418797068659503, 50.673122368263854], [-3.8409486876373045, 50.67316855686362], [-3.8411760089056934, 50.67250895523209], [-3.8412097037574076, 50.67244610180169], [-3.842234636261234, 50.672407797067095], [-3.8418797068659503, 50.673122368263854]]]}}, {"type": "Feature", "properties": {"type": "postcode-cell", "postcode": "TQ13 8AQ", "postcodes": ["TQ13 8AQ"]}, "geometry": {"type": "Polygon", "coordinates": [[[-3.8409486876373045, 50.67316855686362], [-3.840870799649594, 50.67322062450744], [-3.840379094784422, 50.673077156126716], [-3.8402936094126394, 50.673032168450774], [-3.8411760089056934, 50.67250895523209], [-3.8409486876373045, 50.67316855686362]]]}}, {"type": "Feature", "properties": {"type": "postcode-cell", "postcode": "TQ13 8AH", "postcodes": ["TQ13 8AH"]}, "geometry": {"type": "Polygon", "coordinates": [[[-3.8411760089056934, 50.67250895523209], [-3.8402936094126394, 50.673032168450774], [-3.8402796311918306, 50.67302723084701], [-3.840051402017987, 50.67274437650268], [-3.8404914301742177, 50.672385011770345], [-3.8407647094120323, 50.67230059328001], [-3.8412097037574076, 50.67244610180169], [-3.8411760089056934, 50.67250895523209]]]}}, {"type": "Feature", "properties": {"type": "postcode-cell", "postcode": "TQ13 8BG", "postcodes": ["TQ13 8BG"]}, "geometry": {"type": "Polygon", "coordinates": [[[-3.844448223536337, 50.668643132125204], [-3.836910302789758, 50.66980529434805], [-3.836253140750374, 50.669587535646045], [-3.842313270752478, 50.66664194932687], [-3.8454396715891868, 50.66676535584581], [-3.84481137308715, 50.66844117619182], [-3.844448223536337, 50.668643132125204]]]}}, {"type": "Feature", "properties": {"type": "postcode-cell", "postcode": "TQ13 8AE", "postcodes": ["TQ13 8AE"]}, "geometry": {"type": "Polygon", "coordinates": [[[-3.840906643925859, 50.673658463426044], [-3.840240772199543, 50.673723565146176], [-3.8400934873283914, 50.67356108869246], [-3.840379094784422, 50.673077156126716], [-3.840870799649594, 50.67322062450744], [-3.840906643925859, 50.673658463426044]]]}}, {"type": "Feature", "properties": {"type": "postcode-cell", "postcode": "TQ13 8AA", "postcodes": ["TQ13 8AA"]}, "geometry": {"type": "Polygon", "coordinates": [[[-3.8402936094126394, 50.673032168450774], [-3.840379094784422, 50.673077156126716], [-3.8400934873283914, 50.67356108869246], [-3.8396776110775055, 50.67330977767111], [-3.8402796311918306, 50.67302723084701], [-3.8402936094126394, 50.673032168450774]]]}}, {"type": "Feature", "properties": {"type": "postcode-cell", "postcode": "TQ13 8BJ", "postcodes": ["TQ13 8BJ"]}, "geometry": {"type": "Polygon", "coordinates": [[[-3.8404914301742177, 50.672385011770345], [-3.839564981791822, 50.67218439683117], [-3.8396306019854545, 50.672058401017374], [-3.8406431985431473, 50.671961175535365], [-3.8407647094120323, 50.67230059328001], [-3.8404914301742177, 50.672385011770345]]]}}, {"type": "Feature", "properties": {"type": "postcode-cell", "postcode": "TQ13 8BT", "postcodes": ["TQ13 8BT"]}, "geometry": {"type": "Polygon", "coordinates": [[[-3.840240772199543, 50.673723565146176], [-3.8399777396288504, 50.6739096075266], [-3.839500452764671, 50.673767333729884], [-3.8395431400908246, 50.67329795171332], [-3.8396776110775055, 50.67330977767111], [-3.8400934873283914, 50.67356108869246], [-3.840240772199543, 50.673723565146176]]]}}, {"type": "Feature", "properties": {"type": "postcode-cell", "postcode": "TQ13 8AX", "postcodes": ["TQ13 8AX"]}, "geometry": {"type": "Polygon", "coordinates": [[[-3.8412469159969334, 50.67465494007093], [-3.8399940824967214, 50.674664541110715], [-3.8400604368060516, 50.67402150826245], [-3.8412469159969334, 50.67465494007093]]]}}, {"type": "Feature", "properties": {"type": "postcode-cell", "postcode": "TQ13 8DN", "postcodes": ["TQ13 8DN"]}, "geometry": {"type": "Polygon", "coordinates": [[[-3.8419438770149235, 50.676485206065934], [-3.841964325695218, 50.68171506527487], [-3.8376051951811716, 50.67806185412937], [-3.8375002383615766, 50.67674986348287], [-3.838589789444127, 50.67583587892634], [-3.8399814358407105, 50.67576947601283], [-3.8419438770149235, 50.676485206065934]]]}}, {"type": "Feature", "properties": {"type": "postcode-cell", "postcode": "TQ13 8AZ", "postcodes": ["TQ13 8AZ"]}, "geometry": {"type": "Polygon", "coordinates": [[[-3.8396471378679164, 50.67527724997352], [-3.839085238944345, 50.67509311681818], [-3.8389192916187724, 50.67496027795458], [-3.839138771431179, 50.6744245186986], [-3.839158340841217, 50.674424822991625], [-3.8399146458039533, 50.67467846445453], [-3.8396471378679164, 50.67527724997352]]]}}, {"type": "Feature", "properties": {"type": "postcode-cell", "postcode": "TQ13 8AJ", "postcodes": ["TQ13 8AJ"]}, "geometry": {"type": "Polygon", "coordinates": [[[-3.8404914301742177, 50.672385011770345], [-3.840051402017987, 50.67274437650268], [-3.839413567687159, 50.67273028025298], [-3.8390312491765974, 50.67254296674667], [-3.8392785842393544, 50.67231542520565], [-3.839564981791822, 50.67218439683117], [-3.8404914301742177, 50.672385011770345]]]}}, {"type": "Feature", "properties": {"type": "postcode-cell", "postcode": "TQ13 8AY", "postcodes": ["TQ13 8AY"]}, "geometry": {"type": "Polygon", "coordinates": [[[-3.8400604368060516, 50.67402150826245], [-3.8399940824967214, 50.674664541110715], [-3.8399146458039533, 50.67467846445453], [-3.839158340841217, 50.674424822991625], [-3.8399748312154878, 50.673925454696644], [-3.8400604368060516, 50.67402150826245]]]}}, {"type": "Feature", "properties": {"type": "postcode-cell", "postcode": "TQ13 8AB", "postcodes": ["TQ13 8AB"]}, "geometry": {"type": "Polygon", "coordinates": [[[-3.8402796311918306, 50.67302723084701], [-3.8396776110775055, 50.67330977767111], [-3.8395431400908246, 50.67329795171332], [-3.839468253772657, 50.673271309417764], [-3.839413567687159, 50.67273028025298], [-3.840051402017987, 50.67274437650268], [-3.8402796311918306, 50.67302723084701]]]}}, {"type": "Feature", "properties": {"type": "postcode-cell", "postcode": "TQ13 8SY", "postcodes": ["TQ13 8SY"]}, "geometry": {"type": "Polygon", "coordinates": [[[-3.8406431985431473, 50.671961175535365], [-3.8396306019854545, 50.672058401017374], [-3.8396513632870977, 50.67168007157584], [-3.8406207782216186, 50.67165476801087], [-3.8406431985431473, 50.671961175535365]]]}}, {"type": "Feature", "properties": {"type": "postcode-cell", "postcode": "TQ13 8BQ", "postcodes": ["TQ13 8BQ"]}, "geometry": {"type": "Polygon", "coordinates": [[[-3.8392401694814375, 50.671469510132674], [-3.84068644279927, 50.67059340226814], [-3.841834976986438, 50.670405745982436], [-3.8406207782216186, 50.67165476801087], [-3.8396513632870977, 50.67168007157584], [-3.8392401694814375, 50.671469510132674]]]}}, {"type": "Feature", "properties": {"type": "postcode-cell", "postcode": "TQ13 8BL", "postcodes": ["TQ13 8BL"]}, "geometry": {"type": "Polygon", "coordinates": [[[-3.8396513632870977, 50.67168007157584], [-3.8396306019854545, 50.672058401017374], [-3.839564981791822, 50.67218439683117], [-3.8392785842393544, 50.67231542520565], [-3.8387841809309315, 50.67144566417344], [-3.8392401694814375, 50.671469510132674], [-3.8396513632870977, 50.67168007157584]]]}}, {"type": "Feature", "properties": {"type": "postcode-cell", "postcode": "TQ13 8BN", "postcodes": ["TQ13 8BN"]}, "geometry": {"type": "Polygon", "coordinates": [[[-3.839413567687159, 50.67273028025298], [-3.839468253772657, 50.673271309417764], [-3.83861193264282, 50.67344896602778], [-3.8377618070116464, 50.67310012617478], [-3.8373592458107444, 50.67265998730131], [-3.8390312491765974, 50.67254296674667], [-3.839413567687159, 50.67273028025298]]]}}, {"type": "Feature", "properties": {"type": "postcode-cell", "postcode": "TQ13 8BB", "postcodes": ["TQ13 8BB"]}, "geometry": {"type": "Polygon", "coordinates": [[[-3.8392401694814375, 50.671469510132674], [-3.8387841809309315, 50.67144566417344], [-3.838113254362535, 50.67131153377347], [-3.837797751072721, 50.670528586409965], [-3.84068644279927, 50.67059340226814], [-3.8392401694814375, 50.671469510132674]]]}}, {"type": "Feature", "properties": {"type": "postcode-cell", "postcode": "TQ13 8ER", "postcodes": ["TQ13 8ER"]}, "geometry": {"type": "Polygon", "coordinates": [[[-3.835654398419697, 50.66580164419731], [-3.835204174525548, 50.66940751811903], [-3.831524905329423, 50.67114102887907], [-3.8271986776790126, 50.67042458355235], [-3.826316083144025, 50.66493350431401], [-3.832265152445293, 50.66323563424073], [-3.835654398419697, 50.66580164419731]]]}}, {"type": "Feature", "properties": {"type": "postcode-cell", "postcode": "TQ13 8EH", "postcodes": ["TQ13 8EH"]}, "geometry": {"type": "Polygon", "coordinates": [[[-3.846453902422961, 50.65971420220177], [-3.8330192777669962, 50.66234839592755], [-3.831425782645937, 50.65824109984914], [-3.8377769768423997, 50.65457288959464], [-3.846453902422961, 50.65971420220177]]]}}, {"type": "Feature", "properties": {"type": "postcode-cell", "postcode": "TQ13 8AU", "postcodes": ["TQ13 8AU"]}, "geometry": {"type": "Polygon", "coordinates": [[[-3.8399748312154878, 50.673925454696644], [-3.839158340841217, 50.674424822991625], [-3.839138771431179, 50.6744245186986], [-3.838764891904535, 50.67426267019463], [-3.83886045300127, 50.67381443886526], [-3.839500452764671, 50.673767333729884], [-3.8399777396288504, 50.6739096075266], [-3.8399748312154878, 50.673925454696644]]]}}, {"type": "Feature", "properties": {"type": "postcode-cell", "postcode": "TQ13 8BW", "postcodes": ["TQ13 8BW"]}, "geometry": {"type": "Polygon", "coordinates": [[[-3.837797751072721, 50.670528586409965], [-3.838113254362535, 50.67131153377347], [-3.837240736388617, 50.67261119580882], [-3.835763911353474, 50.67268793813498], [-3.835508779809499, 50.67267442832742], [-3.832383288709903, 50.671903613339296], [-3.83229963495141, 50.671880338620085], [-3.831524905329423, 50.67114102887907], [-3.835204174525548, 50.66940751811903], [-3.836253140750374, 50.669587535646045], [-3.836910302789758, 50.66980529434805], [-3.837797751072721, 50.670528586409965]]]}}, {"type": "Feature", "properties": {"type": "postcode-cell", "postcode": "TQ13 8AT", "postcodes": ["TQ13 8AT"]}, "geometry": {"type": "Polygon", "coordinates": [[[-3.839500452764671, 50.673767333729884], [-3.83886045300127, 50.67381443886526], [-3.83861193264282, 50.67344896602778], [-3.839468253772657, 50.673271309417764], [-3.8395431400908246, 50.67329795171332], [-3.839500452764671, 50.673767333729884]]]}}, {"type": "Feature", "properties": {"type": "postcode-cell", "postcode": "TQ13 8DW", "postcodes": ["TQ13 8DW"]}, "geometry": {"type": "Polygon", "coordinates": [[[-3.839138771431179, 50.6744245186986], [-3.8389192916187724, 50.67496027795458], [-3.8381892659796875, 50.675033503715966], [-3.837931401077022, 50.67470783688883], [-3.838434376796566, 50.67431096547807], [-3.838764891904535, 50.67426267019463], [-3.839138771431179, 50.6744245186986]]]}}, {"type": "Feature", "properties": {"type": "postcode-cell", "postcode": "TQ13 8DP", "postcodes": ["TQ13 8DP"]}, "geometry": {"type": "Polygon", "coordinates": [[[-3.8390312491765974, 50.67254296674667], [-3.8373592458107444, 50.67265998730131], [-3.837240736388617, 50.67261119580882], [-3.838113254362535, 50.67131153377347], [-3.8387841809309315, 50.67144566417344], [-3.8392785842393544, 50.67231542520565], [-3.8390312491765974, 50.67254296674667]]]}}, {"type": "Feature", "properties": {"type": "postcode-cell", "postcode": "TQ13 8BY", "postcodes": ["TQ13 8BY"]}, "geometry": {"type": "Polygon", "coordinates": [[[-3.8396471378679164, 50.67527724997352], [-3.8399814358407105, 50.67576947601283], [-3.838589789444127, 50.67583587892634], [-3.8384591444139406, 50.67561315823705], [-3.839085238944345, 50.67509311681818], [-3.8396471378679164, 50.67527724997352]]]}}, {"type": "Feature", "properties": {"type": "postcode-cell", "postcode": "TQ13 8FR", "postcodes": ["TQ13 8FR"]}, "geometry": {"type": "Polygon", "coordinates": [[[-3.8377618070116464, 50.67310012617478], [-3.8376551210542305, 50.67392837202249], [-3.8372497271477166, 50.6741426105684], [-3.836941529745187, 50.67415795840102], [-3.835763911353474, 50.67268793813498], [-3.837240736388617, 50.67261119580882], [-3.8373592458107444, 50.67265998730131], [-3.8377618070116464, 50.67310012617478]]]}}, {"type": "Feature", "properties": {"type": "postcode-cell", "postcode": "TQ13 8BX", "postcodes": ["TQ13 8BX"]}, "geometry": {"type": "Polygon", "coordinates": [[[-3.839085238944345, 50.67509311681818], [-3.8384591444139406, 50.67561315823705], [-3.838092325480823, 50.675298557622256], [-3.8381892659796875, 50.675033503715966], [-3.8389192916187724, 50.67496027795458], [-3.839085238944345, 50.67509311681818]]]}}, {"type": "Feature", "properties": {"type": "postcode-cell", "postcode": "TQ13 8DA", "postcodes": ["TQ13 8DA"]}, "geometry": {"type": "Polygon", "coordinates": [[[-3.841964325695218, 50.68171506527487], [-3.843494324677171, 50.68457084839969], [-3.8324973258804067, 50.68298348890004], [-3.8315893733383932, 50.68160076079578], [-3.8343833916174246, 50.67722502943721], [-3.8376051951811716, 50.67806185412937], [-3.841964325695218, 50.68171506527487]]]}}, {"type": "Feature", "properties": {"type": "postcode-cell", "postcode": "TQ13 8FG", "postcodes": ["TQ13 8FG"]}, "geometry": {"type": "Polygon", "coordinates": [[[-3.8384591444139406, 50.67561315823705], [-3.838589789444127, 50.67583587892634], [-3.8375002383615766, 50.67674986348287], [-3.8369648320273195, 50.67616174964877], [-3.836979154943489, 50.67610425036091], [-3.8375020072301758, 50.67538347897908], [-3.838092325480823, 50.675298557622256], [-3.8384591444139406, 50.67561315823705]]]}}, {"type": "Feature", "properties": {"type": "postcode-cell", "postcode": "TQ13 8BP", "postcodes": ["TQ13 8BP"]}, "geometry": {"type": "Polygon", "coordinates": [[[-3.83861193264282, 50.67344896602778], [-3.83886045300127, 50.67381443886526], [-3.838764891904535, 50.67426267019463], [-3.838434376796566, 50.67431096547807], [-3.8376551210542305, 50.67392837202249], [-3.8377618070116464, 50.67310012617478], [-3.83861193264282, 50.67344896602778]]]}}, {"type": "Feature", "properties": {"type": "postcode-cell", "postcode": "TQ13 8FQ", "postcodes": ["TQ13 8FQ"]}, "geometry": {"type": "Polygon", "coordinates": [[[-3.837931401077022, 50.67470783688883], [-3.8376526662227572, 50.674688753644354], [-3.8372497271477166, 50.6741426105684], [-3.8376551210542305, 50.67392837202249], [-3.838434376796566, 50.67431096547807], [-3.837931401077022, 50.67470783688883]]]}}, {"type": "Feature", "properties": {"type": "postcode-cell", "postcode": "TQ13 8FJ", "postcodes": ["TQ13 8FJ"]}, "geometry": {"type": "Polygon", "coordinates": [[[-3.838092325480823, 50.675298557622256], [-3.8375020072301758, 50.67538347897908], [-3.83701614294754, 50.67503414333545], [-3.8370137052789204, 50.67502025417762], [-3.837153582212722, 50.67484460063653], [-3.8376526662227572, 50.674688753644354], [-3.837931401077022, 50.67470783688883], [-3.8381892659796875, 50.675033503715966], [-3.838092325480823, 50.675298557622256]]]}}, {"type": "Feature", "properties": {"type": "postcode-cell", "postcode": "TQ13 8FN", "postcodes": ["TQ13 8FN"]}, "geometry": {"type": "Polygon", "coordinates": [[[-3.8376526662227572, 50.674688753644354], [-3.837153582212722, 50.67484460063653], [-3.8366891163105223, 50.67445364583597], [-3.8366663280953386, 50.6743314543191], [-3.836941529745187, 50.67415795840102], [-3.8372497271477166, 50.6741426105684], [-3.8376526662227572, 50.674688753644354]]]}}, {"type": "Feature", "properties": {"type": "postcode-cell", "postcode": "TQ13 8BE", "postcodes": ["TQ13 8BE"]}, "geometry": {"type": "Polygon", "coordinates": [[[-3.836253140750374, 50.669587535646045], [-3.835204174525548, 50.66940751811903], [-3.835654398419697, 50.66580164419731], [-3.842313270752478, 50.66664194932687], [-3.836253140750374, 50.669587535646045]]]}}, {"type": "Feature", "properties": {"type": "postcode-cell", "postcode": "TQ13 8FH", "postcodes": ["TQ13 8FH"]}, "geometry": {"type": "Polygon", "coordinates": [[[-3.8369648320273195, 50.67616174964877], [-3.834477742286107, 50.67549266785696], [-3.835228371131336, 50.675268101625434], [-3.836651766046243, 50.6753351589626], [-3.836979154943489, 50.67610425036091], [-3.8369648320273195, 50.67616174964877]]]}}, {"type": "Feature", "properties": {"type": "postcode-cell", "postcode": "TQ13 8FF", "postcodes": ["TQ13 8FF"]}, "geometry": {"type": "Polygon", "coordinates": [[[-3.836979154943489, 50.67610425036091], [-3.836651766046243, 50.6753351589626], [-3.83701614294754, 50.67503414333545], [-3.8375020072301758, 50.67538347897908], [-3.836979154943489, 50.67610425036091]]]}}, {"type": "Feature", "properties": {"type": "postcode-cell", "postcode": "TQ13 8HY", "postcodes": ["TQ13 8HY"]}, "geometry": {"type": "Polygon", "coordinates": [[[-3.8330192777669962, 50.66234839592755], [-3.832265152445293, 50.66323563424073], [-3.826316083144025, 50.66493350431401], [-3.822860384115348, 50.66397126495257], [-3.822747790982069, 50.65655890419541], [-3.824897790905821, 50.655910162638556], [-3.831425782645937, 50.65824109984914], [-3.8330192777669962, 50.66234839592755]]]}}, {"type": "Feature", "properties": {"type": "postcode-cell", "postcode": "TQ13 8EL", "postcodes": ["TQ13 8EL"]}, "geometry": {"type": "Polygon", "coordinates": [[[-3.8377769768423997, 50.65457288959464], [-3.831425782645937, 50.65824109984914], [-3.824897790905821, 50.655910162638556], [-3.828130276663752, 50.65090202064743], [-3.8288499899740365, 50.650479994681305], [-3.828832350858442, 50.64981413593609], [-3.8302218628079023, 50.64766088837094], [-3.8302599899762657, 50.647649994679036], [-3.8317499899771725, 50.64777999467912], [-3.8327599899773044, 50.64890999467999], [-3.8347599899782323, 50.649709994680585], [-3.836439479773404, 50.64977179145006], [-3.8377769768423997, 50.65457288959464]]]}}, {"type": "Feature", "properties": {"type": "postcode-cell", "postcode": "TQ13 8FP", "postcodes": ["TQ13 8FP"]}, "geometry": {"type": "Polygon", "coordinates": [[[-3.837153582212722, 50.67484460063653], [-3.8370137052789204, 50.67502025417762], [-3.8361251791302258, 50.6748817832734], [-3.8366891163105223, 50.67445364583597], [-3.837153582212722, 50.67484460063653]]]}}, {"type": "Feature", "properties": {"type": "postcode-cell", "postcode": "TQ13 8BZ", "postcodes": ["TQ13 8BZ"]}, "geometry": {"type": "Polygon", "coordinates": [[[-3.8375002383615766, 50.67674986348287], [-3.8376051951811716, 50.67806185412937], [-3.8343833916174246, 50.67722502943721], [-3.8331169308344855, 50.67636061475878], [-3.8328595383417112, 50.67579695171066], [-3.834409158101469, 50.675494828630164], [-3.834477742286107, 50.67549266785696], [-3.8369648320273195, 50.67616174964877], [-3.8375002383615766, 50.67674986348287]]]}}, {"type": "Feature", "properties": {"type": "postcode-cell", "postcode": "TQ13 8FL", "postcodes": ["TQ13 8FL"]}, "geometry": {"type": "Polygon", "coordinates": [[[-3.836651766046243, 50.6753351589626], [-3.835228371131336, 50.675268101625434], [-3.83594427831656, 50.67490736662325], [-3.8361251791302258, 50.6748817832734], [-3.8370137052789204, 50.67502025417762], [-3.83701614294754, 50.67503414333545], [-3.836651766046243, 50.6753351589626]]]}}, {"type": "Feature", "properties": {"type": "postcode-cell", "postcode": "TQ13 8FS", "postcodes": ["TQ13 8FS"]}, "geometry": {"type": "Polygon", "coordinates": [[[-3.835763911353474, 50.67268793813498], [-3.836941529745187, 50.67415795840102], [-3.8366663280953386, 50.6743314543191], [-3.8359979286304875, 50.67424182790315], [-3.8357876175774734, 50.67412145339964], [-3.835508779809499, 50.67267442832742], [-3.835763911353474, 50.67268793813498]]]}}, {"type": "Feature", "properties": {"type": "postcode-cell", "postcode": "TQ13 8FT", "postcodes": ["TQ13 8FT"]}, "geometry": {"type": "Polygon", "coordinates": [[[-3.8361251791302258, 50.6748817832734], [-3.83594427831656, 50.67490736662325], [-3.8359979286304875, 50.67424182790315], [-3.8366663280953386, 50.6743314543191], [-3.8366891163105223, 50.67445364583597], [-3.8361251791302258, 50.6748817832734]]]}}, {"type": "Feature", "properties": {"type": "postcode-cell", "postcode": "TQ13 8FU", "postcodes": ["TQ13 8FU"]}, "geometry": {"type": "Polygon", "coordinates": [[[-3.83594427831656, 50.67490736662325], [-3.835228371131336, 50.675268101625434], [-3.834477742286107, 50.67549266785696], [-3.834409158101469, 50.675494828630164], [-3.835239880440213, 50.67442489476968], [-3.8357876175774734, 50.67412145339964], [-3.8359979286304875, 50.67424182790315], [-3.83594427831656, 50.67490736662325]]]}}, {"type": "Feature", "properties": {"type": "postcode-cell", "postcode": "TQ13 8FX", "postcodes": ["TQ13 8FX"]}, "geometry": {"type": "Polygon", "coordinates": [[[-3.8357876175774734, 50.67412145339964], [-3.835239880440213, 50.67442489476968], [-3.832383288709903, 50.671903613339296], [-3.835508779809499, 50.67267442832742], [-3.8357876175774734, 50.67412145339964]]]}}, {"type": "Feature", "properties": {"type": "postcode-cell", "postcode": "TQ13 8DB", "postcodes": ["TQ13 8DB"]}, "geometry": {"type": "Polygon", "coordinates": [[[-3.8343833916174246, 50.67722502943721], [-3.8315893733383932, 50.68160076079578], [-3.82989756880884, 50.67981618234998], [-3.8331169308344855, 50.67636061475878], [-3.8343833916174246, 50.67722502943721]]]}}, {"type": "Feature", "properties": {"type": "postcode-cell", "postcode": "TQ13 8JE", "postcodes": ["TQ13 8JE"]}, "geometry": {"type": "Polygon", "coordinates": [[[-3.834409158101469, 50.675494828630164], [-3.8328595383417112, 50.67579695171066], [-3.832426833405596, 50.67556638588762], [-3.83229963495141, 50.671880338620085], [-3.832383288709903, 50.671903613339296], [-3.835239880440213, 50.67442489476968], [-3.834409158101469, 50.675494828630164]]]}}, {"type": "Feature", "properties": {"type": "postcode-cell", "postcode": "TQ13 8DD", "postcodes": ["TQ13 8DD"]}, "geometry": {"type": "Polygon", "coordinates": [[[-3.8331169308344855, 50.67636061475878], [-3.82989756880884, 50.67981618234998], [-3.829399758435101, 50.67953701274164], [-3.8282034987064555, 50.676323789948654], [-3.828630891358753, 50.67602158433149], [-3.832426833405596, 50.67556638588762], [-3.8328595383417112, 50.67579695171066], [-3.8331169308344855, 50.67636061475878]]]}}, {"type": "Feature", "properties": {"type": "postcode-cell", "postcode": "TQ13 8JF", "postcodes": ["TQ13 8JF"]}, "geometry": {"type": "Polygon", "coordinates": [[[-3.832426833405596, 50.67556638588762], [-3.828630891358753, 50.67602158433149], [-3.826946578891884, 50.67058203147084], [-3.8271986776790126, 50.67042458355235], [-3.831524905329423, 50.67114102887907], [-3.83229963495141, 50.671880338620085], [-3.832426833405596, 50.67556638588762]]]}}, {"type": "Feature", "properties": {"type": "postcode-cell", "postcode": "TQ13 8DR", "postcodes": ["TQ13 8DR"]}, "geometry": {"type": "Polygon", "coordinates": [[[-3.8324973258804067, 50.68298348890004], [-3.8290898807519183, 50.684014608122844], [-3.8196417617893927, 50.67929669961249], [-3.8196452392721305, 50.67886612424273], [-3.829399758435101, 50.67953701274164], [-3.82989756880884, 50.67981618234998], [-3.8315893733383932, 50.68160076079578], [-3.8324973258804067, 50.68298348890004]]]}}, {"type": "Feature", "properties": {"type": "postcode-cell", "postcode": "TQ13 8DL", "postcodes": ["TQ13 8DL"]}, "geometry": {"type": "Polygon", "coordinates": [[[-3.829399758435101, 50.67953701274164], [-3.8196452392721305, 50.67886612424273], [-3.819417864066456, 50.678417858261334], [-3.8226890593891776, 50.67642014639047], [-3.8282034987064555, 50.676323789948654], [-3.829399758435101, 50.67953701274164]]]}}, {"type": "Feature", "properties": {"type": "postcode-cell", "postcode": "TQ13 8LB", "postcodes": ["TQ13 8LB"]}, "geometry": {"type": "Polygon", "coordinates": [[[-3.8286610815742796, 50.690343321164136], [-3.8279499899551372, 50.68990999471249], [-3.8260406457070615, 50.689929281597024], [-3.8213173816926274, 50.68590565821421], [-3.827443564053425, 50.68514244981524], [-3.8286610815742796, 50.690343321164136]]]}}, {"type": "Feature", "properties": {"type": "postcode-cell", "postcode": "TQ13 8JG", "postcodes": ["TQ13 8JG"]}, "geometry": {"type": "Polygon", "coordinates": [[[-3.8282034987064555, 50.676323789948654], [-3.8226890593891776, 50.67642014639047], [-3.8244704238262366, 50.67144356090329], [-3.826946578891884, 50.67058203147084], [-3.828630891358753, 50.67602158433149], [-3.8282034987064555, 50.676323789948654]]]}}, {"type": "Feature", "properties": {"type": "postcode-cell", "postcode": "TQ13 8JH", "postcodes": ["TQ13 8JH"]}, "geometry": {"type": "Polygon", "coordinates": [[[-3.8244704238262366, 50.67144356090329], [-3.8132686977259826, 50.67089359742363], [-3.812870433202397, 50.670153530942976], [-3.820093741505216, 50.664302751467446], [-3.822860384115348, 50.66397126495257], [-3.826316083144025, 50.66493350431401], [-3.8271986776790126, 50.67042458355235], [-3.826946578891884, 50.67058203147084], [-3.8244704238262366, 50.67144356090329]]]}}, {"type": "Feature", "properties": {"type": "postcode-cell", "postcode": "TQ13 8JJ", "postcodes": ["TQ13 8JJ"]}, "geometry": {"type": "Polygon", "coordinates": [[[-3.8196452392721305, 50.67886612424273], [-3.8196417617893927, 50.67929669961249], [-3.8191181891704193, 50.68024442276483], [-3.81496619503937, 50.682075995206425], [-3.807761015020159, 50.68297629656114], [-3.8077499899453007, 50.68280999470717], [-3.8070299899453928, 50.68160999470624], [-3.803039204772683, 50.67876216736037], [-3.8120498634881153, 50.67521853630331], [-3.819417864066456, 50.678417858261334], [-3.8196452392721305, 50.67886612424273]]]}}, {"type": "Feature", "properties": {"type": "postcode-cell", "postcode": "TQ13 8DJ", "postcodes": ["TQ13 8DJ"]}, "geometry": {"type": "Polygon", "coordinates": [[[-3.8213173816926274, 50.68590565821421], [-3.8205299756829536, 50.68592645952674], [-3.8191181891704193, 50.68024442276483], [-3.8196417617893927, 50.67929669961249], [-3.8290898807519183, 50.684014608122844], [-3.827443564053425, 50.68514244981524], [-3.8213173816926274, 50.68590565821421]]]}}, {"type": "Feature", "properties": {"type": "postcode-cell", "postcode": "TQ13 8JN", "postcodes": ["TQ13 8JN"]}, "geometry": {"type": "Polygon", "coordinates": [[[-3.8183078655615907, 50.68719919850207], [-3.8205299756829536, 50.68592645952674], [-3.8213173816926274, 50.68590565821421], [-3.8260406457070615, 50.689929281597024], [-3.8259699899538404, 50.68992999471253], [-3.823949989952873, 50.689179994711964], [-3.8207099899508212, 50.689059994711926], [-3.816354375879329, 50.689995261483396], [-3.8183078655615907, 50.68719919850207]]]}}, {"type": "Feature", "properties": {"type": "postcode-cell", "postcode": "TQ13 8JQ", "postcodes": ["TQ13 8JQ"]}, "geometry": {"type": "Polygon", "coordinates": [[[-3.819417864066456, 50.678417858261334], [-3.8120498634881153, 50.67521853630331], [-3.8132686977259826, 50.67089359742363], [-3.8244704238262366, 50.67144356090329], [-3.8226890593891776, 50.67642014639047], [-3.819417864066456, 50.678417858261334]]]}}, {"type": "Feature", "properties": {"type": "postcode-cell", "postcode": "TQ13 8DQ", "postcodes": ["TQ13 8DQ"]}, "geometry": {"type": "Polygon", "coordinates": [[[-3.815605890245515, 50.68533303055897], [-3.81496619503937, 50.682075995206425], [-3.8191181891704193, 50.68024442276483], [-3.8205299756829536, 50.68592645952674], [-3.8183078655615907, 50.68719919850207], [-3.815605890245515, 50.68533303055897]]]}}, {"type": "Feature", "properties": {"type": "postcode-cell", "postcode": "TQ13 8DG", "postcodes": ["TQ13 8DG"]}, "geometry": {"type": "Polygon", "coordinates": [[[-3.815605890245515, 50.68533303055897], [-3.8183078655615907, 50.68719919850207], [-3.816354375879329, 50.689995261483396], [-3.8158199899471543, 50.69010999471282], [-3.812819989945207, 50.69009999471287], [-3.8116199899439986, 50.691019994713606], [-3.8109899899443453, 50.68938999471232], [-3.807869989944538, 50.6846199947086], [-3.8077738586232144, 50.68317002725306], [-3.815605890245515, 50.68533303055897]]]}}, {"type": "Feature", "properties": {"type": "postcode-cell", "postcode": "TQ13 8EW", "postcodes": ["TQ13 8EW"]}, "geometry": {"type": "Polygon", "coordinates": [[[-3.820093741505216, 50.664302751467446], [-3.810960962696178, 50.66010063342866], [-3.8110799899582584, 50.659599994688776], [-3.811999989959133, 50.65899999468828], [-3.811929989959207, 50.658749994688094], [-3.8096599899576207, 50.658989994688326], [-3.8079243512167507, 50.65870311806486], [-3.8070275378351854, 50.65829035348144], [-3.8058999899562496, 50.65669999468658], [-3.8046499899558044, 50.655909994685956], [-3.80682998995741, 50.6554999946856], [-3.809379989958985, 50.65566999468571], [-3.8102099899597586, 50.655159994685285], [-3.8100945243155637, 50.65478666081523], [-3.822747790982069, 50.65655890419541], [-3.822860384115348, 50.66397126495257], [-3.820093741505216, 50.664302751467446]]]}}, {"type": "Feature", "properties": {"type": "postcode-cell", "postcode": "TQ13 8EP", "postcodes": ["TQ13 8EP"]}, "geometry": {"type": "MultiPolygon", "coordinates": [[[[-3.8079243512167507, 50.65870311806486], [-3.807239989956236, 50.65858999468803], [-3.8070275378351854, 50.65829035348144], [-3.8079243512167507, 50.65870311806486]]], [[[-3.820093741505216, 50.664302751467446], [-3.812870433202397, 50.670153530942976], [-3.804266546831546, 50.66623149137445], [-3.8062399899524375, 50.6653599946934], [-3.8096599899549966, 50.66462999469276], [-3.809479989955685, 50.66289999469141], [-3.810399989956489, 50.66245999469106], [-3.810960962696178, 50.66010063342866], [-3.820093741505216, 50.664302751467446]]]]}}, {"type": "Feature", "properties": {"type": "postcode-cell", "postcode": "TQ13 8QQ", "postcodes": ["TQ13 8QQ"]}, "geometry": {"type": "Polygon", "coordinates": [[[-3.812870433202397, 50.670153530942976], [-3.8132686977259826, 50.67089359742363], [-3.8120498634881153, 50.67521853630331], [-3.803039204772683, 50.67876216736037], [-3.802839989944062, 50.678619994703936], [-3.7984799899416655, 50.677689994703265], [-3.7980799899422997, 50.67576999470175], [-3.7972199899421404, 50.67490999470108], [-3.799019989944125, 50.67315999469968], [-3.7994099899450275, 50.67175999469856], [-3.800589989946454, 50.670339994697436], [-3.80160998994739, 50.66974999469693], [-3.8015699899478403, 50.66872999469612], [-3.804529989950397, 50.66735999469502], [-3.8034999899500987, 50.6665699946944], [-3.804266546831546, 50.66623149137445], [-3.812870433202397, 50.670153530942976]]]}}, {"type": "Feature", "properties": {"type": "postcode-cell", "postcode": "TQ13 8JL", "postcodes": ["TQ13 8JL"]}, "geometry": {"type": "Polygon", "coordinates": [[[-3.815605890245515, 50.68533303055897], [-3.8077738586232144, 50.68317002725306], [-3.807761015020159, 50.68297629656114], [-3.81496619503937, 50.682075995206425], [-3.815605890245515, 50.68533303055897]]]}}]}