{"type": "FeatureCollection", "features": [{"type": "Feature", "properties": {"type": "ward-outline", "name": "Charterlands"}, "geometry": {"type": "MultiPolygon", "coordinates": [[[[-3.90179, 50.27792], [-3.90166, 50.27735], [-3.90288, 50.27787], [-3.90197, 50.27817], [-3.90179, 50.27792]]], [[[-3.8982, 50.28067], [-3.89689, 50.27915], [-3.89783, 50.27938], [-3.89786, 50.27907], [-3.89686, 50.27886], [-3.89788, 50.27876], [-3.89787, 50.27904], [-3.89857, 50.2788], [-3.89892, 50.27911], [-3.89908, 50.27866], [-3.89964, 50.27902], [-3.90016, 50.27876], [-3.89998, 50.27852], [-3.90004, 50.27854], [-3.90002, 50.2785], [-3.90007, 50.27851], [-3.90001, 50.27848], [-3.89994, 50.27837], [-3.90047, 50.27837], [-3.90007, 50.27796], [-3.90116, 50.27793], [-3.90114, 50.27772], [-3.90185, 50.27825], [-3.90109, 50.27856], [-3.90188, 50.2786], [-3.9022, 50.27937], [-3.90271, 50.27918], [-3.90294, 50.27999], [-3.90201, 50.27989], [-3.90237, 50.28026], [-3.90154, 50.28053], [-3.90054, 50.2804], [-3.90122, 50.28088], [-3.90066, 50.28115], [-3.89959, 50.28097], [-3.8982, 50.28067]]], [[[-3.85378, 50.30811], [-3.85374, 50.308], [-3.85379, 50.30801], [-3.85378, 50.30811]]], [[[-3.85468, 50.30904], [-3.85396, 50.30843], [-3.85437, 50.3086], [-3.85468, 50.30904]]], [[[-3.93827, 50.3291], [-3.9386, 50.3283], [-3.93865, 50.32872], [-3.93827, 50.3291]]], [[[-3.92926, 50.33438], [-3.93197, 50.33259], [-3.93265, 50.33246], [-3.93306, 50.33279], [-3.93363, 50.33268], [-3.93337, 50.33294], [-3.93409, 50.33281], [-3.93421, 50.33289], [-3.93455, 50.33314], [-3.93202, 50.33291], [-3.92926, 50.33438]]], [[[-3.92896, 50.33458], [-3.92908, 50.3345], [-3.92826, 50.33549], [-3.92896, 50.33458]]], [[[-3.92839, 50.33979], [-3.92641, 50.33976], [-3.92638, 50.33979], [-3.92638, 50.33978], [-3.92713, 50.33696], [-3.92742, 50.33658], [-3.92718, 50.33803], [-3.92839, 50.33979]]], [[[-3.92698, 50.34136], [-3.92687, 50.34107], [-3.9275, 50.3421], [-3.92698, 50.34136]]], [[[-3.92625, 50.34468], [-3.92665, 50.34453], [-3.92625, 50.34477], [-3.92625, 50.34468]]], [[[-3.84493, 50.37354], [-3.84428, 50.3724], [-3.84366, 50.37264], [-3.84356, 50.3722], [-3.84258, 50.37263], [-3.84158, 50.3726], [-3.83977, 50.37144], [-3.83708, 50.37193], [-3.83249, 50.37192], [-3.83093, 50.37002], [-3.82684, 50.3715], [-3.82561, 50.37247], [-3.82145, 50.37263], [-3.82095, 50.37077], [-3.82245, 50.369], [-3.82287, 50.36766], [-3.82428, 50.36624], [-3.82444, 50.36459], [-3.82294, 50.36221], [-3.8219, 50.35758], [-3.82285, 50.3554], [-3.82261, 50.35472], [-3.82586, 50.35364], [-3.82945, 50.35314], [-3.83143, 50.35228], [-3.83518, 50.35156], [-3.83851, 50.3504], [-3.84107, 50.35018], [-3.84459, 50.34892], [-3.84674, 50.3489], [-3.85011, 50.34822], [-3.8541, 50.35085], [-3.85526, 50.35048], [-3.85608, 50.35081], [-3.85861, 50.35076], [-3.85953, 50.34997], [-3.85864, 50.34883], [-3.85747, 50.3482], [-3.85893, 50.34768], [-3.86432, 50.34399], [-3.8658, 50.34146], [-3.86748, 50.34005], [-3.86696, 50.33431], [-3.86925, 50.33124], [-3.86435, 50.32993], [-3.85741, 50.33003], [-3.85695, 50.3292], [-3.85421, 50.32834], [-3.85351, 50.32724], [-3.85585, 50.32549], [-3.85323, 50.32442], [-3.85383, 50.32415], [-3.85396, 50.32307], [-3.85521, 50.32177], [-3.85408, 50.32053], [-3.85731, 50.31949], [-3.85671, 50.31886], [-3.85639, 50.31726], [-3.85765, 50.3151], [-3.85838, 50.3147], [-3.85803, 50.3139], [-3.85893, 50.31173], [-3.85848, 50.31103], [-3.85514, 50.30943], [-3.85472, 50.30907], [-3.85443, 50.30841], [-3.85408, 50.30835], [-3.85387, 50.30831], [-3.85392, 50.30814], [-3.854, 50.30788], [-3.85271, 50.30714], [-3.85194, 50.30665], [-3.85175, 50.3066], [-3.85127, 50.30632], [-3.85079, 50.30575], [-3.85107, 50.30493], [-3.85446, 50.30297], [-3.85471, 50.30258], [-3.85435, 50.30218], [-3.85939, 50.30081], [-3.86052, 50.30022], [-3.86215, 50.29826], [-3.8626, 50.29844], [-3.86303, 50.2982], [-3.86229, 50.29635], [-3.86266, 50.29485], [-3.86341, 50.2945], [-3.86256, 50.29412], [-3.86075, 50.29227], [-3.8605, 50.29142], [-3.86264, 50.29008], [-3.86491, 50.28935], [-3.86636, 50.28788], [-3.86735, 50.28784], [-3.8671, 50.28715], [-3.86778, 50.28624], [-3.8687, 50.28281], [-3.87097, 50.28126], [-3.87423, 50.28095], [-3.8754, 50.28139], [-3.87552, 50.28104], [-3.87605, 50.28109], [-3.87612, 50.28277], [-3.87659, 50.28355], [-3.87764, 50.28421], [-3.8798, 50.28463], [-3.88565, 50.28362], [-3.88759, 50.28242], [-3.88747, 50.28209], [-3.8895, 50.28184], [-3.89259, 50.28229], [-3.89385, 50.28172], [-3.89509, 50.28176], [-3.89561, 50.28249], [-3.89702, 50.28322], [-3.89674, 50.2835], [-3.89735, 50.28354], [-3.89697, 50.28428], [-3.89756, 50.28423], [-3.89794, 50.28469], [-3.8987, 50.28486], [-3.89801, 50.28506], [-3.89803, 50.28545], [-3.89833, 50.28536], [-3.89747, 50.28568], [-3.8976, 50.28605], [-3.89731, 50.28592], [-3.89666, 50.28632], [-3.89679, 50.28709], [-3.89799, 50.28806], [-3.89889, 50.28847], [-3.89995, 50.28862], [-3.90113, 50.28783], [-3.90327, 50.28985], [-3.90481, 50.29028], [-3.90532, 50.29011], [-3.90552, 50.29059], [-3.90771, 50.29021], [-3.90698, 50.29067], [-3.90752, 50.291], [-3.90703, 50.29115], [-3.90718, 50.29155], [-3.90764, 50.2914], [-3.9072, 50.2921], [-3.90898, 50.29254], [-3.90986, 50.2923], [-3.90921, 50.29288], [-3.90984, 50.29315], [-3.9092, 50.29346], [-3.90995, 50.29433], [-3.91094, 50.29455], [-3.9123, 50.29439], [-3.9132, 50.29479], [-3.91414, 50.29456], [-3.91419, 50.29481], [-3.91563, 50.2942], [-3.91566, 50.29426], [-3.91521, 50.29474], [-3.91674, 50.29573], [-3.91773, 50.29606], [-3.91859, 50.29613], [-3.9194, 50.2958], [-3.92009, 50.29625], [-3.92092, 50.29642], [-3.92177, 50.29592], [-3.92214, 50.29622], [-3.92186, 50.29662], [-3.92247, 50.297], [-3.92342, 50.29705], [-3.92486, 50.29666], [-3.92605, 50.29695], [-3.92691, 50.29644], [-3.92663, 50.2962], [-3.92724, 50.29656], [-3.92804, 50.29602], [-3.92869, 50.29616], [-3.92846, 50.29565], [-3.93005, 50.29621], [-3.93095, 50.29619], [-3.93361, 50.29502], [-3.93329, 50.29536], [-3.93524, 50.29583], [-3.9349, 50.29616], [-3.93523, 50.29644], [-3.93603, 50.29655], [-3.93672, 50.29614], [-3.93699, 50.29627], [-3.93698, 50.29629], [-3.93645, 50.29651], [-3.93718, 50.29666], [-3.93812, 50.29609], [-3.93809, 50.29612], [-3.93741, 50.29664], [-3.93869, 50.29748], [-3.94287, 50.29636], [-3.94367, 50.2959], [-3.94278, 50.29669], [-3.94294, 50.29701], [-3.94352, 50.29678], [-3.94327, 50.29692], [-3.94384, 50.29732], [-3.94449, 50.29701], [-3.94488, 50.29719], [-3.94501, 50.29731], [-3.94501, 50.29748], [-3.94462, 50.29781], [-3.94536, 50.29754], [-3.9445, 50.29807], [-3.94386, 50.29904], [-3.94361, 50.30107], [-3.94416, 50.30159], [-3.94494, 50.30182], [-3.9456, 50.30149], [-3.94741, 50.30173], [-3.94693, 50.30193], [-3.94742, 50.30211], [-3.94687, 50.30261], [-3.94723, 50.30245], [-3.94764, 50.30269], [-3.94714, 50.30298], [-3.94743, 50.30352], [-3.94717, 50.30403], [-3.94784, 50.30472], [-3.94689, 50.30516], [-3.94733, 50.30526], [-3.94685, 50.30565], [-3.94683, 50.30677], [-3.94509, 50.30727], [-3.944, 50.30803], [-3.94255, 50.30825], [-3.94296, 50.30991], [-3.9399, 50.31276], [-3.93957, 50.31396], [-3.93887, 50.3147], [-3.93859, 50.31638], [-3.93899, 50.31771], [-3.93764, 50.31837], [-3.93772, 50.31884], [-3.93655, 50.31918], [-3.93633, 50.32059], [-3.93476, 50.32318], [-3.93412, 50.32355], [-3.93187, 50.32372], [-3.92971, 50.32445], [-3.928, 50.32438], [-3.92874, 50.32509], [-3.92845, 50.32563], [-3.92566, 50.32751], [-3.92201, 50.32934], [-3.9216, 50.32967], [-3.92083, 50.33043], [-3.92054, 50.33094], [-3.92005, 50.33162], [-3.92011, 50.33205], [-3.92091, 50.33043], [-3.92158, 50.32984], [-3.92214, 50.32935], [-3.92623, 50.32735], [-3.92851, 50.32566], [-3.9316, 50.32501], [-3.9358, 50.32473], [-3.9361, 50.32502], [-3.93566, 50.32793], [-3.933, 50.33102], [-3.93071, 50.33282], [-3.93177, 50.3324], [-3.92929, 50.33391], [-3.92686, 50.33673], [-3.9261, 50.34001], [-3.92742, 50.34217], [-3.92639, 50.34346], [-3.92642, 50.3435], [-3.92644, 50.34352], [-3.92642, 50.34354], [-3.92646, 50.34355], [-3.92706, 50.34424], [-3.92603, 50.3446], [-3.92604, 50.34489], [-3.92601, 50.34491], [-3.92606, 50.34586], [-3.92481, 50.34716], [-3.92568, 50.34798], [-3.92599, 50.34835], [-3.92451, 50.34874], [-3.92471, 50.34997], [-3.9241, 50.35077], [-3.92147, 50.35037], [-3.91865, 50.35155], [-3.91722, 50.35127], [-3.91634, 50.3514], [-3.90412, 50.35772], [-3.8956, 50.36042], [-3.88929, 50.36355], [-3.87772, 50.36539], [-3.87097, 50.36779], [-3.86739, 50.37035], [-3.86618, 50.37222], [-3.8609, 50.37685], [-3.85851, 50.37802], [-3.84928, 50.38085], [-3.84823, 50.37906], [-3.8481, 50.37752], [-3.84621, 50.37681], [-3.84437, 50.37508], [-3.84416, 50.37425], [-3.84493, 50.37354]]]]}}, {"type": "Feature", "properties": {"type": "postcode-cell", "postcode": "TQ7 4EZ", "postcodes": ["TQ7 4EZ"]}, "geometry": {"type": "MultiPolygon", "coordinates": [[[[-3.9338622933428384, 50.33285110691925], [-3.93408999019025, 50.33280999443186], [-3.9342099901902907, 50.33288999443193], [-3.934549990190389, 50.3331399944321], [-3.9342401811438603, 50.33311183305969], [-3.9338622933428384, 50.33285110691925]]], [[[-3.9336177230052143, 50.332682361817874], [-3.933629990190016, 50.33267999443179], [-3.933623581005777, 50.33268640365661], [-3.9336177230052143, 50.332682361817874]]], [[[-3.9260313268115987, 50.32744714748332], [-3.926229990187757, 50.327349994427884], [-3.928509990190015, 50.32565999442651], [-3.931599990192301, 50.32500999442595], [-3.935799990195134, 50.32472999442563], [-3.9360999901951903, 50.325019994425844], [-3.935659990193542, 50.32792999442809], [-3.932999990190386, 50.33101999443053], [-3.932162521846637, 50.33167828727866], [-3.9260313268115987, 50.32744714748332]]], [[[-3.9243612387212288, 50.326294429940326], [-3.9253671161977564, 50.32355565124947], [-3.9376873109970427, 50.31864800533293], [-3.9377199901991253, 50.31883999442106], [-3.9365499901982144, 50.319179994421354], [-3.936329990197411, 50.32058999442243], [-3.93475999019519, 50.323179994424464], [-3.9341199901946045, 50.32354999442475], [-3.9318699901930807, 50.32371999442494], [-3.929709990191352, 50.324449994425564], [-3.9279999901902882, 50.32437999442553], [-3.9287399901904276, 50.32508999442608], [-3.928449990189992, 50.325629994426485], [-3.925893965459614, 50.327352341864874], [-3.9243612387212288, 50.326294429940326]]], [[[-3.9385999901952617, 50.32829999442831], [-3.9386499901950947, 50.32871999442861], [-3.9382699901946734, 50.32909999442892], [-3.9385999901952617, 50.32829999442831]]]]}}, {"type": "Feature", "properties": {"type": "postcode-cell", "postcode": "PL21 9NY", "postcodes": ["PL21 9NY"]}, "geometry": {"type": "MultiPolygon", "coordinates": [[[[-3.9108149256675904, 50.351081978855596], [-3.9108706697275406, 50.35046593713769], [-3.918463747856435, 50.341185277797784], [-3.926616926917364, 50.34085591675436], [-3.9274199901815785, 50.342169994439196], [-3.926389990180312, 50.34345999444023], [-3.9264199901803134, 50.34349999444025], [-3.926439990180317, 50.343519994440285], [-3.9264199901802934, 50.343539994440285], [-3.926459990180316, 50.343549994440295], [-3.9270599901803775, 50.34423999444082], [-3.9260299901795466, 50.34459999444111], [-3.9260399901794183, 50.344889994441324], [-3.926009990179389, 50.344909994441345], [-3.926059990178976, 50.34585999444208], [-3.9248099901775655, 50.34715999444311], [-3.9256799901777413, 50.34797999444374], [-3.925989990177764, 50.34834999444401], [-3.9245099901766323, 50.348739994444344], [-3.924709990176184, 50.34996999444526], [-3.9240999901754163, 50.35076999444588], [-3.921469990173914, 50.350369994445636], [-3.9186499901715477, 50.35154999444663], [-3.917219990170764, 50.35126999444643], [-3.916339990170136, 50.35139999444658], [-3.910989305733411, 50.3541676496376], [-3.9108149256675904, 50.351081978855596]]], [[[-3.92664999017998, 50.34452999444105], [-3.926249990179608, 50.34476999444124], [-3.9262499901796515, 50.34467999444118], [-3.92664999017998, 50.34452999444105]]], [[[-3.9268699901817397, 50.341069994438385], [-3.9274999901816616, 50.34209999443917], [-3.9269799901816747, 50.341359994438605], [-3.9268699901817397, 50.341069994438385]]]]}}, {"type": "Feature", "properties": {"type": "postcode-cell", "postcode": "TQ7 4QE", "postcodes": ["TQ7 4QE"]}, "geometry": {"type": "Polygon", "coordinates": [[[-3.923912085806796, 50.31656856979742], [-3.9231218442121367, 50.31761967760584], [-3.920265459324003, 50.31753275031194], [-3.918096726351516, 50.31607899576158], [-3.916709845968759, 50.31414839635569], [-3.9167099120008304, 50.31412064713948], [-3.9226640013049288, 50.31459267101818], [-3.923912085806796, 50.31656856979742]]]}}, {"type": "Feature", "properties": {"type": "postcode-cell", "postcode": "TQ7 4EX", "postcodes": ["TQ7 4EX"]}, "geometry": {"type": "Polygon", "coordinates": [[[-3.9226640013049288, 50.31459267101818], [-3.922126633819757, 50.31342964933649], [-3.9214795091203714, 50.31030152171562], [-3.946835331887637, 50.306470861612404], [-3.946829990210631, 50.30676999441161], [-3.9450899902092793, 50.307269994412025], [-3.9439999902082232, 50.308029994412614], [-3.9425499902071883, 50.308249994412826], [-3.9429599902066745, 50.30990999441408], [-3.9409973991083955, 50.31173794575281], [-3.923912085806796, 50.31656856979742], [-3.9226640013049288, 50.31459267101818]]]}}, {"type": "Feature", "properties": {"type": "postcode-cell", "postcode": "TQ7 4EY", "postcodes": ["TQ7 4EY"]}, "geometry": {"type": "Polygon", "coordinates": [[[-3.9253671161977564, 50.32355565124947], [-3.9231218442121367, 50.31761967760584], [-3.923912085806796, 50.31656856979742], [-3.9409973991083955, 50.31173794575281], [-3.9398999902033736, 50.31275999441636], [-3.939569990202599, 50.313959994417274], [-3.9388699902018023, 50.31469999441786], [-3.9385899902008337, 50.316379994419165], [-3.9389899902004704, 50.317709994420156], [-3.9376399901992927, 50.31836999442069], [-3.9376873109970427, 50.31864800533293], [-3.9253671161977564, 50.32355565124947]]]}}, {"type": "Feature", "properties": {"type": "postcode-cell", "postcode": "TQ7 4EU", "postcodes": ["TQ7 4EU"]}, "geometry": {"type": "Polygon", "coordinates": [[[-3.9214795091203714, 50.31030152171562], [-3.920578744946366, 50.309901380298136], [-3.9093646815004948, 50.30284476691072], [-3.9123720762618546, 50.298947268975546], [-3.9150378670151635, 50.29641927086123], [-3.9164451915983824, 50.29553924720293], [-3.91673999019651, 50.29572999440386], [-3.91772999019699, 50.2960599944041], [-3.9185899901975074, 50.296129994404104], [-3.9193999901981824, 50.29579999440385], [-3.920089990198411, 50.296249994404185], [-3.9209199901988607, 50.296419994404296], [-3.9217699901996417, 50.29591999440389], [-3.922139990199739, 50.29621999440408], [-3.921859990199371, 50.296619994404416], [-3.9224699901995836, 50.29699999440467], [-3.9234199902001694, 50.297049994404716], [-3.924859990201273, 50.29665999440437], [-3.926049990201901, 50.29694999440456], [-3.9269099902026916, 50.29643999440415], [-3.9266299902026254, 50.296199994403985], [-3.9272399902028465, 50.29655999440424], [-3.9280399902036134, 50.296019994403814], [-3.9286899902039627, 50.2961599944039], [-3.9284599902040536, 50.29564999440351], [-3.930049990204812, 50.2962099944039], [-3.930949990205399, 50.29618999440388], [-3.933609990207652, 50.29501999440291], [-3.9332899902072884, 50.295359994403185], [-3.9352399902083155, 50.29582999440347], [-3.9348999902079442, 50.29615999440374], [-3.9352299902080237, 50.29643999440394], [-3.9360299902084868, 50.29654999440403], [-3.936719990209123, 50.29613999440369], [-3.9369899902092333, 50.29626999440378], [-3.936979990209218, 50.29628999440381], [-3.936449990208775, 50.29650999440397], [-3.937179990209174, 50.29665999440408], [-3.9381199902100446, 50.29608999440361], [-3.938089990210011, 50.296119994403654], [-3.9374099902093276, 50.296639994404046], [-3.938689990209755, 50.29747999440467], [-3.9428699902129662, 50.29635999440372], [-3.9436699902136954, 50.29589999440336], [-3.9427799902127534, 50.29668999440396], [-3.942939990212706, 50.297009994404206], [-3.943519990213185, 50.296779994404005], [-3.9432699902129604, 50.29691999440414], [-3.9438399902131365, 50.297319994404425], [-3.9444899902137007, 50.29700999440417], [-3.9448799902138654, 50.29718999440429], [-3.9450099902138938, 50.2973099944044], [-3.9450099902138134, 50.2974799944045], [-3.9446199902134085, 50.29780999440477], [-3.9453599902140093, 50.29753999440455], [-3.9444999902132083, 50.29806999440499], [-3.9438599902123457, 50.299039994405724], [-3.9436099902112316, 50.3010699944073], [-3.94415999021134, 50.30158999440768], [-3.9449399902117355, 50.30181999440785], [-3.9455999902123113, 50.30148999440758], [-3.9474099902133637, 50.3017299944077], [-3.946929990212959, 50.301929994407864], [-3.947419990213193, 50.30210999440801], [-3.9468699902126065, 50.302609994408414], [-3.9472299902129104, 50.30244999440828], [-3.9476399902130606, 50.30268999440844], [-3.9471399902126056, 50.30297999440867], [-3.947429990212538, 50.30351999440908], [-3.947169990212131, 50.30402999440948], [-3.947839990212239, 50.30471999440999], [-3.9468899902114214, 50.30515999441036], [-3.9473299902116574, 50.305259994410406], [-3.946849990211168, 50.30564999441074], [-3.946835331887637, 50.306470861612404], [-3.9214795091203714, 50.31030152171562]]]}}, {"type": "Feature", "properties": {"type": "postcode-cell", "postcode": "TQ7 4QD", "postcodes": ["TQ7 4QD"]}, "geometry": {"type": "Polygon", "coordinates": [[[-3.922126633819757, 50.31342964933649], [-3.9171582668570504, 50.31347929947959], [-3.9171345425659916, 50.313146415444585], [-3.918947553187859, 50.31119044135223], [-3.920578744946366, 50.309901380298136], [-3.9214795091203714, 50.31030152171562], [-3.922126633819757, 50.31342964933649]]]}}, {"type": "Feature", "properties": {"type": "postcode-cell", "postcode": "TQ7 4HZ", "postcodes": ["TQ7 4HZ"]}, "geometry": {"type": "MultiPolygon", "coordinates": [[[[-3.9071854931866485, 50.29154819996248], [-3.9076399901927212, 50.29139999440078], [-3.9074998993180765, 50.291622868608904], [-3.9071854931866485, 50.29154819996248]]], [[[-3.9030568089631426, 50.290567573054744], [-3.8975570265892356, 50.28865522154456], [-3.8973296511204434, 50.287526226840846], [-3.897989990188125, 50.28805999439846], [-3.898889990188509, 50.28846999439874], [-3.8999499901891124, 50.28861999439882], [-3.9011299901902374, 50.2878299943982], [-3.9032699901906565, 50.28984999439969], [-3.9048099901914393, 50.2902799944], [-3.905319990191844, 50.290109994399835], [-3.905519990191747, 50.2905899944002], [-3.9077099901933257, 50.29020999439986], [-3.906979990192643, 50.29066999440023], [-3.9075199901928332, 50.29099999440048], [-3.9070299901924472, 50.291149994400584], [-3.907178713465905, 50.29154658982737], [-3.9030568089631426, 50.290567573054744]]]]}}, {"type": "Feature", "properties": {"type": "postcode-cell", "postcode": "TQ7 4HT", "postcodes": ["TQ7 4HT"]}, "geometry": {"type": "Polygon", "coordinates": [[[-3.907178713465905, 50.29154658982737], [-3.907179990192357, 50.291549994400896], [-3.9071854931866485, 50.29154819996248], [-3.9074998993180765, 50.291622868608904], [-3.9071999901921113, 50.292099994401305], [-3.9089799901930418, 50.29253999440162], [-3.9098599901937177, 50.292299994401404], [-3.90920999019303, 50.29287999440185], [-3.909839990193307, 50.29314999440205], [-3.9091999901927523, 50.29345999440231], [-3.9099499901928203, 50.29432999440296], [-3.910939990193353, 50.2945499944031], [-3.9122999901942976, 50.294389994402934], [-3.9131999901946837, 50.294789994403224], [-3.9141399901953973, 50.29455999440303], [-3.9141899901953088, 50.29480999440321], [-3.9156299901965173, 50.29419999440273], [-3.9156599901965086, 50.29425999440275], [-3.915209990195995, 50.29473999440314], [-3.9164451915983824, 50.29553924720293], [-3.9150378670151635, 50.29641927086123], [-3.899984814491985, 50.293208199480176], [-3.8962852796775693, 50.29060155564501], [-3.8972801999153117, 50.289670445866726], [-3.9030568089631426, 50.290567573054744], [-3.907178713465905, 50.29154658982737]]]}}, {"type": "Feature", "properties": {"type": "postcode-cell", "postcode": "TQ7 4QB", "postcodes": ["TQ7 4QB"]}, "geometry": {"type": "Polygon", "coordinates": [[[-3.9226640013049288, 50.31459267101818], [-3.9167099120008304, 50.31412064713948], [-3.9165620670307377, 50.31390279465847], [-3.9171582668570504, 50.31347929947959], [-3.922126633819757, 50.31342964933649], [-3.9226640013049288, 50.31459267101818]]]}}, {"type": "Feature", "properties": {"type": "postcode-cell", "postcode": "TQ7 4ES", "postcodes": ["TQ7 4ES"]}, "geometry": {"type": "Polygon", "coordinates": [[[-3.907488928918773, 50.32134992944441], [-3.8951329246983506, 50.320965473221115], [-3.899224304149035, 50.31315325245483], [-3.904707620577812, 50.316601498743175], [-3.9059906844219165, 50.318565266599144], [-3.907488928918773, 50.32134992944441]]]}}, {"type": "Feature", "properties": {"type": "postcode-cell", "postcode": "TQ7 4EP", "postcodes": ["TQ7 4EP"]}, "geometry": {"type": "Polygon", "coordinates": [[[-3.9059906844219165, 50.318565266599144], [-3.9105705285010277, 50.31622485062547], [-3.9111792767229967, 50.31636683528359], [-3.91153572124967, 50.32015985469901], [-3.908756214784314, 50.32213492582218], [-3.907488928918773, 50.32134992944441], [-3.9059906844219165, 50.318565266599144]]]}}, {"type": "Feature", "properties": {"type": "postcode-cell", "postcode": "TQ7 4PZ", "postcodes": ["TQ7 4PZ"]}, "geometry": {"type": "Polygon", "coordinates": [[[-3.918947553187859, 50.31119044135223], [-3.9163100903053087, 50.312681016494395], [-3.9122992203852744, 50.31283360469755], [-3.912022471589353, 50.312696729740985], [-3.9079908193605033, 50.30368222424611], [-3.9093646815004948, 50.30284476691072], [-3.920578744946366, 50.309901380298136], [-3.918947553187859, 50.31119044135223]]]}}, {"type": "Feature", "properties": {"type": "postcode-cell", "postcode": "TQ7 4HA", "postcodes": ["TQ7 4HA"]}, "geometry": {"type": "Polygon", "coordinates": [[[-3.9243612387212288, 50.326294429940326], [-3.914656063377672, 50.326676767855304], [-3.9091939131101667, 50.323133770030694], [-3.908756214784314, 50.32213492582218], [-3.91153572124967, 50.32015985469901], [-3.9143454080518443, 50.31854544583849], [-3.9145041679712147, 50.31848506830902], [-3.91536112941087, 50.31824439820456], [-3.920265459324003, 50.31753275031194], [-3.9231218442121367, 50.31761967760584], [-3.9253671161977564, 50.32355565124947], [-3.9243612387212288, 50.326294429940326]]]}}, {"type": "Feature", "properties": {"type": "postcode-cell", "postcode": "TQ7 4PY", "postcodes": ["TQ7 4PY"]}, "geometry": {"type": "Polygon", "coordinates": [[[-3.9171582668570504, 50.31347929947959], [-3.9165620670307377, 50.31390279465847], [-3.9132939725610387, 50.313204062485674], [-3.9123266732240287, 50.31285209685514], [-3.9122992203852744, 50.31283360469755], [-3.9163100903053087, 50.312681016494395], [-3.9171345425659916, 50.313146415444585], [-3.9171582668570504, 50.31347929947959]]]}}, {"type": "Feature", "properties": {"type": "postcode-cell", "postcode": "PL21 0TG", "postcodes": ["PL21 0TG"]}, "geometry": {"type": "MultiPolygon", "coordinates": [[[[-3.925893965459614, 50.327352341864874], [-3.9256599901873153, 50.327509994427984], [-3.922009990184116, 50.32933999442948], [-3.9215999901836986, 50.32966999442974], [-3.9208299901828463, 50.330429994430354], [-3.9205399901824176, 50.33093999443074], [-3.9200499901817882, 50.33161999443127], [-3.9201099901816248, 50.33204999443162], [-3.9209099901828988, 50.330429994430354], [-3.9215799901836053, 50.329839994429875], [-3.922139990184195, 50.329349994429485], [-3.9260313268115987, 50.32744714748332], [-3.932162521846637, 50.33167828727866], [-3.930709990188069, 50.332819994431944], [-3.9317699901889496, 50.33239999443161], [-3.929289990186647, 50.33390999443282], [-3.926859990183767, 50.33672999443503], [-3.9260999901817413, 50.34000999443758], [-3.926616926917364, 50.34085591675436], [-3.918463747856435, 50.341185277797784], [-3.9135532032778415, 50.33927328485068], [-3.9083783615206147, 50.33462944094377], [-3.914656063377672, 50.326676767855304], [-3.9243612387212288, 50.326294429940326], [-3.925893965459614, 50.327352341864874]]], [[[-3.933623581005777, 50.33268640365661], [-3.9333699901897266, 50.332939994431996], [-3.9338622933428384, 50.33285110691925], [-3.9342401811438603, 50.33311183305969], [-3.932019990188871, 50.33290999443201], [-3.9292599901864094, 50.334379994433185], [-3.931969990188989, 50.33258999443176], [-3.9326499901894887, 50.33245999443164], [-3.9330599901895984, 50.33278999443188], [-3.9336177230052143, 50.332682361817874], [-3.933623581005777, 50.33268640365661]]], [[[-3.926409990182059, 50.339759994437394], [-3.9263799901820273, 50.33978999443742], [-3.926379990182031, 50.33977999443741], [-3.9271299901838335, 50.336959994435205], [-3.927419990184197, 50.33657999443492], [-3.92717999018336, 50.33802999443602], [-3.9283899901833155, 50.33978999443737], [-3.926409990182059, 50.339759994437394]]], [[[-3.9290799901862368, 50.33449999443327], [-3.9282599901852464, 50.33548999443406], [-3.9289599901861227, 50.33457999443335], [-3.9290799901862368, 50.33449999443327]]]]}}, {"type": "Feature", "properties": {"type": "postcode-cell", "postcode": "TQ7 4QF", "postcodes": ["TQ7 4QF"]}, "geometry": {"type": "Polygon", "coordinates": [[[-3.91536112941087, 50.31824439820456], [-3.915148185014573, 50.317033847760825], [-3.915140490655534, 50.31693257231993], [-3.9153787525106862, 50.31529517585053], [-3.9156382482048104, 50.31516912746129], [-3.918096726351516, 50.31607899576158], [-3.920265459324003, 50.31753275031194], [-3.91536112941087, 50.31824439820456]]]}}, {"type": "Feature", "properties": {"type": "postcode-cell", "postcode": "TQ7 4QA", "postcodes": ["TQ7 4QA"]}, "geometry": {"type": "Polygon", "coordinates": [[[-3.918947553187859, 50.31119044135223], [-3.9171345425659916, 50.313146415444585], [-3.9163100903053087, 50.312681016494395], [-3.918947553187859, 50.31119044135223]]]}}, {"type": "Feature", "properties": {"type": "postcode-cell", "postcode": "TQ7 4PU", "postcodes": ["TQ7 4PU"]}, "geometry": {"type": "Polygon", "coordinates": [[[-3.916709845968759, 50.31414839635569], [-3.9156252470118926, 50.315084180143096], [-3.9132939725610387, 50.313204062485674], [-3.9165620670307377, 50.31390279465847], [-3.9167099120008304, 50.31412064713948], [-3.916709845968759, 50.31414839635569]]]}}, {"type": "Feature", "properties": {"type": "postcode-cell", "postcode": "TQ7 4PX", "postcodes": ["TQ7 4PX"]}, "geometry": {"type": "Polygon", "coordinates": [[[-3.918096726351516, 50.31607899576158], [-3.9156382482048104, 50.31516912746129], [-3.9156252470118926, 50.315084180143096], [-3.916709845968759, 50.31414839635569], [-3.918096726351516, 50.31607899576158]]]}}, {"type": "Feature", "properties": {"type": "postcode-cell", "postcode": "TQ7 4PH", "postcodes": ["TQ7 4PH"]}, "geometry": {"type": "Polygon", "coordinates": [[[-3.9132939725610387, 50.313204062485674], [-3.9156252470118926, 50.315084180143096], [-3.9156382482048104, 50.31516912746129], [-3.9153787525106862, 50.31529517585053], [-3.9150668772308674, 50.31533407157029], [-3.9131042492947175, 50.31430228643318], [-3.9123266732240287, 50.31285209685514], [-3.9132939725610387, 50.313204062485674]]]}}, {"type": "Feature", "properties": {"type": "postcode-cell", "postcode": "TQ7 4ET", "postcodes": ["TQ7 4ET"]}, "geometry": {"type": "Polygon", "coordinates": [[[-3.912022471589353, 50.312696729740985], [-3.9105423397499126, 50.314314442911545], [-3.9098287699740375, 50.314695954973445], [-3.904707620577812, 50.316601498743175], [-3.899224304149035, 50.31315325245483], [-3.8990766904500056, 50.31288362375657], [-3.906624189979711, 50.304140480349304], [-3.9079908193605033, 50.30368222424611], [-3.912022471589353, 50.312696729740985]]]}}, {"type": "Feature", "properties": {"type": "postcode-cell", "postcode": "TQ7 4PN", "postcodes": ["TQ7 4PN"]}, "geometry": {"type": "Polygon", "coordinates": [[[-3.915148185014573, 50.317033847760825], [-3.9140824487199204, 50.3154947768605], [-3.914600796226521, 50.3155053864664], [-3.915140490655534, 50.31693257231993], [-3.915148185014573, 50.317033847760825]]]}}, {"type": "Feature", "properties": {"type": "postcode-cell", "postcode": "TQ7 4PL", "postcodes": ["TQ7 4PL"]}, "geometry": {"type": "Polygon", "coordinates": [[[-3.914600796226521, 50.3155053864664], [-3.9150668772308674, 50.31533407157029], [-3.9153787525106862, 50.31529517585053], [-3.915140490655534, 50.31693257231993], [-3.914600796226521, 50.3155053864664]]]}}, {"type": "Feature", "properties": {"type": "postcode-cell", "postcode": "TQ7 4PW", "postcodes": ["TQ7 4PW"]}, "geometry": {"type": "Polygon", "coordinates": [[[-3.91536112941087, 50.31824439820456], [-3.9145041679712147, 50.31848506830902], [-3.9135543750543715, 50.31541075019111], [-3.9140824487199204, 50.3154947768605], [-3.915148185014573, 50.317033847760825], [-3.91536112941087, 50.31824439820456]]]}}, {"type": "Feature", "properties": {"type": "postcode-cell", "postcode": "TQ7 4PJ", "postcodes": ["TQ7 4PJ"]}, "geometry": {"type": "Polygon", "coordinates": [[[-3.914600796226521, 50.3155053864664], [-3.9140824487199204, 50.3154947768605], [-3.9135543750543715, 50.31541075019111], [-3.9134870473400407, 50.31536839110855], [-3.9131042492947175, 50.31430228643318], [-3.9150668772308674, 50.31533407157029], [-3.914600796226521, 50.3155053864664]]]}}, {"type": "Feature", "properties": {"type": "postcode-cell", "postcode": "TQ7 4PP", "postcodes": ["TQ7 4PP"]}, "geometry": {"type": "Polygon", "coordinates": [[[-3.9134870473400407, 50.31536839110855], [-3.912983788349, 50.3156675420082], [-3.9117167039594682, 50.315800541783005], [-3.9105423397499126, 50.314314442911545], [-3.912022471589353, 50.312696729740985], [-3.9122992203852744, 50.31283360469755], [-3.9123266732240287, 50.31285209685514], [-3.9131042492947175, 50.31430228643318], [-3.9134870473400407, 50.31536839110855]]]}}, {"type": "Feature", "properties": {"type": "postcode-cell", "postcode": "TQ7 4LU", "postcodes": ["TQ7 4LU"]}, "geometry": {"type": "Polygon", "coordinates": [[[-3.9134870473400407, 50.31536839110855], [-3.9135543750543715, 50.31541075019111], [-3.9145041679712147, 50.31848506830902], [-3.9143454080518443, 50.31854544583849], [-3.912773763804021, 50.31656250468836], [-3.912983788349, 50.3156675420082], [-3.9134870473400407, 50.31536839110855]]]}}, {"type": "Feature", "properties": {"type": "postcode-cell", "postcode": "TQ7 4PT", "postcodes": ["TQ7 4PT"]}, "geometry": {"type": "Polygon", "coordinates": [[[-3.9143454080518443, 50.31854544583849], [-3.91153572124967, 50.32015985469901], [-3.9111792767229967, 50.31636683528359], [-3.9117269163845605, 50.31591339615554], [-3.912773763804021, 50.31656250468836], [-3.9143454080518443, 50.31854544583849]]]}}, {"type": "Feature", "properties": {"type": "postcode-cell", "postcode": "TQ7 4PF", "postcodes": ["TQ7 4PF"]}, "geometry": {"type": "Polygon", "coordinates": [[[-3.9117269163845605, 50.31591339615554], [-3.9117167039594682, 50.315800541783005], [-3.912983788349, 50.3156675420082], [-3.912773763804021, 50.31656250468836], [-3.9117269163845605, 50.31591339615554]]]}}, {"type": "Feature", "properties": {"type": "postcode-cell", "postcode": "TQ7 4PR", "postcodes": ["TQ7 4PR"]}, "geometry": {"type": "Polygon", "coordinates": [[[-3.9105423397499126, 50.314314442911545], [-3.9117167039594682, 50.315800541783005], [-3.9117269163845605, 50.31591339615554], [-3.9111792767229967, 50.31636683528359], [-3.9105705285010277, 50.31622485062547], [-3.9098287699740375, 50.314695954973445], [-3.9105423397499126, 50.314314442911545]]]}}, {"type": "Feature", "properties": {"type": "postcode-cell", "postcode": "PL21 0TQ", "postcodes": ["PL21 0TQ"]}, "geometry": {"type": "Polygon", "coordinates": [[[-3.914656063377672, 50.326676767855304], [-3.9083783615206147, 50.33462944094377], [-3.890273201574341, 50.33303159479537], [-3.888984861391858, 50.33134579393686], [-3.9091939131101667, 50.323133770030694], [-3.914656063377672, 50.326676767855304]]]}}, {"type": "Feature", "properties": {"type": "postcode-cell", "postcode": "TQ7 4HB", "postcodes": ["TQ7 4HB"]}, "geometry": {"type": "Polygon", "coordinates": [[[-3.9091939131101667, 50.323133770030694], [-3.888984861391858, 50.33134579393686], [-3.8880256275476057, 50.330655387562786], [-3.8901298558999904, 50.32325010382011], [-3.8951329246983506, 50.320965473221115], [-3.907488928918773, 50.32134992944441], [-3.908756214784314, 50.32213492582218], [-3.9091939131101667, 50.323133770030694]]]}}, {"type": "Feature", "properties": {"type": "postcode-cell", "postcode": "PL21 0TF", "postcodes": ["PL21 0TF"]}, "geometry": {"type": "Polygon", "coordinates": [[[-3.918463747856435, 50.341185277797784], [-3.9108706697275406, 50.35046593713769], [-3.8994197187266413, 50.344462395554096], [-3.9135532032778415, 50.33927328485068], [-3.918463747856435, 50.341185277797784]]]}}, {"type": "Feature", "properties": {"type": "postcode-cell", "postcode": "TQ7 4PS", "postcodes": ["TQ7 4PS"]}, "geometry": {"type": "Polygon", "coordinates": [[[-3.9059906844219165, 50.318565266599144], [-3.904707620577812, 50.316601498743175], [-3.9098287699740375, 50.314695954973445], [-3.9105705285010277, 50.31622485062547], [-3.9059906844219165, 50.318565266599144]]]}}, {"type": "Feature", "properties": {"type": "postcode-cell", "postcode": "TQ7 4HR", "postcodes": ["TQ7 4HR"]}, "geometry": {"type": "Polygon", "coordinates": [[[-3.9123720762618546, 50.298947268975546], [-3.89926677721655, 50.296998261088945], [-3.895325198621547, 50.295992920153815], [-3.8935387421500485, 50.294851867218746], [-3.8933101403701627, 50.29365102694031], [-3.899984814491985, 50.293208199480176], [-3.9150378670151635, 50.29641927086123], [-3.9123720762618546, 50.298947268975546]]]}}, {"type": "Feature", "properties": {"type": "postcode-cell", "postcode": "PL21 0TD", "postcodes": ["PL21 0TD"]}, "geometry": {"type": "Polygon", "coordinates": [[[-3.9108149256675904, 50.351081978855596], [-3.897296434569711, 50.3487223829675], [-3.8970294671795584, 50.346756588718996], [-3.898802993232945, 50.34444986025221], [-3.8994197187266413, 50.344462395554096], [-3.9108706697275406, 50.35046593713769], [-3.9108149256675904, 50.351081978855596]]]}}, {"type": "Feature", "properties": {"type": "postcode-cell", "postcode": "PL21 0TH", "postcodes": ["PL21 0TH"]}, "geometry": {"type": "Polygon", "coordinates": [[[-3.9135532032778415, 50.33927328485068], [-3.8994197187266413, 50.344462395554096], [-3.898802993232945, 50.34444986025221], [-3.8893418623191023, 50.33687003954712], [-3.890273201574341, 50.33303159479537], [-3.9083783615206147, 50.33462944094377], [-3.9135532032778415, 50.33927328485068]]]}}, {"type": "Feature", "properties": {"type": "postcode-cell", "postcode": "PL21 0TB", "postcodes": ["PL21 0TB"]}, "geometry": {"type": "Polygon", "coordinates": [[[-3.910989305733411, 50.3541676496376], [-3.9041199901593244, 50.3577199944517], [-3.903115520547161, 50.35803836040024], [-3.8983987828607365, 50.35556206699439], [-3.897272262734335, 50.35068945791842], [-3.8971392494003525, 50.34960178982814], [-3.897296434569711, 50.3487223829675], [-3.9108149256675904, 50.351081978855596], [-3.910989305733411, 50.3541676496376]]]}}, {"type": "Feature", "properties": {"type": "postcode-cell", "postcode": "PL21 0SS", "postcodes": ["PL21 0SS"]}, "geometry": {"type": "Polygon", "coordinates": [[[-3.888984861391858, 50.33134579393686], [-3.890273201574341, 50.33303159479537], [-3.8893418623191023, 50.33687003954712], [-3.8887654306701265, 50.33732973573955], [-3.868700141885531, 50.342705899346896], [-3.865623405909484, 50.34176187282962], [-3.8657999901424147, 50.34145999444012], [-3.867479990144153, 50.34004999443895], [-3.8669599901465235, 50.334309994434584], [-3.8682305065141738, 50.33260677932556], [-3.885982098041558, 50.33038609058976], [-3.8880256275476057, 50.330655387562786], [-3.888984861391858, 50.33134579393686]]]}}, {"type": "Feature", "properties": {"type": "postcode-cell", "postcode": "TQ7 4JB", "postcodes": ["TQ7 4JB"]}, "geometry": {"type": "Polygon", "coordinates": [[[-3.8975570265892356, 50.28865522154456], [-3.8972801999153117, 50.289670445866726], [-3.8962852796775693, 50.29060155564501], [-3.8868174739864396, 50.29012061721172], [-3.8883764145336324, 50.288782833121104], [-3.8912048018973953, 50.28800588357685], [-3.896761597921851, 50.28692182713912], [-3.896789990187816, 50.28708999439773], [-3.8973296511204434, 50.287526226840846], [-3.8975570265892356, 50.28865522154456]]]}}, {"type": "Feature", "properties": {"type": "postcode-cell", "postcode": "TQ7 4BG", "postcodes": ["TQ7 4BG"]}, "geometry": {"type": "MultiPolygon", "coordinates": [[[[-3.8968899901916174, 50.27914999439167], [-3.8978299901921107, 50.27937999439184], [-3.897859990192274, 50.2790699943916], [-3.896859990191736, 50.27885999439146], [-3.897879990192435, 50.278759994391336], [-3.897869990192296, 50.27903999439156], [-3.898569990192854, 50.278799994391385], [-3.8989199901929332, 50.279109994391604], [-3.8990799901932465, 50.278659994391255], [-3.8996399901934353, 50.27901999439152], [-3.900159990193891, 50.27875999439129], [-3.8999799901938883, 50.27851999439111], [-3.9000399901939162, 50.27853999439114], [-3.900019990193923, 50.278499994391105], [-3.9000699901939506, 50.278509994391115], [-3.900009990193926, 50.2784799943911], [-3.899939990193933, 50.278369994391014], [-3.900469990194272, 50.278369994390985], [-3.900069990194211, 50.27795999439069], [-3.9011599901949197, 50.27792999439065], [-3.9011399901950057, 50.27771999439048], [-3.9018499901952097, 50.278249994390876], [-3.90108999019458, 50.27855999439112], [-3.9018799901950643, 50.278599994391136], [-3.9021999901949065, 50.27936999439172], [-3.9027099901953206, 50.27917999439157], [-3.902939990195085, 50.27998999439219], [-3.90200999019454, 50.2798899943921], [-3.902369990194595, 50.28025999439239], [-3.901539990193939, 50.28052999439261], [-3.90053999019336, 50.28039999439252], [-3.9012199901935696, 50.2808799943929], [-3.900659990193084, 50.281149994393104], [-3.899589990192486, 50.280969994393], [-3.8981999901917397, 50.28066999439281], [-3.8968899901916174, 50.27914999439167]]], [[[-3.9016599901955114, 50.27734999439018], [-3.902879990196046, 50.27786999439055], [-3.9019699901953233, 50.27816999439081], [-3.901789990195323, 50.277919994390615], [-3.9016599901955114, 50.27734999439018]]]]}}, {"type": "Feature", "properties": {"type": "postcode-cell", "postcode": "PL21 0TA", "postcodes": ["PL21 0TA"]}, "geometry": {"type": "Polygon", "coordinates": [[[-3.8971392494003525, 50.34960178982814], [-3.8922568954202363, 50.34998186067181], [-3.8920381250824128, 50.34916568686036], [-3.8936453532309296, 50.34729319011362], [-3.8970294671795584, 50.346756588718996], [-3.897296434569711, 50.3487223829675], [-3.8971392494003525, 50.34960178982814]]]}}, {"type": "Feature", "properties": {"type": "postcode-cell", "postcode": "PL21 0FF", "postcodes": ["PL21 0FF"]}, "geometry": {"type": "Polygon", "coordinates": [[[-3.8983987828607365, 50.35556206699439], [-3.897817820010428, 50.35548186406521], [-3.8933238036957016, 50.35208414688837], [-3.892361852277523, 50.35061326002399], [-3.897272262734335, 50.35068945791842], [-3.8983987828607365, 50.35556206699439]]]}}, {"type": "Feature", "properties": {"type": "postcode-cell", "postcode": "PL21 0XE", "postcodes": ["PL21 0XE"]}, "geometry": {"type": "Polygon", "coordinates": [[[-3.8970294671795584, 50.346756588718996], [-3.8936453532309296, 50.34729319011362], [-3.8913961577122786, 50.34724062087112], [-3.8870435706913207, 50.340956246237994], [-3.8887654306701265, 50.33732973573955], [-3.8893418623191023, 50.33687003954712], [-3.898802993232945, 50.34444986025221], [-3.8970294671795584, 50.346756588718996]]]}}, {"type": "Feature", "properties": {"type": "postcode-cell", "postcode": "TQ7 4HU", "postcodes": ["TQ7 4HU"]}, "geometry": {"type": "Polygon", "coordinates": [[[-3.8975570265892356, 50.28865522154456], [-3.9030568089631426, 50.290567573054744], [-3.8972801999153117, 50.289670445866726], [-3.8975570265892356, 50.28865522154456]]]}}, {"type": "Feature", "properties": {"type": "postcode-cell", "postcode": "TQ7 4HL", "postcodes": ["TQ7 4HL"]}, "geometry": {"type": "Polygon", "coordinates": [[[-3.9093646815004948, 50.30284476691072], [-3.9079908193605033, 50.30368222424611], [-3.906624189979711, 50.304140480349304], [-3.9050760630358106, 50.30402738666459], [-3.892322840094534, 50.29793214489741], [-3.8929772129537463, 50.297695818765675], [-3.89926677721655, 50.296998261088945], [-3.9123720762618546, 50.298947268975546], [-3.9093646815004948, 50.30284476691072]]]}}, {"type": "Feature", "properties": {"type": "postcode-cell", "postcode": "TQ7 4HF", "postcodes": ["TQ7 4HF"]}, "geometry": {"type": "Polygon", "coordinates": [[[-3.906624189979711, 50.304140480349304], [-3.8990766904500056, 50.31288362375657], [-3.8866912261960445, 50.312821276054365], [-3.88617814646755, 50.311312003202104], [-3.8913090382454265, 50.30406585915812], [-3.9050760630358106, 50.30402738666459], [-3.906624189979711, 50.304140480349304]]]}}, {"type": "Feature", "properties": {"type": "postcode-cell", "postcode": "TQ7 4HE", "postcodes": ["TQ7 4HE"]}, "geometry": {"type": "Polygon", "coordinates": [[[-3.8901298558999904, 50.32325010382011], [-3.8838545945115817, 50.31547771015395], [-3.8866912261960445, 50.312821276054365], [-3.8990766904500056, 50.31288362375657], [-3.899224304149035, 50.31315325245483], [-3.8951329246983506, 50.320965473221115], [-3.8901298558999904, 50.32325010382011]]]}}, {"type": "Feature", "properties": {"type": "postcode-cell", "postcode": "TQ7 4AS", "postcodes": ["TQ7 4AS"]}, "geometry": {"type": "Polygon", "coordinates": [[[-3.893982889941803, 50.283696121549895], [-3.8928332108936234, 50.28217996808882], [-3.8938499901884662, 50.28171999439371], [-3.8950899901892395, 50.28175999439371], [-3.8956099901892256, 50.282489994394254], [-3.8970199901897837, 50.28321999439478], [-3.8967399901894733, 50.283499994395], [-3.897349990189844, 50.28353999439502], [-3.8969699901892536, 50.28427999439559], [-3.897559990189654, 50.28422999439554], [-3.8979399901896787, 50.28468999439587], [-3.8986999901900865, 50.284859994396], [-3.89800999018955, 50.285059994396164], [-3.8980164955767083, 50.285186850337666], [-3.893982889941803, 50.283696121549895]]]}}, {"type": "Feature", "properties": {"type": "postcode-cell", "postcode": "TQ7 4AZ", "postcodes": ["TQ7 4AZ"]}, "geometry": {"type": "Polygon", "coordinates": [[[-3.8912048018973953, 50.28800588357685], [-3.8939487638486754, 50.28483622402831], [-3.897962573333149, 50.28549670894076], [-3.8974699901889127, 50.285679994396645], [-3.8975999901888225, 50.28604999439695], [-3.897309990188699, 50.28591999439683], [-3.896659990188093, 50.28631999439717], [-3.896761597921851, 50.28692182713912], [-3.8912048018973953, 50.28800588357685]]]}}, {"type": "Feature", "properties": {"type": "postcode-cell", "postcode": "TQ7 4HJ", "postcodes": ["TQ7 4HJ"]}, "geometry": {"type": "Polygon", "coordinates": [[[-3.9050760630358106, 50.30402738666459], [-3.8913090382454265, 50.30406585915812], [-3.8827018988014697, 50.29965938674266], [-3.8825867622175916, 50.29925073914804], [-3.8905233963075405, 50.29776827858065], [-3.892322840094534, 50.29793214489741], [-3.9050760630358106, 50.30402738666459]]]}}, {"type": "Feature", "properties": {"type": "postcode-cell", "postcode": "TQ7 4HS", "postcodes": ["TQ7 4HS"]}, "geometry": {"type": "Polygon", "coordinates": [[[-3.899984814491985, 50.293208199480176], [-3.8933101403701627, 50.29365102694031], [-3.886808630702212, 50.290125268371796], [-3.8868174739864396, 50.29012061721172], [-3.8962852796775693, 50.29060155564501], [-3.899984814491985, 50.293208199480176]]]}}, {"type": "Feature", "properties": {"type": "postcode-cell", "postcode": "TQ7 4HW", "postcodes": ["TQ7 4HW"]}, "geometry": {"type": "Polygon", "coordinates": [[[-3.89926677721655, 50.296998261088945], [-3.8929772129537463, 50.297695818765675], [-3.895325198621547, 50.295992920153815], [-3.89926677721655, 50.296998261088945]]]}}, {"type": "Feature", "properties": {"type": "postcode-cell", "postcode": "TQ7 4AY", "postcodes": ["TQ7 4AY"]}, "geometry": {"type": "Polygon", "coordinates": [[[-3.893982889941803, 50.283696121549895], [-3.893727956912195, 50.28462674441663], [-3.8898607010339137, 50.28475181375491], [-3.8911613026048304, 50.282081944411146], [-3.8925899901873935, 50.2822899943942], [-3.8928332108936234, 50.28217996808882], [-3.893982889941803, 50.283696121549895]]]}}, {"type": "Feature", "properties": {"type": "postcode-cell", "postcode": "TQ7 4AU", "postcodes": ["TQ7 4AU"]}, "geometry": {"type": "Polygon", "coordinates": [[[-3.8939487638486754, 50.28483622402831], [-3.893727956912195, 50.28462674441663], [-3.893982889941803, 50.283696121549895], [-3.8980164955767083, 50.285186850337666], [-3.898029990189378, 50.28544999439645], [-3.898329990189613, 50.28535999439639], [-3.897962573333149, 50.28549670894076], [-3.8939487638486754, 50.28483622402831]]]}}, {"type": "Feature", "properties": {"type": "postcode-cell", "postcode": "TQ7 4HP", "postcodes": ["TQ7 4HP"]}, "geometry": {"type": "Polygon", "coordinates": [[[-3.892322840094534, 50.29793214489741], [-3.8905233963075405, 50.29776827858065], [-3.8935387421500485, 50.294851867218746], [-3.895325198621547, 50.295992920153815], [-3.8929772129537463, 50.297695818765675], [-3.892322840094534, 50.29793214489741]]]}}, {"type": "Feature", "properties": {"type": "postcode-cell", "postcode": "TQ7 4AR", "postcodes": ["TQ7 4AR"]}, "geometry": {"type": "Polygon", "coordinates": [[[-3.886808630702212, 50.290125268371796], [-3.881662475942043, 50.29116349526713], [-3.879171975130937, 50.288171685120446], [-3.8801234769724617, 50.28457415331461], [-3.8856499901823387, 50.28361999439536], [-3.886124293592619, 50.28332661933351], [-3.8891672512418554, 50.285612992435304], [-3.8883764145336324, 50.288782833121104], [-3.8868174739864396, 50.29012061721172], [-3.886808630702212, 50.290125268371796]]]}}, {"type": "Feature", "properties": {"type": "postcode-cell", "postcode": "TQ7 4AT", "postcodes": ["TQ7 4AT"]}, "geometry": {"type": "Polygon", "coordinates": [[[-3.8883764145336324, 50.288782833121104], [-3.8891672512418554, 50.285612992435304], [-3.8898607010339137, 50.28475181375491], [-3.893727956912195, 50.28462674441663], [-3.8939487638486754, 50.28483622402831], [-3.8912048018973953, 50.28800588357685], [-3.8883764145336324, 50.288782833121104]]]}}, {"type": "Feature", "properties": {"type": "postcode-cell", "postcode": "TQ7 4HN", "postcodes": ["TQ7 4HN"]}, "geometry": {"type": "Polygon", "coordinates": [[[-3.8935387421500485, 50.294851867218746], [-3.8905233963075405, 50.29776827858065], [-3.8825867622175916, 50.29925073914804], [-3.8789248590864647, 50.29508073317476], [-3.881662475942043, 50.29116349526713], [-3.886808630702212, 50.290125268371796], [-3.8933101403701627, 50.29365102694031], [-3.8935387421500485, 50.294851867218746]]]}}, {"type": "Feature", "properties": {"type": "postcode-cell", "postcode": "TQ7 4BJ", "postcodes": ["TQ7 4BJ"]}, "geometry": {"type": "Polygon", "coordinates": [[[-3.8898607010339137, 50.28475181375491], [-3.8891672512418554, 50.285612992435304], [-3.886124293592619, 50.28332661933351], [-3.8875899901841424, 50.2824199943944], [-3.887469990184219, 50.282089994394155], [-3.8894999901856346, 50.28183999439392], [-3.8911613026048304, 50.282081944411146], [-3.8898607010339137, 50.28475181375491]]]}}, {"type": "Feature", "properties": {"type": "postcode-cell", "postcode": "TQ7 4AP", "postcodes": ["TQ7 4AP"]}, "geometry": {"type": "Polygon", "coordinates": [[[-3.8827018988014697, 50.29965938674266], [-3.879394199583466, 50.30347644140632], [-3.8728649000867352, 50.30473028814958], [-3.87180546684837, 50.29566613729253], [-3.8789248590864647, 50.29508073317476], [-3.8825867622175916, 50.29925073914804], [-3.8827018988014697, 50.29965938674266]]]}}, {"type": "Feature", "properties": {"type": "postcode-cell", "postcode": "TQ7 4HH", "postcodes": ["TQ7 4HH"]}, "geometry": {"type": "Polygon", "coordinates": [[[-3.8913090382454265, 50.30406585915812], [-3.88617814646755, 50.311312003202104], [-3.884860783591436, 50.310493527795316], [-3.881659955105169, 50.30806337486226], [-3.880145033081839, 50.306695160609884], [-3.879394199583466, 50.30347644140632], [-3.8827018988014697, 50.29965938674266], [-3.8913090382454265, 50.30406585915812]]]}}, {"type": "Feature", "properties": {"type": "postcode-cell", "postcode": "PL21 0QY", "postcodes": ["PL21 0QY"]}, "geometry": {"type": "Polygon", "coordinates": [[[-3.8905162990074653, 50.349085103102176], [-3.8898093386872397, 50.34915265319], [-3.8893834030443797, 50.3488393697354], [-3.889301497927034, 50.34871654148846], [-3.890114450805048, 50.34744081236083], [-3.8907958953262813, 50.347402058634074], [-3.8905162990074653, 50.349085103102176]]]}}, {"type": "Feature", "properties": {"type": "postcode-cell", "postcode": "PL21 0TL", "postcodes": ["PL21 0TL"]}, "geometry": {"type": "Polygon", "coordinates": [[[-3.8907958953262813, 50.347402058634074], [-3.8913961577122786, 50.34724062087112], [-3.8936453532309296, 50.34729319011362], [-3.8920381250824128, 50.34916568686036], [-3.8907338669053897, 50.3492366471023], [-3.8905162990074653, 50.349085103102176], [-3.8907958953262813, 50.347402058634074]]]}}, {"type": "Feature", "properties": {"type": "postcode-cell", "postcode": "PL21 0FY", "postcodes": ["PL21 0FY"]}, "geometry": {"type": "Polygon", "coordinates": [[[-3.897817820010428, 50.35548186406521], [-3.895722649458547, 50.3553664436396], [-3.8921608992090824, 50.353669698436605], [-3.8905360636427706, 50.351341701396464], [-3.89062129666716, 50.35128211401298], [-3.891154111933917, 50.351144665709604], [-3.8933238036957016, 50.35208414688837], [-3.897817820010428, 50.35548186406521]]]}}, {"type": "Feature", "properties": {"type": "postcode-cell", "postcode": "PL21 0TP", "postcodes": ["PL21 0TP"]}, "geometry": {"type": "Polygon", "coordinates": [[[-3.897272262734335, 50.35068945791842], [-3.892361852277523, 50.35061326002399], [-3.8922990501961507, 50.35057229212467], [-3.8922030703770223, 50.35002623984918], [-3.8922568954202363, 50.34998186067181], [-3.8971392494003525, 50.34960178982814], [-3.897272262734335, 50.35068945791842]]]}}, {"type": "Feature", "properties": {"type": "postcode-cell", "postcode": "PL21 0LX", "postcodes": ["PL21 0LX"]}, "geometry": {"type": "Polygon", "coordinates": [[[-3.8983987828607365, 50.35556206699439], [-3.903115520547161, 50.35803836040024], [-3.8955999901525877, 50.36041999445395], [-3.8892899901470743, 50.36354999445651], [-3.8822253087347405, 50.36467365796762], [-3.880994139230732, 50.36227940743722], [-3.881815033560006, 50.36009127275137], [-3.892177449520316, 50.35581700051291], [-3.895722649458547, 50.3553664436396], [-3.897817820010428, 50.35548186406521], [-3.8983987828607365, 50.35556206699439]]]}}, {"type": "Feature", "properties": {"type": "postcode-cell", "postcode": "PL21 0FW", "postcodes": ["PL21 0FW"]}, "geometry": {"type": "Polygon", "coordinates": [[[-3.8922990501961507, 50.35057229212467], [-3.8912002532725922, 50.351087747421616], [-3.8909883170207653, 50.35008929710984], [-3.8922030703770223, 50.35002623984918], [-3.8922990501961507, 50.35057229212467]]]}}, {"type": "Feature", "properties": {"type": "postcode-cell", "postcode": "PL21 0FU", "postcodes": ["PL21 0FU"]}, "geometry": {"type": "Polygon", "coordinates": [[[-3.892361852277523, 50.35061326002399], [-3.8933238036957016, 50.35208414688837], [-3.891154111933917, 50.351144665709604], [-3.8912002532725922, 50.351087747421616], [-3.8922990501961507, 50.35057229212467], [-3.892361852277523, 50.35061326002399]]]}}, {"type": "Feature", "properties": {"type": "postcode-cell", "postcode": "PL21 0TJ", "postcodes": ["PL21 0TJ"]}, "geometry": {"type": "Polygon", "coordinates": [[[-3.8922030703770223, 50.35002623984918], [-3.8909883170207653, 50.35008929710984], [-3.8906726606532485, 50.350009284747955], [-3.8907338669053897, 50.3492366471023], [-3.8920381250824128, 50.34916568686036], [-3.8922568954202363, 50.34998186067181], [-3.8922030703770223, 50.35002623984918]]]}}, {"type": "Feature", "properties": {"type": "postcode-cell", "postcode": "PL21 0SP", "postcodes": ["PL21 0SP"]}, "geometry": {"type": "Polygon", "coordinates": [[[-3.8907958953262813, 50.347402058634074], [-3.890114450805048, 50.34744081236083], [-3.888783883923291, 50.34728495366969], [-3.888345122384093, 50.34717748436567], [-3.8859484194245377, 50.34578576354105], [-3.8848202463581036, 50.3448095242392], [-3.8845880725459803, 50.34449319838286], [-3.8870435706913207, 50.340956246237994], [-3.8913961577122786, 50.34724062087112], [-3.8907958953262813, 50.347402058634074]]]}}, {"type": "Feature", "properties": {"type": "postcode-cell", "postcode": "PL21 0FX", "postcodes": ["PL21 0FX"]}, "geometry": {"type": "Polygon", "coordinates": [[[-3.8912002532725922, 50.351087747421616], [-3.891154111933917, 50.351144665709604], [-3.89062129666716, 50.35128211401298], [-3.8901172047902945, 50.35042905063544], [-3.8905676959058417, 50.35003490270798], [-3.8906726606532485, 50.350009284747955], [-3.8909883170207653, 50.35008929710984], [-3.8912002532725922, 50.351087747421616]]]}}, {"type": "Feature", "properties": {"type": "postcode-cell", "postcode": "PL21 0FZ", "postcodes": ["PL21 0FZ"]}, "geometry": {"type": "Polygon", "coordinates": [[[-3.8921608992090824, 50.353669698436605], [-3.889617641445692, 50.35285368122231], [-3.8889314256571548, 50.351633653381725], [-3.8905360636427706, 50.351341701396464], [-3.8921608992090824, 50.353669698436605]]]}}, {"type": "Feature", "properties": {"type": "postcode-cell", "postcode": "PL21 0QZ", "postcodes": ["PL21 0QZ"]}, "geometry": {"type": "Polygon", "coordinates": [[[-3.8905676959058417, 50.35003490270798], [-3.8892590484861924, 50.34966140592444], [-3.8898093386872397, 50.34915265319], [-3.8905162990074653, 50.349085103102176], [-3.8907338669053897, 50.3492366471023], [-3.8906726606532485, 50.350009284747955], [-3.8905676959058417, 50.35003490270798]]]}}, {"type": "Feature", "properties": {"type": "postcode-cell", "postcode": "PL21 0RB", "postcodes": ["PL21 0RB"]}, "geometry": {"type": "Polygon", "coordinates": [[[-3.8905360636427706, 50.351341701396464], [-3.8889314256571548, 50.351633653381725], [-3.888160876237461, 50.351315966395475], [-3.8886482966386575, 50.35062289529431], [-3.8901172047902945, 50.35042905063544], [-3.89062129666716, 50.35128211401298], [-3.8905360636427706, 50.351341701396464]]]}}, {"type": "Feature", "properties": {"type": "postcode-cell", "postcode": "TQ7 4BA", "postcodes": ["TQ7 4BA"]}, "geometry": {"type": "Polygon", "coordinates": [[[-3.879171975130937, 50.288171685120446], [-3.8681416743633203, 50.28489159825414], [-3.868699990171915, 50.28280999439517], [-3.8709699901740913, 50.28125999439393], [-3.8742299901763153, 50.28094999439361], [-3.8753999901768545, 50.28138999439392], [-3.875519990177095, 50.281039994393616], [-3.8760499901774095, 50.28108999439368], [-3.87611999017666, 50.28276999439495], [-3.8765899901765932, 50.283549994395536], [-3.8776399901769523, 50.28420999439603], [-3.879799990178132, 50.28462999439629], [-3.8801234769724617, 50.28457415331461], [-3.879171975130937, 50.288171685120446]]]}}, {"type": "Feature", "properties": {"type": "postcode-cell", "postcode": "PL21 0HL", "postcodes": ["PL21 0HL"]}, "geometry": {"type": "Polygon", "coordinates": [[[-3.840749369243841, 50.37025918059595], [-3.8592685043280426, 50.37144697614604], [-3.8645103701558727, 50.37368419611531], [-3.8608999901226313, 50.3768499944674], [-3.858509990120549, 50.37801999446835], [-3.8492799901133097, 50.38084999447073], [-3.8482299901134813, 50.37905999446938], [-3.8480999901141235, 50.3775199944682], [-3.8462099901132483, 50.3768099944677], [-3.844369990112885, 50.375079994466404], [-3.8441599901131447, 50.37424999446578], [-3.8449299901139686, 50.373539994465204], [-3.844279990114091, 50.372399994464345], [-3.843659990113583, 50.37263999446455], [-3.8435599901137256, 50.37219999446421], [-3.8425799901128967, 50.37262999446457], [-3.841579990112274, 50.372599994464565], [-3.839769990111661, 50.37143999446371], [-3.838576898484556, 50.371657332312836], [-3.840749369243841, 50.37025918059595]]]}}, {"type": "Feature", "properties": {"type": "postcode-cell", "postcode": "PL21 0RP", "postcodes": ["PL21 0RP"]}, "geometry": {"type": "Polygon", "coordinates": [[[-3.895722649458547, 50.3553664436396], [-3.892177449520316, 50.35581700051291], [-3.8880631094617097, 50.35465004286121], [-3.887552303682523, 50.353656771636444], [-3.8876459170553685, 50.353483728271726], [-3.8880106437385806, 50.353302802431756], [-3.889617641445692, 50.35285368122231], [-3.8921608992090824, 50.353669698436605], [-3.895722649458547, 50.3553664436396]]]}}, {"type": "Feature", "properties": {"type": "postcode-cell", "postcode": "PL21 0RY", "postcodes": ["PL21 0RY"]}, "geometry": {"type": "Polygon", "coordinates": [[[-3.884002366700846, 50.354301523218076], [-3.8857316950683467, 50.353534551940974], [-3.8862739215268043, 50.35373573047843], [-3.884923704891546, 50.355758009725584], [-3.8839799750075974, 50.35626234624252], [-3.884002366700846, 50.354301523218076]]]}}, {"type": "Feature", "properties": {"type": "postcode-cell", "postcode": "PL21 0LW", "postcodes": ["PL21 0LW"]}, "geometry": {"type": "Polygon", "coordinates": [[[-3.8839799750075974, 50.35626234624252], [-3.8817284034587947, 50.35909926846317], [-3.8764665393449724, 50.35171431616045], [-3.8769973214355877, 50.351669352418476], [-3.8802863289630753, 50.35227162475689], [-3.883716153732436, 50.35376349496323], [-3.884002366700846, 50.354301523218076], [-3.8839799750075974, 50.35626234624252]]]}}, {"type": "Feature", "properties": {"type": "postcode-cell", "postcode": "PL21 0RA", "postcodes": ["PL21 0RA"]}, "geometry": {"type": "Polygon", "coordinates": [[[-3.8901172047902945, 50.35042905063544], [-3.8886482966386575, 50.35062289529431], [-3.8886151994714484, 50.34997691028115], [-3.889155715878971, 50.34968230205755], [-3.8892590484861924, 50.34966140592444], [-3.8905676959058417, 50.35003490270798], [-3.8901172047902945, 50.35042905063544]]]}}, {"type": "Feature", "properties": {"type": "postcode-cell", "postcode": "PL21 0QF", "postcodes": ["PL21 0QF"]}, "geometry": {"type": "Polygon", "coordinates": [[[-3.8836708311598853, 50.34482480195332], [-3.8845880725459803, 50.34449319838286], [-3.8848202463581036, 50.3448095242392], [-3.884622506503494, 50.346763382097464], [-3.8845022777289056, 50.34721588233849], [-3.8840338862572374, 50.348034201857864], [-3.8835365402329987, 50.3483997627063], [-3.8828495754869827, 50.34863023975121], [-3.8827753454121767, 50.34673862227908], [-3.8836708311598853, 50.34482480195332]]]}}, {"type": "Feature", "properties": {"type": "postcode-cell", "postcode": "PL21 0QE", "postcodes": ["PL21 0QE"]}, "geometry": {"type": "Polygon", "coordinates": [[[-3.8827753454121767, 50.34673862227908], [-3.881411765660936, 50.34799454945857], [-3.873952215363341, 50.34885382221143], [-3.8732602283122293, 50.34661003185494], [-3.8836708311598853, 50.34482480195332], [-3.8827753454121767, 50.34673862227908]]]}}, {"type": "Feature", "properties": {"type": "postcode-cell", "postcode": "PL21 0QP", "postcodes": ["PL21 0QP"]}, "geometry": {"type": "Polygon", "coordinates": [[[-3.8888435685517218, 50.349202473921196], [-3.8893834030443797, 50.3488393697354], [-3.8898093386872397, 50.34915265319], [-3.8892590484861924, 50.34966140592444], [-3.889155715878971, 50.34968230205755], [-3.8888435685517218, 50.349202473921196]]]}}, {"type": "Feature", "properties": {"type": "postcode-cell", "postcode": "PL21 0QU", "postcodes": ["PL21 0QU"]}, "geometry": {"type": "Polygon", "coordinates": [[[-3.889155715878971, 50.34968230205755], [-3.8886151994714484, 50.34997691028115], [-3.888444611677854, 50.349900729640744], [-3.8884089847226404, 50.34897815582341], [-3.8888435685517218, 50.349202473921196], [-3.889155715878971, 50.34968230205755]]]}}, {"type": "Feature", "properties": {"type": "postcode-cell", "postcode": "PL21 0QN", "postcodes": ["PL21 0QN"]}, "geometry": {"type": "Polygon", "coordinates": [[[-3.889301497927034, 50.34871654148846], [-3.888459668461406, 50.34875821895159], [-3.888783883923291, 50.34728495366969], [-3.890114450805048, 50.34744081236083], [-3.889301497927034, 50.34871654148846]]]}}, {"type": "Feature", "properties": {"type": "postcode-cell", "postcode": "PL21 0QT", "postcodes": ["PL21 0QT"]}, "geometry": {"type": "Polygon", "coordinates": [[[-3.888459668461406, 50.34875821895159], [-3.889301497927034, 50.34871654148846], [-3.8893834030443797, 50.3488393697354], [-3.8888435685517218, 50.349202473921196], [-3.8884089847226404, 50.34897815582341], [-3.888400746673072, 50.34897117941295], [-3.8883727293506487, 50.3488034772065], [-3.888459668461406, 50.34875821895159]]]}}, {"type": "Feature", "properties": {"type": "postcode-cell", "postcode": "PL21 0QL", "postcodes": ["PL21 0QL"]}, "geometry": {"type": "Polygon", "coordinates": [[[-3.8883727293506487, 50.3488034772065], [-3.8877984953290596, 50.34869618540085], [-3.887619257526002, 50.34838777749983], [-3.887897219678606, 50.34776872996545], [-3.888345122384093, 50.34717748436567], [-3.888783883923291, 50.34728495366969], [-3.888459668461406, 50.34875821895159], [-3.8883727293506487, 50.3488034772065]]]}}, {"type": "Feature", "properties": {"type": "postcode-cell", "postcode": "PL21 0RF", "postcodes": ["PL21 0RF"]}, "geometry": {"type": "Polygon", "coordinates": [[[-3.8886151994714484, 50.34997691028115], [-3.8886482966386575, 50.35062289529431], [-3.888160876237461, 50.351315966395475], [-3.887649879902381, 50.35136686072145], [-3.8871512165187045, 50.35136413006785], [-3.8868341717212975, 50.35122802564385], [-3.8871709438003985, 50.34960384397213], [-3.8879925412713634, 50.349751982042434], [-3.888444611677854, 50.349900729640744], [-3.8886151994714484, 50.34997691028115]]]}}, {"type": "Feature", "properties": {"type": "postcode-cell", "postcode": "PL21 0RE", "postcodes": ["PL21 0RE"]}, "geometry": {"type": "Polygon", "coordinates": [[[-3.889617641445692, 50.35285368122231], [-3.8880106437385806, 50.353302802431756], [-3.887649879902381, 50.35136686072145], [-3.888160876237461, 50.351315966395475], [-3.8889314256571548, 50.351633653381725], [-3.889617641445692, 50.35285368122231]]]}}, {"type": "Feature", "properties": {"type": "postcode-cell", "postcode": "PL21 0TY", "postcodes": ["PL21 0TY"]}, "geometry": {"type": "Polygon", "coordinates": [[[-3.8876459170553685, 50.353483728271726], [-3.886489603781112, 50.35247510261105], [-3.8871512165187045, 50.35136413006785], [-3.887649879902381, 50.35136686072145], [-3.8880106437385806, 50.353302802431756], [-3.8876459170553685, 50.353483728271726]]]}}, {"type": "Feature", "properties": {"type": "postcode-cell", "postcode": "PL21 0QX", "postcodes": ["PL21 0QX"]}, "geometry": {"type": "Polygon", "coordinates": [[[-3.8879925412713634, 50.349751982042434], [-3.888204186056159, 50.34910860282351], [-3.888400746673072, 50.34897117941295], [-3.8884089847226404, 50.34897815582341], [-3.888444611677854, 50.349900729640744], [-3.8879925412713634, 50.349751982042434]]]}}, {"type": "Feature", "properties": {"type": "postcode-cell", "postcode": "PL21 0QR", "postcodes": ["PL21 0QR"]}, "geometry": {"type": "Polygon", "coordinates": [[[-3.8879925412713634, 50.349751982042434], [-3.8871709438003985, 50.34960384397213], [-3.8871158080919384, 50.34956310136993], [-3.887173403350444, 50.349363705353944], [-3.887191277308902, 50.349332878803466], [-3.888204186056159, 50.34910860282351], [-3.8879925412713634, 50.349751982042434]]]}}, {"type": "Feature", "properties": {"type": "postcode-cell", "postcode": "PL21 0XY", "postcodes": ["PL21 0XY"]}, "geometry": {"type": "Polygon", "coordinates": [[[-3.887619257526002, 50.34838777749983], [-3.8869665701546205, 50.34845116788557], [-3.8868793841181457, 50.3481977786386], [-3.8869537961828486, 50.34814510382775], [-3.887897219678606, 50.34776872996545], [-3.887619257526002, 50.34838777749983]]]}}, {"type": "Feature", "properties": {"type": "postcode-cell", "postcode": "PL21 0QW", "postcodes": ["PL21 0QW"]}, "geometry": {"type": "Polygon", "coordinates": [[[-3.888400746673072, 50.34897117941295], [-3.888204186056159, 50.34910860282351], [-3.887191277308902, 50.349332878803466], [-3.887260098527373, 50.34905065752539], [-3.8877984953290596, 50.34869618540085], [-3.8883727293506487, 50.3488034772065], [-3.888400746673072, 50.34897117941295]]]}}, {"type": "Feature", "properties": {"type": "postcode-cell", "postcode": "PL21 0QJ", "postcodes": ["PL21 0QJ"]}, "geometry": {"type": "Polygon", "coordinates": [[[-3.8877984953290596, 50.34869618540085], [-3.887260098527373, 50.34905065752539], [-3.8868353566418756, 50.34871983926663], [-3.886864475088086, 50.348511773430765], [-3.8869665701546205, 50.34845116788557], [-3.887619257526002, 50.34838777749983], [-3.8877984953290596, 50.34869618540085]]]}}, {"type": "Feature", "properties": {"type": "postcode-cell", "postcode": "PL21 0PR", "postcodes": ["PL21 0PR"]}, "geometry": {"type": "Polygon", "coordinates": [[[-3.887897219678606, 50.34776872996545], [-3.8869537961828486, 50.34814510382775], [-3.8860855726500687, 50.34695604339115], [-3.8859484194245377, 50.34578576354105], [-3.888345122384093, 50.34717748436567], [-3.887897219678606, 50.34776872996545]]]}}, {"type": "Feature", "properties": {"type": "postcode-cell", "postcode": "PL21 0PU", "postcodes": ["PL21 0PU"]}, "geometry": {"type": "Polygon", "coordinates": [[[-3.887173403350444, 50.349363705353944], [-3.886275233949578, 50.348854749362886], [-3.8862724961450326, 50.348846744503035], [-3.886294267272275, 50.34882962693298], [-3.8868353566418756, 50.34871983926663], [-3.887260098527373, 50.34905065752539], [-3.887191277308902, 50.349332878803466], [-3.887173403350444, 50.349363705353944]]]}}, {"type": "Feature", "properties": {"type": "postcode-cell", "postcode": "PL21 0QH", "postcodes": ["PL21 0QH"]}, "geometry": {"type": "Polygon", "coordinates": [[[-3.8868793841181457, 50.3481977786386], [-3.886525852137595, 50.34810468009604], [-3.88609827409835, 50.347132067795386], [-3.8860855726500687, 50.34695604339115], [-3.8869537961828486, 50.34814510382775], [-3.8868793841181457, 50.3481977786386]]]}}, {"type": "Feature", "properties": {"type": "postcode-cell", "postcode": "PL21 0FS", "postcodes": ["PL21 0FS"]}, "geometry": {"type": "Polygon", "coordinates": [[[-3.892177449520316, 50.35581700051291], [-3.881815033560006, 50.36009127275137], [-3.8817284034587947, 50.35909926846317], [-3.8839799750075974, 50.35626234624252], [-3.884923704891546, 50.355758009725584], [-3.8880631094617097, 50.35465004286121], [-3.892177449520316, 50.35581700051291]]]}}, {"type": "Feature", "properties": {"type": "postcode-cell", "postcode": "PL21 0RD", "postcodes": ["PL21 0RD"]}, "geometry": {"type": "Polygon", "coordinates": [[[-3.8880631094617097, 50.35465004286121], [-3.884923704891546, 50.355758009725584], [-3.8862739215268043, 50.35373573047843], [-3.887552303682523, 50.353656771636444], [-3.8880631094617097, 50.35465004286121]]]}}, {"type": "Feature", "properties": {"type": "postcode-cell", "postcode": "PL21 0XX", "postcodes": ["PL21 0XX"]}, "geometry": {"type": "Polygon", "coordinates": [[[-3.886864475088086, 50.348511773430765], [-3.886591665677315, 50.34844414099904], [-3.8864915570820897, 50.348158250794654], [-3.886525852137595, 50.34810468009604], [-3.8868793841181457, 50.3481977786386], [-3.8869665701546205, 50.34845116788557], [-3.886864475088086, 50.348511773430765]]]}}, {"type": "Feature", "properties": {"type": "postcode-cell", "postcode": "PL21 0SN", "postcodes": ["PL21 0SN"]}, "geometry": {"type": "Polygon", "coordinates": [[[-3.88609827409835, 50.347132067795386], [-3.885814519647698, 50.34834439478027], [-3.885538910930715, 50.34845744656644], [-3.8854075963907095, 50.348392563062646], [-3.884622506503494, 50.346763382097464], [-3.8848202463581036, 50.3448095242392], [-3.8859484194245377, 50.34578576354105], [-3.8860855726500687, 50.34695604339115], [-3.88609827409835, 50.347132067795386]]]}}, {"type": "Feature", "properties": {"type": "postcode-cell", "postcode": "PL21 0RT", "postcodes": ["PL21 0RT"]}, "geometry": {"type": "Polygon", "coordinates": [[[-3.886525852137595, 50.34810468009604], [-3.8864915570820897, 50.348158250794654], [-3.8860107339121703, 50.348374926461645], [-3.885814519647698, 50.34834439478027], [-3.88609827409835, 50.347132067795386], [-3.886525852137595, 50.34810468009604]]]}}, {"type": "Feature", "properties": {"type": "postcode-cell", "postcode": "TQ7 4HY", "postcodes": ["TQ7 4HY"]}, "geometry": {"type": "Polygon", "coordinates": [[[-3.88617814646755, 50.311312003202104], [-3.8866912261960445, 50.312821276054365], [-3.8838545945115817, 50.31547771015395], [-3.870745333160029, 50.31682139883625], [-3.869757343002811, 50.316275149683285], [-3.870100670617588, 50.31546660613258], [-3.877730831698266, 50.31018273794202], [-3.884860783591436, 50.310493527795316], [-3.88617814646755, 50.311312003202104]]]}}, {"type": "Feature", "properties": {"type": "postcode-cell", "postcode": "PL21 0RG", "postcodes": ["PL21 0RG"]}, "geometry": {"type": "Polygon", "coordinates": [[[-3.8871709438003985, 50.34960384397213], [-3.8868341717212975, 50.35122802564385], [-3.885914956993567, 50.3510527413655], [-3.8856742533907314, 50.350632053269116], [-3.886872330557741, 50.34956990123126], [-3.8871158080919384, 50.34956310136993], [-3.8871709438003985, 50.34960384397213]]]}}, {"type": "Feature", "properties": {"type": "postcode-cell", "postcode": "PL21 0RH", "postcodes": ["PL21 0RH"]}, "geometry": {"type": "Polygon", "coordinates": [[[-3.8871512165187045, 50.35136413006785], [-3.886489603781112, 50.35247510261105], [-3.8852902144230756, 50.35279558415577], [-3.88482547182068, 50.35270476602985], [-3.8847874241264817, 50.3526698117956], [-3.8851335758928482, 50.35129034340803], [-3.885914956993567, 50.3510527413655], [-3.8868341717212975, 50.35122802564385], [-3.8871512165187045, 50.35136413006785]]]}}, {"type": "Feature", "properties": {"type": "postcode-cell", "postcode": "PL21 0PS", "postcodes": ["PL21 0PS"]}, "geometry": {"type": "Polygon", "coordinates": [[[-3.8871158080919384, 50.34956310136993], [-3.886872330557741, 50.34956990123126], [-3.8861619649210066, 50.34949092329449], [-3.886137534474174, 50.34942587112774], [-3.886275233949578, 50.348854749362886], [-3.887173403350444, 50.349363705353944], [-3.8871158080919384, 50.34956310136993]]]}}, {"type": "Feature", "properties": {"type": "postcode-cell", "postcode": "PL21 0PT", "postcodes": ["PL21 0PT"]}, "geometry": {"type": "Polygon", "coordinates": [[[-3.8868353566418756, 50.34871983926663], [-3.886294267272275, 50.34882962693298], [-3.886245767239942, 50.3484841107729], [-3.886591665677315, 50.34844414099904], [-3.886864475088086, 50.348511773430765], [-3.8868353566418756, 50.34871983926663]]]}}, {"type": "Feature", "properties": {"type": "postcode-cell", "postcode": "TQ7 4HX", "postcodes": ["TQ7 4HX"]}, "geometry": {"type": "Polygon", "coordinates": [[[-3.881659955105169, 50.30806337486226], [-3.8775163205937346, 50.30974999709278], [-3.8753984573060896, 50.308705787111585], [-3.880145033081839, 50.306695160609884], [-3.881659955105169, 50.30806337486226]]]}}, {"type": "Feature", "properties": {"type": "postcode-cell", "postcode": "PL21 0QQ", "postcodes": ["PL21 0QQ"]}, "geometry": {"type": "Polygon", "coordinates": [[[-3.886245767239942, 50.3484841107729], [-3.8860107339121703, 50.348374926461645], [-3.8864915570820897, 50.348158250794654], [-3.886591665677315, 50.34844414099904], [-3.886245767239942, 50.3484841107729]]]}}, {"type": "Feature", "properties": {"type": "postcode-cell", "postcode": "PL21 0RQ", "postcodes": ["PL21 0RQ"]}, "geometry": {"type": "Polygon", "coordinates": [[[-3.8856742533907314, 50.350632053269116], [-3.8853910644195313, 50.35030381555002], [-3.885592463415808, 50.34968944623164], [-3.8861619649210066, 50.34949092329449], [-3.886872330557741, 50.34956990123126], [-3.8856742533907314, 50.350632053269116]]]}}, {"type": "Feature", "properties": {"type": "postcode-cell", "postcode": "PL21 0RS", "postcodes": ["PL21 0RS"]}, "geometry": {"type": "Polygon", "coordinates": [[[-3.887552303682523, 50.353656771636444], [-3.8862739215268043, 50.35373573047843], [-3.8857316950683467, 50.353534551940974], [-3.8852902144230756, 50.35279558415577], [-3.886489603781112, 50.35247510261105], [-3.8876459170553685, 50.353483728271726], [-3.887552303682523, 50.353656771636444]]]}}, {"type": "Feature", "properties": {"type": "postcode-cell", "postcode": "PL21 0NU", "postcodes": ["PL21 0NU"]}, "geometry": {"type": "Polygon", "coordinates": [[[-3.886294267272275, 50.34882962693298], [-3.8862724961450326, 50.348846744503035], [-3.8854602911223246, 50.348802514392695], [-3.885538910930715, 50.34845744656644], [-3.885814519647698, 50.34834439478027], [-3.8860107339121703, 50.348374926461645], [-3.886245767239942, 50.3484841107729], [-3.886294267272275, 50.34882962693298]]]}}, {"type": "Feature", "properties": {"type": "postcode-cell", "postcode": "PL21 0QG", "postcodes": ["PL21 0QG"]}, "geometry": {"type": "Polygon", "coordinates": [[[-3.884622506503494, 50.346763382097464], [-3.8854075963907095, 50.348392563062646], [-3.884806524595877, 50.34833313633941], [-3.8845022777289056, 50.34721588233849], [-3.884622506503494, 50.346763382097464]]]}}, {"type": "Feature", "properties": {"type": "postcode-cell", "postcode": "PL21 0TE", "postcodes": ["PL21 0TE"]}, "geometry": {"type": "Polygon", "coordinates": [[[-3.8857316950683467, 50.353534551940974], [-3.884002366700846, 50.354301523218076], [-3.883716153732436, 50.35376349496323], [-3.88482547182068, 50.35270476602985], [-3.8852902144230756, 50.35279558415577], [-3.8857316950683467, 50.353534551940974]]]}}, {"type": "Feature", "properties": {"type": "postcode-cell", "postcode": "PL21 0PZ", "postcodes": ["PL21 0PZ"]}, "geometry": {"type": "Polygon", "coordinates": [[[-3.8861619649210066, 50.34949092329449], [-3.885592463415808, 50.34968944623164], [-3.884629156684264, 50.34914325263441], [-3.8846557427616397, 50.34911215585395], [-3.8854494123393755, 50.348811475297154], [-3.886137534474174, 50.34942587112774], [-3.8861619649210066, 50.34949092329449]]]}}, {"type": "Feature", "properties": {"type": "postcode-cell", "postcode": "PL21 0PY", "postcodes": ["PL21 0PY"]}, "geometry": {"type": "Polygon", "coordinates": [[[-3.886275233949578, 50.348854749362886], [-3.886137534474174, 50.34942587112774], [-3.8854494123393755, 50.348811475297154], [-3.8854602911223246, 50.348802514392695], [-3.8862724961450326, 50.348846744503035], [-3.886275233949578, 50.348854749362886]]]}}, {"type": "Feature", "properties": {"type": "postcode-cell", "postcode": "PL21 0QB", "postcodes": ["PL21 0QB"]}, "geometry": {"type": "Polygon", "coordinates": [[[-3.8854494123393755, 50.348811475297154], [-3.8846557427616397, 50.34911215585395], [-3.88449753437477, 50.34860806565868], [-3.884535683915985, 50.348521419441155], [-3.884806524595877, 50.34833313633941], [-3.8854075963907095, 50.348392563062646], [-3.885538910930715, 50.34845744656644], [-3.8854602911223246, 50.348802514392695], [-3.8854494123393755, 50.348811475297154]]]}}, {"type": "Feature", "properties": {"type": "postcode-cell", "postcode": "PL21 0TX", "postcodes": ["PL21 0TX"]}, "geometry": {"type": "Polygon", "coordinates": [[[-3.885914956993567, 50.3510527413655], [-3.8851335758928482, 50.35129034340803], [-3.884655297643074, 50.35126833931693], [-3.8817443055054763, 50.35023515582707], [-3.882492340065186, 50.34977836333919], [-3.882657350067713, 50.34976225552783], [-3.8853910644195313, 50.35030381555002], [-3.8856742533907314, 50.350632053269116], [-3.885914956993567, 50.3510527413655]]]}}, {"type": "Feature", "properties": {"type": "postcode-cell", "postcode": "PL21 0UT", "postcodes": ["PL21 0UT"]}, "geometry": {"type": "Polygon", "coordinates": [[[-3.8853910644195313, 50.35030381555002], [-3.882657350067713, 50.34976225552783], [-3.884629156684264, 50.34914325263441], [-3.885592463415808, 50.34968944623164], [-3.8853910644195313, 50.35030381555002]]]}}, {"type": "Feature", "properties": {"type": "postcode-cell", "postcode": "PL21 0NQ", "postcodes": ["PL21 0NQ"]}, "geometry": {"type": "Polygon", "coordinates": [[[-3.884806524595877, 50.34833313633941], [-3.884535683915985, 50.348521419441155], [-3.8840338862572374, 50.348034201857864], [-3.8845022777289056, 50.34721588233849], [-3.884806524595877, 50.34833313633941]]]}}, {"type": "Feature", "properties": {"type": "postcode-cell", "postcode": "PL21 0QA", "postcodes": ["PL21 0QA"]}, "geometry": {"type": "Polygon", "coordinates": [[[-3.884629156684264, 50.34914325263441], [-3.882657350067713, 50.34976225552783], [-3.882492340065186, 50.34977836333919], [-3.8826342598999113, 50.34888866075638], [-3.8828495754869827, 50.34863023975121], [-3.8835365402329987, 50.3483997627063], [-3.88449753437477, 50.34860806565868], [-3.8846557427616397, 50.34911215585395], [-3.884629156684264, 50.34914325263441]]]}}, {"type": "Feature", "properties": {"type": "postcode-cell", "postcode": "PL21 0RL", "postcodes": ["PL21 0RL"]}, "geometry": {"type": "Polygon", "coordinates": [[[-3.883716153732436, 50.35376349496323], [-3.8802863289630753, 50.35227162475689], [-3.8832322990738164, 50.35224774068482], [-3.8847874241264817, 50.3526698117956], [-3.88482547182068, 50.35270476602985], [-3.883716153732436, 50.35376349496323]]]}}, {"type": "Feature", "properties": {"type": "postcode-cell", "postcode": "PL21 0QD", "postcodes": ["PL21 0QD"]}, "geometry": {"type": "Polygon", "coordinates": [[[-3.884535683915985, 50.348521419441155], [-3.88449753437477, 50.34860806565868], [-3.8835365402329987, 50.3483997627063], [-3.8840338862572374, 50.348034201857864], [-3.884535683915985, 50.348521419441155]]]}}, {"type": "Feature", "properties": {"type": "postcode-cell", "postcode": "PL21 0RJ", "postcodes": ["PL21 0RJ"]}, "geometry": {"type": "Polygon", "coordinates": [[[-3.8847874241264817, 50.3526698117956], [-3.8832322990738164, 50.35224774068482], [-3.884655297643074, 50.35126833931693], [-3.8851335758928482, 50.35129034340803], [-3.8847874241264817, 50.3526698117956]]]}}, {"type": "Feature", "properties": {"type": "postcode-cell", "postcode": "PL21 0RW", "postcodes": ["PL21 0RW"]}, "geometry": {"type": "Polygon", "coordinates": [[[-3.8826342598999113, 50.34888866075638], [-3.881411765660936, 50.34799454945857], [-3.8827753454121767, 50.34673862227908], [-3.8828495754869827, 50.34863023975121], [-3.8826342598999113, 50.34888866075638]]]}}, {"type": "Feature", "properties": {"type": "postcode-cell", "postcode": "PL21 0SR", "postcodes": ["PL21 0SR"]}, "geometry": {"type": "Polygon", "coordinates": [[[-3.8870435706913207, 50.340956246237994], [-3.8845880725459803, 50.34449319838286], [-3.8836708311598853, 50.34482480195332], [-3.8732602283122293, 50.34661003185494], [-3.868700141885531, 50.342705899346896], [-3.8887654306701265, 50.33732973573955], [-3.8870435706913207, 50.340956246237994]]]}}, {"type": "Feature", "properties": {"type": "postcode-cell", "postcode": "PL21 0RN", "postcodes": ["PL21 0RN"]}, "geometry": {"type": "Polygon", "coordinates": [[[-3.884655297643074, 50.35126833931693], [-3.8832322990738164, 50.35224774068482], [-3.8802863289630753, 50.35227162475689], [-3.8769973214355877, 50.351669352418476], [-3.8817443055054763, 50.35023515582707], [-3.884655297643074, 50.35126833931693]]]}}, {"type": "Feature", "properties": {"type": "postcode-cell", "postcode": "PL21 0RZ", "postcodes": ["PL21 0RZ"]}, "geometry": {"type": "Polygon", "coordinates": [[[-3.882492340065186, 50.34977836333919], [-3.8817443055054763, 50.35023515582707], [-3.8769973214355877, 50.351669352418476], [-3.8764665393449724, 50.35171431616045], [-3.874271783970031, 50.35099490504165], [-3.873952215363341, 50.34885382221143], [-3.881411765660936, 50.34799454945857], [-3.8826342598999113, 50.34888866075638], [-3.882492340065186, 50.34977836333919]]]}}, {"type": "Feature", "properties": {"type": "postcode-cell", "postcode": "TQ7 4HD", "postcodes": ["TQ7 4HD"]}, "geometry": {"type": "Polygon", "coordinates": [[[-3.8880256275476057, 50.330655387562786], [-3.885982098041558, 50.33038609058976], [-3.8712534786349346, 50.3202418696772], [-3.870745333160029, 50.31682139883625], [-3.8838545945115817, 50.31547771015395], [-3.8901298558999904, 50.32325010382011], [-3.8880256275476057, 50.330655387562786]]]}}, {"type": "Feature", "properties": {"type": "postcode-cell", "postcode": "PL21 0TS", "postcodes": ["PL21 0TS"]}, "geometry": {"type": "Polygon", "coordinates": [[[-3.881815033560006, 50.36009127275137], [-3.880994139230732, 50.36227940743722], [-3.8655435272580982, 50.3571846608611], [-3.8651348935314784, 50.355785077477634], [-3.874271783970031, 50.35099490504165], [-3.8764665393449724, 50.35171431616045], [-3.8817284034587947, 50.35909926846317], [-3.881815033560006, 50.36009127275137]]]}}, {"type": "Feature", "properties": {"type": "postcode-cell", "postcode": "PL21 0SA", "postcodes": ["PL21 0SA"]}, "geometry": {"type": "MultiPolygon", "coordinates": [[[[-3.8732602283122293, 50.34661003185494], [-3.873952215363341, 50.34885382221143], [-3.874271783970031, 50.35099490504165], [-3.8651348935314784, 50.355785077477634], [-3.8545577557784556, 50.350703985048575], [-3.8552599901314317, 50.350479994447255], [-3.8560799901318004, 50.350809994447495], [-3.8586099901334414, 50.350759994447415], [-3.8595299901343996, 50.34996999444676], [-3.858639990134368, 50.34882999444592], [-3.857469990133917, 50.34819999444547], [-3.8589299901350955, 50.34767999444501], [-3.8643199901402783, 50.3439899944421], [-3.865623405909484, 50.34176187282962], [-3.868700141885531, 50.342705899346896], [-3.8732602283122293, 50.34661003185494]]], [[[-3.85199738005845, 50.34947370901606], [-3.8519855576512407, 50.34945632480377], [-3.8520510773920886, 50.34949951215606], [-3.85199738005845, 50.34947370901606]]]]}}, {"type": "Feature", "properties": {"type": "postcode-cell", "postcode": "TQ7 4HQ", "postcodes": ["TQ7 4HQ"]}, "geometry": {"type": "Polygon", "coordinates": [[[-3.884860783591436, 50.310493527795316], [-3.877730831698266, 50.31018273794202], [-3.8775163205937346, 50.30974999709278], [-3.881659955105169, 50.30806337486226], [-3.884860783591436, 50.310493527795316]]]}}, {"type": "Feature", "properties": {"type": "postcode-cell", "postcode": "TQ7 4HG", "postcodes": ["TQ7 4HG"]}, "geometry": {"type": "Polygon", "coordinates": [[[-3.877730831698266, 50.31018273794202], [-3.870100670617588, 50.31546660613258], [-3.8719902136805353, 50.30947919957582], [-3.8753984573060896, 50.308705787111585], [-3.8775163205937346, 50.30974999709278], [-3.877730831698266, 50.31018273794202]]]}}, {"type": "Feature", "properties": {"type": "postcode-cell", "postcode": "TQ7 4AN", "postcodes": ["TQ7 4AN"]}, "geometry": {"type": "Polygon", "coordinates": [[[-3.869757343002811, 50.316275149683285], [-3.85834898144871, 50.31462911855469], [-3.858182917408279, 50.314249545993725], [-3.8624085174759104, 50.30313166733934], [-3.8700372987886342, 50.30547192636663], [-3.8719902136805353, 50.30947919957582], [-3.870100670617588, 50.31546660613258], [-3.869757343002811, 50.316275149683285]]]}}, {"type": "Feature", "properties": {"type": "postcode-cell", "postcode": "TQ7 4AW", "postcodes": ["TQ7 4AW"]}, "geometry": {"type": "Polygon", "coordinates": [[[-3.880145033081839, 50.306695160609884], [-3.8753984573060896, 50.308705787111585], [-3.8719902136805353, 50.30947919957582], [-3.8700372987886342, 50.30547192636663], [-3.8728649000867352, 50.30473028814958], [-3.879394199583466, 50.30347644140632], [-3.880145033081839, 50.306695160609884]]]}}, {"type": "Feature", "properties": {"type": "postcode-cell", "postcode": "TQ7 4BB", "postcodes": ["TQ7 4BB"]}, "geometry": {"type": "Polygon", "coordinates": [[[-3.881662475942043, 50.29116349526713], [-3.8789248590864647, 50.29508073317476], [-3.87180546684837, 50.29566613729253], [-3.8682333004651897, 50.29585858098385], [-3.867328934640568, 50.28684361707645], [-3.86777999016971, 50.286239994397796], [-3.8681416743633203, 50.28489159825414], [-3.879171975130937, 50.288171685120446], [-3.881662475942043, 50.29116349526713]]]}}, {"type": "Feature", "properties": {"type": "postcode-cell", "postcode": "TQ7 4NN", "postcodes": ["TQ7 4NN"]}, "geometry": {"type": "Polygon", "coordinates": [[[-3.885982098041558, 50.33038609058976], [-3.8682305065141738, 50.33260677932556], [-3.8692499901494317, 50.331239994432195], [-3.865737513385703, 50.3303009730068], [-3.868260807553626, 50.32326918741625], [-3.8712534786349346, 50.3202418696772], [-3.885982098041558, 50.33038609058976]]]}}, {"type": "Feature", "properties": {"type": "postcode-cell", "postcode": "TQ7 4EW", "postcodes": ["TQ7 4EW"]}, "geometry": {"type": "Polygon", "coordinates": [[[-3.8700372987886342, 50.30547192636663], [-3.8624085174759104, 50.30313166733934], [-3.8605115664599716, 50.30022439271686], [-3.860519990158487, 50.30021999440866], [-3.8621499901604497, 50.29825999440711], [-3.862599990160649, 50.29843999440724], [-3.8630299901610385, 50.29819999440706], [-3.8626444499100754, 50.29723616299255], [-3.8682333004651897, 50.29585858098385], [-3.87180546684837, 50.29566613729253], [-3.8728649000867352, 50.30473028814958], [-3.8700372987886342, 50.30547192636663]]]}}, {"type": "Feature", "properties": {"type": "postcode-cell", "postcode": "TQ7 4NH", "postcodes": ["TQ7 4NH"]}, "geometry": {"type": "Polygon", "coordinates": [[[-3.870745333160029, 50.31682139883625], [-3.8712534786349346, 50.3202418696772], [-3.868260807553626, 50.32326918741625], [-3.8535323064130935, 50.32428395286975], [-3.853829990142929, 50.32414999442711], [-3.8539599901435198, 50.32306999442628], [-3.8552099901449335, 50.32176999442525], [-3.8540799901447964, 50.32052999442434], [-3.857309990147347, 50.31948999442347], [-3.8567099901472615, 50.318859994422986], [-3.8563899901478123, 50.317259994421775], [-3.857649990149633, 50.315099994420095], [-3.858379990150289, 50.31469999441977], [-3.85834898144871, 50.31462911855469], [-3.869757343002811, 50.316275149683285], [-3.870745333160029, 50.31682139883625]]]}}, {"type": "Feature", "properties": {"type": "postcode-cell", "postcode": "PL21 0TT", "postcodes": ["PL21 0TT"]}, "geometry": {"type": "Polygon", "coordinates": [[[-3.8822253087347405, 50.36467365796762], [-3.8777199901387887, 50.365389994458184], [-3.8722047213701956, 50.36735102599583], [-3.8631263972186294, 50.36373696490855], [-3.861817696270117, 50.36202407783108], [-3.8655435272580982, 50.3571846608611], [-3.880994139230732, 50.36227940743722], [-3.8822253087347405, 50.36467365796762]]]}}, {"type": "Feature", "properties": {"type": "postcode-cell", "postcode": "TQ7 4BD", "postcodes": ["TQ7 4BD"]}, "geometry": {"type": "Polygon", "coordinates": [[[-3.8682333004651897, 50.29585858098385], [-3.8626444499100754, 50.29723616299255], [-3.8622899901614396, 50.29634999440564], [-3.8626599901623826, 50.294849994404494], [-3.863409990163026, 50.29449999440423], [-3.8625599901626653, 50.294119994403935], [-3.8607499901623856, 50.292269994402574], [-3.8604999901626282, 50.29141999440193], [-3.862639990164623, 50.29007999440086], [-3.864909990166413, 50.28934999440024], [-3.8663599901680312, 50.28787999439909], [-3.8673499901686803, 50.28783999439905], [-3.867099990168848, 50.28714999439852], [-3.867328934640568, 50.28684361707645], [-3.8682333004651897, 50.29585858098385]]]}}, {"type": "Feature", "properties": {"type": "postcode-cell", "postcode": "PL21 0TW", "postcodes": ["PL21 0TW"]}, "geometry": {"type": "Polygon", "coordinates": [[[-3.8592685043280426, 50.37144697614604], [-3.8631263972186294, 50.36373696490855], [-3.8722047213701956, 50.36735102599583], [-3.870969990133339, 50.3677899944602], [-3.8673899901298405, 50.37034999446225], [-3.8661799901281886, 50.37221999446372], [-3.8645103701558727, 50.37368419611531], [-3.8592685043280426, 50.37144697614604]]]}}, {"type": "Feature", "properties": {"type": "postcode-cell", "postcode": "PL21 0TU", "postcodes": ["PL21 0TU"]}, "geometry": {"type": "Polygon", "coordinates": [[[-3.8631263972186294, 50.36373696490855], [-3.8592685043280426, 50.37144697614604], [-3.840749369243841, 50.37025918059595], [-3.843588366796716, 50.36539799833495], [-3.846545636007003, 50.36353344287623], [-3.861817696270117, 50.36202407783108], [-3.8631263972186294, 50.36373696490855]]]}}, {"type": "Feature", "properties": {"type": "postcode-cell", "postcode": "TQ7 4NJ", "postcodes": ["TQ7 4NJ"]}, "geometry": {"type": "Polygon", "coordinates": [[[-3.865737513385703, 50.3303009730068], [-3.8643499901469203, 50.32992999443129], [-3.8574099901424432, 50.33002999443154], [-3.8569499901425375, 50.329199994430894], [-3.854209990141195, 50.328339994430294], [-3.8535099901412675, 50.327239994429476], [-3.8558499901435868, 50.32548999442809], [-3.8532299901424207, 50.32441999442733], [-3.8535323064130935, 50.32428395286975], [-3.868260807553626, 50.32326918741625], [-3.865737513385703, 50.3303009730068]]]}}, {"type": "Feature", "properties": {"type": "postcode-cell", "postcode": "TQ7 4BE", "postcodes": ["TQ7 4BE"]}, "geometry": {"type": "MultiPolygon", "coordinates": [[[[-3.8624085174759104, 50.30313166733934], [-3.858182917408279, 50.314249545993725], [-3.858029990150443, 50.313899994419174], [-3.8589299901520415, 50.31172999441748], [-3.8584799901520856, 50.31102999441697], [-3.85513999015071, 50.3094299944158], [-3.8547199901506124, 50.30906999441556], [-3.8544299901507415, 50.30840999441507], [-3.854079990150545, 50.30834999441501], [-3.8538699901504296, 50.30830999441499], [-3.853919990150541, 50.308139994414866], [-3.8539999901507134, 50.30787999441466], [-3.8527099901502435, 50.30713999441413], [-3.851939990149986, 50.30664999441378], [-3.851749990149888, 50.306599994413745], [-3.851269990149711, 50.30631999441353], [-3.8507899901496763, 50.30574999441312], [-3.8510699901502417, 50.3049299944125], [-3.854459990153327, 50.30296999441091], [-3.8547099901536677, 50.30257999441058], [-3.854349990153631, 50.3021799944103], [-3.8593899901574877, 50.30080999440912], [-3.8605115664599716, 50.30022439271686], [-3.8624085174759104, 50.30313166733934]]], [[[-3.8537399901504923, 50.30799999441475], [-3.8537899901505206, 50.30800999441478], [-3.853779990150467, 50.30810999441484], [-3.8537399901504923, 50.30799999441475]]], [[[-3.853959990150429, 50.308429994415086], [-3.8543699901506114, 50.3085999944152], [-3.8546799901506, 50.30903999441554], [-3.853959990150429, 50.308429994415086]]]]}}, {"type": "Feature", "properties": {"type": "postcode-cell", "postcode": "PL21 0SJ", "postcodes": ["PL21 0SJ"]}, "geometry": {"type": "Polygon", "coordinates": [[[-3.8655435272580982, 50.3571846608611], [-3.861817696270117, 50.36202407783108], [-3.846545636007003, 50.36353344287623], [-3.85199738005845, 50.34947370901606], [-3.8520510773920886, 50.34949951215606], [-3.8540999901305186, 50.35084999444756], [-3.8545577557784556, 50.350703985048575], [-3.8651348935314784, 50.355785077477634], [-3.8655435272580982, 50.3571846608611]]]}}, {"type": "Feature", "properties": {"type": "postcode-cell", "postcode": "PL21 0SQ", "postcodes": ["PL21 0SQ"]}, "geometry": {"type": "Polygon", "coordinates": [[[-3.843588366796716, 50.36539799833495], [-3.840749369243841, 50.37025918059595], [-3.838576898484556, 50.371657332312836], [-3.837079990109715, 50.37192999446415], [-3.8324899901067857, 50.371919994464236], [-3.830929990106686, 50.370019994462815], [-3.8268399901033763, 50.37149999446403], [-3.8256099901021363, 50.37246999446482], [-3.8214499900994046, 50.37262999446505], [-3.820949990099964, 50.37076999446362], [-3.8224499901017546, 50.36899999446223], [-3.8228699901026553, 50.36765999446117], [-3.824279990104226, 50.366239994460074], [-3.8244399901051054, 50.36458999445879], [-3.8229399901052736, 50.362209994457], [-3.821899990106795, 50.357579994453474], [-3.8228499901084314, 50.35539999445178], [-3.8226099901086004, 50.35471999445129], [-3.8258599901111796, 50.353639994450376], [-3.8294499901137042, 50.35313999444988], [-3.8311786758529367, 50.35238915471512], [-3.843588366796716, 50.36539799833495]]]}}, {"type": "Feature", "properties": {"type": "postcode-cell", "postcode": "PL21 0SH", "postcodes": ["PL21 0SH"]}, "geometry": {"type": "Polygon", "coordinates": [[[-3.843588366796716, 50.36539799833495], [-3.8311786758529367, 50.35238915471512], [-3.831429990115373, 50.35227999444918], [-3.835179990118103, 50.35155999444856], [-3.8385099901207775, 50.35039999444759], [-3.8410699901225125, 50.35017999444734], [-3.8445899901253537, 50.34891999444631], [-3.8467399901267334, 50.34889999444623], [-3.8501099901292073, 50.34821999444566], [-3.8519855576512407, 50.34945632480377], [-3.85199738005845, 50.34947370901606], [-3.846545636007003, 50.36353344287623], [-3.843588366796716, 50.36539799833495]]]}}]}