{"type": "FeatureCollection", "features": [{"type": "Feature", "properties": {"type": "ward-outline", "name": "Chittlehampton"}, "geometry": {"type": "Polygon", "coordinates": [[[-3.85161, 51.04587], [-3.85399, 51.04353], [-3.85394, 51.04226], [-3.85517, 51.03982], [-3.85494, 51.03907], [-3.85444, 51.03884], [-3.85552, 51.03878], [-3.85578, 51.03535], [-3.85545, 51.03473], [-3.85021, 51.03069], [-3.85108, 51.03024], [-3.85097, 51.02952], [-3.85148, 51.02912], [-3.85381, 51.02799], [-3.85648, 51.0241], [-3.86249, 51.02446], [-3.8664, 51.0243], [-3.86815, 51.02401], [-3.86818, 51.02364], [-3.86912, 51.02361], [-3.86935, 51.02315], [-3.87716, 51.02243], [-3.87758, 51.02343], [-3.87916, 51.02312], [-3.88129, 51.02335], [-3.88177, 51.02376], [-3.88164, 51.02495], [-3.8871, 51.02503], [-3.88753, 51.02491], [-3.88785, 51.02411], [-3.88857, 51.02411], [-3.88923, 51.02373], [-3.88965, 51.02119], [-3.89061, 51.02128], [-3.89088, 51.02094], [-3.89084, 51.02049], [-3.88965, 51.0195], [-3.89007, 51.01892], [-3.89101, 51.01886], [-3.89097, 51.01732], [-3.8895, 51.01423], [-3.88856, 51.01336], [-3.88866, 51.01195], [-3.89115, 51.01007], [-3.89081, 51.0099], [-3.8901, 51.01029], [-3.8898, 51.00864], [-3.89057, 51.00703], [-3.88977, 51.00546], [-3.89051, 51.00267], [-3.89028, 51.00076], [-3.88929, 50.99988], [-3.89006, 50.99835], [-3.88868, 50.99777], [-3.88951, 50.99686], [-3.88863, 50.99564], [-3.88936, 50.99502], [-3.88873, 50.99431], [-3.88901, 50.99347], [-3.88839, 50.99172], [-3.88873, 50.99032], [-3.88819, 50.98988], [-3.88811, 50.99044], [-3.887, 50.99076], [-3.88501, 50.98966], [-3.8842, 50.98986], [-3.88435, 50.99052], [-3.88207, 50.98984], [-3.87453, 50.99018], [-3.87114, 50.99072], [-3.86541, 50.99003], [-3.86452, 50.99042], [-3.86282, 50.99042], [-3.86167, 50.9909], [-3.85931, 50.99061], [-3.85799, 50.98935], [-3.85826, 50.989], [-3.85786, 50.98716], [-3.85623, 50.98582], [-3.85363, 50.98505], [-3.85394, 50.98463], [-3.85525, 50.98487], [-3.85509, 50.98417], [-3.85066, 50.98272], [-3.84884, 50.9818], [-3.84718, 50.9815], [-3.84654, 50.98191], [-3.84575, 50.98182], [-3.84124, 50.98267], [-3.84013, 50.98202], [-3.83829, 50.98198], [-3.83435, 50.97863], [-3.83212, 50.97804], [-3.83074, 50.97926], [-3.82874, 50.97961], [-3.82743, 50.98031], [-3.827, 50.98135], [-3.82749, 50.98331], [-3.82614, 50.98417], [-3.82416, 50.98455], [-3.81993, 50.98447], [-3.81983, 50.98396], [-3.82054, 50.98346], [-3.81946, 50.98298], [-3.81943, 50.98246], [-3.81869, 50.98226], [-3.81856, 50.98271], [-3.81761, 50.98257], [-3.8178, 50.98226], [-3.81702, 50.982], [-3.81699, 50.98232], [-3.81589, 50.98208], [-3.81535, 50.98159], [-3.81561, 50.98114], [-3.8152, 50.98105], [-3.81565, 50.9804], [-3.81498, 50.98028], [-3.81486, 50.97991], [-3.81442, 50.98009], [-3.81289, 50.97968], [-3.81312, 50.97902], [-3.8138, 50.97852], [-3.8136, 50.97822], [-3.81827, 50.97605], [-3.81875, 50.97612], [-3.81929, 50.97534], [-3.81887, 50.97399], [-3.81922, 50.97378], [-3.81912, 50.97289], [-3.81974, 50.97243], [-3.82533, 50.97012], [-3.82606, 50.96886], [-3.82944, 50.96792], [-3.83002, 50.96662], [-3.83252, 50.96518], [-3.83361, 50.96214], [-3.83288, 50.95813], [-3.83453, 50.9554], [-3.83311, 50.95436], [-3.8351, 50.95465], [-3.83753, 50.95228], [-3.84312, 50.94793], [-3.84284, 50.94772], [-3.84348, 50.94724], [-3.84346, 50.94622], [-3.84286, 50.94521], [-3.84336, 50.94513], [-3.84559, 50.94498], [-3.84936, 50.94564], [-3.85513, 50.94538], [-3.85884, 50.94562], [-3.85916, 50.94611], [-3.86034, 50.94649], [-3.86283, 50.94656], [-3.86562, 50.9461], [-3.8685, 50.94626], [-3.86969, 50.94701], [-3.87114, 50.94733], [-3.87202, 50.94701], [-3.87215, 50.94722], [-3.87522, 50.947], [-3.87735, 50.94809], [-3.87763, 50.94794], [-3.87793, 50.94824], [-3.87917, 50.94834], [-3.88112, 50.94902], [-3.88195, 50.9489], [-3.88267, 50.94913], [-3.88349, 50.94964], [-3.8834, 50.95005], [-3.8843, 50.95089], [-3.88535, 50.95141], [-3.89021, 50.95018], [-3.89522, 50.94953], [-3.89739, 50.94978], [-3.89973, 50.94447], [-3.90347, 50.94291], [-3.90751, 50.94217], [-3.90799, 50.94346], [-3.90899, 50.94423], [-3.91105, 50.94498], [-3.91414, 50.9454], [-3.91567, 50.94696], [-3.91801, 50.94743], [-3.92306, 50.95008], [-3.92475, 50.95152], [-3.92663, 50.95464], [-3.92831, 50.95656], [-3.92895, 50.96035], [-3.92987, 50.96099], [-3.93357, 50.96212], [-3.93487, 50.96222], [-3.93713, 50.96166], [-3.93987, 50.96194], [-3.94443, 50.9615], [-3.94593, 50.96088], [-3.94701, 50.95993], [-3.94982, 50.95947], [-3.95205, 50.95848], [-3.95375, 50.95835], [-3.95814, 50.95642], [-3.96088, 50.95614], [-3.96404, 50.9572], [-3.96568, 50.95821], [-3.96655, 50.95973], [-3.96625, 50.96143], [-3.96492, 50.96334], [-3.96374, 50.96422], [-3.96061, 50.96561], [-3.95809, 50.96575], [-3.95736, 50.96621], [-3.957, 50.96683], [-3.95815, 50.96895], [-3.95794, 50.9702], [-3.95842, 50.9717], [-3.95788, 50.97224], [-3.95334, 50.97436], [-3.9526, 50.97595], [-3.95287, 50.97657], [-3.9544, 50.97745], [-3.95825, 50.97777], [-3.95844, 50.97849], [-3.95785, 50.98075], [-3.95809, 50.98133], [-3.95875, 50.98164], [-3.96108, 50.98107], [-3.96143, 50.97971], [-3.96072, 50.97894], [-3.96256, 50.9789], [-3.96539, 50.98048], [-3.9677, 50.98087], [-3.97018, 50.98067], [-3.97317, 50.98203], [-3.97424, 50.98202], [-3.97577, 50.98067], [-3.97655, 50.98055], [-3.9806, 50.98101], [-3.9837, 50.98211], [-3.98561, 50.98033], [-3.98809, 50.9795], [-3.98994, 50.97829], [-3.99073, 50.97579], [-3.99175, 50.9744], [-3.99228, 50.97426], [-3.9928, 50.97449], [-3.99985, 50.97266], [-4.00123, 50.97264], [-4.00386, 50.97194], [-4.00609, 50.97278], [-4.00649, 50.97245], [-4.00492, 50.96953], [-4.00742, 50.96888], [-4.01031, 50.96753], [-4.01182, 50.96739], [-4.01293, 50.96775], [-4.01305, 50.96808], [-4.01463, 50.96825], [-4.01564, 50.96874], [-4.01853, 50.96867], [-4.02001, 50.96945], [-4.02028, 50.9699], [-4.0197, 50.97104], [-4.01973, 50.97209], [-4.02307, 50.97324], [-4.02486, 50.97343], [-4.02656, 50.9744], [-4.02795, 50.9761], [-4.02806, 50.97698], [-4.02907, 50.97704], [-4.03058, 50.97836], [-4.03147, 50.97833], [-4.03145, 50.97859], [-4.03308, 50.97898], [-4.03309, 50.97934], [-4.03439, 50.97978], [-4.03429, 50.98023], [-4.03566, 50.98084], [-4.03624, 50.98158], [-4.03573, 50.98217], [-4.03624, 50.98232], [-4.03648, 50.9835], [-4.03753, 50.98519], [-4.03737, 50.98597], [-4.0368, 50.98632], [-4.03714, 50.987], [-4.03681, 50.98792], [-4.03695, 50.98825], [-4.03738, 50.98815], [-4.03638, 50.98974], [-4.03571, 50.99005], [-4.0358, 50.99041], [-4.03536, 50.99042], [-4.03549, 50.99181], [-4.03513, 50.99199], [-4.03555, 50.99253], [-4.03604, 50.9925], [-4.03587, 50.99285], [-4.03652, 50.99329], [-4.03588, 50.99382], [-4.03622, 50.99461], [-4.03686, 50.99452], [-4.03731, 50.99513], [-4.03604, 50.99566], [-4.03538, 50.99692], [-4.03357, 50.99709], [-4.03371, 50.99904], [-4.03282, 51.00284], [-4.0343, 51.00762], [-4.0304, 51.00736], [-4.02496, 51.00634], [-4.02264, 51.00629], [-4.02262, 51.0042], [-4.02455, 51.00308], [-4.02355, 51.00339], [-4.02294, 51.00317], [-4.02155, 51.00373], [-4.02143, 51.00425], [-4.02069, 51.00422], [-4.02071, 51.00452], [-4.01994, 51.00451], [-4.01484, 51.00671], [-4.01494, 51.00719], [-4.01425, 51.00747], [-4.01419, 51.00806], [-4.01501, 51.00958], [-4.01476, 51.01041], [-4.01418, 51.01064], [-4.01259, 51.01251], [-4.01106, 51.01204], [-4.00953, 51.01094], [-4.00875, 51.01113], [-4.00602, 51.01074], [-4.0053, 51.00995], [-4.00527, 51.01022], [-4.00412, 51.01033], [-4.00351, 51.01074], [-4.003, 51.01079], [-4.00285, 51.01039], [-4.00207, 51.01079], [-4.00138, 51.01056], [-4.0013, 51.01098], [-4.00032, 51.0112], [-3.99846, 51.01088], [-3.99784, 51.01114], [-3.99786, 51.01082], [-3.99748, 51.011], [-3.99622, 51.0107], [-3.99498, 51.01103], [-3.99411, 51.01084], [-3.99394, 51.01111], [-3.99298, 51.01101], [-3.99303, 51.01124], [-3.99242, 51.01123], [-3.9926, 51.01145], [-3.99147, 51.01143], [-3.99149, 51.0119], [-3.98884, 51.01279], [-3.98819, 51.01356], [-3.98761, 51.01553], [-3.9871, 51.01578], [-3.98812, 51.0177], [-3.98627, 51.01817], [-3.98574, 51.01904], [-3.98576, 51.0202], [-3.98613, 51.02091], [-3.989, 51.02213], [-3.99012, 51.02562], [-3.98988, 51.02659], [-3.99103, 51.02912], [-3.9913, 51.03328], [-3.99217, 51.03482], [-3.98661, 51.03008], [-3.98351, 51.02921], [-3.97503, 51.03072], [-3.96743, 51.03112], [-3.95809, 51.03115], [-3.95466, 51.03262], [-3.95239, 51.03307], [-3.95105, 51.03129], [-3.94665, 51.03174], [-3.94059, 51.03102], [-3.94, 51.0321], [-3.94013, 51.03319], [-3.94196, 51.03513], [-3.94113, 51.03684], [-3.93927, 51.03796], [-3.93493, 51.03927], [-3.93386, 51.03986], [-3.93426, 51.04071], [-3.93393, 51.0418], [-3.93467, 51.04324], [-3.93627, 51.04409], [-3.93592, 51.04507], [-3.93125, 51.04413], [-3.9273, 51.04432], [-3.92511, 51.0439], [-3.91751, 51.04407], [-3.91503, 51.04363], [-3.91243, 51.04488], [-3.91082, 51.04623], [-3.90845, 51.04646], [-3.90869, 51.04699], [-3.90813, 51.04712], [-3.90802, 51.04832], [-3.90716, 51.04904], [-3.90671, 51.0509], [-3.90557, 51.0526], [-3.90644, 51.05359], [-3.90608, 51.05614], [-3.90451, 51.05614], [-3.90134, 51.05687], [-3.89504, 51.05667], [-3.88903, 51.05573], [-3.88367, 51.05543], [-3.87654, 51.05365], [-3.87509, 51.05298], [-3.87392, 51.05376], [-3.87302, 51.05329], [-3.87262, 51.05338], [-3.87127, 51.05473], [-3.86674, 51.05449], [-3.86503, 51.05507], [-3.86395, 51.0559], [-3.85871, 51.05538], [-3.85801, 51.05416], [-3.85877, 51.054], [-3.85809, 51.05309], [-3.85734, 51.05326], [-3.85746, 51.05347], [-3.85452, 51.05371], [-3.85231, 51.05309], [-3.85284, 51.04926], [-3.8502, 51.04903], [-3.849, 51.04815], [-3.85161, 51.04587]]]}}, {"type": "Feature", "properties": {"type": "postcode-cell", "postcode": "EX37 9EQ", "postcodes": ["EX37 9EQ"]}, "geometry": {"type": "Polygon", "coordinates": [[[-4.023205562795659, 51.00386018965558], [-4.0245499899425905, 51.00307999496267], [-4.02354998994178, 51.00338999496295], [-4.0233578188251675, 51.003320687921054], [-4.024582829656955, 50.99897956209523], [-4.025802809818147, 50.998369356307514], [-4.033664367995839, 50.998404567950274], [-4.033709989950587, 50.99903999495931], [-4.032819989948284, 51.00283999496243], [-4.034299989947139, 51.00761999496633], [-4.030399989944624, 51.00735999496616], [-4.024959989941408, 51.006339994965344], [-4.022639989939864, 51.00628999496533], [-4.022636047936336, 51.00587809269277], [-4.023205562795659, 51.00386018965558]]]}}, {"type": "Feature", "properties": {"type": "postcode-cell", "postcode": "EX37 9HR", "postcodes": ["EX37 9HR"]}, "geometry": {"type": "Polygon", "coordinates": [[[-4.031842015295293, 50.98756509318895], [-4.029857322197803, 50.977728270880405], [-4.030579989957751, 50.97835999494242], [-4.031469989958364, 50.97832999494237], [-4.031449989958234, 50.978589994942595], [-4.033079989959155, 50.978979994942904], [-4.033089989959003, 50.9793399949432], [-4.03438998995968, 50.97977999494355], [-4.034289989959413, 50.98022999494391], [-4.035659989960063, 50.98083999494441], [-4.036239989960122, 50.981579994944994], [-4.035729989959513, 50.982169994945494], [-4.036239989959791, 50.98231999494561], [-4.036479989959423, 50.98349999494657], [-4.037529989959374, 50.98518999494795], [-4.037369989958916, 50.98596999494858], [-4.036799989958375, 50.98631999494888], [-4.037139989958302, 50.986999994949436], [-4.036809989957664, 50.98791999495019], [-4.036949989957608, 50.98824999495046], [-4.037379989957945, 50.98814999495037], [-4.036963033608739, 50.98881296949819], [-4.031842015295293, 50.98756509318895]]]}}, {"type": "Feature", "properties": {"type": "postcode-cell", "postcode": "EX37 9BJ", "postcodes": ["EX37 9BJ"]}, "geometry": {"type": "Polygon", "coordinates": [[[-4.015175080421275, 50.98343649788051], [-4.013632957501313, 50.98316982561123], [-4.011503568644439, 50.9827544458362], [-4.010042515889555, 50.98242092825604], [-4.007922815609327, 50.97613091498694], [-4.012836660879863, 50.96771972667232], [-4.0129299899506305, 50.96774999493387], [-4.013049989950566, 50.96807999493414], [-4.014629989951553, 50.96824999493426], [-4.015639989952013, 50.96873999493465], [-4.01852998995399, 50.9686699949346], [-4.020009989954632, 50.96944999493521], [-4.02027998995461, 50.96989999493557], [-4.019699989953709, 50.971039994936525], [-4.019729989953257, 50.97208999493738], [-4.023069989954988, 50.97323999493828], [-4.024859989956109, 50.97342999493843], [-4.02655998995682, 50.974399994939226], [-4.027949989956992, 50.976099994940576], [-4.027963206565122, 50.97620572978024], [-4.015175080421275, 50.98343649788051]]]}}, {"type": "Feature", "properties": {"type": "postcode-cell", "postcode": "EX37 9EG", "postcodes": ["EX37 9EG"]}, "geometry": {"type": "Polygon", "coordinates": [[[-4.036963033608739, 50.98881296949819], [-4.036379989956557, 50.98973999495168], [-4.0357099899559685, 50.99004999495193], [-4.035799989955865, 50.99040999495223], [-4.035359989955563, 50.99041999495225], [-4.035489989955027, 50.99180999495339], [-4.035129989954705, 50.99198999495353], [-4.035549989954746, 50.992529994953976], [-4.036039989955092, 50.992499994953945], [-4.035869989954818, 50.992849994954206], [-4.03651998995506, 50.99328999495459], [-4.03587998995439, 50.99381999495502], [-4.036219989954267, 50.994609994955674], [-4.036859989954737, 50.99451999495559], [-4.037309989954767, 50.995129994956095], [-4.036039989953673, 50.99565999495652], [-4.035379989952663, 50.99691999495757], [-4.033569989951366, 50.99708999495773], [-4.033664367995839, 50.998404567950274], [-4.025802809818147, 50.998369356307514], [-4.022681886406294, 50.98946865711533], [-4.031842015295293, 50.98756509318895], [-4.036963033608739, 50.98881296949819]]]}}, {"type": "Feature", "properties": {"type": "postcode-cell", "postcode": "EX37 9HW", "postcodes": ["EX37 9HW"]}, "geometry": {"type": "Polygon", "coordinates": [[[-4.025802809818147, 50.998369356307514], [-4.024582829656955, 50.99897956209523], [-4.019313436537993, 50.998647516623926], [-4.011137979638208, 50.9934797511647], [-4.0189991081173275, 50.98821980835429], [-4.022681886406294, 50.98946865711533], [-4.025802809818147, 50.998369356307514]]]}}, {"type": "Feature", "properties": {"type": "postcode-cell", "postcode": "EX37 9DY", "postcodes": ["EX37 9DY"]}, "geometry": {"type": "MultiPolygon", "coordinates": [[[[-4.0233578188251675, 51.003320687921054], [-4.022939989941467, 51.003169994962754], [-4.021549989940277, 51.00372999496322], [-4.021429989939963, 51.00424999496365], [-4.020689989939477, 51.00421999496364], [-4.0207099899393555, 51.00451999496387], [-4.019939989938843, 51.00450999496389], [-4.014839989934413, 51.006709994965696], [-4.014939989934265, 51.007189994966105], [-4.014249989933674, 51.007469994966335], [-4.014189989933372, 51.00805999496683], [-4.01500998993324, 51.00957999496808], [-4.014759989932699, 51.01040999496875], [-4.014179989932205, 51.010639994968926], [-4.0134784085510775, 51.01146514616025], [-4.013395313218518, 51.000432001550934], [-4.019313436537993, 50.998647516623926], [-4.024582829656955, 50.99897956209523], [-4.0233578188251675, 51.003320687921054]]], [[[-4.022636047936336, 51.00587809269277], [-4.022619989940786, 51.00419999496361], [-4.023205562795659, 51.00386018965558], [-4.022636047936336, 51.00587809269277]]]]}}, {"type": "Feature", "properties": {"type": "postcode-cell", "postcode": "EX37 9HP", "postcodes": ["EX37 9HP"]}, "geometry": {"type": "Polygon", "coordinates": [[[-4.015175080421275, 50.98343649788051], [-4.027963206565122, 50.97620572978024], [-4.02805998995667, 50.976979994941296], [-4.029069989957325, 50.97703999494134], [-4.029857322197803, 50.977728270880405], [-4.031842015295293, 50.98756509318895], [-4.022681886406294, 50.98946865711533], [-4.0189991081173275, 50.98821980835429], [-4.015175080421275, 50.98343649788051]]]}}, {"type": "Feature", "properties": {"type": "postcode-cell", "postcode": "EX37 9FB", "postcodes": ["EX37 9FB"]}, "geometry": {"type": "Polygon", "coordinates": [[[-4.0189991081173275, 50.98821980835429], [-4.011137979638208, 50.9934797511647], [-4.0066188606264985, 50.99408234914411], [-4.006346613425193, 50.99359715445326], [-4.006598080141052, 50.99315162938919], [-4.013632957501313, 50.98316982561123], [-4.015175080421275, 50.98343649788051], [-4.0189991081173275, 50.98821980835429]]]}}, {"type": "Feature", "properties": {"type": "postcode-cell", "postcode": "EX37 9HN", "postcodes": ["EX37 9HN"]}, "geometry": {"type": "Polygon", "coordinates": [[[-4.019313436537993, 50.998647516623926], [-4.013395313218518, 51.000432001550934], [-4.0071656448692465, 50.99961304376027], [-4.0033267726126835, 50.996884388813235], [-4.0066188606264985, 50.99408234914411], [-4.011137979638208, 50.9934797511647], [-4.019313436537993, 50.998647516623926]]]}}, {"type": "Feature", "properties": {"type": "postcode-cell", "postcode": "EX37 9HA", "postcodes": ["EX37 9HA"]}, "geometry": {"type": "Polygon", "coordinates": [[[-3.9088483752183802, 50.95351948560688], [-3.903575768733355, 50.955038578082714], [-3.89606660983235, 50.94962753691507], [-3.897389989881462, 50.94977999492015], [-3.899729989885434, 50.94446999491581], [-3.9034699898886336, 50.94290999491451], [-3.907509989891658, 50.94216999491387], [-3.9079899898913877, 50.94345999491492], [-3.9089899898917047, 50.94422999491552], [-3.911049989892738, 50.94497999491613], [-3.9141399898946037, 50.94539999491645], [-3.915669989894916, 50.946959994917705], [-3.9170144657877204, 50.94723004615134], [-3.9088483752183802, 50.95351948560688]]]}}, {"type": "Feature", "properties": {"type": "postcode-cell", "postcode": "EX37 9SB", "postcodes": ["EX37 9SB"]}, "geometry": {"type": "Polygon", "coordinates": [[[-3.9794761273838604, 51.02322954269947], [-3.9836745983351953, 51.0161732059153], [-3.9877368913021223, 51.015098981707716], [-3.987609989912105, 51.0155299949731], [-3.98709998991165, 51.015779994973315], [-3.988119989911474, 51.017699994974876], [-3.9862699899100185, 51.01816999497528], [-3.98573998990927, 51.01903999497599], [-3.9857599899087597, 51.020199994976934], [-3.986129989908693, 51.020909994977515], [-3.9889999899100737, 51.0221299949785], [-3.989627288076623, 51.02408476997806], [-3.9794761273838604, 51.02322954269947]]]}}, {"type": "Feature", "properties": {"type": "postcode-cell", "postcode": "EX37 9DX", "postcodes": ["EX37 9DX"]}, "geometry": {"type": "Polygon", "coordinates": [[[-4.0134784085510775, 51.01146514616025], [-4.0125899899302935, 51.01250999497048], [-4.011059989929474, 51.01203999497012], [-4.009529989928935, 51.0109399949692], [-4.008749989928324, 51.01112999496938], [-4.006390790369071, 51.010792970607405], [-4.0071656448692465, 50.99961304376027], [-4.013395313218518, 51.000432001550934], [-4.0134784085510775, 51.01146514616025]]]}}, {"type": "Feature", "properties": {"type": "postcode-cell", "postcode": "EX37 9JA", "postcodes": ["EX37 9JA"]}, "geometry": {"type": "Polygon", "coordinates": [[[-4.0033267726126835, 50.996884388813235], [-3.996255762698308, 50.997820884566714], [-3.9949595695966567, 50.99683989432143], [-3.9925981180850387, 50.99145565574602], [-3.9988691777632366, 50.98489566556555], [-3.999611062427242, 50.98493502165905], [-4.006346613425193, 50.99359715445326], [-4.0066188606264985, 50.99408234914411], [-4.0033267726126835, 50.996884388813235]]]}}, {"type": "Feature", "properties": {"type": "postcode-cell", "postcode": "EX37 9HY", "postcodes": ["EX37 9HY"]}, "geometry": {"type": "Polygon", "coordinates": [[[-4.013632957501313, 50.98316982561123], [-4.006598080141052, 50.99315162938919], [-4.011503568644439, 50.9827544458362], [-4.013632957501313, 50.98316982561123]]]}}, {"type": "Feature", "properties": {"type": "postcode-cell", "postcode": "EX37 9HU", "postcodes": ["EX37 9HU"]}, "geometry": {"type": "Polygon", "coordinates": [[[-4.006346613425193, 50.99359715445326], [-3.999611062427242, 50.98493502165905], [-4.010042515889555, 50.98242092825604], [-4.011503568644439, 50.9827544458362], [-4.006598080141052, 50.99315162938919], [-4.006346613425193, 50.99359715445326]]]}}, {"type": "Feature", "properties": {"type": "postcode-cell", "postcode": "EX37 9HZ", "postcodes": ["EX37 9HZ"]}, "geometry": {"type": "Polygon", "coordinates": [[[-3.999611062427242, 50.98493502165905], [-3.9988691777632366, 50.98489566556555], [-3.9911939688717317, 50.98078624139631], [-3.9893792357222786, 50.97865676815458], [-3.989939989930431, 50.97828999494265], [-3.9907299899320887, 50.9757899949406], [-3.99104009712941, 50.975367407433104], [-4.007922815609327, 50.97613091498694], [-4.010042515889555, 50.98242092825604], [-3.999611062427242, 50.98493502165905]]]}}, {"type": "Feature", "properties": {"type": "postcode-cell", "postcode": "EX37 9FE", "postcodes": ["EX37 9FE"]}, "geometry": {"type": "Polygon", "coordinates": [[[-4.0071656448692465, 50.99961304376027], [-4.006390790369071, 51.010792970607405], [-4.006019989926657, 51.01073999496906], [-4.005299989926528, 51.00994999496842], [-4.005269989926386, 51.01021999496866], [-4.004119989925562, 51.01032999496875], [-4.003509989924967, 51.0107399949691], [-4.002999989924602, 51.01078999496914], [-4.00284998992468, 51.01038999496882], [-4.002069989923972, 51.01078999496914], [-4.001379989923612, 51.01055999496896], [-4.001299989923371, 51.0109799949693], [-4.000319989922609, 51.01119999496949], [-3.998459989921501, 51.010879994969216], [-3.997839989920968, 51.01113999496947], [-3.9978599899211247, 51.01081999496919], [-3.997479989920787, 51.01099999496934], [-3.9962199899200748, 51.0106999949691], [-3.994979989919092, 51.01102999496937], [-3.994109989918588, 51.01083999496922], [-3.9939399899183536, 51.01110999496946], [-3.993590083554369, 51.01107354735654], [-3.9921403643606195, 51.005392815403866], [-3.996255762698308, 50.997820884566714], [-4.0033267726126835, 50.996884388813235], [-4.0071656448692465, 50.99961304376027]]]}}, {"type": "Feature", "properties": {"type": "postcode-cell", "postcode": "EX37 9DU", "postcodes": ["EX37 9DU"]}, "geometry": {"type": "Polygon", "coordinates": [[[-3.996255762698308, 50.997820884566714], [-3.9921403643606195, 51.005392815403866], [-3.9829104137540656, 51.001831399439], [-3.982594399876813, 50.998287379100795], [-3.983267240836766, 50.99802962311108], [-3.989834205103457, 50.9965722067842], [-3.9949595695966567, 50.99683989432143], [-3.996255762698308, 50.997820884566714]]]}}, {"type": "Feature", "properties": {"type": "postcode-cell", "postcode": "EX37 9NU", "postcodes": ["EX37 9NU"]}, "geometry": {"type": "Polygon", "coordinates": [[[-3.9456321068191404, 50.97478432681144], [-3.938059012076226, 50.96175493910652], [-3.9398699899042717, 50.961939994929686], [-3.9444299899075177, 50.961499994929305], [-3.9459299899088007, 50.96087999492878], [-3.947009989909953, 50.959929994928004], [-3.9498199899120405, 50.95946999492762], [-3.9520499899139794, 50.958479994926776], [-3.9537499899151767, 50.958349994926664], [-3.958139989918983, 50.956419994925064], [-3.960879989920941, 50.95613999492478], [-3.9640399899225804, 50.95719999492563], [-3.965679989923223, 50.95820999492645], [-3.9665499899231182, 50.95972999492767], [-3.966249989922149, 50.96142999492907], [-3.964919989920397, 50.96333999493065], [-3.9637399899192074, 50.96421999493136], [-3.9606099899164837, 50.96560999493253], [-3.9580899899147335, 50.965749994932665], [-3.957359989914037, 50.96620999493304], [-3.9569999899135126, 50.96682999493355], [-3.958149989913327, 50.968949994935244], [-3.957939989912622, 50.97019999493628], [-3.958387004384645, 50.971596918471064], [-3.9456321068191404, 50.97478432681144]]]}}, {"type": "Feature", "properties": {"type": "postcode-cell", "postcode": "EX37 9BH", "postcodes": ["EX37 9BH"]}, "geometry": {"type": "Polygon", "coordinates": [[[-4.007922815609327, 50.97613091498694], [-3.99104009712941, 50.975367407433104], [-3.9917499899333992, 50.974399994939446], [-3.9922799899338193, 50.974259994939324], [-3.9927999899340674, 50.974489994939546], [-3.9998499899396283, 50.972659994937985], [-4.001229989940565, 50.97263999493795], [-4.003859989942647, 50.97193999493736], [-4.00608998994377, 50.97277999493803], [-4.006489989944185, 50.972449994937776], [-4.004919989944444, 50.96952999493537], [-4.00741998994642, 50.96887999493483], [-4.010309989948969, 50.967529994933706], [-4.011819989950049, 50.96738999493359], [-4.012836660879863, 50.96771972667232], [-4.007922815609327, 50.97613091498694]]]}}, {"type": "Feature", "properties": {"type": "postcode-cell", "postcode": "EX37 9AS", "postcodes": ["EX37 9AS"]}, "geometry": {"type": "Polygon", "coordinates": [[[-3.9988691777632366, 50.98489566556555], [-3.9925981180850387, 50.99145565574602], [-3.9863263256594865, 50.9905409856213], [-3.9832255386591435, 50.98855970572075], [-3.9911939688717317, 50.98078624139631], [-3.9988691777632366, 50.98489566556555]]]}}, {"type": "Feature", "properties": {"type": "postcode-cell", "postcode": "EX37 9DB", "postcodes": ["EX37 9DB"]}, "geometry": {"type": "Polygon", "coordinates": [[[-3.9911939688717317, 50.98078624139631], [-3.9832255386591435, 50.98855970572075], [-3.9798813058600233, 50.988443456972455], [-3.974196221843886, 50.982020404185576], [-3.974239989918209, 50.9820199949458], [-3.9757699899198458, 50.98066999494469], [-3.976549989920422, 50.980549994944596], [-3.980599989922935, 50.98100999494493], [-3.9836999899245202, 50.9821099949458], [-3.985609989926604, 50.98032999494435], [-3.9880899899286457, 50.979499994943644], [-3.9893792357222786, 50.97865676815458], [-3.9911939688717317, 50.98078624139631]]]}}, {"type": "Feature", "properties": {"type": "postcode-cell", "postcode": "EX37 9AR", "postcodes": ["EX37 9AR"]}, "geometry": {"type": "Polygon", "coordinates": [[[-3.9949595695966567, 50.99683989432143], [-3.989834205103457, 50.9965722067842], [-3.9845907380418977, 50.99474902031109], [-3.983343806220807, 50.99399689522522], [-3.9863263256594865, 50.9905409856213], [-3.9925981180850387, 50.99145565574602], [-3.9949595695966567, 50.99683989432143]]]}}, {"type": "Feature", "properties": {"type": "postcode-cell", "postcode": "EX37 9AB", "postcodes": ["EX37 9AB"]}, "geometry": {"type": "Polygon", "coordinates": [[[-3.9845907380418977, 50.99474902031109], [-3.983267240836766, 50.99802962311108], [-3.982594399876813, 50.998287379100795], [-3.9769095179607437, 50.995161650206214], [-3.983343806220807, 50.99399689522522], [-3.9845907380418977, 50.99474902031109]]]}}, {"type": "Feature", "properties": {"type": "postcode-cell", "postcode": "EX37 9AF", "postcodes": ["EX37 9AF"]}, "geometry": {"type": "Polygon", "coordinates": [[[-3.993590083554369, 51.01107354735654], [-3.9929799899177536, 51.01100999496936], [-3.9930299899176838, 51.011239994969564], [-3.9924199899172774, 51.011229994969554], [-3.9925738877917305, 51.01141809252141], [-3.9776652771078314, 51.00856935332432], [-3.9755709666703094, 51.00559500778421], [-3.9785407035708285, 51.002083232744496], [-3.9829104137540656, 51.001831399439], [-3.9921403643606195, 51.005392815403866], [-3.993590083554369, 51.01107354735654]]]}}, {"type": "Feature", "properties": {"type": "postcode-cell", "postcode": "EX37 9DA", "postcodes": ["EX37 9DA"]}, "geometry": {"type": "Polygon", "coordinates": [[[-3.9863263256594865, 50.9905409856213], [-3.983343806220807, 50.99399689522522], [-3.9769095179607437, 50.995161650206214], [-3.973992080111143, 50.9947665957229], [-3.9730526770237606, 50.9933378355949], [-3.9798813058600233, 50.988443456972455], [-3.9832255386591435, 50.98855970572075], [-3.9863263256594865, 50.9905409856213]]]}}, {"type": "Feature", "properties": {"type": "postcode-cell", "postcode": "EX37 9AA", "postcodes": ["EX37 9AA"]}, "geometry": {"type": "Polygon", "coordinates": [[[-3.983267240836766, 50.99802962311108], [-3.9845907380418977, 50.99474902031109], [-3.989834205103457, 50.9965722067842], [-3.983267240836766, 50.99802962311108]]]}}, {"type": "Feature", "properties": {"type": "postcode-cell", "postcode": "EX37 9AD", "postcodes": ["EX37 9AD"]}, "geometry": {"type": "Polygon", "coordinates": [[[-3.9829104137540656, 51.001831399439], [-3.9785407035708285, 51.002083232744496], [-3.9721375212179826, 50.998433509708086], [-3.973992080111143, 50.9947665957229], [-3.9769095179607437, 50.995161650206214], [-3.982594399876813, 50.998287379100795], [-3.9829104137540656, 51.001831399439]]]}}, {"type": "Feature", "properties": {"type": "postcode-cell", "postcode": "EX37 9DD", "postcodes": ["EX37 9DD"]}, "geometry": {"type": "Polygon", "coordinates": [[[-3.9600657363687297, 50.98845516332255], [-3.952367693069293, 50.990603820516505], [-3.9517919830800894, 50.99012962188285], [-3.9452356250563674, 50.97502036589469], [-3.9456321068191404, 50.97478432681144], [-3.958387004384645, 50.971596918471064], [-3.9584199899122643, 50.97169999493749], [-3.957879989911659, 50.97223999493795], [-3.9533399899076618, 50.97435999493971], [-3.9525999899064477, 50.975949994941004], [-3.9528699899063473, 50.97656999494151], [-3.954399989906975, 50.97744999494221], [-3.9582499899094072, 50.97776999494245], [-3.9584399899092104, 50.97848999494303], [-3.957849989907794, 50.9807499949449], [-3.9580899899076925, 50.98132999494537], [-3.958749989907998, 50.98163999494561], [-3.961079989909815, 50.981069994945116], [-3.9614299899106613, 50.979709994944], [-3.9607199899105345, 50.978939994943374], [-3.962559989911785, 50.97889999494335], [-3.965389989912971, 50.980479994944616], [-3.9673996978405293, 50.98081929925134], [-3.9600657363687297, 50.98845516332255]]]}}, {"type": "Feature", "properties": {"type": "postcode-cell", "postcode": "EX37 9SA", "postcodes": ["EX37 9SA"]}, "geometry": {"type": "Polygon", "coordinates": [[[-3.980872713709474, 51.02623884627573], [-3.9791571972716313, 51.02335561980759], [-3.9794761273838604, 51.02322954269947], [-3.989627288076623, 51.02408476997806], [-3.990119989909262, 51.02561999498137], [-3.9898799899086645, 51.02658999498215], [-3.991029989908301, 51.02911999498423], [-3.9910510446857885, 51.02944442724232], [-3.980872713709474, 51.02623884627573]]]}}, {"type": "Feature", "properties": {"type": "postcode-cell", "postcode": "EX37 9AG", "postcodes": ["EX37 9AG"]}, "geometry": {"type": "Polygon", "coordinates": [[[-3.9836745983351953, 51.0161732059153], [-3.9762903921049833, 51.01675450795612], [-3.967097205035824, 51.01245920603806], [-3.9776652771078314, 51.00856935332432], [-3.9925738877917305, 51.01141809252141], [-3.9925999899173, 51.01144999496973], [-3.9914699899165464, 51.01142999496972], [-3.991489989916351, 51.01189999497011], [-3.9888399899141667, 51.01278999497086], [-3.988189989913383, 51.01355999497151], [-3.9877368913021223, 51.015098981707716], [-3.9836745983351953, 51.0161732059153]]]}}, {"type": "Feature", "properties": {"type": "postcode-cell", "postcode": "EX37 9SE", "postcodes": ["EX37 9SE"]}, "geometry": {"type": "MultiPolygon", "coordinates": [[[[-3.965568626861128, 51.0299005828807], [-3.9689190722584065, 51.02839433755104], [-3.975734246075518, 51.02799279001036], [-3.982791671576743, 51.02933793063979], [-3.9750299898968082, 51.03071999498563], [-3.9674299898915155, 51.03111999498601], [-3.9641561890218684, 51.0311305954085], [-3.965568626861128, 51.0299005828807]]], [[[-3.991147451222487, 51.03092988116829], [-3.991299989906616, 51.03327999498761], [-3.99216998990651, 51.034819994988894], [-3.986609989904893, 51.03007999498503], [-3.9864489861323085, 51.030034812905164], [-3.991147451222487, 51.03092988116829]]]]}}, {"type": "Feature", "properties": {"type": "postcode-cell", "postcode": "EX37 9SF", "postcodes": ["EX37 9SF"]}, "geometry": {"type": "Polygon", "coordinates": [[[-3.975734246075518, 51.02799279001036], [-3.9689190722584065, 51.02839433755104], [-3.9748268276913166, 51.02346845323423], [-3.9791571972716313, 51.02335561980759], [-3.980872713709474, 51.02623884627573], [-3.975734246075518, 51.02799279001036]]]}}, {"type": "Feature", "properties": {"type": "postcode-cell", "postcode": "EX37 9SD", "postcodes": ["EX37 9SD"]}, "geometry": {"type": "Polygon", "coordinates": [[[-3.980872713709474, 51.02623884627573], [-3.9910510446857885, 51.02944442724232], [-3.991147451222487, 51.03092988116829], [-3.9864489861323085, 51.030034812905164], [-3.983509989903197, 51.02920999498433], [-3.982791671576743, 51.02933793063979], [-3.975734246075518, 51.02799279001036], [-3.980872713709474, 51.02623884627573]]]}}, {"type": "Feature", "properties": {"type": "postcode-cell", "postcode": "EX37 9RZ", "postcodes": ["EX37 9RZ"]}, "geometry": {"type": "Polygon", "coordinates": [[[-3.9791571972716313, 51.02335561980759], [-3.9748268276913166, 51.02346845323423], [-3.9737203149175064, 51.01987227253685], [-3.9762903921049833, 51.01675450795612], [-3.9836745983351953, 51.0161732059153], [-3.9794761273838604, 51.02322954269947], [-3.9791571972716313, 51.02335561980759]]]}}, {"type": "Feature", "properties": {"type": "postcode-cell", "postcode": "EX37 9AE", "postcodes": ["EX37 9AE"]}, "geometry": {"type": "Polygon", "coordinates": [[[-3.9785407035708285, 51.002083232744496], [-3.9755709666703094, 51.00559500778421], [-3.97221343471665, 51.00495279276715], [-3.967543756396875, 51.00073600796813], [-3.9721375212179826, 50.998433509708086], [-3.9785407035708285, 51.002083232744496]]]}}, {"type": "Feature", "properties": {"type": "postcode-cell", "postcode": "EX37 9AL", "postcodes": ["EX37 9AL"]}, "geometry": {"type": "Polygon", "coordinates": [[[-3.9730526770237606, 50.9933378355949], [-3.9600657363687297, 50.98845516332255], [-3.9673996978405293, 50.98081929925134], [-3.967699989914342, 50.98086999494491], [-3.970179989916096, 50.98066999494473], [-3.9731699899174897, 50.982029994945805], [-3.974196221843886, 50.982020404185576], [-3.9798813058600233, 50.988443456972455], [-3.9730526770237606, 50.9933378355949]]]}}, {"type": "Feature", "properties": {"type": "postcode-cell", "postcode": "EX37 9RX", "postcodes": ["EX37 9RX"]}, "geometry": {"type": "Polygon", "coordinates": [[[-3.9641561890218684, 51.0311305954085], [-3.960703660714699, 51.03114167514482], [-3.9561207579575655, 51.019258000691174], [-3.9571923045592414, 51.01720571897806], [-3.9612159231565753, 51.01586851083127], [-3.9659228826545565, 51.02017022010659], [-3.965568626861128, 51.0299005828807], [-3.9641561890218684, 51.0311305954085]]]}}, {"type": "Feature", "properties": {"type": "postcode-cell", "postcode": "EX37 9RY", "postcodes": ["EX37 9RY"]}, "geometry": {"type": "Polygon", "coordinates": [[[-3.9748268276913166, 51.02346845323423], [-3.9689190722584065, 51.02839433755104], [-3.965568626861128, 51.0299005828807], [-3.9659228826545565, 51.02017022010659], [-3.9737203149175064, 51.01987227253685], [-3.9748268276913166, 51.02346845323423]]]}}, {"type": "Feature", "properties": {"type": "postcode-cell", "postcode": "EX37 9SG", "postcodes": ["EX37 9SG"]}, "geometry": {"type": "Polygon", "coordinates": [[[-3.9737203149175064, 51.01987227253685], [-3.9659228826545565, 51.02017022010659], [-3.9612159231565753, 51.01586851083127], [-3.9644593650438624, 51.012272056455096], [-3.967097205035824, 51.01245920603806], [-3.9762903921049833, 51.01675450795612], [-3.9737203149175064, 51.01987227253685]]]}}, {"type": "Feature", "properties": {"type": "postcode-cell", "postcode": "EX37 9AQ", "postcodes": ["EX37 9AQ"]}, "geometry": {"type": "Polygon", "coordinates": [[[-3.967097205035824, 51.01245920603806], [-3.9644593650438624, 51.012272056455096], [-3.9634605876743745, 51.010859459344665], [-3.963451329693027, 51.010436943989156], [-3.97221343471665, 51.00495279276715], [-3.9755709666703094, 51.00559500778421], [-3.9776652771078314, 51.00856935332432], [-3.967097205035824, 51.01245920603806]]]}}, {"type": "Feature", "properties": {"type": "postcode-cell", "postcode": "EX37 9AJ", "postcodes": ["EX37 9AJ"]}, "geometry": {"type": "Polygon", "coordinates": [[[-3.973992080111143, 50.9947665957229], [-3.9721375212179826, 50.998433509708086], [-3.967543756396875, 51.00073600796813], [-3.959848662159071, 51.00169782000925], [-3.9524267841838414, 50.99884169270811], [-3.952335379291975, 50.99876749023201], [-3.950617103216832, 50.99352419505293], [-3.952367693069293, 50.990603820516505], [-3.9600657363687297, 50.98845516332255], [-3.9730526770237606, 50.9933378355949], [-3.973992080111143, 50.9947665957229]]]}}, {"type": "Feature", "properties": {"type": "postcode-cell", "postcode": "EX37 9AH", "postcodes": ["EX37 9AH"]}, "geometry": {"type": "Polygon", "coordinates": [[[-3.97221343471665, 51.00495279276715], [-3.963451329693027, 51.010436943989156], [-3.959848662159071, 51.00169782000925], [-3.967543756396875, 51.00073600796813], [-3.97221343471665, 51.00495279276715]]]}}, {"type": "Feature", "properties": {"type": "postcode-cell", "postcode": "EX37 9PZ", "postcodes": ["EX37 9PZ"]}, "geometry": {"type": "Polygon", "coordinates": [[[-3.963451329693027, 51.010436943989156], [-3.9634605876743745, 51.010859459344665], [-3.9554167982143893, 51.01001405526026], [-3.950040659477059, 51.00803042741475], [-3.9499083037327765, 51.00783730641585], [-3.9524267841838414, 50.99884169270811], [-3.959848662159071, 51.00169782000925], [-3.963451329693027, 51.010436943989156]]]}}, {"type": "Feature", "properties": {"type": "postcode-cell", "postcode": "EX37 9PY", "postcodes": ["EX37 9PY"]}, "geometry": {"type": "Polygon", "coordinates": [[[-3.9644593650438624, 51.012272056455096], [-3.9612159231565753, 51.01586851083127], [-3.9571923045592414, 51.01720571897806], [-3.952259545944133, 51.015975139950285], [-3.9519631322686077, 51.012575009812274], [-3.9534964027908712, 51.01120702736306], [-3.9554167982143893, 51.01001405526026], [-3.9634605876743745, 51.010859459344665], [-3.9644593650438624, 51.012272056455096]]]}}, {"type": "Feature", "properties": {"type": "postcode-cell", "postcode": "EX37 9RU", "postcodes": ["EX37 9RU"]}, "geometry": {"type": "Polygon", "coordinates": [[[-3.9476267638996343, 51.02254484785002], [-3.9561207579575655, 51.019258000691174], [-3.960703660714699, 51.03114167514482], [-3.9580899898852233, 51.031149994986066], [-3.9546599898822548, 51.03261999498731], [-3.9523899898805284, 51.0330699949877], [-3.9510499898804285, 51.03128999498623], [-3.9504861396702737, 51.03134767120557], [-3.9476267638996343, 51.02254484785002]]]}}, {"type": "Feature", "properties": {"type": "postcode-cell", "postcode": "EX37 9PU", "postcodes": ["EX37 9PU"]}, "geometry": {"type": "Polygon", "coordinates": [[[-3.9495221776986176, 51.009058281593724], [-3.950822989509527, 51.01128689767489], [-3.950808758817926, 51.01190277951778], [-3.9498820723273282, 51.01198903138808], [-3.948436866218177, 51.011111943378744], [-3.9483032677817795, 51.01099690276731], [-3.948067949468385, 51.010558294427945], [-3.9495221776986176, 51.009058281593724]]]}}, {"type": "Feature", "properties": {"type": "postcode-cell", "postcode": "EX37 9QA", "postcodes": ["EX37 9QA"]}, "geometry": {"type": "Polygon", "coordinates": [[[-3.948067949468385, 51.010558294427945], [-3.9456546299279527, 51.01124353216768], [-3.944704261303904, 51.011324401660225], [-3.9434880271137067, 51.01111715628623], [-3.9391563932149674, 51.00858318937455], [-3.9499083037327765, 51.00783730641585], [-3.950040659477059, 51.00803042741475], [-3.9495221776986176, 51.009058281593724], [-3.948067949468385, 51.010558294427945]]]}}, {"type": "Feature", "properties": {"type": "postcode-cell", "postcode": "EX37 9PX", "postcodes": ["EX37 9PX"]}, "geometry": {"type": "Polygon", "coordinates": [[[-3.9534964027908712, 51.01120702736306], [-3.950822989509527, 51.01128689767489], [-3.9495221776986176, 51.009058281593724], [-3.950040659477059, 51.00803042741475], [-3.9554167982143893, 51.01001405526026], [-3.9534964027908712, 51.01120702736306]]]}}, {"type": "Feature", "properties": {"type": "postcode-cell", "postcode": "EX37 9QB", "postcodes": ["EX37 9QB"]}, "geometry": {"type": "Polygon", "coordinates": [[[-3.9499083037327765, 51.00783730641585], [-3.9391563932149674, 51.00858318937455], [-3.936668074233222, 51.00803099171084], [-3.935769610338245, 51.00755134864837], [-3.9357647934513067, 51.005717612333605], [-3.952335379291975, 50.99876749023201], [-3.9524267841838414, 50.99884169270811], [-3.9499083037327765, 51.00783730641585]]]}}, {"type": "Feature", "properties": {"type": "postcode-cell", "postcode": "EX37 9PW", "postcodes": ["EX37 9PW"]}, "geometry": {"type": "Polygon", "coordinates": [[[-3.9519631322686077, 51.012575009812274], [-3.950808758817926, 51.01190277951778], [-3.950822989509527, 51.01128689767489], [-3.9534964027908712, 51.01120702736306], [-3.9519631322686077, 51.012575009812274]]]}}, {"type": "Feature", "properties": {"type": "postcode-cell", "postcode": "EX37 9RN", "postcodes": ["EX37 9RN"]}, "geometry": {"type": "Polygon", "coordinates": [[[-3.9254858884316186, 51.036282734048555], [-3.9264285079580987, 51.03050023692063], [-3.9392036588148276, 51.0298866851936], [-3.9458132740147374, 51.031640603303735], [-3.9405899898735277, 51.03101999498607], [-3.9399999898726463, 51.03209999498696], [-3.9401299898722417, 51.03318999498784], [-3.9419599898725948, 51.03512999498943], [-3.941129989871263, 51.036839994990835], [-3.9392699898695125, 51.03795999499177], [-3.9349299898660095, 51.03926999499288], [-3.934498889704514, 51.0395077073855], [-3.9254858884316186, 51.036282734048555]]]}}, {"type": "Feature", "properties": {"type": "postcode-cell", "postcode": "EX37 9RT", "postcodes": ["EX37 9RT"]}, "geometry": {"type": "Polygon", "coordinates": [[[-3.9561207579575655, 51.019258000691174], [-3.9476267638996343, 51.02254484785002], [-3.9422563304388323, 51.0198348575897], [-3.943305413603015, 51.017790635638434], [-3.946177199906138, 51.01638357760148], [-3.9481141449487858, 51.01597390381111], [-3.9520709620390417, 51.015966393424065], [-3.952259545944133, 51.015975139950285], [-3.9571923045592414, 51.01720571897806], [-3.9561207579575655, 51.019258000691174]]]}}, {"type": "Feature", "properties": {"type": "postcode-cell", "postcode": "EX37 9RH", "postcodes": ["EX37 9RH"]}, "geometry": {"type": "Polygon", "coordinates": [[[-3.9476267638996343, 51.02254484785002], [-3.9504861396702737, 51.03134767120557], [-3.946649989877273, 51.03173999498663], [-3.9458132740147374, 51.031640603303735], [-3.9392036588148276, 51.0298866851936], [-3.9381450645244596, 51.021086881882695], [-3.9422563304388323, 51.0198348575897], [-3.9476267638996343, 51.02254484785002]]]}}, {"type": "Feature", "properties": {"type": "postcode-cell", "postcode": "EX37 9QD", "postcodes": ["EX37 9QD"]}, "geometry": {"type": "Polygon", "coordinates": [[[-3.952259545944133, 51.015975139950285], [-3.9520709620390417, 51.015966393424065], [-3.949581583533119, 51.01230446132972], [-3.9498820723273282, 51.01198903138808], [-3.950808758817926, 51.01190277951778], [-3.9519631322686077, 51.012575009812274], [-3.952259545944133, 51.015975139950285]]]}}, {"type": "Feature", "properties": {"type": "postcode-cell", "postcode": "EX37 9PT", "postcodes": ["EX37 9PT"]}, "geometry": {"type": "Polygon", "coordinates": [[[-3.949581583533119, 51.01230446132972], [-3.948885212898594, 51.012447639669794], [-3.948436866218177, 51.011111943378744], [-3.9498820723273282, 51.01198903138808], [-3.949581583533119, 51.01230446132972]]]}}, {"type": "Feature", "properties": {"type": "postcode-cell", "postcode": "EX37 9PP", "postcodes": ["EX37 9PP"]}, "geometry": {"type": "Polygon", "coordinates": [[[-3.9479983639811764, 51.011950548449946], [-3.9471078211441037, 51.01234138577989], [-3.9456546299279527, 51.01124353216768], [-3.948067949468385, 51.010558294427945], [-3.9483032677817795, 51.01099690276731], [-3.9479983639811764, 51.011950548449946]]]}}, {"type": "Feature", "properties": {"type": "postcode-cell", "postcode": "EX37 9PS", "postcodes": ["EX37 9PS"]}, "geometry": {"type": "Polygon", "coordinates": [[[-3.9483032677817795, 51.01099690276731], [-3.948436866218177, 51.011111943378744], [-3.948885212898594, 51.012447639669794], [-3.9483888054541403, 51.012743279961555], [-3.9479983639811764, 51.011950548449946], [-3.9483032677817795, 51.01099690276731]]]}}, {"type": "Feature", "properties": {"type": "postcode-cell", "postcode": "EX37 9QE", "postcodes": ["EX37 9QE"]}, "geometry": {"type": "Polygon", "coordinates": [[[-3.948885212898594, 51.012447639669794], [-3.949581583533119, 51.01230446132972], [-3.9520709620390417, 51.015966393424065], [-3.9481141449487858, 51.01597390381111], [-3.94780704974931, 51.013598937126424], [-3.9483888054541403, 51.012743279961555], [-3.948885212898594, 51.012447639669794]]]}}, {"type": "Feature", "properties": {"type": "postcode-cell", "postcode": "EX37 9RG", "postcodes": ["EX37 9RG"]}, "geometry": {"type": "Polygon", "coordinates": [[[-3.943305413603015, 51.017790635638434], [-3.939041859677904, 51.01463337731387], [-3.9390427029894295, 51.014334887161866], [-3.9416466653409747, 51.013419950591114], [-3.943595070394756, 51.013290914621116], [-3.945613594818146, 51.015447844828195], [-3.946177199906138, 51.01638357760148], [-3.943305413603015, 51.017790635638434]]]}}, {"type": "Feature", "properties": {"type": "postcode-cell", "postcode": "EX37 9PR", "postcodes": ["EX37 9PR"]}, "geometry": {"type": "Polygon", "coordinates": [[[-3.94780704974931, 51.013598937126424], [-3.9474926888053288, 51.013249371400896], [-3.9471078211441037, 51.01234138577989], [-3.9479983639811764, 51.011950548449946], [-3.9483888054541403, 51.012743279961555], [-3.94780704974931, 51.013598937126424]]]}}, {"type": "Feature", "properties": {"type": "postcode-cell", "postcode": "EX37 9HB", "postcodes": ["EX37 9HB"]}, "geometry": {"type": "Polygon", "coordinates": [[[-3.920420765935226, 50.96270484677376], [-3.9171932902175732, 50.96219705304073], [-3.9088483752183802, 50.95351948560688], [-3.9170144657877204, 50.94723004615134], [-3.918009989896261, 50.94742999491805], [-3.9230599898984253, 50.95007999492017], [-3.9247499898988987, 50.951519994921334], [-3.926629989898737, 50.95463999492386], [-3.928309989898989, 50.956559994925406], [-3.9288315856962974, 50.959648870792535], [-3.920420765935226, 50.96270484677376]]]}}, {"type": "Feature", "properties": {"type": "postcode-cell", "postcode": "EX37 9QN", "postcodes": ["EX37 9QN"]}, "geometry": {"type": "Polygon", "coordinates": [[[-3.9474926888053288, 51.013249371400896], [-3.9452671330721083, 51.01222088749155], [-3.944704261303904, 51.011324401660225], [-3.9456546299279527, 51.01124353216768], [-3.9471078211441037, 51.01234138577989], [-3.9474926888053288, 51.013249371400896]]]}}, {"type": "Feature", "properties": {"type": "postcode-cell", "postcode": "EX37 9QW", "postcodes": ["EX37 9QW"]}, "geometry": {"type": "Polygon", "coordinates": [[[-3.94780704974931, 51.013598937126424], [-3.9481141449487858, 51.01597390381111], [-3.946177199906138, 51.01638357760148], [-3.945613594818146, 51.015447844828195], [-3.9452671330721083, 51.01222088749155], [-3.9474926888053288, 51.013249371400896], [-3.94780704974931, 51.013598937126424]]]}}, {"type": "Feature", "properties": {"type": "postcode-cell", "postcode": "EX37 9QL", "postcodes": ["EX37 9QL"]}, "geometry": {"type": "Polygon", "coordinates": [[[-3.9452671330721083, 51.01222088749155], [-3.945613594818146, 51.015447844828195], [-3.943595070394756, 51.013290914621116], [-3.943438767219701, 51.0114214350025], [-3.9434880271137067, 51.01111715628623], [-3.944704261303904, 51.011324401660225], [-3.9452671330721083, 51.01222088749155]]]}}, {"type": "Feature", "properties": {"type": "postcode-cell", "postcode": "EX37 9DE", "postcodes": ["EX37 9DE"]}, "geometry": {"type": "Polygon", "coordinates": [[[-3.952367693069293, 50.990603820516505], [-3.950617103216832, 50.99352419505293], [-3.934717470445205, 50.994847563057114], [-3.932372630398181, 50.99362556190493], [-3.9296476055011222, 50.988643371436844], [-3.933251760838135, 50.98422579710384], [-3.9517919830800894, 50.99012962188285], [-3.952367693069293, 50.990603820516505]]]}}, {"type": "Feature", "properties": {"type": "postcode-cell", "postcode": "EX37 9QJ", "postcodes": ["EX37 9QJ"]}, "geometry": {"type": "Polygon", "coordinates": [[[-3.943595070394756, 51.013290914621116], [-3.9416466653409747, 51.013419950591114], [-3.943438767219701, 51.0114214350025], [-3.943595070394756, 51.013290914621116]]]}}, {"type": "Feature", "properties": {"type": "postcode-cell", "postcode": "EX37 9DW", "postcodes": ["EX37 9DW"]}, "geometry": {"type": "Polygon", "coordinates": [[[-3.952335379291975, 50.99876749023201], [-3.9357647934513067, 51.005717612333605], [-3.930433640609853, 51.001674652664924], [-3.934717470445205, 50.994847563057114], [-3.950617103216832, 50.99352419505293], [-3.952335379291975, 50.99876749023201]]]}}, {"type": "Feature", "properties": {"type": "postcode-cell", "postcode": "EX37 9PQ", "postcodes": ["EX37 9PQ"]}, "geometry": {"type": "Polygon", "coordinates": [[[-3.9517919830800894, 50.99012962188285], [-3.933251760838135, 50.98422579710384], [-3.931296622733952, 50.97968178823066], [-3.9336675252172904, 50.97770936224996], [-3.936112783595062, 50.97618537643082], [-3.9452356250563674, 50.97502036589469], [-3.9517919830800894, 50.99012962188285]]]}}, {"type": "Feature", "properties": {"type": "postcode-cell", "postcode": "EX37 9QH", "postcodes": ["EX37 9QH"]}, "geometry": {"type": "Polygon", "coordinates": [[[-3.9434880271137067, 51.01111715628623], [-3.943438767219701, 51.0114214350025], [-3.9416466653409747, 51.013419950591114], [-3.9390427029894295, 51.014334887161866], [-3.936668074233222, 51.00803099171084], [-3.9391563932149674, 51.00858318937455], [-3.9434880271137067, 51.01111715628623]]]}}, {"type": "Feature", "properties": {"type": "postcode-cell", "postcode": "EX37 9PB", "postcodes": ["EX37 9PB"]}, "geometry": {"type": "Polygon", "coordinates": [[[-3.9452356250563674, 50.97502036589469], [-3.936112783595062, 50.97618537643082], [-3.930267505896371, 50.969321698526045], [-3.9358560539594927, 50.96197566747306], [-3.937129989902566, 50.96165999492946], [-3.938059012076226, 50.96175493910652], [-3.9456321068191404, 50.97478432681144], [-3.9452356250563674, 50.97502036589469]]]}}, {"type": "Feature", "properties": {"type": "postcode-cell", "postcode": "EX37 9RQ", "postcodes": ["EX37 9RQ"]}, "geometry": {"type": "Polygon", "coordinates": [[[-3.9422563304388323, 51.0198348575897], [-3.9381450645244596, 51.021086881882695], [-3.929757744194962, 51.01993603146473], [-3.9270143663274135, 51.017080784997916], [-3.939041859677904, 51.01463337731387], [-3.943305413603015, 51.017790635638434], [-3.9422563304388323, 51.0198348575897]]]}}, {"type": "Feature", "properties": {"type": "postcode-cell", "postcode": "EX37 9RA", "postcodes": ["EX37 9RA"]}, "geometry": {"type": "Polygon", "coordinates": [[[-3.939041859677904, 51.01463337731387], [-3.9270143663274135, 51.017080784997916], [-3.926137204112107, 51.01654028846882], [-3.9255702500913374, 51.012700205094546], [-3.935769610338245, 51.00755134864837], [-3.936668074233222, 51.00803099171084], [-3.9390427029894295, 51.014334887161866], [-3.939041859677904, 51.01463337731387]]]}}, {"type": "Feature", "properties": {"type": "postcode-cell", "postcode": "EX37 9NT", "postcodes": ["EX37 9NT"]}, "geometry": {"type": "Polygon", "coordinates": [[[-3.930267505896371, 50.969321698526045], [-3.930156616991731, 50.969316362366406], [-3.921801484254687, 50.96787254961814], [-3.920420765935226, 50.96270484677376], [-3.9288315856962974, 50.959648870792535], [-3.9289499898976983, 50.960349994928485], [-3.929869989898022, 50.960989994929], [-3.933569989899979, 50.96211999492987], [-3.934869989900802, 50.96221999492996], [-3.9358560539594927, 50.96197566747306], [-3.930267505896371, 50.969321698526045]]]}}, {"type": "Feature", "properties": {"type": "postcode-cell", "postcode": "EX37 9PA", "postcodes": ["EX37 9PA"]}, "geometry": {"type": "Polygon", "coordinates": [[[-3.9336675252172904, 50.97770936224996], [-3.9234563231776045, 50.97278810929672], [-3.930156616991731, 50.969316362366406], [-3.930267505896371, 50.969321698526045], [-3.936112783595062, 50.97618537643082], [-3.9336675252172904, 50.97770936224996]]]}}, {"type": "Feature", "properties": {"type": "postcode-cell", "postcode": "EX37 9RL", "postcodes": ["EX37 9RL"]}, "geometry": {"type": "Polygon", "coordinates": [[[-3.9381450645244596, 51.021086881882695], [-3.9392036588148276, 51.0298866851936], [-3.9264285079580987, 51.03050023692063], [-3.925284382772507, 51.029610757792256], [-3.929757744194962, 51.01993603146473], [-3.9381450645244596, 51.021086881882695]]]}}, {"type": "Feature", "properties": {"type": "postcode-cell", "postcode": "EX37 9QP", "postcodes": ["EX37 9QP"]}, "geometry": {"type": "Polygon", "coordinates": [[[-3.935769610338245, 51.00755134864837], [-3.9255702500913374, 51.012700205094546], [-3.9195768449316937, 51.009856004370704], [-3.9243178944006925, 51.00161109091822], [-3.930433640609853, 51.001674652664924], [-3.9357647934513067, 51.005717612333605], [-3.935769610338245, 51.00755134864837]]]}}, {"type": "Feature", "properties": {"type": "postcode-cell", "postcode": "EX37 9PG", "postcodes": ["EX37 9PG"]}, "geometry": {"type": "Polygon", "coordinates": [[[-3.933251760838135, 50.98422579710384], [-3.9296476055011222, 50.988643371436844], [-3.926688489822425, 50.98868144074431], [-3.9206075370172475, 50.98706867853078], [-3.9184331412425726, 50.985075372559855], [-3.919413399724912, 50.983632339638476], [-3.9278246861585924, 50.979806806621575], [-3.931296622733952, 50.97968178823066], [-3.933251760838135, 50.98422579710384]]]}}, {"type": "Feature", "properties": {"type": "postcode-cell", "postcode": "EX37 9DN", "postcodes": ["EX37 9DN"]}, "geometry": {"type": "Polygon", "coordinates": [[[-3.930433640609853, 51.001674652664924], [-3.9243178944006925, 51.00161109091822], [-3.9164455012536252, 50.99814701719693], [-3.919163496672313, 50.99504939839254], [-3.932372630398181, 50.99362556190493], [-3.934717470445205, 50.994847563057114], [-3.930433640609853, 51.001674652664924]]]}}, {"type": "Feature", "properties": {"type": "postcode-cell", "postcode": "EX32 0RY", "postcodes": ["EX32 0RY"]}, "geometry": {"type": "Polygon", "coordinates": [[[-3.9231827906598338, 51.03782279784584], [-3.9254858884316186, 51.036282734048555], [-3.934498889704514, 51.0395077073855], [-3.933859989865024, 51.039859994993364], [-3.93425998986491, 51.040709994994046], [-3.933929989864198, 51.04179999499495], [-3.9346699898640445, 51.04323999499612], [-3.9362699898647326, 51.0440899949968], [-3.935919989864058, 51.045069994997604], [-3.9312499898613487, 51.04412999499687], [-3.9275273726196196, 51.044309061258694], [-3.9231827906598338, 51.03782279784584]]]}}, {"type": "Feature", "properties": {"type": "postcode-cell", "postcode": "EX32 0RX", "postcodes": ["EX32 0RX"]}, "geometry": {"type": "Polygon", "coordinates": [[[-3.9231827906598338, 51.03782279784584], [-3.9185044701618765, 51.03934577290497], [-3.914679671506716, 51.03799332030379], [-3.913605491149085, 51.03553788417359], [-3.9128319821879427, 51.02709606255813], [-3.925284382772507, 51.029610757792256], [-3.9264285079580987, 51.03050023692063], [-3.9254858884316186, 51.036282734048555], [-3.9231827906598338, 51.03782279784584]]]}}, {"type": "Feature", "properties": {"type": "postcode-cell", "postcode": "EX37 9RB", "postcodes": ["EX37 9RB"]}, "geometry": {"type": "Polygon", "coordinates": [[[-3.929757744194962, 51.01993603146473], [-3.925284382772507, 51.029610757792256], [-3.9128319821879427, 51.02709606255813], [-3.9103968927510437, 51.026208915684236], [-3.911936158163215, 51.020766358120156], [-3.926137204112107, 51.01654028846882], [-3.9270143663274135, 51.017080784997916], [-3.929757744194962, 51.01993603146473]]]}}, {"type": "Feature", "properties": {"type": "postcode-cell", "postcode": "EX37 9HD", "postcodes": ["EX37 9HD"]}, "geometry": {"type": "Polygon", "coordinates": [[[-3.921801484254687, 50.96787254961814], [-3.9152148431548865, 50.972451702494624], [-3.9136838018938596, 50.97308463208642], [-3.9029309493783093, 50.968966151897504], [-3.902835788928911, 50.968856996734615], [-3.9171932902175732, 50.96219705304073], [-3.920420765935226, 50.96270484677376], [-3.921801484254687, 50.96787254961814]]]}}, {"type": "Feature", "properties": {"type": "postcode-cell", "postcode": "EX32 0TJ", "postcodes": ["EX32 0TJ"]}, "geometry": {"type": "Polygon", "coordinates": [[[-3.8994720611785825, 51.04830646205869], [-3.9081223867496173, 51.04720293956516], [-3.908019989843884, 51.04831999500043], [-3.9071599898429827, 51.04903999500102], [-3.9067099898418385, 51.05089999500255], [-3.9055699898403082, 51.052599995003966], [-3.906439989840444, 51.05358999500477], [-3.9060799898390486, 51.056139995006866], [-3.9045099898379996, 51.05613999500688], [-3.901339989835543, 51.056869995007496], [-3.8950999748584647, 51.056671900905265], [-3.8994720611785825, 51.04830646205869]]]}}, {"type": "Feature", "properties": {"type": "postcode-cell", "postcode": "EX37 9RD", "postcodes": ["EX37 9RD"]}, "geometry": {"type": "Polygon", "coordinates": [[[-3.926137204112107, 51.01654028846882], [-3.911936158163215, 51.020766358120156], [-3.9071873144368605, 51.015714109143396], [-3.9194293913968603, 51.009845144233736], [-3.9195768449316937, 51.009856004370704], [-3.9255702500913374, 51.012700205094546], [-3.926137204112107, 51.01654028846882]]]}}, {"type": "Feature", "properties": {"type": "postcode-cell", "postcode": "EX37 9PD", "postcodes": ["EX37 9PD"]}, "geometry": {"type": "Polygon", "coordinates": [[[-3.9336675252172904, 50.97770936224996], [-3.931296622733952, 50.97968178823066], [-3.9278246861585924, 50.979806806621575], [-3.914149828676802, 50.97416196109022], [-3.9136838018938596, 50.97308463208642], [-3.9152148431548865, 50.972451702494624], [-3.9234563231776045, 50.97278810929672], [-3.9336675252172904, 50.97770936224996]]]}}, {"type": "Feature", "properties": {"type": "postcode-cell", "postcode": "EX37 9DF", "postcodes": ["EX37 9DF"]}, "geometry": {"type": "Polygon", "coordinates": [[[-3.932372630398181, 50.99362556190493], [-3.919163496672313, 50.99504939839254], [-3.919114916751931, 50.994344570360965], [-3.9194759432345236, 50.99371333652155], [-3.926688489822425, 50.98868144074431], [-3.9296476055011222, 50.988643371436844], [-3.932372630398181, 50.99362556190493]]]}}, {"type": "Feature", "properties": {"type": "postcode-cell", "postcode": "EX37 9PE", "postcodes": ["EX37 9PE"]}, "geometry": {"type": "Polygon", "coordinates": [[[-3.919413399724912, 50.983632339638476], [-3.9120173901245074, 50.978535395541435], [-3.914149828676802, 50.97416196109022], [-3.9278246861585924, 50.979806806621575], [-3.919413399724912, 50.983632339638476]]]}}, {"type": "Feature", "properties": {"type": "postcode-cell", "postcode": "EX37 9DG", "postcodes": ["EX37 9DG"]}, "geometry": {"type": "Polygon", "coordinates": [[[-3.919114916751931, 50.994344570360965], [-3.913404162532705, 50.98980606258143], [-3.9195420685562015, 50.989324585492845], [-3.9194759432345236, 50.99371333652155], [-3.919114916751931, 50.994344570360965]]]}}, {"type": "Feature", "properties": {"type": "postcode-cell", "postcode": "EX37 9NS", "postcodes": ["EX37 9NS"]}, "geometry": {"type": "Polygon", "coordinates": [[[-3.9234563231776045, 50.97278810929672], [-3.9152148431548865, 50.972451702494624], [-3.921801484254687, 50.96787254961814], [-3.930156616991731, 50.969316362366406], [-3.9234563231776045, 50.97278810929672]]]}}, {"type": "Feature", "properties": {"type": "postcode-cell", "postcode": "EX37 9DH", "postcodes": ["EX37 9DH"]}, "geometry": {"type": "Polygon", "coordinates": [[[-3.926688489822425, 50.98868144074431], [-3.9194759432345236, 50.99371333652155], [-3.9195420685562015, 50.989324585492845], [-3.9206075370172475, 50.98706867853078], [-3.926688489822425, 50.98868144074431]]]}}, {"type": "Feature", "properties": {"type": "postcode-cell", "postcode": "EX37 9QR", "postcodes": ["EX37 9QR"]}, "geometry": {"type": "Polygon", "coordinates": [[[-3.9195768449316937, 51.009856004370704], [-3.9194293913968603, 51.009845144233736], [-3.911279934364553, 51.006012744248395], [-3.914127662452046, 50.99853452978719], [-3.9164455012536252, 50.99814701719693], [-3.9243178944006925, 51.00161109091822], [-3.9195768449316937, 51.009856004370704]]]}}, {"type": "Feature", "properties": {"type": "postcode-cell", "postcode": "EX32 0RZ", "postcodes": ["EX32 0RZ"]}, "geometry": {"type": "Polygon", "coordinates": [[[-3.9275273726196196, 51.044309061258694], [-3.9272999898586116, 51.044319994997046], [-3.925109989857333, 51.04389999499671], [-3.9175099898521597, 51.044069994996896], [-3.9160367994527734, 51.04380862989682], [-3.9185044701618765, 51.03934577290497], [-3.9231827906598338, 51.03782279784584], [-3.9275273726196196, 51.044309061258694]]]}}, {"type": "Feature", "properties": {"type": "postcode-cell", "postcode": "EX32 0RU", "postcodes": ["EX32 0RU"]}, "geometry": {"type": "Polygon", "coordinates": [[[-3.914679671506716, 51.03799332030379], [-3.9087992284311586, 51.03785080052728], [-3.907648302231806, 51.03380291816717], [-3.913605491149085, 51.03553788417359], [-3.914679671506716, 51.03799332030379]]]}}, {"type": "Feature", "properties": {"type": "postcode-cell", "postcode": "EX37 9DQ", "postcodes": ["EX37 9DQ"]}, "geometry": {"type": "Polygon", "coordinates": [[[-3.9195420685562015, 50.989324585492845], [-3.913404162532705, 50.98980606258143], [-3.9099124600597386, 50.98794079078291], [-3.9101868421126316, 50.98685894791039], [-3.9184331412425726, 50.985075372559855], [-3.9206075370172475, 50.98706867853078], [-3.9195420685562015, 50.989324585492845]]]}}, {"type": "Feature", "properties": {"type": "postcode-cell", "postcode": "EX37 9HF", "postcodes": ["EX37 9HF"]}, "geometry": {"type": "Polygon", "coordinates": [[[-3.914149828676802, 50.97416196109022], [-3.9120173901245074, 50.978535395541435], [-3.9050428475631334, 50.98258064279135], [-3.896667277910522, 50.98154650471706], [-3.9029309493783093, 50.968966151897504], [-3.9136838018938596, 50.97308463208642], [-3.914149828676802, 50.97416196109022]]]}}, {"type": "Feature", "properties": {"type": "postcode-cell", "postcode": "EX37 9DL", "postcodes": ["EX37 9DL"]}, "geometry": {"type": "Polygon", "coordinates": [[[-3.919163496672313, 50.99504939839254], [-3.9164455012536252, 50.99814701719693], [-3.914127662452046, 50.99853452978719], [-3.905257321140981, 50.99637825531887], [-3.9034311774470627, 50.993758838671894], [-3.9099124600597386, 50.98794079078291], [-3.913404162532705, 50.98980606258143], [-3.919114916751931, 50.994344570360965], [-3.919163496672313, 50.99504939839254]]]}}, {"type": "Feature", "properties": {"type": "postcode-cell", "postcode": "EX37 9PF", "postcodes": ["EX37 9PF"]}, "geometry": {"type": "Polygon", "coordinates": [[[-3.9184331412425726, 50.985075372559855], [-3.9101868421126316, 50.98685894791039], [-3.9050428475631334, 50.98258064279135], [-3.9120173901245074, 50.978535395541435], [-3.919413399724912, 50.983632339638476], [-3.9184331412425726, 50.985075372559855]]]}}, {"type": "Feature", "properties": {"type": "postcode-cell", "postcode": "EX37 9QS", "postcodes": ["EX37 9QS"]}, "geometry": {"type": "Polygon", "coordinates": [[[-3.9194293913968603, 51.009845144233736], [-3.9071873144368605, 51.015714109143396], [-3.897820524241386, 51.01216772357589], [-3.901189770152896, 51.00836833828016], [-3.911279934364553, 51.006012744248395], [-3.9194293913968603, 51.009845144233736]]]}}, {"type": "Feature", "properties": {"type": "postcode-cell", "postcode": "EX32 0FH", "postcodes": ["EX32 0FH"]}, "geometry": {"type": "Polygon", "coordinates": [[[-3.9075774233348484, 51.03368871345592], [-3.905294715886628, 51.035503778951906], [-3.9023746374937773, 51.035516152102055], [-3.899109809370332, 51.030169241326426], [-3.9010791150781476, 51.02795158655401], [-3.9051520068234105, 51.0275934409385], [-3.9075774233348484, 51.03368871345592]]]}}, {"type": "Feature", "properties": {"type": "postcode-cell", "postcode": "EX32 0SD", "postcodes": ["EX32 0SD"]}, "geometry": {"type": "Polygon", "coordinates": [[[-3.9051520068234105, 51.0275934409385], [-3.9103968927510437, 51.026208915684236], [-3.9128319821879427, 51.02709606255813], [-3.913605491149085, 51.03553788417359], [-3.907648302231806, 51.03380291816717], [-3.9075774233348484, 51.03368871345592], [-3.9051520068234105, 51.0275934409385]]]}}, {"type": "Feature", "properties": {"type": "postcode-cell", "postcode": "EX37 9QT", "postcodes": ["EX37 9QT"]}, "geometry": {"type": "Polygon", "coordinates": [[[-3.911279934364553, 51.006012744248395], [-3.901189770152896, 51.00836833828016], [-3.8990950332595595, 51.00118387169384], [-3.905257321140981, 50.99637825531887], [-3.914127662452046, 50.99853452978719], [-3.911279934364553, 51.006012744248395]]]}}, {"type": "Feature", "properties": {"type": "postcode-cell", "postcode": "EX37 9DJ", "postcodes": ["EX37 9DJ"]}, "geometry": {"type": "Polygon", "coordinates": [[[-3.9099124600597386, 50.98794079078291], [-3.9034311774470627, 50.993758838671894], [-3.8968678862614, 50.99167131906492], [-3.8938709977728827, 50.98239266347131], [-3.896667277910522, 50.98154650471706], [-3.9050428475631334, 50.98258064279135], [-3.9101868421126316, 50.98685894791039], [-3.9099124600597386, 50.98794079078291]]]}}, {"type": "Feature", "properties": {"type": "postcode-cell", "postcode": "EX37 9TB", "postcodes": ["EX37 9TB"]}, "geometry": {"type": "Polygon", "coordinates": [[[-3.896667277910522, 50.98154650471706], [-3.8938709977728827, 50.98239266347131], [-3.8927433937517684, 50.982272036999376], [-3.882695126724686, 50.97649957999587], [-3.882997315658497, 50.96908516715996], [-3.8846195002184594, 50.967758059282964], [-3.8993654931585113, 50.96707595763232], [-3.902835788928911, 50.968856996734615], [-3.9029309493783093, 50.968966151897504], [-3.896667277910522, 50.98154650471706]]]}}, {"type": "Feature", "properties": {"type": "postcode-cell", "postcode": "EX37 9HE", "postcodes": ["EX37 9HE"]}, "geometry": {"type": "Polygon", "coordinates": [[[-3.902835788928911, 50.968856996734615], [-3.8993654931585113, 50.96707595763232], [-3.901433426993091, 50.95657973007103], [-3.903575768733355, 50.955038578082714], [-3.9088483752183802, 50.95351948560688], [-3.9171932902175732, 50.96219705304073], [-3.902835788928911, 50.968856996734615]]]}}, {"type": "Feature", "properties": {"type": "postcode-cell", "postcode": "EX32 0RT", "postcodes": ["EX32 0RT"]}, "geometry": {"type": "Polygon", "coordinates": [[[-3.907648302231806, 51.03380291816717], [-3.9087992284311586, 51.03785080052728], [-3.9065286013032274, 51.03863675587005], [-3.905294715886628, 51.035503778951906], [-3.9075774233348484, 51.03368871345592], [-3.907648302231806, 51.03380291816717]]]}}, {"type": "Feature", "properties": {"type": "postcode-cell", "postcode": "EX37 9RE", "postcodes": ["EX37 9RE"]}, "geometry": {"type": "Polygon", "coordinates": [[[-3.9051520068234105, 51.0275934409385], [-3.9010791150781476, 51.02795158655401], [-3.8895416587823264, 51.021845164623336], [-3.889649989843881, 51.021189994978364], [-3.89060998984448, 51.02127999497842], [-3.8908799898448154, 51.02093999497815], [-3.8908399898449906, 51.020489994977794], [-3.8896499898446457, 51.01949999497697], [-3.8900699898451894, 51.0189199949765], [-3.891009989845841, 51.01885999497645], [-3.890969989846515, 51.0173199949752], [-3.889499989846934, 51.01422999497267], [-3.8892347620893157, 51.01398452235481], [-3.897820524241386, 51.01216772357589], [-3.9071873144368605, 51.015714109143396], [-3.911936158163215, 51.020766358120156], [-3.9103968927510437, 51.026208915684236], [-3.9051520068234105, 51.0275934409385]]]}}, {"type": "Feature", "properties": {"type": "postcode-cell", "postcode": "EX32 0SZ", "postcodes": ["EX32 0SZ"]}, "geometry": {"type": "Polygon", "coordinates": [[[-3.9185044701618765, 51.03934577290497], [-3.9160367994527734, 51.04380862989682], [-3.9150299898506975, 51.043629994996564], [-3.912429989848392, 51.04487999499759], [-3.9117867488805085, 51.045419370490286], [-3.903738756846741, 51.0401747019065], [-3.9037630253361293, 51.03985286776844], [-3.9039152820635774, 51.03971055502874], [-3.9065286013032274, 51.03863675587005], [-3.9087992284311586, 51.03785080052728], [-3.914679671506716, 51.03799332030379], [-3.9185044701618765, 51.03934577290497]]]}}, {"type": "Feature", "properties": {"type": "postcode-cell", "postcode": "EX37 9EY", "postcodes": ["EX37 9EY"]}, "geometry": {"type": "Polygon", "coordinates": [[[-3.901433426993091, 50.95657973007103], [-3.885967248178219, 50.95556498931388], [-3.8804374625973845, 50.94897382123487], [-3.8805194533080227, 50.948810582677446], [-3.881119989870994, 50.94901999491966], [-3.8819499898715986, 50.94889999491956], [-3.882669989871975, 50.94912999491974], [-3.883489989872285, 50.94963999492014], [-3.8833999898720353, 50.95004999492047], [-3.884299989872252, 50.95088999492114], [-3.885349989872715, 50.95140999492156], [-3.8902099898765075, 50.95017999492053], [-3.8952199898801343, 50.949529994919956], [-3.89606660983235, 50.94962753691507], [-3.903575768733355, 50.955038578082714], [-3.901433426993091, 50.95657973007103]]]}}, {"type": "Feature", "properties": {"type": "postcode-cell", "postcode": "EX32 0RF", "postcodes": ["EX32 0RF"]}, "geometry": {"type": "Polygon", "coordinates": [[[-3.8975000001464455, 51.04462189972046], [-3.8974171177212464, 51.04533068959561], [-3.884151758235093, 51.04605066989395], [-3.886570579575091, 51.040598377177375], [-3.8878093719337325, 51.039706463889], [-3.893087061549364, 51.04128631270289], [-3.8941872311102648, 51.04203091515936], [-3.8975000001464455, 51.04462189972046]]]}}, {"type": "Feature", "properties": {"type": "postcode-cell", "postcode": "EX32 0RH", "postcodes": ["EX32 0RH"]}, "geometry": {"type": "Polygon", "coordinates": [[[-3.8941872311102648, 51.04203091515936], [-3.899530990551341, 51.03860674599902], [-3.9037630253361293, 51.03985286776844], [-3.903738756846741, 51.0401747019065], [-3.8975000001464455, 51.04462189972046], [-3.8941872311102648, 51.04203091515936]]]}}, {"type": "Feature", "properties": {"type": "postcode-cell", "postcode": "EX36 4HT", "postcodes": ["EX36 4HT"]}, "geometry": {"type": "Polygon", "coordinates": [[[-3.905257321140981, 50.99637825531887], [-3.8990950332595595, 51.00118387169384], [-3.8963330981140563, 51.00088214549267], [-3.889201016735044, 50.99643165409747], [-3.88862998985479, 50.995639994957514], [-3.889359989855558, 50.99501999495702], [-3.888729989855459, 50.99430999495641], [-3.8887386865045466, 50.99428390545849], [-3.8968678862614, 50.99167131906492], [-3.9034311774470627, 50.993758838671894], [-3.905257321140981, 50.99637825531887]]]}}, {"type": "Feature", "properties": {"type": "postcode-cell", "postcode": "EX32 0RS", "postcodes": ["EX32 0RS"]}, "geometry": {"type": "Polygon", "coordinates": [[[-3.9065286013032274, 51.03863675587005], [-3.9039152820635774, 51.03971055502874], [-3.9023746374937773, 51.035516152102055], [-3.905294715886628, 51.035503778951906], [-3.9065286013032274, 51.03863675587005]]]}}, {"type": "Feature", "properties": {"type": "postcode-cell", "postcode": "EX32 0RR", "postcodes": ["EX32 0RR"]}, "geometry": {"type": "Polygon", "coordinates": [[[-3.9023746374937773, 51.035516152102055], [-3.9039152820635774, 51.03971055502874], [-3.9037630253361293, 51.03985286776844], [-3.899530990551341, 51.03860674599902], [-3.897674208587438, 51.03793264923433], [-3.894695917069921, 51.034997292603876], [-3.8963068544233934, 51.03198209919844], [-3.899109809370332, 51.030169241326426], [-3.9023746374937773, 51.035516152102055]]]}}, {"type": "Feature", "properties": {"type": "postcode-cell", "postcode": "EX32 0TH", "postcodes": ["EX32 0TH"]}, "geometry": {"type": "Polygon", "coordinates": [[[-3.9117867488805085, 51.045419370490286], [-3.9108199898467038, 51.046229994998704], [-3.908449989845012, 51.046459994998905], [-3.9086899898449308, 51.04698999499934], [-3.9081299898444968, 51.04711999499946], [-3.9081223867496173, 51.04720293956516], [-3.8994720611785825, 51.04830646205869], [-3.8974171177212464, 51.04533068959561], [-3.8975000001464455, 51.04462189972046], [-3.903738756846741, 51.0401747019065], [-3.9117867488805085, 51.045419370490286]]]}}, {"type": "Feature", "properties": {"type": "postcode-cell", "postcode": "EX36 4HS", "postcodes": ["EX36 4HS"]}, "geometry": {"type": "Polygon", "coordinates": [[[-3.897820524241386, 51.01216772357589], [-3.8892347620893157, 51.01398452235481], [-3.8885599898467027, 51.013359994971964], [-3.8886599898474072, 51.01194999497083], [-3.8911499898499224, 51.01006999496927], [-3.890809989849773, 51.00989999496914], [-3.890099989849122, 51.01028999496947], [-3.8897999898496716, 51.0086399949681], [-3.890569989850914, 51.007029994966786], [-3.8897699898510925, 51.00545999496552], [-3.890509989852853, 51.00266999496325], [-3.8904990385064426, 51.00257905515136], [-3.8963330981140563, 51.00088214549267], [-3.8990950332595595, 51.00118387169384], [-3.901189770152896, 51.00836833828016], [-3.897820524241386, 51.01216772357589]]]}}, {"type": "Feature", "properties": {"type": "postcode-cell", "postcode": "EX18 7AP", "postcodes": ["EX18 7AP"]}, "geometry": {"type": "Polygon", "coordinates": [[[-3.8804374625973845, 50.94897382123487], [-3.87285058922753, 50.951848779234936], [-3.8694199622437395, 50.9516067316728], [-3.8547924490017906, 50.945395212654404], [-3.8551299898554077, 50.94537999491692], [-3.8588399898577586, 50.94561999491707], [-3.859159989857746, 50.94610999491748], [-3.860339989858356, 50.94648999491777], [-3.862829989859975, 50.94655999491782], [-3.8656199898620343, 50.94609999491742], [-3.868499989863872, 50.94625999491751], [-3.869689989864321, 50.94700999491812], [-3.8711399898651355, 50.94732999491837], [-3.872019989865867, 50.94700999491812], [-3.8721499898658553, 50.94721999491828], [-3.8752199898679924, 50.94699999491807], [-3.8773499898689128, 50.94808999491895], [-3.8776299898691677, 50.947939994918805], [-3.877929989869228, 50.94823999491905], [-3.8791699898700065, 50.948339994919124], [-3.8805194533080227, 50.948810582677446], [-3.8804374625973845, 50.94897382123487]]]}}, {"type": "Feature", "properties": {"type": "postcode-cell", "postcode": "EX32 0RQ", "postcodes": ["EX32 0RQ"]}, "geometry": {"type": "Polygon", "coordinates": [[[-3.899530990551341, 51.03860674599902], [-3.8941872311102648, 51.04203091515936], [-3.893087061549364, 51.04128631270289], [-3.897674208587438, 51.03793264923433], [-3.899530990551341, 51.03860674599902]]]}}, {"type": "Feature", "properties": {"type": "postcode-cell", "postcode": "EX32 0RW", "postcodes": ["EX32 0RW"]}, "geometry": {"type": "Polygon", "coordinates": [[[-3.899109809370332, 51.030169241326426], [-3.8963068544233934, 51.03198209919844], [-3.878829911140172, 51.03170082230083], [-3.8786236154505374, 51.03162673991778], [-3.8772616169409893, 51.02935819989011], [-3.8813381829035305, 51.02339116031376], [-3.8817699898374545, 51.02375999498051], [-3.8816399898368283, 51.024949994981476], [-3.887099989840435, 51.025029994981516], [-3.887529989840777, 51.02490999498141], [-3.887849989841354, 51.02410999498075], [-3.8885699898418338, 51.02410999498076], [-3.889229989842447, 51.02372999498043], [-3.8895416587823264, 51.021845164623336], [-3.9010791150781476, 51.02795158655401], [-3.899109809370332, 51.030169241326426]]]}}, {"type": "Feature", "properties": {"type": "postcode-cell", "postcode": "EX32 0RE", "postcodes": ["EX32 0RE"]}, "geometry": {"type": "Polygon", "coordinates": [[[-3.8994720611785825, 51.04830646205869], [-3.8950999748584647, 51.056671900905265], [-3.895039989831418, 51.056669995007354], [-3.8890299898278196, 51.05572999500661], [-3.8864717400720954, 51.055586840590365], [-3.8812077103836375, 51.04818361925124], [-3.884151758235093, 51.04605066989395], [-3.8974171177212464, 51.04533068959561], [-3.8994720611785825, 51.04830646205869]]]}}, {"type": "Feature", "properties": {"type": "postcode-cell", "postcode": "EX36 4JB", "postcodes": ["EX36 4JB"]}, "geometry": {"type": "Polygon", "coordinates": [[[-3.8968678862614, 50.99167131906492], [-3.8887386865045466, 50.99428390545849], [-3.8890099898560284, 50.99346999495574], [-3.8883899898564085, 50.99171999495433], [-3.888729989857272, 50.99031999495317], [-3.888189989857111, 50.98987999495283], [-3.888109989856806, 50.990439994953284], [-3.886999989855922, 50.99075999495355], [-3.8850099898550945, 50.98965999495269], [-3.884199989854462, 50.98985999495282], [-3.884349989854265, 50.99051999495338], [-3.882069989853055, 50.98983999495283], [-3.87751771734677, 50.99004532859942], [-3.8927433937517684, 50.982272036999376], [-3.8938709977728827, 50.98239266347131], [-3.8968678862614, 50.99167131906492]]]}}, {"type": "Feature", "properties": {"type": "postcode-cell", "postcode": "EX32 0RG", "postcodes": ["EX32 0RG"]}, "geometry": {"type": "Polygon", "coordinates": [[[-3.897674208587438, 51.03793264923433], [-3.893087061549364, 51.04128631270289], [-3.8878093719337325, 51.039706463889], [-3.88792745524496, 51.038189984949305], [-3.894695917069921, 51.034997292603876], [-3.897674208587438, 51.03793264923433]]]}}, {"type": "Feature", "properties": {"type": "postcode-cell", "postcode": "EX37 9TA", "postcodes": ["EX37 9TA"]}, "geometry": {"type": "Polygon", "coordinates": [[[-3.8993654931585113, 50.96707595763232], [-3.8846195002184594, 50.967758059282964], [-3.883331211201431, 50.965493397597655], [-3.884437791097112, 50.95827090259277], [-3.885967248178219, 50.95556498931388], [-3.901433426993091, 50.95657973007103], [-3.8993654931585113, 50.96707595763232]]]}}, {"type": "Feature", "properties": {"type": "postcode-cell", "postcode": "EX32 0RN", "postcodes": ["EX32 0RN"]}, "geometry": {"type": "Polygon", "coordinates": [[[-3.894695917069921, 51.034997292603876], [-3.88792745524496, 51.038189984949305], [-3.878829911140172, 51.03170082230083], [-3.8963068544233934, 51.03198209919844], [-3.894695917069921, 51.034997292603876]]]}}, {"type": "Feature", "properties": {"type": "postcode-cell", "postcode": "EX36 4HU", "postcodes": ["EX36 4HU"]}, "geometry": {"type": "Polygon", "coordinates": [[[-3.8963330981140563, 51.00088214549267], [-3.8904990385064426, 51.00257905515136], [-3.8902799898535645, 51.00075999496168], [-3.889289989853306, 50.99987999496096], [-3.8900599898545147, 50.99834999495971], [-3.888679989853856, 50.99776999495926], [-3.889509989854824, 50.99685999495852], [-3.889201016735044, 50.99643165409747], [-3.8963330981140563, 51.00088214549267]]]}}, {"type": "Feature", "properties": {"type": "postcode-cell", "postcode": "EX37 9SR", "postcodes": ["EX37 9SR"]}, "geometry": {"type": "Polygon", "coordinates": [[[-3.884437791097112, 50.95827090259277], [-3.8777071285638973, 50.95807510849432], [-3.8723938474443123, 50.953950055242856], [-3.87285058922753, 50.951848779234936], [-3.8804374625973845, 50.94897382123487], [-3.885967248178219, 50.95556498931388], [-3.884437791097112, 50.95827090259277]]]}}, {"type": "Feature", "properties": {"type": "postcode-cell", "postcode": "EX32 0RP", "postcodes": ["EX32 0RP"]}, "geometry": {"type": "Polygon", "coordinates": [[[-3.8772616169409893, 51.02935819989011], [-3.8535242700267154, 51.029297712078915], [-3.851833630242571, 51.02894849344973], [-3.853809989816896, 51.02798999498416], [-3.856479989820444, 51.024099994980965], [-3.862489989824279, 51.02445999498119], [-3.8663999898269603, 51.024299994981064], [-3.868149989828255, 51.024009994980794], [-3.8681799898284455, 51.0236399949805], [-3.869119989829086, 51.02360999498047], [-3.869349989829445, 51.023149994980066], [-3.8771599898349822, 51.02242999497947], [-3.8775799898348087, 51.023429994980276], [-3.8791599898360034, 51.02311999498], [-3.8812899898373203, 51.02334999498019], [-3.8813381829035305, 51.02339116031376], [-3.8772616169409893, 51.02935819989011]]]}}, {"type": "Feature", "properties": {"type": "postcode-cell", "postcode": "EX32 0TQ", "postcodes": ["EX32 0TQ"]}, "geometry": {"type": "Polygon", "coordinates": [[[-3.8690791642976254, 51.04529964312535], [-3.8812077103836375, 51.04818361925124], [-3.8864717400720954, 51.055586840590365], [-3.88366998982437, 51.0554299950064], [-3.876539989820412, 51.05364999500499], [-3.875089989819747, 51.052979995004456], [-3.8739199898186123, 51.05375999500509], [-3.8730199898182236, 51.05328999500472], [-3.8726199898179137, 51.05337999500479], [-3.871269989816402, 51.0547299950059], [-3.8667399898134867, 51.05448999500573], [-3.8650299898120806, 51.05506999500623], [-3.8639499898109837, 51.05589999500689], [-3.8587099898077226, 51.05537999500651], [-3.8580099898078095, 51.054159995005506], [-3.8587699898083887, 51.053999995005384], [-3.8580899898083483, 51.05308999500464], [-3.85733998980777, 51.05325999500479], [-3.8574599898077544, 51.05346999500495], [-3.8545199898056843, 51.05370999500516], [-3.852309989804491, 51.053089995004655], [-3.852517616323556, 51.051589668310626], [-3.8690791642976254, 51.04529964312535]]]}}, {"type": "Feature", "properties": {"type": "postcode-cell", "postcode": "EX32 0RJ", "postcodes": ["EX32 0RJ"]}, "geometry": {"type": "Polygon", "coordinates": [[[-3.8812077103836375, 51.04818361925124], [-3.8690791642976254, 51.04529964312535], [-3.87062209110891, 51.04071716223441], [-3.8728741094921086, 51.039255892033545], [-3.886570579575091, 51.040598377177375], [-3.884151758235093, 51.04605066989395], [-3.8812077103836375, 51.04818361925124]]]}}, {"type": "Feature", "properties": {"type": "postcode-cell", "postcode": "EX32 0RL", "postcodes": ["EX32 0RL"]}, "geometry": {"type": "Polygon", "coordinates": [[[-3.878829911140172, 51.03170082230083], [-3.88792745524496, 51.038189984949305], [-3.8878093719337325, 51.039706463889], [-3.886570579575091, 51.040598377177375], [-3.8728741094921086, 51.039255892033545], [-3.8786236154505374, 51.03162673991778], [-3.878829911140172, 51.03170082230083]]]}}, {"type": "Feature", "properties": {"type": "postcode-cell", "postcode": "EX37 9TE", "postcodes": ["EX37 9TE"]}, "geometry": {"type": "Polygon", "coordinates": [[[-3.8927433937517684, 50.982272036999376], [-3.87751771734677, 50.99004532859942], [-3.8745299898478773, 50.990179994953166], [-3.8728663076226097, 50.99044502009511], [-3.870360546588093, 50.981234931674926], [-3.882695126724686, 50.97649957999587], [-3.8927433937517684, 50.982272036999376]]]}}, {"type": "Feature", "properties": {"type": "postcode-cell", "postcode": "EX37 9TG", "postcodes": ["EX37 9TG"]}, "geometry": {"type": "Polygon", "coordinates": [[[-3.851005837238474, 50.97682567155849], [-3.8697612832989097, 50.98098541341315], [-3.870360546588093, 50.981234931674926], [-3.8728663076226097, 50.99044502009511], [-3.871139989845377, 50.99071999495365], [-3.8654099898418797, 50.99002999495311], [-3.86451998984111, 50.99041999495344], [-3.862819989839982, 50.99041999495348], [-3.861669989838998, 50.99089999495386], [-3.859309989837559, 50.99060999495363], [-3.857989989837256, 50.98934999495261], [-3.858259989837596, 50.98899999495235], [-3.8578599898381687, 50.98715999495084], [-3.8562299898376944, 50.98581999494975], [-3.85362998983632, 50.98504999494916], [-3.8539399898367153, 50.9846299949488], [-3.8552499898374757, 50.984869994948994], [-3.8550899898376896, 50.98416999494843], [-3.8506599898354077, 50.98271999494728], [-3.848839989834621, 50.98179999494655], [-3.8471799898336547, 50.981499994946304], [-3.846539989833047, 50.981909994946655], [-3.845749989832561, 50.981819994946584], [-3.8444447957016883, 50.98206600599058], [-3.851005837238474, 50.97682567155849]]]}}, {"type": "Feature", "properties": {"type": "postcode-cell", "postcode": "EX37 9TL", "postcodes": ["EX37 9TL"]}, "geometry": {"type": "Polygon", "coordinates": [[[-3.8846195002184594, 50.967758059282964], [-3.882997315658497, 50.96908516715996], [-3.8738942389839974, 50.96939709249119], [-3.8662780340467524, 50.965588786389574], [-3.868703612602957, 50.96137295918317], [-3.876792805389611, 50.96277941835014], [-3.883331211201431, 50.965493397597655], [-3.8846195002184594, 50.967758059282964]]]}}, {"type": "Feature", "properties": {"type": "postcode-cell", "postcode": "EX37 9SS", "postcodes": ["EX37 9SS"]}, "geometry": {"type": "Polygon", "coordinates": [[[-3.883331211201431, 50.965493397597655], [-3.876792805389611, 50.96277941835014], [-3.8758181606154545, 50.96019482879605], [-3.876107808281569, 50.95859177505286], [-3.8777071285638973, 50.95807510849432], [-3.884437791097112, 50.95827090259277], [-3.883331211201431, 50.965493397597655]]]}}, {"type": "Feature", "properties": {"type": "postcode-cell", "postcode": "EX37 9ST", "postcodes": ["EX37 9ST"]}, "geometry": {"type": "Polygon", "coordinates": [[[-3.8758181606154545, 50.96019482879605], [-3.8706673593924545, 50.95735121490185], [-3.871140778328179, 50.95682470870331], [-3.876107808281569, 50.95859177505286], [-3.8758181606154545, 50.96019482879605]]]}}, {"type": "Feature", "properties": {"type": "postcode-cell", "postcode": "EX37 9TN", "postcodes": ["EX37 9TN"]}, "geometry": {"type": "Polygon", "coordinates": [[[-3.8723938474443123, 50.953950055242856], [-3.871140778328179, 50.95682470870331], [-3.8706673593924545, 50.95735121490185], [-3.867650594612449, 50.959779076575536], [-3.8579541490554714, 50.957960837143254], [-3.8576971435889758, 50.957413714861296], [-3.8694199622437395, 50.9516067316728], [-3.87285058922753, 50.951848779234936], [-3.8723938474443123, 50.953950055242856]]]}}, {"type": "Feature", "properties": {"type": "postcode-cell", "postcode": "EX37 9TF", "postcodes": ["EX37 9TF"]}, "geometry": {"type": "Polygon", "coordinates": [[[-3.8697612832989097, 50.98098541341315], [-3.8701225365238825, 50.97135658219639], [-3.8738942389839974, 50.96939709249119], [-3.882997315658497, 50.96908516715996], [-3.882695126724686, 50.97649957999587], [-3.870360546588093, 50.981234931674926], [-3.8697612832989097, 50.98098541341315]]]}}, {"type": "Feature", "properties": {"type": "postcode-cell", "postcode": "EX37 9EZ", "postcodes": ["EX37 9EZ"]}, "geometry": {"type": "Polygon", "coordinates": [[[-3.876792805389611, 50.96277941835014], [-3.868703612602957, 50.96137295918317], [-3.867650594612449, 50.959779076575536], [-3.8706673593924545, 50.95735121490185], [-3.8758181606154545, 50.96019482879605], [-3.876792805389611, 50.96277941835014]]]}}, {"type": "Feature", "properties": {"type": "postcode-cell", "postcode": "EX37 9SP", "postcodes": ["EX37 9SP"]}, "geometry": {"type": "Polygon", "coordinates": [[[-3.8723938474443123, 50.953950055242856], [-3.8777071285638973, 50.95807510849432], [-3.876107808281569, 50.95859177505286], [-3.871140778328179, 50.95682470870331], [-3.8723938474443123, 50.953950055242856]]]}}, {"type": "Feature", "properties": {"type": "postcode-cell", "postcode": "EX37 9TP", "postcodes": ["EX37 9TP"]}, "geometry": {"type": "Polygon", "coordinates": [[[-3.8701225365238825, 50.97135658219639], [-3.8514984849000156, 50.97366429604763], [-3.8502511119886265, 50.9689627703489], [-3.8520833111206243, 50.96776005178199], [-3.8662780340467524, 50.965588786389574], [-3.8738942389839974, 50.96939709249119], [-3.8701225365238825, 50.97135658219639]]]}}, {"type": "Feature", "properties": {"type": "postcode-cell", "postcode": "EX36 3RE", "postcodes": ["EX36 3RE"]}, "geometry": {"type": "Polygon", "coordinates": [[[-3.8728741094921086, 51.039255892033545], [-3.87062209110891, 51.04071716223441], [-3.8535242700267154, 51.029297712078915], [-3.8772616169409893, 51.02935819989011], [-3.8786236154505374, 51.03162673991778], [-3.8728741094921086, 51.039255892033545]]]}}, {"type": "Feature", "properties": {"type": "postcode-cell", "postcode": "EX37 9TR", "postcodes": ["EX37 9TR"]}, "geometry": {"type": "Polygon", "coordinates": [[[-3.8697612832989097, 50.98098541341315], [-3.851005837238474, 50.97682567155849], [-3.8514984849000156, 50.97366429604763], [-3.8701225365238825, 50.97135658219639], [-3.8697612832989097, 50.98098541341315]]]}}, {"type": "Feature", "properties": {"type": "postcode-cell", "postcode": "EX36 3RF", "postcodes": ["EX36 3RF"]}, "geometry": {"type": "Polygon", "coordinates": [[[-3.8535242700267154, 51.029297712078915], [-3.87062209110891, 51.04071716223441], [-3.8690791642976254, 51.04529964312535], [-3.852517616323556, 51.051589668310626], [-3.8528399898065864, 51.04925999500153], [-3.850199989804931, 51.04902999500136], [-3.8489999898045295, 51.04814999500064], [-3.8516099898073066, 51.04586999499877], [-3.853989989809955, 51.04352999499684], [-3.853939989810497, 51.042259994995774], [-3.855169989812427, 51.039819994993806], [-3.8549399898126144, 51.0390699949932], [-3.8544399898123856, 51.038839994993], [-3.855519989813132, 51.03877999499295], [-3.855779989814863, 51.035349994990135], [-3.8554499898149226, 51.03472999498964], [-3.850209989813271, 51.030689994986375], [-3.851079989814057, 51.030239994986], [-3.8509699898143097, 51.02951999498539], [-3.8514799898148313, 51.029119994985095], [-3.851833630242571, 51.02894849344973], [-3.8535242700267154, 51.029297712078915]]]}}, {"type": "Feature", "properties": {"type": "postcode-cell", "postcode": "EX37 9TS", "postcodes": ["EX37 9TS"]}, "geometry": {"type": "Polygon", "coordinates": [[[-3.851005837238474, 50.97682567155849], [-3.8444447957016883, 50.98206600599058], [-3.8412399898291825, 50.98266999494732], [-3.8401299898287413, 50.98201999494679], [-3.838289989827538, 50.98197999494677], [-3.8343499898264573, 50.97862999494407], [-3.833257647359396, 50.97834099677812], [-3.8233697864297147, 50.970930081524756], [-3.825329989824369, 50.97011999493725], [-3.826059989825427, 50.96885999493621], [-3.8294399898280975, 50.967919994935414], [-3.8300199898290743, 50.96661999493437], [-3.832519989831389, 50.965179994933166], [-3.8336024730395875, 50.96216096054757], [-3.8502511119886265, 50.9689627703489], [-3.8514984849000156, 50.97366429604763], [-3.851005837238474, 50.97682567155849]]]}}, {"type": "Feature", "properties": {"type": "postcode-cell", "postcode": "EX37 9TW", "postcodes": ["EX37 9TW"]}, "geometry": {"type": "Polygon", "coordinates": [[[-3.868703612602957, 50.96137295918317], [-3.8662780340467524, 50.965588786389574], [-3.8520833111206243, 50.96776005178199], [-3.8579541490554714, 50.957960837143254], [-3.867650594612449, 50.959779076575536], [-3.868703612602957, 50.96137295918317]]]}}, {"type": "Feature", "properties": {"type": "postcode-cell", "postcode": "EX18 7AW", "postcodes": ["EX18 7AW"]}, "geometry": {"type": "Polygon", "coordinates": [[[-3.8576971435889758, 50.957413714861296], [-3.843467416718468, 50.946598774058735], [-3.8434599898472968, 50.946219994917705], [-3.84285998984736, 50.94520999491688], [-3.843359989847729, 50.945129994916826], [-3.845589989849272, 50.94497999491668], [-3.849359989851468, 50.94563999491718], [-3.8547924490017906, 50.945395212654404], [-3.8694199622437395, 50.9516067316728], [-3.8576971435889758, 50.957413714861296]]]}}, {"type": "Feature", "properties": {"type": "postcode-cell", "postcode": "EX36 4LQ", "postcodes": ["EX36 4LQ"]}, "geometry": {"type": "Polygon", "coordinates": [[[-3.833257647359396, 50.97834099677812], [-3.8321199898252476, 50.97803999494361], [-3.8307399898237757, 50.979259994944634], [-3.82873998982229, 50.97960999494492], [-3.827429989821104, 50.980309994945515], [-3.8269999898203446, 50.98134999494637], [-3.827489989819772, 50.983309994947945], [-3.8261399898184854, 50.98416999494863], [-3.8241599898169993, 50.984549994948964], [-3.8199299898142356, 50.98446999494894], [-3.8198299898144032, 50.98395999494852], [-3.820539989815101, 50.98345999494811], [-3.819459989814607, 50.98297999494773], [-3.819429989814825, 50.98245999494732], [-3.8186899898144255, 50.98225999494715], [-3.8185599898141342, 50.98270999494751], [-3.817609989813567, 50.98256999494742], [-3.8177999898138357, 50.98225999494715], [-3.8170199898134367, 50.98199999494696], [-3.8169899898132726, 50.98231999494722], [-3.8158899898126544, 50.98207999494704], [-3.815349989812518, 50.981589994946624], [-3.815609989812898, 50.98113999494627], [-3.8151999898126685, 50.981049994946204], [-3.815649989813263, 50.98039999494565], [-3.8149799898128745, 50.980279994945576], [-3.8148599898129634, 50.97990999494527], [-3.8144199898125914, 50.98008999494542], [-3.812889989811766, 50.979679994945094], [-3.813119989812219, 50.97901999494455], [-3.813799989812899, 50.97851999494416], [-3.8135999898129036, 50.97821999494392], [-3.818269989816985, 50.9760499949421], [-3.818749989817273, 50.97611999494217], [-3.8192899898179875, 50.97533999494153], [-3.818869989818324, 50.973989994940425], [-3.8192199898186545, 50.973779994940266], [-3.8191199898189914, 50.97288999493953], [-3.819739989819615, 50.97242999493916], [-3.8233697864297147, 50.970930081524756], [-3.833257647359396, 50.97834099677812]]]}}, {"type": "Feature", "properties": {"type": "postcode-cell", "postcode": "EX37 9TU", "postcodes": ["EX37 9TU"]}, "geometry": {"type": "Polygon", "coordinates": [[[-3.8576971435889758, 50.957413714861296], [-3.8579541490554714, 50.957960837143254], [-3.8520833111206243, 50.96776005178199], [-3.8502511119886265, 50.9689627703489], [-3.8336024730395875, 50.96216096054757], [-3.8336099898334974, 50.962139994930695], [-3.832879989834847, 50.95812999492744], [-3.8345299898371863, 50.95539999492523], [-3.833109989836726, 50.95435999492439], [-3.8350999898379077, 50.954649994924615], [-3.8375299898405983, 50.95227999492267], [-3.8431199898462896, 50.94792999491909], [-3.842839989846201, 50.947719994918934], [-3.843479989846843, 50.94723999491852], [-3.843467416718468, 50.946598774058735], [-3.8576971435889758, 50.957413714861296]]]}}]}