{"type": "FeatureCollection", "features": [{"type": "Feature", "properties": {"type": "ward-outline", "name": "Cranbrook"}, "geometry": {"type": "Polygon", "coordinates": [[[-3.40096, 50.7474], [-3.40256, 50.74739], [-3.40384, 50.74775], [-3.40622, 50.74751], [-3.40698, 50.74812], [-3.40899, 50.74676], [-3.41395, 50.7446], [-3.41938, 50.74293], [-3.42076, 50.74334], [-3.42632, 50.7435], [-3.4275, 50.74451], [-3.42763, 50.74521], [-3.42721, 50.74537], [-3.42751, 50.74576], [-3.42878, 50.74517], [-3.43012, 50.74573], [-3.42817, 50.74735], [-3.42667, 50.74719], [-3.42658, 50.7475], [-3.42739, 50.74765], [-3.42726, 50.74814], [-3.42453, 50.74893], [-3.4234, 50.74881], [-3.42346, 50.74939], [-3.40364, 50.7547], [-3.3929, 50.75829], [-3.38164, 50.76101], [-3.38097, 50.76032], [-3.38074, 50.75781], [-3.37974, 50.7581], [-3.37816, 50.7575], [-3.37698, 50.75765], [-3.3756, 50.75742], [-3.37566, 50.75719], [-3.3742, 50.75679], [-3.37403, 50.75699], [-3.37239, 50.7565], [-3.37049, 50.75639], [-3.36744, 50.7555], [-3.37023, 50.75286], [-3.38236, 50.75147], [-3.38257, 50.75227], [-3.38371, 50.75224], [-3.38406, 50.75221], [-3.38366, 50.75132], [-3.38528, 50.75113], [-3.38526, 50.75171], [-3.38643, 50.75158], [-3.38658, 50.75129], [-3.38748, 50.7515], [-3.38732, 50.75088], [-3.38963, 50.75062], [-3.38977, 50.75134], [-3.39031, 50.75133], [-3.39018, 50.75056], [-3.39139, 50.75042], [-3.39194, 50.75129], [-3.39265, 50.75128], [-3.39231, 50.7506], [-3.39292, 50.75048], [-3.39352, 50.75099], [-3.3943, 50.75076], [-3.39418, 50.75026], [-3.39576, 50.75019], [-3.39588, 50.74995], [-3.39733, 50.7498], [-3.39749, 50.75022], [-3.3985, 50.74992], [-3.40033, 50.74997], [-3.40269, 50.74922], [-3.4009, 50.74924], [-3.40096, 50.7474]]]}}, {"type": "Feature", "properties": {"type": "postcode-cell", "postcode": "EX5 3BA", "postcodes": ["EX5 3BA"]}, "geometry": {"type": "Polygon", "coordinates": [[[-3.418682513463629, 50.748334962191066], [-3.419122712396019, 50.74659187724645], [-3.419572656535749, 50.7462132593602], [-3.4226408436741242, 50.744873714277446], [-3.4265704260058936, 50.74371435597865], [-3.427499989673016, 50.74450999476166], [-3.427629989672762, 50.745209994762206], [-3.4272099896724217, 50.74536999476233], [-3.427509989672423, 50.74575999476262], [-3.428779989673506, 50.74516999476215], [-3.430119989674081, 50.74572999476258], [-3.4281699896720803, 50.74734999476387], [-3.42666998967121, 50.747189994763765], [-3.4265799896710054, 50.74749999476402], [-3.427389989671444, 50.747649994764124], [-3.4272599896711275, 50.7481399947645], [-3.4245299896690304, 50.74892999476517], [-3.4233999896683773, 50.74880999476508], [-3.423459989668137, 50.74938999476556], [-3.419721414086962, 50.75039194955065], [-3.418682513463629, 50.748334962191066]]]}}, {"type": "Feature", "properties": {"type": "postcode-cell", "postcode": "EX5 7AA", "postcodes": ["EX5 7AA"]}, "geometry": {"type": "Polygon", "coordinates": [[[-3.419572656535749, 50.7462132593602], [-3.4187912535424667, 50.74600884968051], [-3.4174521186612314, 50.74519094644935], [-3.4172732352220487, 50.74496358218066], [-3.4181039099235537, 50.7447768320966], [-3.4226408436741242, 50.744873714277446], [-3.419572656535749, 50.7462132593602]]]}}, {"type": "Feature", "properties": {"type": "postcode-cell", "postcode": "EX5 7DA", "postcodes": ["EX5 7DA"]}, "geometry": {"type": "Polygon", "coordinates": [[[-3.4226408436741242, 50.744873714277446], [-3.4181039099235537, 50.7447768320966], [-3.416948065832947, 50.743677980281966], [-3.4193799896686614, 50.74292999476052], [-3.4207599896693353, 50.74333999476086], [-3.426319989672757, 50.74349999476087], [-3.4265704260058936, 50.74371435597865], [-3.4226408436741242, 50.744873714277446]]]}}, {"type": "Feature", "properties": {"type": "postcode-cell", "postcode": "EX5 7AF", "postcodes": ["EX5 7AF"]}, "geometry": {"type": "Polygon", "coordinates": [[[-3.419572656535749, 50.7462132593602], [-3.419122712396019, 50.74659187724645], [-3.4180386134660456, 50.746653795503114], [-3.4167988583765507, 50.74620500240895], [-3.4166477143925547, 50.74595099708576], [-3.416816571593975, 50.745793196631745], [-3.41747193187963, 50.74578515444625], [-3.4187912535424667, 50.74600884968051], [-3.419572656535749, 50.7462132593602]]]}}, {"type": "Feature", "properties": {"type": "postcode-cell", "postcode": "EX5 7BZ", "postcodes": ["EX5 7BZ"]}, "geometry": {"type": "Polygon", "coordinates": [[[-3.4172732352220487, 50.74496358218066], [-3.4165928148657776, 50.744932059964775], [-3.416293217731194, 50.74454161442151], [-3.4162197209486957, 50.74397367078239], [-3.4162254523435878, 50.7439002198163], [-3.416948065832947, 50.743677980281966], [-3.4181039099235537, 50.7447768320966], [-3.4172732352220487, 50.74496358218066]]]}}, {"type": "Feature", "properties": {"type": "postcode-cell", "postcode": "EX5 7AG", "postcodes": ["EX5 7AG"]}, "geometry": {"type": "Polygon", "coordinates": [[[-3.418682513463629, 50.748334962191066], [-3.4179356108128247, 50.74808295408195], [-3.4170876891154514, 50.74721463580931], [-3.417412157740481, 50.746844847000446], [-3.4180386134660456, 50.746653795503114], [-3.419122712396019, 50.74659187724645], [-3.418682513463629, 50.748334962191066]]]}}, {"type": "Feature", "properties": {"type": "postcode-cell", "postcode": "EX5 7BW", "postcodes": ["EX5 7BW"]}, "geometry": {"type": "Polygon", "coordinates": [[[-3.4187912535424667, 50.74600884968051], [-3.41747193187963, 50.74578515444625], [-3.4174521186612314, 50.74519094644935], [-3.4187912535424667, 50.74600884968051]]]}}, {"type": "Feature", "properties": {"type": "postcode-cell", "postcode": "EX5 7JU", "postcodes": ["EX5 7JU"]}, "geometry": {"type": "Polygon", "coordinates": [[[-3.416293217731194, 50.74454161442151], [-3.415235623189975, 50.74486183761681], [-3.414691134486415, 50.74465812272664], [-3.4162197209486957, 50.74397367078239], [-3.416293217731194, 50.74454161442151]]]}}, {"type": "Feature", "properties": {"type": "postcode-cell", "postcode": "EX5 7BX", "postcodes": ["EX5 7BX"]}, "geometry": {"type": "Polygon", "coordinates": [[[-3.4174521186612314, 50.74519094644935], [-3.41747193187963, 50.74578515444625], [-3.416816571593975, 50.745793196631745], [-3.4165602897874776, 50.74499208296847], [-3.4165928148657776, 50.744932059964775], [-3.4172732352220487, 50.74496358218066], [-3.4174521186612314, 50.74519094644935]]]}}, {"type": "Feature", "properties": {"type": "postcode-cell", "postcode": "EX5 7AE", "postcodes": ["EX5 7AE"]}, "geometry": {"type": "Polygon", "coordinates": [[[-3.418682513463629, 50.748334962191066], [-3.419721414086962, 50.75039194955065], [-3.4195326910254744, 50.750442523868706], [-3.416009101327398, 50.74861041313257], [-3.415698794836651, 50.74834344433255], [-3.4167308859938625, 50.74787711433305], [-3.4179356108128247, 50.74808295408195], [-3.418682513463629, 50.748334962191066]]]}}, {"type": "Feature", "properties": {"type": "postcode-cell", "postcode": "EX5 7BN", "postcodes": ["EX5 7BN"]}, "geometry": {"type": "Polygon", "coordinates": [[[-3.417412157740481, 50.746844847000446], [-3.4164325872249703, 50.74672877672141], [-3.4167988583765507, 50.74620500240895], [-3.4180386134660456, 50.746653795503114], [-3.417412157740481, 50.746844847000446]]]}}, {"type": "Feature", "properties": {"type": "postcode-cell", "postcode": "EX5 7DR", "postcodes": ["EX5 7DR"]}, "geometry": {"type": "Polygon", "coordinates": [[[-3.4167988583765507, 50.74620500240895], [-3.4164325872249703, 50.74672877672141], [-3.4157821162904995, 50.74692792870382], [-3.4150996829698657, 50.74676930437186], [-3.4152903144890328, 50.74636876165151], [-3.4155665496318917, 50.74603769335058], [-3.4166477143925547, 50.74595099708576], [-3.4167988583765507, 50.74620500240895]]]}}, {"type": "Feature", "properties": {"type": "postcode-cell", "postcode": "EX5 7AZ", "postcodes": ["EX5 7AZ"]}, "geometry": {"type": "Polygon", "coordinates": [[[-3.4179356108128247, 50.74808295408195], [-3.4167308859938625, 50.74787711433305], [-3.416256801974746, 50.74735019998153], [-3.416255086205808, 50.74734134429916], [-3.4170876891154514, 50.74721463580931], [-3.4179356108128247, 50.74808295408195]]]}}, {"type": "Feature", "properties": {"type": "postcode-cell", "postcode": "EX5 7AD", "postcodes": ["EX5 7AD"]}, "geometry": {"type": "Polygon", "coordinates": [[[-3.4167308859938625, 50.74787711433305], [-3.415698794836651, 50.74834344433255], [-3.415166773124271, 50.74821039071292], [-3.416256801974746, 50.74735019998153], [-3.4167308859938625, 50.74787711433305]]]}}, {"type": "Feature", "properties": {"type": "postcode-cell", "postcode": "EX5 7DN", "postcodes": ["EX5 7DN"]}, "geometry": {"type": "Polygon", "coordinates": [[[-3.4170876891154514, 50.74721463580931], [-3.416255086205808, 50.74734134429916], [-3.4157821162904995, 50.74692792870382], [-3.4164325872249703, 50.74672877672141], [-3.417412157740481, 50.746844847000446], [-3.4170876891154514, 50.74721463580931]]]}}, {"type": "Feature", "properties": {"type": "postcode-cell", "postcode": "EX5 7DT", "postcodes": ["EX5 7DT"]}, "geometry": {"type": "Polygon", "coordinates": [[[-3.4166477143925547, 50.74595099708576], [-3.4155665496318917, 50.74603769335058], [-3.4155393205932296, 50.74596796383753], [-3.4158794516093884, 50.74531632040032], [-3.4165602897874776, 50.74499208296847], [-3.416816571593975, 50.745793196631745], [-3.4166477143925547, 50.74595099708576]]]}}, {"type": "Feature", "properties": {"type": "postcode-cell", "postcode": "EX5 7EA", "postcodes": ["EX5 7EA"]}, "geometry": {"type": "Polygon", "coordinates": [[[-3.416256801974746, 50.74735019998153], [-3.415166773124271, 50.74821039071292], [-3.4146251606351736, 50.748172452505486], [-3.4145092931137166, 50.747945701599015], [-3.4142743375288087, 50.74701323269098], [-3.4150996829698657, 50.74676930437186], [-3.4157821162904995, 50.74692792870382], [-3.416255086205808, 50.74734134429916], [-3.416256801974746, 50.74735019998153]]]}}, {"type": "Feature", "properties": {"type": "postcode-cell", "postcode": "EX5 7BA", "postcodes": ["EX5 7BA"]}, "geometry": {"type": "Polygon", "coordinates": [[[-3.4156678131640192, 50.7506885084166], [-3.4150841675177914, 50.74928900551972], [-3.416009101327398, 50.74861041313257], [-3.4195326910254744, 50.750442523868706], [-3.4160405825739346, 50.751378270350436], [-3.4156678131640192, 50.7506885084166]]]}}, {"type": "Feature", "properties": {"type": "postcode-cell", "postcode": "EX5 7AY", "postcodes": ["EX5 7AY"]}, "geometry": {"type": "Polygon", "coordinates": [[[-3.4155665496318917, 50.74603769335058], [-3.4152903144890328, 50.74636876165151], [-3.4142789521805263, 50.7457183052801], [-3.415004050373413, 50.74560288711328], [-3.4155393205932296, 50.74596796383753], [-3.4155665496318917, 50.74603769335058]]]}}, {"type": "Feature", "properties": {"type": "postcode-cell", "postcode": "EX5 7DH", "postcodes": ["EX5 7DH"]}, "geometry": {"type": "Polygon", "coordinates": [[[-3.4165602897874776, 50.74499208296847], [-3.4158794516093884, 50.74531632040032], [-3.415088049709403, 50.745206202011694], [-3.415235623189975, 50.74486183761681], [-3.416293217731194, 50.74454161442151], [-3.4165928148657776, 50.744932059964775], [-3.4165602897874776, 50.74499208296847]]]}}, {"type": "Feature", "properties": {"type": "postcode-cell", "postcode": "EX5 7BL", "postcodes": ["EX5 7BL"]}, "geometry": {"type": "Polygon", "coordinates": [[[-3.4095106001894284, 50.751504043053494], [-3.4094859499604473, 50.751416382605505], [-3.4116160983292736, 50.75025344166651], [-3.4148899175668204, 50.751686571939864], [-3.4102479965367096, 50.752930141768665], [-3.4095106001894284, 50.751504043053494]]]}}, {"type": "Feature", "properties": {"type": "postcode-cell", "postcode": "EX5 7AL", "postcodes": ["EX5 7AL"]}, "geometry": {"type": "Polygon", "coordinates": [[[-3.416009101327398, 50.74861041313257], [-3.4150841675177914, 50.74928900551972], [-3.4143218433597275, 50.74847767187552], [-3.4146251606351736, 50.748172452505486], [-3.415166773124271, 50.74821039071292], [-3.415698794836651, 50.74834344433255], [-3.416009101327398, 50.74861041313257]]]}}, {"type": "Feature", "properties": {"type": "postcode-cell", "postcode": "EX5 7BY", "postcodes": ["EX5 7BY"]}, "geometry": {"type": "Polygon", "coordinates": [[[-3.415088049709403, 50.745206202011694], [-3.4158794516093884, 50.74531632040032], [-3.4155393205932296, 50.74596796383753], [-3.415004050373413, 50.74560288711328], [-3.4149644401575183, 50.74526156916742], [-3.415088049709403, 50.745206202011694]]]}}, {"type": "Feature", "properties": {"type": "postcode-cell", "postcode": "EX5 7DG", "postcodes": ["EX5 7DG"]}, "geometry": {"type": "Polygon", "coordinates": [[[-3.4149644401575183, 50.74526156916742], [-3.413172349031169, 50.74493867167637], [-3.413949989664448, 50.744599994761934], [-3.4139553679634176, 50.744598340845776], [-3.414691134486415, 50.74465812272664], [-3.415235623189975, 50.74486183761681], [-3.415088049709403, 50.745206202011694], [-3.4149644401575183, 50.74526156916742]]]}}, {"type": "Feature", "properties": {"type": "postcode-cell", "postcode": "EX5 7AN", "postcodes": ["EX5 7AN"]}, "geometry": {"type": "Polygon", "coordinates": [[[-3.4156678131640192, 50.7506885084166], [-3.413654764484197, 50.74876891972023], [-3.4138202623795513, 50.748663697227286], [-3.4143218433597275, 50.74847767187552], [-3.4150841675177914, 50.74928900551972], [-3.4156678131640192, 50.7506885084166]]]}}, {"type": "Feature", "properties": {"type": "postcode-cell", "postcode": "EX5 7BG", "postcodes": ["EX5 7BG"]}, "geometry": {"type": "Polygon", "coordinates": [[[-3.4143218433597275, 50.74847767187552], [-3.4138202623795513, 50.748663697227286], [-3.412693143827829, 50.74792464816571], [-3.4145092931137166, 50.747945701599015], [-3.4146251606351736, 50.748172452505486], [-3.4143218433597275, 50.74847767187552]]]}}, {"type": "Feature", "properties": {"type": "postcode-cell", "postcode": "EX5 2DY", "postcodes": ["EX5 2DY"]}, "geometry": {"type": "Polygon", "coordinates": [[[-3.4162197209486957, 50.74397367078239], [-3.414691134486415, 50.74465812272664], [-3.4139553679634176, 50.744598340845776], [-3.4162254523435878, 50.7439002198163], [-3.4162197209486957, 50.74397367078239]]]}}, {"type": "Feature", "properties": {"type": "postcode-cell", "postcode": "EX5 7AW", "postcodes": ["EX5 7AW"]}, "geometry": {"type": "Polygon", "coordinates": [[[-3.4130680528807646, 50.745615763275325], [-3.4138630975671735, 50.7469063316964], [-3.4128034536097545, 50.74717259736078], [-3.4121369408305924, 50.74678035946027], [-3.4126650652919706, 50.74585604352875], [-3.4130680528807646, 50.745615763275325]]]}}, {"type": "Feature", "properties": {"type": "postcode-cell", "postcode": "EX5 7BU", "postcodes": ["EX5 7BU"]}, "geometry": {"type": "Polygon", "coordinates": [[[-3.4126650652919706, 50.74585604352875], [-3.4118694339603786, 50.746200608959974], [-3.410798326582545, 50.745972540445145], [-3.4128699542369008, 50.745070367508646], [-3.413069649703197, 50.745587984121286], [-3.4130680528807646, 50.745615763275325], [-3.4126650652919706, 50.74585604352875]]]}}, {"type": "Feature", "properties": {"type": "postcode-cell", "postcode": "EX5 7AP", "postcodes": ["EX5 7AP"]}, "geometry": {"type": "Polygon", "coordinates": [[[-3.4150996829698657, 50.74676930437186], [-3.4142743375288087, 50.74701323269098], [-3.4138630975671735, 50.7469063316964], [-3.4130680528807646, 50.745615763275325], [-3.413069649703197, 50.745587984121286], [-3.4142789521805263, 50.7457183052801], [-3.4152903144890328, 50.74636876165151], [-3.4150996829698657, 50.74676930437186]]]}}, {"type": "Feature", "properties": {"type": "postcode-cell", "postcode": "EX5 7AX", "postcodes": ["EX5 7AX"]}, "geometry": {"type": "Polygon", "coordinates": [[[-3.415004050373413, 50.74560288711328], [-3.4142789521805263, 50.7457183052801], [-3.413069649703197, 50.745587984121286], [-3.4128699542369008, 50.745070367508646], [-3.413172349031169, 50.74493867167637], [-3.4149644401575183, 50.74526156916742], [-3.415004050373413, 50.74560288711328]]]}}, {"type": "Feature", "properties": {"type": "postcode-cell", "postcode": "EX5 7BH", "postcodes": ["EX5 7BH"]}, "geometry": {"type": "Polygon", "coordinates": [[[-3.4138630975671735, 50.7469063316964], [-3.4142743375288087, 50.74701323269098], [-3.4145092931137166, 50.747945701599015], [-3.412693143827829, 50.74792464816571], [-3.4124522839773115, 50.747843493578124], [-3.412646647651083, 50.74729654392881], [-3.4128034536097545, 50.74717259736078], [-3.4138630975671735, 50.7469063316964]]]}}, {"type": "Feature", "properties": {"type": "postcode-cell", "postcode": "EX5 7BJ", "postcodes": ["EX5 7BJ"]}, "geometry": {"type": "Polygon", "coordinates": [[[-3.4160405825739346, 50.751378270350436], [-3.4151114815110333, 50.75162720875191], [-3.4140158104139076, 50.750659540906064], [-3.4132670768800026, 50.74894198379394], [-3.413654764484197, 50.74876891972023], [-3.4156678131640192, 50.7506885084166], [-3.4160405825739346, 50.751378270350436]]]}}, {"type": "Feature", "properties": {"type": "postcode-cell", "postcode": "EX5 7DJ", "postcodes": ["EX5 7DJ"]}, "geometry": {"type": "Polygon", "coordinates": [[[-3.4151114815110333, 50.75162720875191], [-3.4148899175668204, 50.751686571939864], [-3.4116160983292736, 50.75025344166651], [-3.4116261895153945, 50.750238176229104], [-3.41239290102141, 50.75007633200553], [-3.412800237452491, 50.75008180726065], [-3.4140158104139076, 50.750659540906064], [-3.4151114815110333, 50.75162720875191]]]}}, {"type": "Feature", "properties": {"type": "postcode-cell", "postcode": "EX5 7AT", "postcodes": ["EX5 7AT"]}, "geometry": {"type": "Polygon", "coordinates": [[[-3.4140158104139076, 50.750659540906064], [-3.412800237452491, 50.75008180726065], [-3.4122620000719532, 50.74938481831931], [-3.41235262189502, 50.74906974956451], [-3.4125895270715776, 50.74895315375042], [-3.4132670768800026, 50.74894198379394], [-3.4140158104139076, 50.750659540906064]]]}}, {"type": "Feature", "properties": {"type": "postcode-cell", "postcode": "EX5 7BF", "postcodes": ["EX5 7BF"]}, "geometry": {"type": "Polygon", "coordinates": [[[-3.4138202623795513, 50.748663697227286], [-3.413654764484197, 50.74876891972023], [-3.4132670768800026, 50.74894198379394], [-3.4125895270715776, 50.74895315375042], [-3.4120739668283604, 50.74808948100475], [-3.4124522839773115, 50.747843493578124], [-3.412693143827829, 50.74792464816571], [-3.4138202623795513, 50.748663697227286]]]}}, {"type": "Feature", "properties": {"type": "postcode-cell", "postcode": "EX5 7BP", "postcodes": ["EX5 7BP"]}, "geometry": {"type": "Polygon", "coordinates": [[[-3.4124522839773115, 50.747843493578124], [-3.4120739668283604, 50.74808948100475], [-3.4116423814724994, 50.74808478647326], [-3.411380443971726, 50.74739811025562], [-3.411517831216452, 50.747298918106374], [-3.412646647651083, 50.74729654392881], [-3.4124522839773115, 50.747843493578124]]]}}, {"type": "Feature", "properties": {"type": "postcode-cell", "postcode": "EX5 7BD", "postcodes": ["EX5 7BD"]}, "geometry": {"type": "Polygon", "coordinates": [[[-3.412646647651083, 50.74729654392881], [-3.411517831216452, 50.747298918106374], [-3.41120332869806, 50.74686514825235], [-3.4121135393487685, 50.746773076062624], [-3.4121369408305924, 50.74678035946027], [-3.4128034536097545, 50.74717259736078], [-3.412646647651083, 50.74729654392881]]]}}, {"type": "Feature", "properties": {"type": "postcode-cell", "postcode": "EX5 7AU", "postcodes": ["EX5 7AU"]}, "geometry": {"type": "Polygon", "coordinates": [[[-3.4117915529212754, 50.74641135367997], [-3.4118694339603786, 50.746200608959974], [-3.4126650652919706, 50.74585604352875], [-3.4121369408305924, 50.74678035946027], [-3.4121135393487685, 50.746773076062624], [-3.4117915529212754, 50.74641135367997]]]}}, {"type": "Feature", "properties": {"type": "postcode-cell", "postcode": "EX5 7AS", "postcodes": ["EX5 7AS"]}, "geometry": {"type": "Polygon", "coordinates": [[[-3.4121135393487685, 50.746773076062624], [-3.41120332869806, 50.74686514825235], [-3.4107091107053544, 50.74666791284176], [-3.4117915529212754, 50.74641135367997], [-3.4121135393487685, 50.746773076062624]]]}}, {"type": "Feature", "properties": {"type": "postcode-cell", "postcode": "EX5 7DU", "postcodes": ["EX5 7DU"]}, "geometry": {"type": "Polygon", "coordinates": [[[-3.41235262189502, 50.74906974956451], [-3.411741496570993, 50.749019511366946], [-3.4112875077420846, 50.74875353406679], [-3.4114241115764443, 50.74813067025365], [-3.4116423814724994, 50.74808478647326], [-3.4120739668283604, 50.74808948100475], [-3.4125895270715776, 50.74895315375042], [-3.41235262189502, 50.74906974956451]]]}}, {"type": "Feature", "properties": {"type": "postcode-cell", "postcode": "EX5 7DE", "postcodes": ["EX5 7DE"]}, "geometry": {"type": "Polygon", "coordinates": [[[-3.412800237452491, 50.75008180726065], [-3.41239290102141, 50.75007633200553], [-3.4116122022658333, 50.749758260439336], [-3.4122620000719532, 50.74938481831931], [-3.412800237452491, 50.75008180726065]]]}}, {"type": "Feature", "properties": {"type": "postcode-cell", "postcode": "EX5 7DF", "postcodes": ["EX5 7DF"]}, "geometry": {"type": "Polygon", "coordinates": [[[-3.41239290102141, 50.75007633200553], [-3.4116261895153945, 50.750238176229104], [-3.411540955478794, 50.74977950704505], [-3.4116122022658333, 50.749758260439336], [-3.41239290102141, 50.75007633200553]]]}}, {"type": "Feature", "properties": {"type": "postcode-cell", "postcode": "EX5 7BB", "postcodes": ["EX5 7BB"]}, "geometry": {"type": "Polygon", "coordinates": [[[-3.4116160983292736, 50.75025344166651], [-3.4094859499604473, 50.751416382605505], [-3.408815701644633, 50.75025598403889], [-3.408803615641913, 50.75011491868918], [-3.409887208256131, 50.749628384027154], [-3.410507215981617, 50.749586918185614], [-3.411540955478794, 50.74977950704505], [-3.4116261895153945, 50.750238176229104], [-3.4116160983292736, 50.75025344166651]]]}}, {"type": "Feature", "properties": {"type": "postcode-cell", "postcode": "EX5 7EL", "postcodes": ["EX5 7EL"]}, "geometry": {"type": "Polygon", "coordinates": [[[-3.408803615641913, 50.75011491868918], [-3.408815701644633, 50.75025598403889], [-3.4057763407283055, 50.750813308271916], [-3.405356565830751, 50.750401517298], [-3.4053756206111414, 50.75027446685523], [-3.4076732998421586, 50.7493586453047], [-3.408610454842715, 50.749949559213995], [-3.408803615641913, 50.75011491868918]]]}}, {"type": "Feature", "properties": {"type": "postcode-cell", "postcode": "EX5 7BR", "postcodes": ["EX5 7BR"]}, "geometry": {"type": "Polygon", "coordinates": [[[-3.408610454842715, 50.749949559213995], [-3.40935886356552, 50.748615847522316], [-3.409856618059356, 50.74843509821123], [-3.4100295447313638, 50.74845983103092], [-3.410312057460506, 50.748554339246915], [-3.4103927264124225, 50.74881510900279], [-3.409887208256131, 50.749628384027154], [-3.408803615641913, 50.75011491868918], [-3.408610454842715, 50.749949559213995]]]}}, {"type": "Feature", "properties": {"type": "postcode-cell", "postcode": "EX5 7AQ", "postcodes": ["EX5 7AQ"]}, "geometry": {"type": "Polygon", "coordinates": [[[-3.4122620000719532, 50.74938481831931], [-3.4116122022658333, 50.749758260439336], [-3.411540955478794, 50.74977950704505], [-3.410507215981617, 50.749586918185614], [-3.411741496570993, 50.749019511366946], [-3.41235262189502, 50.74906974956451], [-3.4122620000719532, 50.74938481831931]]]}}, {"type": "Feature", "properties": {"type": "postcode-cell", "postcode": "EX5 7BE", "postcodes": ["EX5 7BE"]}, "geometry": {"type": "Polygon", "coordinates": [[[-3.411517831216452, 50.747298918106374], [-3.411380443971726, 50.74739811025562], [-3.410828673350717, 50.74748091077016], [-3.410309456647086, 50.74729055167196], [-3.4106308973390975, 50.74665375009276], [-3.4107091107053544, 50.74666791284176], [-3.41120332869806, 50.74686514825235], [-3.411517831216452, 50.747298918106374]]]}}, {"type": "Feature", "properties": {"type": "postcode-cell", "postcode": "EX5 7EN", "postcodes": ["EX5 7EN"]}, "geometry": {"type": "Polygon", "coordinates": [[[-3.4040798290173675, 50.749630494354044], [-3.4037195502457616, 50.74983131740814], [-3.403118045053633, 50.74964932947442], [-3.402751482907973, 50.74928482627641], [-3.401751286617849, 50.747395051902714], [-3.402559989655955, 50.7473899947643], [-3.4029476496748097, 50.747499026223394], [-3.4040798290173675, 50.749630494354044]]]}}, {"type": "Feature", "properties": {"type": "postcode-cell", "postcode": "EX5 7FW", "postcodes": ["EX5 7FW"]}, "geometry": {"type": "Polygon", "coordinates": [[[-3.396545595130164, 50.75046058710595], [-3.3962372175056665, 50.750498208119986], [-3.3957984873537153, 50.750112999636], [-3.3958799896505334, 50.74994999476642], [-3.3969443632867575, 50.749839888999205], [-3.396545595130164, 50.75046058710595]]]}}, {"type": "Feature", "properties": {"type": "postcode-cell", "postcode": "EX5 7BQ", "postcodes": ["EX5 7BQ"]}, "geometry": {"type": "Polygon", "coordinates": [[[-3.4116423814724994, 50.74808478647326], [-3.4114241115764443, 50.74813067025365], [-3.4110110436744003, 50.748083332805386], [-3.410983682596767, 50.748052122892695], [-3.410828673350717, 50.74748091077016], [-3.411380443971726, 50.74739811025562], [-3.4116423814724994, 50.74808478647326]]]}}, {"type": "Feature", "properties": {"type": "postcode-cell", "postcode": "EX5 7AR", "postcodes": ["EX5 7AR"]}, "geometry": {"type": "Polygon", "coordinates": [[[-3.4117915529212754, 50.74641135367997], [-3.4107091107053544, 50.74666791284176], [-3.4106308973390975, 50.74665375009276], [-3.4102223557754754, 50.74622335727782], [-3.410798326582545, 50.745972540445145], [-3.4118694339603786, 50.746200608959974], [-3.4117915529212754, 50.74641135367997]]]}}, {"type": "Feature", "properties": {"type": "postcode-cell", "postcode": "EX5 7DB", "postcodes": ["EX5 7DB"]}, "geometry": {"type": "Polygon", "coordinates": [[[-3.409593203944536, 50.74756563642733], [-3.4096524989969095, 50.74755262440123], [-3.410983682596767, 50.748052122892695], [-3.4110110436744003, 50.748083332805386], [-3.410632309042692, 50.748256843129774], [-3.4099680631060934, 50.74793395781323], [-3.409593203944536, 50.74756563642733]]]}}, {"type": "Feature", "properties": {"type": "postcode-cell", "postcode": "EX5 7AJ", "postcodes": ["EX5 7AJ"]}, "geometry": {"type": "Polygon", "coordinates": [[[-3.4099680631060934, 50.74793395781323], [-3.4100295447313638, 50.74845983103092], [-3.409856618059356, 50.74843509821123], [-3.4091466167296707, 50.74791853556089], [-3.4091398198532974, 50.747769431098924], [-3.4092397496358444, 50.747574901092385], [-3.409593203944536, 50.74756563642733], [-3.4099680631060934, 50.74793395781323]]]}}, {"type": "Feature", "properties": {"type": "postcode-cell", "postcode": "EX5 7DS", "postcodes": ["EX5 7DS"]}, "geometry": {"type": "Polygon", "coordinates": [[[-3.410507215981617, 50.749586918185614], [-3.409887208256131, 50.749628384027154], [-3.4103927264124225, 50.74881510900279], [-3.4112875077420846, 50.74875353406679], [-3.411741496570993, 50.749019511366946], [-3.410507215981617, 50.749586918185614]]]}}, {"type": "Feature", "properties": {"type": "postcode-cell", "postcode": "EX5 7BT", "postcodes": ["EX5 7BT"]}, "geometry": {"type": "Polygon", "coordinates": [[[-3.4112875077420846, 50.74875353406679], [-3.4103927264124225, 50.74881510900279], [-3.410312057460506, 50.748554339246915], [-3.410632309042692, 50.748256843129774], [-3.4110110436744003, 50.748083332805386], [-3.4114241115764443, 50.74813067025365], [-3.4112875077420846, 50.74875353406679]]]}}, {"type": "Feature", "properties": {"type": "postcode-cell", "postcode": "EX5 7DL", "postcodes": ["EX5 7DL"]}, "geometry": {"type": "Polygon", "coordinates": [[[-3.4096524989969095, 50.74755262440123], [-3.409593203944536, 50.74756563642733], [-3.4092397496358444, 50.747574901092385], [-3.4085483480235395, 50.74705882663299], [-3.4089899896602955, 50.74675999476371], [-3.4102223557754754, 50.74622335727782], [-3.4106308973390975, 50.74665375009276], [-3.410309456647086, 50.74729055167196], [-3.4096524989969095, 50.74755262440123]]]}}, {"type": "Feature", "properties": {"type": "postcode-cell", "postcode": "EX5 7DD", "postcodes": ["EX5 7DD"]}, "geometry": {"type": "Polygon", "coordinates": [[[-3.410309456647086, 50.74729055167196], [-3.410828673350717, 50.74748091077016], [-3.410983682596767, 50.748052122892695], [-3.4096524989969095, 50.74755262440123], [-3.410309456647086, 50.74729055167196]]]}}, {"type": "Feature", "properties": {"type": "postcode-cell", "postcode": "EX5 7DQ", "postcodes": ["EX5 7DQ"]}, "geometry": {"type": "Polygon", "coordinates": [[[-3.410312057460506, 50.748554339246915], [-3.4100295447313638, 50.74845983103092], [-3.4099680631060934, 50.74793395781323], [-3.410632309042692, 50.748256843129774], [-3.410312057460506, 50.748554339246915]]]}}, {"type": "Feature", "properties": {"type": "postcode-cell", "postcode": "EX5 7AH", "postcodes": ["EX5 7AH"]}, "geometry": {"type": "Polygon", "coordinates": [[[-3.409856618059356, 50.74843509821123], [-3.40935886356552, 50.748615847522316], [-3.4090029109273012, 50.74818602744905], [-3.4091466167296707, 50.74791853556089], [-3.409856618059356, 50.74843509821123]]]}}, {"type": "Feature", "properties": {"type": "postcode-cell", "postcode": "EX5 7AB", "postcodes": ["EX5 7AB"]}, "geometry": {"type": "Polygon", "coordinates": [[[-3.4092397496358444, 50.747574901092385], [-3.4091398198532974, 50.747769431098924], [-3.406653265330241, 50.74848126844252], [-3.4056530053941656, 50.74775340623106], [-3.405503554909829, 50.747582245644864], [-3.406219989658196, 50.74750999476434], [-3.4069799896583817, 50.748119994764814], [-3.4085483480235395, 50.74705882663299], [-3.4092397496358444, 50.747574901092385]]]}}, {"type": "Feature", "properties": {"type": "postcode-cell", "postcode": "EX5 7DP", "postcodes": ["EX5 7DP"]}, "geometry": {"type": "Polygon", "coordinates": [[[-3.408610454842715, 50.749949559213995], [-3.4076732998421586, 50.7493586453047], [-3.407531396126618, 50.74920530617289], [-3.4090029109273012, 50.74818602744905], [-3.40935886356552, 50.748615847522316], [-3.408610454842715, 50.749949559213995]]]}}, {"type": "Feature", "properties": {"type": "postcode-cell", "postcode": "EX5 7BS", "postcodes": ["EX5 7BS"]}, "geometry": {"type": "Polygon", "coordinates": [[[-3.4090029109273012, 50.74818602744905], [-3.407531396126618, 50.74920530617289], [-3.4069918661589678, 50.748838245922336], [-3.406653265330241, 50.74848126844252], [-3.4091398198532974, 50.747769431098924], [-3.4091466167296707, 50.74791853556089], [-3.4090029109273012, 50.74818602744905]]]}}, {"type": "Feature", "properties": {"type": "postcode-cell", "postcode": "EX5 7EP", "postcodes": ["EX5 7EP"]}, "geometry": {"type": "Polygon", "coordinates": [[[-3.4094859499604473, 50.751416382605505], [-3.4095106001894284, 50.751504043053494], [-3.4063339896842493, 50.75132364997825], [-3.405807302183922, 50.750972359290856], [-3.4057742049442563, 50.75082374814214], [-3.4057763407283055, 50.750813308271916], [-3.408815701644633, 50.75025598403889], [-3.4094859499604473, 50.751416382605505]]]}}, {"type": "Feature", "properties": {"type": "postcode-cell", "postcode": "EX5 7EQ", "postcodes": ["EX5 7EQ"]}, "geometry": {"type": "Polygon", "coordinates": [[[-3.4102479965367096, 50.752930141768665], [-3.4075563059837903, 50.75365113077772], [-3.4063339896947062, 50.75194589510427], [-3.4063339896842493, 50.75132364997825], [-3.4095106001894284, 50.751504043053494], [-3.4102479965367096, 50.752930141768665]]]}}, {"type": "Feature", "properties": {"type": "postcode-cell", "postcode": "EX5 7EX", "postcodes": ["EX5 7EX"]}, "geometry": {"type": "Polygon", "coordinates": [[[-3.4076732998421586, 50.7493586453047], [-3.4053756206111414, 50.75027446685523], [-3.405076674330639, 50.74982570031228], [-3.4069918661589678, 50.748838245922336], [-3.407531396126618, 50.74920530617289], [-3.4076732998421586, 50.7493586453047]]]}}, {"type": "Feature", "properties": {"type": "postcode-cell", "postcode": "EX5 7FJ", "postcodes": ["EX5 7FJ"]}, "geometry": {"type": "Polygon", "coordinates": [[[-3.4063339896842493, 50.75132364997825], [-3.4063339896947062, 50.75194589510427], [-3.40533847582267, 50.7515612777983], [-3.405807302183922, 50.750972359290856], [-3.4063339896842493, 50.75132364997825]]]}}, {"type": "Feature", "properties": {"type": "postcode-cell", "postcode": "EX5 7LR", "postcodes": ["EX5 7LR"]}, "geometry": {"type": "Polygon", "coordinates": [[[-3.4050813356643426, 50.752094650261654], [-3.4052987215085637, 50.75158012130264], [-3.40533847582267, 50.7515612777983], [-3.4063339896947062, 50.75194589510427], [-3.4075563059837903, 50.75365113077772], [-3.406439163156839, 50.75395034099587], [-3.4050813356643426, 50.752094650261654]]]}}, {"type": "Feature", "properties": {"type": "postcode-cell", "postcode": "EX5 7ES", "postcodes": ["EX5 7ES"]}, "geometry": {"type": "Polygon", "coordinates": [[[-3.405807302183922, 50.750972359290856], [-3.40533847582267, 50.7515612777983], [-3.4052987215085637, 50.75158012130264], [-3.404074872569434, 50.75137157532829], [-3.404249489289016, 50.75125402399595], [-3.4057742049442563, 50.75082374814214], [-3.405807302183922, 50.750972359290856]]]}}, {"type": "Feature", "properties": {"type": "postcode-cell", "postcode": "EX5 7FD", "postcodes": ["EX5 7FD"]}, "geometry": {"type": "Polygon", "coordinates": [[[-3.4057742049442563, 50.75082374814214], [-3.404249489289016, 50.75125402399595], [-3.4046288064230876, 50.75050718049495], [-3.405356565830751, 50.750401517298], [-3.4057763407283055, 50.750813308271916], [-3.4057742049442563, 50.75082374814214]]]}}, {"type": "Feature", "properties": {"type": "postcode-cell", "postcode": "EX5 7FG", "postcodes": ["EX5 7FG"]}, "geometry": {"type": "Polygon", "coordinates": [[[-3.4069918661589678, 50.748838245922336], [-3.405076674330639, 50.74982570031228], [-3.4047129218247787, 50.74963049435744], [-3.4056530053941656, 50.74775340623106], [-3.406653265330241, 50.74848126844252], [-3.4069918661589678, 50.748838245922336]]]}}, {"type": "Feature", "properties": {"type": "postcode-cell", "postcode": "EX5 7FB", "postcodes": ["EX5 7FB"]}, "geometry": {"type": "Polygon", "coordinates": [[[-3.403615053230183, 50.754477436667685], [-3.4041508762560446, 50.75190016437722], [-3.4050813356643426, 50.752094650261654], [-3.406439163156839, 50.75395034099587], [-3.4037766180913565, 50.75466340606885], [-3.403615053230183, 50.754477436667685]]]}}, {"type": "Feature", "properties": {"type": "postcode-cell", "postcode": "EX5 7EE", "postcodes": ["EX5 7EE"]}, "geometry": {"type": "Polygon", "coordinates": [[[-3.396287801665606, 50.75451164803303], [-3.3971330111482363, 50.7540320995484], [-3.398205393625352, 50.754393282277654], [-3.40054103572361, 50.7557360221348], [-3.3966393178344725, 50.75704024424077], [-3.396287801665606, 50.75451164803303]]]}}, {"type": "Feature", "properties": {"type": "postcode-cell", "postcode": "EX5 7EF", "postcodes": ["EX5 7EF"]}, "geometry": {"type": "Polygon", "coordinates": [[[-3.4050813356643426, 50.752094650261654], [-3.4041508762560446, 50.75190016437722], [-3.403673277537531, 50.75146694906819], [-3.404074872569434, 50.75137157532829], [-3.4052987215085637, 50.75158012130264], [-3.4050813356643426, 50.752094650261654]]]}}, {"type": "Feature", "properties": {"type": "postcode-cell", "postcode": "EX5 7EH", "postcodes": ["EX5 7EH"]}, "geometry": {"type": "Polygon", "coordinates": [[[-3.4056530053941656, 50.74775340623106], [-3.4047129218247787, 50.74963049435744], [-3.4040798290173675, 50.749630494354044], [-3.4029476496748097, 50.747499026223394], [-3.4038399896565865, 50.747749994764575], [-3.405503554909829, 50.747582245644864], [-3.4056530053941656, 50.74775340623106]]]}}, {"type": "Feature", "properties": {"type": "postcode-cell", "postcode": "EX5 7EB", "postcodes": ["EX5 7EB"]}, "geometry": {"type": "Polygon", "coordinates": [[[-3.405356565830751, 50.750401517298], [-3.4046288064230876, 50.75050718049495], [-3.4036441414877436, 50.75039323616884], [-3.4035795494985495, 50.750337750439286], [-3.4037195502457616, 50.74983131740814], [-3.4040798290173675, 50.749630494354044], [-3.4047129218247787, 50.74963049435744], [-3.405076674330639, 50.74982570031228], [-3.4053756206111414, 50.75027446685523], [-3.405356565830751, 50.750401517298]]]}}, {"type": "Feature", "properties": {"type": "postcode-cell", "postcode": "EX5 7FE", "postcodes": ["EX5 7FE"]}, "geometry": {"type": "Polygon", "coordinates": [[[-3.404249489289016, 50.75125402399595], [-3.404074872569434, 50.75137157532829], [-3.403673277537531, 50.75146694906819], [-3.403537758852091, 50.75144758156198], [-3.403517453388102, 50.75144199237623], [-3.4036441414877436, 50.75039323616884], [-3.4046288064230876, 50.75050718049495], [-3.404249489289016, 50.75125402399595]]]}}, {"type": "Feature", "properties": {"type": "postcode-cell", "postcode": "EX5 7ED", "postcodes": ["EX5 7ED"]}, "geometry": {"type": "Polygon", "coordinates": [[[-3.402751482907973, 50.74928482627641], [-3.4022411621865034, 50.749926986584484], [-3.4017078445960047, 50.74953212581703], [-3.402689989655159, 50.74921999476573], [-3.4013071456396586, 50.74923544795231], [-3.40090973323948, 50.748941198329305], [-3.400959989654944, 50.74739999476432], [-3.401751286617849, 50.747395051902714], [-3.402751482907973, 50.74928482627641]]]}}, {"type": "Feature", "properties": {"type": "postcode-cell", "postcode": "EX5 7EJ", "postcodes": ["EX5 7EJ"]}, "geometry": {"type": "Polygon", "coordinates": [[[-3.398205393625352, 50.754393282277654], [-3.3996835124240516, 50.7538197234834], [-3.4018184708590926, 50.7553089716249], [-3.40054103572361, 50.7557360221348], [-3.398205393625352, 50.754393282277654]]]}}, {"type": "Feature", "properties": {"type": "postcode-cell", "postcode": "EX5 7ER", "postcodes": ["EX5 7ER"]}, "geometry": {"type": "Polygon", "coordinates": [[[-3.403673277537531, 50.75146694906819], [-3.4041508762560446, 50.75190016437722], [-3.403615053230183, 50.754477436667685], [-3.403348833279927, 50.75423533403775], [-3.403537758852091, 50.75144758156198], [-3.403673277537531, 50.75146694906819]]]}}, {"type": "Feature", "properties": {"type": "postcode-cell", "postcode": "EX5 7EU", "postcodes": ["EX5 7EU"]}, "geometry": {"type": "Polygon", "coordinates": [[[-3.4036441414877436, 50.75039323616884], [-3.403517453388102, 50.75144199237623], [-3.402767164204007, 50.751499640630804], [-3.4023998539831006, 50.75037663979054], [-3.4035795494985495, 50.750337750439286], [-3.4036441414877436, 50.75039323616884]]]}}, {"type": "Feature", "properties": {"type": "postcode-cell", "postcode": "EX5 7FA", "postcodes": ["EX5 7FA"]}, "geometry": {"type": "Polygon", "coordinates": [[[-3.403615053230183, 50.754477436667685], [-3.4037766180913565, 50.75466340606885], [-3.4036399896531297, 50.754699994770014], [-3.4018184708590926, 50.7553089716249], [-3.3996835124240516, 50.7538197234834], [-3.3996250351542896, 50.7530086377868], [-3.400736076976813, 50.75301691793506], [-3.4020458490864924, 50.753206754923916], [-3.403348833279927, 50.75423533403775], [-3.403615053230183, 50.754477436667685]]]}}, {"type": "Feature", "properties": {"type": "postcode-cell", "postcode": "EX5 7ET", "postcodes": ["EX5 7ET"]}, "geometry": {"type": "Polygon", "coordinates": [[[-3.403537758852091, 50.75144758156198], [-3.403348833279927, 50.75423533403775], [-3.4020458490864924, 50.753206754923916], [-3.4020230832396443, 50.75261430752714], [-3.4023409329397607, 50.75165561961717], [-3.402767164204007, 50.751499640630804], [-3.403517453388102, 50.75144199237623], [-3.403537758852091, 50.75144758156198]]]}}, {"type": "Feature", "properties": {"type": "postcode-cell", "postcode": "EX5 7LB", "postcodes": ["EX5 7LB"]}, "geometry": {"type": "Polygon", "coordinates": [[[-3.400736076976813, 50.75301691793506], [-3.400397521935794, 50.751984208354415], [-3.4006533979503417, 50.75189773114541], [-3.4020230832396443, 50.75261430752714], [-3.4020458490864924, 50.753206754923916], [-3.400736076976813, 50.75301691793506]]]}}, {"type": "Feature", "properties": {"type": "postcode-cell", "postcode": "EX5 7LA", "postcodes": ["EX5 7LA"]}, "geometry": {"type": "Polygon", "coordinates": [[[-3.4020230832396443, 50.75261430752714], [-3.4006533979503417, 50.75189773114541], [-3.4011005588866263, 50.751194027012815], [-3.4023409329397607, 50.75165561961717], [-3.4020230832396443, 50.75261430752714]]]}}, {"type": "Feature", "properties": {"type": "postcode-cell", "postcode": "EX5 7EZ", "postcodes": ["EX5 7EZ"]}, "geometry": {"type": "Polygon", "coordinates": [[[-3.4023053331916957, 50.75034265759867], [-3.4023129413719078, 50.75002776944682], [-3.403118045053633, 50.74964932947442], [-3.4037195502457616, 50.74983131740814], [-3.4035795494985495, 50.750337750439286], [-3.4023998539831006, 50.75037663979054], [-3.4023053331916957, 50.75034265759867]]]}}, {"type": "Feature", "properties": {"type": "postcode-cell", "postcode": "EX5 7FH", "postcodes": ["EX5 7FH"]}, "geometry": {"type": "Polygon", "coordinates": [[[-3.4023998539831006, 50.75037663979054], [-3.402767164204007, 50.751499640630804], [-3.4023409329397607, 50.75165561961717], [-3.4011005588866263, 50.751194027012815], [-3.400917679643048, 50.75102500535774], [-3.4014502504991717, 50.75048662609372], [-3.4023053331916957, 50.75034265759867], [-3.4023998539831006, 50.75037663979054]]]}}, {"type": "Feature", "properties": {"type": "postcode-cell", "postcode": "EX5 7EW", "postcodes": ["EX5 7EW"]}, "geometry": {"type": "Polygon", "coordinates": [[[-3.4022411621865034, 50.749926986584484], [-3.402751482907973, 50.74928482627641], [-3.403118045053633, 50.74964932947442], [-3.4023129413719078, 50.75002776944682], [-3.4022411621865034, 50.749926986584484]]]}}, {"type": "Feature", "properties": {"type": "postcode-cell", "postcode": "EX5 7EY", "postcodes": ["EX5 7EY"]}, "geometry": {"type": "MultiPolygon", "coordinates": [[[[-3.4023129413719078, 50.75002776944682], [-3.4023053331916957, 50.75034265759867], [-3.4014502504991717, 50.75048662609372], [-3.400890592627454, 50.74979184351236], [-3.4017078445960047, 50.74953212581703], [-3.4022411621865034, 50.749926986584484], [-3.4023129413719078, 50.75002776944682]]], [[[-3.4013071456396586, 50.74923544795231], [-3.4008999896540257, 50.74923999476577], [-3.40090973323948, 50.748941198329305], [-3.4013071456396586, 50.74923544795231]]]]}}, {"type": "Feature", "properties": {"type": "postcode-cell", "postcode": "EX5 7FX", "postcodes": ["EX5 7FX"]}, "geometry": {"type": "Polygon", "coordinates": [[[-3.3983173945522123, 50.750691709046194], [-3.397549841693227, 50.75086804752323], [-3.396545595130164, 50.75046058710595], [-3.3969443632867575, 50.749839888999205], [-3.3973299896515163, 50.74979999476628], [-3.397489989651414, 50.75021999476662], [-3.398422183651038, 50.749943105905466], [-3.3983173945522123, 50.750691709046194]]]}}, {"type": "Feature", "properties": {"type": "postcode-cell", "postcode": "EX5 7EG", "postcodes": ["EX5 7EG"]}, "geometry": {"type": "Polygon", "coordinates": [[[-3.400917679643048, 50.75102500535774], [-3.400415627595666, 50.75097917750563], [-3.3999443152096904, 50.74995945961219], [-3.4003299896533172, 50.74996999476637], [-3.400890592627454, 50.74979184351236], [-3.4014502504991717, 50.75048662609372], [-3.400917679643048, 50.75102500535774]]]}}, {"type": "Feature", "properties": {"type": "postcode-cell", "postcode": "EX5 7LD", "postcodes": ["EX5 7LD"]}, "geometry": {"type": "Polygon", "coordinates": [[[-3.4011005588866263, 50.751194027012815], [-3.4006533979503417, 50.75189773114541], [-3.400397521935794, 50.751984208354415], [-3.399955312461256, 50.75196472496246], [-3.3992318099278873, 50.75122272436492], [-3.400415627595666, 50.75097917750563], [-3.400917679643048, 50.75102500535774], [-3.4011005588866263, 50.751194027012815]]]}}, {"type": "Feature", "properties": {"type": "postcode-cell", "postcode": "EX5 7JZ", "postcodes": ["EX5 7JZ"]}, "geometry": {"type": "Polygon", "coordinates": [[[-3.400736076976813, 50.75301691793506], [-3.3996250351542896, 50.7530086377868], [-3.399230796388511, 50.752895511544615], [-3.399955312461256, 50.75196472496246], [-3.400397521935794, 50.751984208354415], [-3.400736076976813, 50.75301691793506]]]}}, {"type": "Feature", "properties": {"type": "postcode-cell", "postcode": "EX5 7LE", "postcodes": ["EX5 7LE"]}, "geometry": {"type": "Polygon", "coordinates": [[[-3.399955312461256, 50.75196472496246], [-3.399230796388511, 50.752895511544615], [-3.39907960451134, 50.75288747078933], [-3.3984443192627793, 50.75190247663985], [-3.3989907168060847, 50.75120529670598], [-3.3992318099278873, 50.75122272436492], [-3.399955312461256, 50.75196472496246]]]}}, {"type": "Feature", "properties": {"type": "postcode-cell", "postcode": "EX5 7FL", "postcodes": ["EX5 7FL"]}, "geometry": {"type": "Polygon", "coordinates": [[[-3.3996250351542896, 50.7530086377868], [-3.3996835124240516, 50.7538197234834], [-3.398205393625352, 50.754393282277654], [-3.3971330111482363, 50.7540320995484], [-3.3972258760767953, 50.75365155966464], [-3.39744850513924, 50.753495149276205], [-3.39907960451134, 50.75288747078933], [-3.399230796388511, 50.752895511544615], [-3.3996250351542896, 50.7530086377868]]]}}, {"type": "Feature", "properties": {"type": "postcode-cell", "postcode": "EX5 7FN", "postcodes": ["EX5 7FN"]}, "geometry": {"type": "Polygon", "coordinates": [[[-3.3992318099278873, 50.75122272436492], [-3.3989907168060847, 50.75120529670598], [-3.3983173945522123, 50.750691709046194], [-3.398422183651038, 50.749943105905466], [-3.398499989652192, 50.749919994766366], [-3.3999443152096904, 50.74995945961219], [-3.400415627595666, 50.75097917750563], [-3.3992318099278873, 50.75122272436492]]]}}, {"type": "Feature", "properties": {"type": "postcode-cell", "postcode": "EX5 7GG", "postcodes": ["EX5 7GG"]}, "geometry": {"type": "Polygon", "coordinates": [[[-3.3984443192627793, 50.75190247663985], [-3.3978658964918367, 50.75194903509615], [-3.3967588075704014, 50.751535150372135], [-3.396787196785039, 50.751390326402685], [-3.397549841693227, 50.75086804752323], [-3.3983173945522123, 50.750691709046194], [-3.3989907168060847, 50.75120529670598], [-3.3984443192627793, 50.75190247663985]]]}}, {"type": "Feature", "properties": {"type": "postcode-cell", "postcode": "EX5 7GH", "postcodes": ["EX5 7GH"]}, "geometry": {"type": "Polygon", "coordinates": [[[-3.3978658964918367, 50.75194903509615], [-3.3984443192627793, 50.75190247663985], [-3.39907960451134, 50.75288747078933], [-3.39744850513924, 50.753495149276205], [-3.3973691198211506, 50.752400714411245], [-3.3978658964918367, 50.75194903509615]]]}}, {"type": "Feature", "properties": {"type": "postcode-cell", "postcode": "EX5 7FQ", "postcodes": ["EX5 7FQ"]}, "geometry": {"type": "Polygon", "coordinates": [[[-3.3973691198211506, 50.752400714411245], [-3.39677132949899, 50.75217708222257], [-3.3966473051234836, 50.751615730075336], [-3.3967588075704014, 50.751535150372135], [-3.3978658964918367, 50.75194903509615], [-3.3973691198211506, 50.752400714411245]]]}}, {"type": "Feature", "properties": {"type": "postcode-cell", "postcode": "EX5 7GJ", "postcodes": ["EX5 7GJ"]}, "geometry": {"type": "Polygon", "coordinates": [[[-3.3972258760767953, 50.75365155966464], [-3.396238851362904, 50.753019296569626], [-3.3961551743378733, 50.75260882031219], [-3.39677132949899, 50.75217708222257], [-3.3973691198211506, 50.752400714411245], [-3.39744850513924, 50.753495149276205], [-3.3972258760767953, 50.75365155966464]]]}}, {"type": "Feature", "properties": {"type": "postcode-cell", "postcode": "EX5 7GL", "postcodes": ["EX5 7GL"]}, "geometry": {"type": "Polygon", "coordinates": [[[-3.3972258760767953, 50.75365155966464], [-3.3971330111482363, 50.7540320995484], [-3.396287801665606, 50.75451164803303], [-3.3950050399986162, 50.75439666218352], [-3.3942763880889673, 50.75408255940949], [-3.394088223935179, 50.75361135223503], [-3.3943254354418837, 50.75333098660626], [-3.395088977275669, 50.75296235523113], [-3.396238851362904, 50.753019296569626], [-3.3972258760767953, 50.75365155966464]]]}}, {"type": "Feature", "properties": {"type": "postcode-cell", "postcode": "EX5 7FY", "postcodes": ["EX5 7FY"]}, "geometry": {"type": "Polygon", "coordinates": [[[-3.396787196785039, 50.751390326402685], [-3.3967279489764164, 50.75135905002205], [-3.3960305715297845, 50.750704160278595], [-3.3962372175056665, 50.750498208119986], [-3.396545595130164, 50.75046058710595], [-3.397549841693227, 50.75086804752323], [-3.396787196785039, 50.751390326402685]]]}}, {"type": "Feature", "properties": {"type": "postcode-cell", "postcode": "EX5 7FP", "postcodes": ["EX5 7FP"]}, "geometry": {"type": "Polygon", "coordinates": [[[-3.396787196785039, 50.751390326402685], [-3.3967588075704014, 50.751535150372135], [-3.3966473051234836, 50.751615730075336], [-3.395639497152802, 50.75186847571857], [-3.394896086090446, 50.75149546940808], [-3.3949228977158437, 50.75138713816457], [-3.3955943705815215, 50.75113475841373], [-3.3967279489764164, 50.75135905002205], [-3.396787196785039, 50.751390326402685]]]}}, {"type": "Feature", "properties": {"type": "postcode-cell", "postcode": "EX5 7FS", "postcodes": ["EX5 7FS"]}, "geometry": {"type": "Polygon", "coordinates": [[[-3.3967279489764164, 50.75135905002205], [-3.3955943705815215, 50.75113475841373], [-3.3958592585811536, 50.75074202990132], [-3.3960305715297845, 50.750704160278595], [-3.3967279489764164, 50.75135905002205]]]}}, {"type": "Feature", "properties": {"type": "postcode-cell", "postcode": "EX5 7FR", "postcodes": ["EX5 7FR"]}, "geometry": {"type": "Polygon", "coordinates": [[[-3.39677132949899, 50.75217708222257], [-3.3961551743378733, 50.75260882031219], [-3.3956206082165625, 50.75210991371605], [-3.395639497152802, 50.75186847571857], [-3.3966473051234836, 50.751615730075336], [-3.39677132949899, 50.75217708222257]]]}}, {"type": "Feature", "properties": {"type": "postcode-cell", "postcode": "EX5 7JT", "postcodes": ["EX5 7JT"]}, "geometry": {"type": "MultiPolygon", "coordinates": [[[[-3.390224156490779, 50.750821601412774], [-3.390179989646665, 50.75055999476699], [-3.3902880359679237, 50.75054749408317], [-3.390224156490779, 50.750821601412774]]], [[[-3.389818118030597, 50.75148887143095], [-3.389287160980762, 50.751338964961285], [-3.389122075944838, 50.75067716670705], [-3.3896299896462896, 50.75061999476704], [-3.3897699896460316, 50.7513399947676], [-3.3900463921872226, 50.751334876514875], [-3.389818118030597, 50.75148887143095]]]]}}, {"type": "Feature", "properties": {"type": "postcode-cell", "postcode": "EX5 7GU", "postcodes": ["EX5 7GU"]}, "geometry": {"type": "Polygon", "coordinates": [[[-3.3956206082165625, 50.75210991371605], [-3.394894906084004, 50.75246379614443], [-3.394107303413691, 50.752252129098835], [-3.393911038766619, 50.751841033437806], [-3.394896086090446, 50.75149546940808], [-3.395639497152802, 50.75186847571857], [-3.3956206082165625, 50.75210991371605]]]}}, {"type": "Feature", "properties": {"type": "postcode-cell", "postcode": "EX5 7GN", "postcodes": ["EX5 7GN"]}, "geometry": {"type": "Polygon", "coordinates": [[[-3.396238851362904, 50.753019296569626], [-3.395088977275669, 50.75296235523113], [-3.394894906084004, 50.75246379614443], [-3.3956206082165625, 50.75210991371605], [-3.3961551743378733, 50.75260882031219], [-3.396238851362904, 50.753019296569626]]]}}, {"type": "Feature", "properties": {"type": "postcode-cell", "postcode": "EX5 7FU", "postcodes": ["EX5 7FU"]}, "geometry": {"type": "Polygon", "coordinates": [[[-3.3958592585811536, 50.75074202990132], [-3.3946911596726204, 50.75048578910396], [-3.3945078891512743, 50.75024546934981], [-3.3957599896503434, 50.7501899947666], [-3.3957984873537153, 50.750112999636], [-3.3962372175056665, 50.750498208119986], [-3.3960305715297845, 50.750704160278595], [-3.3958592585811536, 50.75074202990132]]]}}, {"type": "Feature", "properties": {"type": "postcode-cell", "postcode": "EX5 7GX", "postcodes": ["EX5 7GX"]}, "geometry": {"type": "Polygon", "coordinates": [[[-3.3946911596726204, 50.75048578910396], [-3.39474258660091, 50.75103268331029], [-3.392796090579526, 50.751105794726705], [-3.3924554609804285, 50.75086278238309], [-3.3924225739890708, 50.750577847313224], [-3.392919989648421, 50.75047999476688], [-3.393519989648553, 50.75098999476727], [-3.3942999896491526, 50.75075999476708], [-3.394179989649318, 50.75025999476668], [-3.3945078891512743, 50.75024546934981], [-3.3946911596726204, 50.75048578910396]]]}}, {"type": "Feature", "properties": {"type": "postcode-cell", "postcode": "EX5 7FT", "postcodes": ["EX5 7FT"]}, "geometry": {"type": "Polygon", "coordinates": [[[-3.3955943705815215, 50.75113475841373], [-3.3949228977158437, 50.75138713816457], [-3.39474258660091, 50.75103268331029], [-3.3946911596726204, 50.75048578910396], [-3.3958592585811536, 50.75074202990132], [-3.3955943705815215, 50.75113475841373]]]}}, {"type": "Feature", "properties": {"type": "postcode-cell", "postcode": "EX5 7JB", "postcodes": ["EX5 7JB"]}, "geometry": {"type": "Polygon", "coordinates": [[[-3.3966393178344725, 50.75704024424077], [-3.395588013422126, 50.757391627796316], [-3.3939336830368134, 50.75553415101391], [-3.3950050399986162, 50.75439666218352], [-3.396287801665606, 50.75451164803303], [-3.3966393178344725, 50.75704024424077]]]}}, {"type": "Feature", "properties": {"type": "postcode-cell", "postcode": "EX5 7GT", "postcodes": ["EX5 7GT"]}, "geometry": {"type": "Polygon", "coordinates": [[[-3.3943254354418837, 50.75333098660626], [-3.3939679838040107, 50.752474287160084], [-3.394107303413691, 50.752252129098835], [-3.394894906084004, 50.75246379614443], [-3.395088977275669, 50.75296235523113], [-3.3943254354418837, 50.75333098660626]]]}}, {"type": "Feature", "properties": {"type": "postcode-cell", "postcode": "EX5 7GQ", "postcodes": ["EX5 7GQ"]}, "geometry": {"type": "Polygon", "coordinates": [[[-3.393911038766619, 50.751841033437806], [-3.393453589800508, 50.751732887909526], [-3.392796090579526, 50.751105794726705], [-3.39474258660091, 50.75103268331029], [-3.3949228977158437, 50.75138713816457], [-3.394896086090446, 50.75149546940808], [-3.393911038766619, 50.751841033437806]]]}}, {"type": "Feature", "properties": {"type": "postcode-cell", "postcode": "EX5 7HA", "postcodes": ["EX5 7HA"]}, "geometry": {"type": "Polygon", "coordinates": [[[-3.3924882891091674, 50.756336006805306], [-3.3927793296727593, 50.75567110263309], [-3.3935730517699887, 50.75548258776191], [-3.3939336830368134, 50.75553415101391], [-3.395588013422126, 50.757391627796316], [-3.3936071249376236, 50.75805367171944], [-3.3924882891091674, 50.756336006805306]]]}}, {"type": "Feature", "properties": {"type": "postcode-cell", "postcode": "EX5 7GA", "postcodes": ["EX5 7GA"]}, "geometry": {"type": "Polygon", "coordinates": [[[-3.3942763880889673, 50.75408255940949], [-3.3927675396850367, 50.75450899479037], [-3.392058214024702, 50.75450899219204], [-3.3915414389800085, 50.75442375664217], [-3.3915019762017664, 50.754289804563456], [-3.3915468515920604, 50.753916600896645], [-3.39319307596706, 50.75329073617607], [-3.394088223935179, 50.75361135223503], [-3.3942763880889673, 50.75408255940949]]]}}, {"type": "Feature", "properties": {"type": "postcode-cell", "postcode": "EX5 7GS", "postcodes": ["EX5 7GS"]}, "geometry": {"type": "Polygon", "coordinates": [[[-3.3943254354418837, 50.75333098660626], [-3.394088223935179, 50.75361135223503], [-3.39319307596706, 50.75329073617607], [-3.3930894594318786, 50.75315278976941], [-3.393316724091188, 50.752690956516346], [-3.3939679838040107, 50.752474287160084], [-3.3943254354418837, 50.75333098660626]]]}}, {"type": "Feature", "properties": {"type": "postcode-cell", "postcode": "EX5 7GW", "postcodes": ["EX5 7GW"]}, "geometry": {"type": "Polygon", "coordinates": [[[-3.393911038766619, 50.751841033437806], [-3.394107303413691, 50.752252129098835], [-3.3939679838040107, 50.752474287160084], [-3.393316724091188, 50.752690956516346], [-3.392699525660763, 50.75226142151784], [-3.393453589800508, 50.751732887909526], [-3.393911038766619, 50.751841033437806]]]}}, {"type": "Feature", "properties": {"type": "postcode-cell", "postcode": "EX5 7JJ", "postcodes": ["EX5 7JJ"]}, "geometry": {"type": "MultiPolygon", "coordinates": [[[[-3.3924554609804285, 50.75086278238309], [-3.3924452993328815, 50.75087061667756], [-3.3923099896479827, 50.75059999476698], [-3.3924225739890708, 50.750577847313224], [-3.3924554609804285, 50.75086278238309]]], [[[-3.3916112991194654, 50.751513591426615], [-3.390307849063374, 50.75131731614851], [-3.390224156490779, 50.750821601412774], [-3.3902880359679237, 50.75054749408317], [-3.391389989647492, 50.75041999476686], [-3.3919273212457077, 50.75126995605955], [-3.3916112991194654, 50.751513591426615]]]]}}, {"type": "Feature", "properties": {"type": "postcode-cell", "postcode": "EX5 7GR", "postcodes": ["EX5 7GR"]}, "geometry": {"type": "Polygon", "coordinates": [[[-3.3930894594318786, 50.75315278976941], [-3.3924273166704437, 50.75289702250737], [-3.392487090442441, 50.75231214262074], [-3.392699525660763, 50.75226142151784], [-3.393316724091188, 50.752690956516346], [-3.3930894594318786, 50.75315278976941]]]}}, {"type": "Feature", "properties": {"type": "postcode-cell", "postcode": "EX5 7GF", "postcodes": ["EX5 7GF"]}, "geometry": {"type": "Polygon", "coordinates": [[[-3.3950050399986162, 50.75439666218352], [-3.3939336830368134, 50.75553415101391], [-3.3935730517699887, 50.75548258776191], [-3.3927675396850367, 50.75450899479037], [-3.3942763880889673, 50.75408255940949], [-3.3950050399986162, 50.75439666218352]]]}}, {"type": "Feature", "properties": {"type": "postcode-cell", "postcode": "EX5 7FF", "postcodes": ["EX5 7FF"]}, "geometry": {"type": "Polygon", "coordinates": [[[-3.393453589800508, 50.751732887909526], [-3.392699525660763, 50.75226142151784], [-3.392487090442441, 50.75231214262074], [-3.3918282568071336, 50.75218319202499], [-3.3915558982115432, 50.751719890732], [-3.3916112991194654, 50.751513591426615], [-3.3919273212457077, 50.75126995605955], [-3.391939989647417, 50.751289994767546], [-3.3926499896478677, 50.75127999476753], [-3.3924452993328815, 50.75087061667756], [-3.3924554609804285, 50.75086278238309], [-3.392796090579526, 50.751105794726705], [-3.393453589800508, 50.751732887909526]]]}}, {"type": "Feature", "properties": {"type": "postcode-cell", "postcode": "EX5 7HS", "postcodes": ["EX5 7HS"]}, "geometry": {"type": "Polygon", "coordinates": [[[-3.390799438314155, 50.75590345081327], [-3.390967536645327, 50.75582516928664], [-3.3924882891091674, 50.756336006805306], [-3.3936071249376236, 50.75805367171944], [-3.392899989644663, 50.758289994773016], [-3.392298156795972, 50.758435410720004], [-3.390799438314155, 50.75590345081327]]]}}, {"type": "Feature", "properties": {"type": "postcode-cell", "postcode": "EX5 7GD", "postcodes": ["EX5 7GD"]}, "geometry": {"type": "Polygon", "coordinates": [[[-3.392708651109891, 50.75563217981594], [-3.392058214024702, 50.75450899219204], [-3.3927675396850367, 50.75450899479037], [-3.3935730517699887, 50.75548258776191], [-3.3927793296727593, 50.75567110263309], [-3.392708651109891, 50.75563217981594]]]}}, {"type": "Feature", "properties": {"type": "postcode-cell", "postcode": "EX5 7GB", "postcodes": ["EX5 7GB"]}, "geometry": {"type": "Polygon", "coordinates": [[[-3.3927793296727593, 50.75567110263309], [-3.3924882891091674, 50.756336006805306], [-3.390967536645327, 50.75582516928664], [-3.391185616939507, 50.75547472139037], [-3.392708651109891, 50.75563217981594], [-3.3927793296727593, 50.75567110263309]]]}}, {"type": "Feature", "properties": {"type": "postcode-cell", "postcode": "EX5 7FZ", "postcodes": ["EX5 7FZ"]}, "geometry": {"type": "Polygon", "coordinates": [[[-3.3930894594318786, 50.75315278976941], [-3.39319307596706, 50.75329073617607], [-3.3915468515920604, 50.753916600896645], [-3.391152985157958, 50.75315090043306], [-3.3924273166704437, 50.75289702250737], [-3.3930894594318786, 50.75315278976941]]]}}, {"type": "Feature", "properties": {"type": "postcode-cell", "postcode": "EX5 7JF", "postcodes": ["EX5 7JF"]}, "geometry": {"type": "Polygon", "coordinates": [[[-3.3915019762017664, 50.754289804563456], [-3.389502585262128, 50.75372330714916], [-3.3894477865411377, 50.75369040674226], [-3.3894137496820287, 50.75327484693474], [-3.3899939339662386, 50.752920781578744], [-3.3908134518100628, 50.75295560327891], [-3.3908873568784093, 50.75297121543247], [-3.391152985157958, 50.75315090043306], [-3.3915468515920604, 50.753916600896645], [-3.3915019762017664, 50.754289804563456]]]}}, {"type": "Feature", "properties": {"type": "postcode-cell", "postcode": "EX5 7GP", "postcodes": ["EX5 7GP"]}, "geometry": {"type": "Polygon", "coordinates": [[[-3.391152985157958, 50.75315090043306], [-3.3908873568784093, 50.75297121543247], [-3.3918282568071336, 50.75218319202499], [-3.392487090442441, 50.75231214262074], [-3.3924273166704437, 50.75289702250737], [-3.391152985157958, 50.75315090043306]]]}}, {"type": "Feature", "properties": {"type": "postcode-cell", "postcode": "EX5 7GE", "postcodes": ["EX5 7GE"]}, "geometry": {"type": "Polygon", "coordinates": [[[-3.392058214024702, 50.75450899219204], [-3.392708651109891, 50.75563217981594], [-3.391185616939507, 50.75547472139037], [-3.3912655726553234, 50.75462233883129], [-3.3915414389800085, 50.75442375664217], [-3.392058214024702, 50.75450899219204]]]}}, {"type": "Feature", "properties": {"type": "postcode-cell", "postcode": "EX5 7HW", "postcodes": ["EX5 7HW"]}, "geometry": {"type": "Polygon", "coordinates": [[[-3.390731843275848, 50.75591598510473], [-3.390385389073744, 50.75593249586177], [-3.389518662056432, 50.75485300500876], [-3.3899735765101138, 50.75472623490656], [-3.3912655726553234, 50.75462233883129], [-3.391185616939507, 50.75547472139037], [-3.390967536645327, 50.75582516928664], [-3.390799438314155, 50.75590345081327], [-3.390731843275848, 50.75591598510473]]]}}, {"type": "Feature", "properties": {"type": "postcode-cell", "postcode": "EX5 7HR", "postcodes": ["EX5 7HR"]}, "geometry": {"type": "Polygon", "coordinates": [[[-3.390731843275848, 50.75591598510473], [-3.390799438314155, 50.75590345081327], [-3.392298156795972, 50.758435410720004], [-3.3900633850178696, 50.758975345387604], [-3.390731843275848, 50.75591598510473]]]}}, {"type": "Feature", "properties": {"type": "postcode-cell", "postcode": "EX5 7JN", "postcodes": ["EX5 7JN"]}, "geometry": {"type": "Polygon", "coordinates": [[[-3.3918282568071336, 50.75218319202499], [-3.3908873568784093, 50.75297121543247], [-3.3908134518100628, 50.75295560327891], [-3.390757410298074, 50.75207603448313], [-3.39118847082059, 50.75183783307448], [-3.3915558982115432, 50.751719890732], [-3.3918282568071336, 50.75218319202499]]]}}, {"type": "Feature", "properties": {"type": "postcode-cell", "postcode": "EX5 7JR", "postcodes": ["EX5 7JR"]}, "geometry": {"type": "Polygon", "coordinates": [[[-3.390757410298074, 50.75207603448313], [-3.389759529222738, 50.75187113812747], [-3.389814133215207, 50.751673830612916], [-3.39118847082059, 50.75183783307448], [-3.390757410298074, 50.75207603448313]]]}}, {"type": "Feature", "properties": {"type": "postcode-cell", "postcode": "EX5 7JQ", "postcodes": ["EX5 7JQ"]}, "geometry": {"type": "Polygon", "coordinates": [[[-3.39118847082059, 50.75183783307448], [-3.389814133215207, 50.751673830612916], [-3.389818118030597, 50.75148887143095], [-3.3900463921872226, 50.751334876514875], [-3.390309989646374, 50.75132999476758], [-3.390307849063374, 50.75131731614851], [-3.3916112991194654, 50.751513591426615], [-3.3915558982115432, 50.751719890732], [-3.39118847082059, 50.75183783307448]]]}}, {"type": "Feature", "properties": {"type": "postcode-cell", "postcode": "EX5 7JP", "postcodes": ["EX5 7JP"]}, "geometry": {"type": "Polygon", "coordinates": [[[-3.3908134518100628, 50.75295560327891], [-3.3899939339662386, 50.752920781578744], [-3.3894592411458326, 50.75221407555765], [-3.389759529222738, 50.75187113812747], [-3.390757410298074, 50.75207603448313], [-3.3908134518100628, 50.75295560327891]]]}}, {"type": "Feature", "properties": {"type": "postcode-cell", "postcode": "EX5 7JL", "postcodes": ["EX5 7JL"]}, "geometry": {"type": "Polygon", "coordinates": [[[-3.389814133215207, 50.751673830612916], [-3.389759529222738, 50.75187113812747], [-3.3894592411458326, 50.75221407555765], [-3.389417391462549, 50.75221202385328], [-3.388366654704831, 50.75148022580907], [-3.3884175330221664, 50.751341591787806], [-3.389287160980762, 50.751338964961285], [-3.389818118030597, 50.75148887143095], [-3.389814133215207, 50.751673830612916]]]}}, {"type": "Feature", "properties": {"type": "postcode-cell", "postcode": "EX5 7JH", "postcodes": ["EX5 7JH"]}, "geometry": {"type": "Polygon", "coordinates": [[[-3.389502585262128, 50.75372330714916], [-3.3899735765101138, 50.75472623490656], [-3.389518662056432, 50.75485300500876], [-3.388851292053963, 50.7549009419546], [-3.388498280655374, 50.754613627196676], [-3.388484984623596, 50.75435668075038], [-3.3894477865411377, 50.75369040674226], [-3.389502585262128, 50.75372330714916]]]}}, {"type": "Feature", "properties": {"type": "postcode-cell", "postcode": "EX5 7JG", "postcodes": ["EX5 7JG"]}, "geometry": {"type": "Polygon", "coordinates": [[[-3.3915414389800085, 50.75442375664217], [-3.3912655726553234, 50.75462233883129], [-3.3899735765101138, 50.75472623490656], [-3.389502585262128, 50.75372330714916], [-3.3915019762017664, 50.754289804563456], [-3.3915414389800085, 50.75442375664217]]]}}, {"type": "Feature", "properties": {"type": "postcode-cell", "postcode": "EX5 7HF", "postcodes": ["EX5 7HF"]}, "geometry": {"type": "Polygon", "coordinates": [[[-3.3899939339662386, 50.752920781578744], [-3.3894137496820287, 50.75327484693474], [-3.3888971990295955, 50.75322935168594], [-3.388767124878573, 50.753149899989246], [-3.3884115980103116, 50.75268000693342], [-3.3885741944221794, 50.752297165426114], [-3.389417391462549, 50.75221202385328], [-3.3894592411458326, 50.75221407555765], [-3.3899939339662386, 50.752920781578744]]]}}, {"type": "Feature", "properties": {"type": "postcode-cell", "postcode": "EX5 2PG", "postcodes": ["EX5 2PG"]}, "geometry": {"type": "Polygon", "coordinates": [[[-3.3831325935296266, 50.755370953832745], [-3.387016437880479, 50.75599215581831], [-3.3878676800244794, 50.756692040713816], [-3.3872587250888695, 50.759652890625944], [-3.381639989636292, 50.761009994775335], [-3.3809699896362018, 50.76031999477479], [-3.380752762946492, 50.75794939829531], [-3.3831325935296266, 50.755370953832745]]]}}, {"type": "Feature", "properties": {"type": "postcode-cell", "postcode": "EX5 7HT", "postcodes": ["EX5 7HT"]}, "geometry": {"type": "Polygon", "coordinates": [[[-3.3878676800244794, 50.756692040713816], [-3.3881621136212003, 50.75647472681887], [-3.390385389073744, 50.75593249586177], [-3.390731843275848, 50.75591598510473], [-3.3900633850178696, 50.758975345387604], [-3.3872587250888695, 50.759652890625944], [-3.3878676800244794, 50.756692040713816]]]}}, {"type": "Feature", "properties": {"type": "postcode-cell", "postcode": "EX5 7JE", "postcodes": ["EX5 7JE"]}, "geometry": {"type": "Polygon", "coordinates": [[[-3.388182765421627, 50.753720108847205], [-3.388697400539858, 50.75331221093628], [-3.3888971990295955, 50.75322935168594], [-3.3894137496820287, 50.75327484693474], [-3.3894477865411377, 50.75369040674226], [-3.388484984623596, 50.75435668075038], [-3.3882578613684036, 50.75417120210821], [-3.388182765421627, 50.753720108847205]]]}}, {"type": "Feature", "properties": {"type": "postcode-cell", "postcode": "EX5 7GZ", "postcodes": ["EX5 7GZ"]}, "geometry": {"type": "Polygon", "coordinates": [[[-3.3882578613684036, 50.75417120210821], [-3.387191501065858, 50.7539228614485], [-3.387108838035488, 50.753334365074686], [-3.387247256327974, 50.7533613994388], [-3.388182765421627, 50.753720108847205], [-3.3882578613684036, 50.75417120210821]]]}}, {"type": "Feature", "properties": {"type": "postcode-cell", "postcode": "EX5 7HU", "postcodes": ["EX5 7HU"]}, "geometry": {"type": "Polygon", "coordinates": [[[-3.390385389073744, 50.75593249586177], [-3.3881621136212003, 50.75647472681887], [-3.388851292053963, 50.7549009419546], [-3.389518662056432, 50.75485300500876], [-3.390385389073744, 50.75593249586177]]]}}, {"type": "Feature", "properties": {"type": "postcode-cell", "postcode": "EX5 7HY", "postcodes": ["EX5 7HY"]}, "geometry": {"type": "Polygon", "coordinates": [[[-3.388851292053963, 50.7549009419546], [-3.3881621136212003, 50.75647472681887], [-3.3878676800244794, 50.756692040713816], [-3.387016437880479, 50.75599215581831], [-3.3869031361006066, 50.755673885297696], [-3.3872487211573943, 50.75472159057227], [-3.388498280655374, 50.754613627196676], [-3.388851292053963, 50.7549009419546]]]}}, {"type": "Feature", "properties": {"type": "postcode-cell", "postcode": "EX5 7JS", "postcodes": ["EX5 7JS"]}, "geometry": {"type": "Polygon", "coordinates": [[[-3.389287160980762, 50.751338964961285], [-3.3884175330221664, 50.751341591787806], [-3.3879046194543276, 50.750814196866834], [-3.389122075944838, 50.75067716670705], [-3.389287160980762, 50.751338964961285]]]}}, {"type": "Feature", "properties": {"type": "postcode-cell", "postcode": "EX5 7JX", "postcodes": ["EX5 7JX"]}, "geometry": {"type": "Polygon", "coordinates": [[[-3.3821424767657295, 50.752533848949554], [-3.381683131105863, 50.752528859427514], [-3.3812844022684994, 50.75159330259984], [-3.382359989641323, 50.75146999476781], [-3.382567054398703, 50.752258813091295], [-3.3821424767657295, 50.752533848949554]]]}}, {"type": "Feature", "properties": {"type": "postcode-cell", "postcode": "EX5 7HG", "postcodes": ["EX5 7HG"]}, "geometry": {"type": "Polygon", "coordinates": [[[-3.389417391462549, 50.75221202385328], [-3.3885741944221794, 50.752297165426114], [-3.387964106832508, 50.7520951959441], [-3.388025898183135, 50.75181030453858], [-3.388366654704831, 50.75148022580907], [-3.389417391462549, 50.75221202385328]]]}}, {"type": "Feature", "properties": {"type": "postcode-cell", "postcode": "EX5 7HE", "postcodes": ["EX5 7HE"]}, "geometry": {"type": "Polygon", "coordinates": [[[-3.388767124878573, 50.753149899989246], [-3.3874226780173635, 50.75294194267033], [-3.38757793853825, 50.75281886484826], [-3.3884115980103116, 50.75268000693342], [-3.388767124878573, 50.753149899989246]]]}}, {"type": "Feature", "properties": {"type": "postcode-cell", "postcode": "EX5 7HJ", "postcodes": ["EX5 7HJ"]}, "geometry": {"type": "Polygon", "coordinates": [[[-3.3885741944221794, 50.752297165426114], [-3.3884115980103116, 50.75268000693342], [-3.38757793853825, 50.75281886484826], [-3.387814663812051, 50.752140565254855], [-3.387964106832508, 50.7520951959441], [-3.3885741944221794, 50.752297165426114]]]}}, {"type": "Feature", "properties": {"type": "postcode-cell", "postcode": "EX5 7HQ", "postcodes": ["EX5 7HQ"]}, "geometry": {"type": "Polygon", "coordinates": [[[-3.388366654704831, 50.75148022580907], [-3.388025898183135, 50.75181030453858], [-3.3869627663282253, 50.75137931041131], [-3.387479989644519, 50.75149999476777], [-3.387319989644715, 50.75087999476728], [-3.3879046194543276, 50.750814196866834], [-3.3884175330221664, 50.751341591787806], [-3.388366654704831, 50.75148022580907]]]}}, {"type": "Feature", "properties": {"type": "postcode-cell", "postcode": "EX5 7GY", "postcodes": ["EX5 7GY"]}, "geometry": {"type": "Polygon", "coordinates": [[[-3.388697400539858, 50.75331221093628], [-3.387247256327974, 50.7533613994388], [-3.387108838035488, 50.753334365074686], [-3.3870834407607417, 50.753310922846964], [-3.3872976537191666, 50.75299177833136], [-3.3874226780173635, 50.75294194267033], [-3.388767124878573, 50.753149899989246], [-3.3888971990295955, 50.75322935168594], [-3.388697400539858, 50.75331221093628]]]}}, {"type": "Feature", "properties": {"type": "postcode-cell", "postcode": "EX5 7JA", "postcodes": ["EX5 7JA"]}, "geometry": {"type": "Polygon", "coordinates": [[[-3.388498280655374, 50.754613627196676], [-3.3872487211573943, 50.75472159057227], [-3.3871021741916802, 50.75464402554374], [-3.386761833244295, 50.754300698743684], [-3.387191501065858, 50.7539228614485], [-3.3882578613684036, 50.75417120210821], [-3.388484984623596, 50.75435668075038], [-3.388498280655374, 50.754613627196676]]]}}, {"type": "Feature", "properties": {"type": "postcode-cell", "postcode": "EX5 7HH", "postcodes": ["EX5 7HH"]}, "geometry": {"type": "Polygon", "coordinates": [[[-3.3874226780173635, 50.75294194267033], [-3.3872976537191666, 50.75299177833136], [-3.386941324434721, 50.75263968243224], [-3.3869322945497764, 50.75248801340296], [-3.38745292403305, 50.75211837659498], [-3.387814663812051, 50.752140565254855], [-3.38757793853825, 50.75281886484826], [-3.3874226780173635, 50.75294194267033]]]}}, {"type": "Feature", "properties": {"type": "postcode-cell", "postcode": "EX5 7JD", "postcodes": ["EX5 7JD"]}, "geometry": {"type": "Polygon", "coordinates": [[[-3.388182765421627, 50.753720108847205], [-3.387247256327974, 50.7533613994388], [-3.388697400539858, 50.75331221093628], [-3.388182765421627, 50.753720108847205]]]}}, {"type": "Feature", "properties": {"type": "postcode-cell", "postcode": "EX5 7HP", "postcodes": ["EX5 7HP"]}, "geometry": {"type": "Polygon", "coordinates": [[[-3.387814663812051, 50.752140565254855], [-3.38745292403305, 50.75211837659498], [-3.386258475934407, 50.75159905262461], [-3.3864299896438217, 50.75157999476785], [-3.3865799896440554, 50.75128999476762], [-3.3869627663282253, 50.75137931041131], [-3.388025898183135, 50.75181030453858], [-3.387964106832508, 50.7520951959441], [-3.387814663812051, 50.752140565254855]]]}}, {"type": "Feature", "properties": {"type": "postcode-cell", "postcode": "EX5 7DW", "postcodes": ["EX5 7DW"]}, "geometry": {"type": "Polygon", "coordinates": [[[-3.3858446699499667, 50.751801447580696], [-3.3856753691559853, 50.751965037690375], [-3.3855323716601053, 50.75204141458322], [-3.384057628102766, 50.752204740449336], [-3.3836599896422084, 50.75131999476769], [-3.385279989643315, 50.75112999476751], [-3.385259989643025, 50.75170999476796], [-3.3859451694863787, 50.75163386518326], [-3.3858446699499667, 50.751801447580696]]]}}, {"type": "Feature", "properties": {"type": "postcode-cell", "postcode": "EX5 7LG", "postcodes": ["EX5 7LG"]}, "geometry": {"type": "Polygon", "coordinates": [[[-3.387016437880479, 50.75599215581831], [-3.3831325935296266, 50.755370953832745], [-3.3834765653944285, 50.75463260930649], [-3.3838034781775383, 50.75441900509451], [-3.3840414122962024, 50.75432811793432], [-3.385973032492758, 50.75499437713383], [-3.3869031361006066, 50.755673885297696], [-3.387016437880479, 50.75599215581831]]]}}, {"type": "Feature", "properties": {"type": "postcode-cell", "postcode": "EX5 7HZ", "postcodes": ["EX5 7HZ"]}, "geometry": {"type": "Polygon", "coordinates": [[[-3.3869031361006066, 50.755673885297696], [-3.385973032492758, 50.75499437713383], [-3.3871021741916802, 50.75464402554374], [-3.3872487211573943, 50.75472159057227], [-3.3869031361006066, 50.755673885297696]]]}}, {"type": "Feature", "properties": {"type": "postcode-cell", "postcode": "EX5 7HN", "postcodes": ["EX5 7HN"]}, "geometry": {"type": "Polygon", "coordinates": [[[-3.3856753691559853, 50.751965037690375], [-3.3862805238930767, 50.75263533764477], [-3.386008872955156, 50.75332928063511], [-3.3851903524048543, 50.75350912466696], [-3.3855323716601053, 50.75204141458322], [-3.3856753691559853, 50.751965037690375]]]}}, {"type": "Feature", "properties": {"type": "postcode-cell", "postcode": "EX5 7HB", "postcodes": ["EX5 7HB"]}, "geometry": {"type": "Polygon", "coordinates": [[[-3.387191501065858, 50.7539228614485], [-3.386761833244295, 50.754300698743684], [-3.384384397018545, 50.754107554860084], [-3.38459866001584, 50.75383860196021], [-3.3851903524048543, 50.75350912466696], [-3.386008872955156, 50.75332928063511], [-3.3870834407607417, 50.753310922846964], [-3.387108838035488, 50.753334365074686], [-3.387191501065858, 50.7539228614485]]]}}, {"type": "Feature", "properties": {"type": "postcode-cell", "postcode": "EX5 7HD", "postcodes": ["EX5 7HD"]}, "geometry": {"type": "Polygon", "coordinates": [[[-3.3872976537191666, 50.75299177833136], [-3.3870834407607417, 50.753310922846964], [-3.386008872955156, 50.75332928063511], [-3.3862805238930767, 50.75263533764477], [-3.386941324434721, 50.75263968243224], [-3.3872976537191666, 50.75299177833136]]]}}, {"type": "Feature", "properties": {"type": "postcode-cell", "postcode": "EX5 7DX", "postcodes": ["EX5 7DX"]}, "geometry": {"type": "Polygon", "coordinates": [[[-3.38745292403305, 50.75211837659498], [-3.3869322945497764, 50.75248801340296], [-3.3858446699499667, 50.751801447580696], [-3.3859451694863787, 50.75163386518326], [-3.386258475934407, 50.75159905262461], [-3.38745292403305, 50.75211837659498]]]}}, {"type": "Feature", "properties": {"type": "postcode-cell", "postcode": "EX5 7HL", "postcodes": ["EX5 7HL"]}, "geometry": {"type": "Polygon", "coordinates": [[[-3.386941324434721, 50.75263968243224], [-3.3862805238930767, 50.75263533764477], [-3.3856753691559853, 50.751965037690375], [-3.3858446699499667, 50.751801447580696], [-3.3869322945497764, 50.75248801340296], [-3.386941324434721, 50.75263968243224]]]}}, {"type": "Feature", "properties": {"type": "postcode-cell", "postcode": "EX5 7HX", "postcodes": ["EX5 7HX"]}, "geometry": {"type": "Polygon", "coordinates": [[[-3.386761833244295, 50.754300698743684], [-3.3871021741916802, 50.75464402554374], [-3.385973032492758, 50.75499437713383], [-3.3840414122962024, 50.75432811793432], [-3.384384397018545, 50.754107554860084], [-3.386761833244295, 50.754300698743684]]]}}, {"type": "Feature", "properties": {"type": "postcode-cell", "postcode": "EX5 7DZ", "postcodes": ["EX5 7DZ"]}, "geometry": {"type": "Polygon", "coordinates": [[[-3.38459866001584, 50.75383860196021], [-3.3840037170595996, 50.75242879670541], [-3.3840516830883067, 50.75221070677129], [-3.3840599896420316, 50.75220999476838], [-3.384057628102766, 50.752204740449336], [-3.3855323716601053, 50.75204141458322], [-3.3851903524048543, 50.75350912466696], [-3.38459866001584, 50.75383860196021]]]}}, {"type": "Feature", "properties": {"type": "postcode-cell", "postcode": "EX5 7JY", "postcodes": ["EX5 7JY"]}, "geometry": {"type": "Polygon", "coordinates": [[[-3.384384397018545, 50.754107554860084], [-3.3840414122962024, 50.75432811793432], [-3.3838034781775383, 50.75441900509451], [-3.3826878457585683, 50.75280743322356], [-3.3840037170595996, 50.75242879670541], [-3.38459866001584, 50.75383860196021], [-3.384384397018545, 50.754107554860084]]]}}, {"type": "Feature", "properties": {"type": "postcode-cell", "postcode": "EX5 7DY", "postcodes": ["EX5 7DY"]}, "geometry": {"type": "Polygon", "coordinates": [[[-3.3821424767657295, 50.752533848949554], [-3.382567054398703, 50.752258813091295], [-3.382569989641069, 50.75226999476845], [-3.3837099896418, 50.75223999476841], [-3.3840516830883067, 50.75221070677129], [-3.3840037170595996, 50.75242879670541], [-3.3826878457585683, 50.75280743322356], [-3.3821424767657295, 50.752533848949554]]]}}, {"type": "Feature", "properties": {"type": "postcode-cell", "postcode": "EX5 7JW", "postcodes": ["EX5 7JW"]}, "geometry": {"type": "Polygon", "coordinates": [[[-3.3826878457585683, 50.75280743322356], [-3.3838034781775383, 50.75441900509451], [-3.3834765653944285, 50.75463260930649], [-3.3804194158159735, 50.75332382572476], [-3.381683131105863, 50.752528859427514], [-3.3821424767657295, 50.752533848949554], [-3.3826878457585683, 50.75280743322356]]]}}, {"type": "Feature", "properties": {"type": "postcode-cell", "postcode": "EX5 7LH", "postcodes": ["EX5 7LH"]}, "geometry": {"type": "Polygon", "coordinates": [[[-3.3831325935296266, 50.755370953832745], [-3.380752762946492, 50.75794939829531], [-3.380739989637262, 50.757809994772835], [-3.3801250706978583, 50.75798832269975], [-3.379274187260819, 50.7533603126833], [-3.3804194158159735, 50.75332382572476], [-3.3834765653944285, 50.75463260930649], [-3.3831325935296266, 50.755370953832745]]]}}, {"type": "Feature", "properties": {"type": "postcode-cell", "postcode": "EX5 7LF", "postcodes": ["EX5 7LF"]}, "geometry": {"type": "Polygon", "coordinates": [[[-3.381683131105863, 50.752528859427514], [-3.3804194158159735, 50.75332382572476], [-3.379274187260819, 50.7533603126833], [-3.376382360934561, 50.75215515039326], [-3.3812844022684994, 50.75159330259984], [-3.381683131105863, 50.752528859427514]]]}}, {"type": "Feature", "properties": {"type": "postcode-cell", "postcode": "EX5 2PJ", "postcodes": ["EX5 2PJ"]}, "geometry": {"type": "Polygon", "coordinates": [[[-3.379274187260819, 50.7533603126833], [-3.3801250706978583, 50.75798832269975], [-3.3797399896364952, 50.75809999477305], [-3.3781599896357952, 50.757499994772616], [-3.376979989634982, 50.75764999477277], [-3.375599989634226, 50.75741999477258], [-3.375659989634376, 50.75718999477241], [-3.3741999896336528, 50.75678999477213], [-3.37402998963345, 50.75698999477229], [-3.372389989632657, 50.75649999477193], [-3.37048998963152, 50.75638999477186], [-3.367439989630037, 50.75549999477122], [-3.3702299896330534, 50.7528599947691], [-3.376382360934561, 50.75215515039326], [-3.379274187260819, 50.7533603126833]]]}}]}