{"type": "FeatureCollection", "features": [{"type": "Feature", "properties": {"type": "ward-outline", "name": "Crediton Lawrence"}, "geometry": {"type": "Polygon", "coordinates": [[[-3.65105, 50.79515], [-3.65214, 50.79321], [-3.65216, 50.79152], [-3.65304, 50.79144], [-3.65282, 50.79043], [-3.65446, 50.79039], [-3.65455, 50.78964], [-3.65611, 50.79005], [-3.65615, 50.78949], [-3.6568, 50.78935], [-3.659, 50.78959], [-3.65934, 50.78912], [-3.66224, 50.78934], [-3.6624, 50.78888], [-3.666, 50.78942], [-3.66613, 50.78825], [-3.66743, 50.78825], [-3.66924, 50.7874], [-3.67022, 50.78727], [-3.67114, 50.78863], [-3.67135, 50.78881], [-3.67151, 50.7885], [-3.67264, 50.7892], [-3.67349, 50.79025], [-3.67549, 50.79139], [-3.67629, 50.79234], [-3.67578, 50.79287], [-3.67628, 50.79299], [-3.6722, 50.79562], [-3.673, 50.79667], [-3.66585, 50.7957], [-3.66112, 50.79544], [-3.65406, 50.7957], [-3.65105, 50.79515]]]}}, {"type": "Feature", "properties": {"type": "postcode-cell", "postcode": "EX17 3PB", "postcodes": ["EX17 3PB"]}, "geometry": {"type": "Polygon", "coordinates": [[[-3.675496854726452, 50.79280535946279], [-3.6750070024325234, 50.79228910374632], [-3.674713824198972, 50.79172625881966], [-3.6753212709354317, 50.791293828545165], [-3.675489989809003, 50.79138999479517], [-3.6762899898090735, 50.79233999479592], [-3.6757799898084973, 50.79286999479633], [-3.6762799898087652, 50.792989994796436], [-3.676050614510978, 50.79313786344509], [-3.675496854726452, 50.79280535946279]]]}}, {"type": "Feature", "properties": {"type": "postcode-cell", "postcode": "EX17 3NZ", "postcodes": ["EX17 3NZ"]}, "geometry": {"type": "Polygon", "coordinates": [[[-3.67360023957412, 50.79144014232948], [-3.673399738860054, 50.79118955036254], [-3.6739552454614017, 50.790515198623915], [-3.674613453784904, 50.79089038044197], [-3.67360023957412, 50.79144014232948]]]}}, {"type": "Feature", "properties": {"type": "postcode-cell", "postcode": "EX17 3RD", "postcodes": ["EX17 3RD"]}, "geometry": {"type": "Polygon", "coordinates": [[[-3.6750070024325234, 50.79228910374632], [-3.672909624260764, 50.79217120271657], [-3.6736318175265357, 50.79159560021571], [-3.674713824198972, 50.79172625881966], [-3.6750070024325234, 50.79228910374632]]]}}, {"type": "Feature", "properties": {"type": "postcode-cell", "postcode": "EX17 3JJ", "postcodes": ["EX17 3JJ"]}, "geometry": {"type": "Polygon", "coordinates": [[[-3.674713824198972, 50.79172625881966], [-3.6736318175265357, 50.79159560021571], [-3.67360023957412, 50.79144014232948], [-3.674613453784904, 50.79089038044197], [-3.6753212709354317, 50.791293828545165], [-3.674713824198972, 50.79172625881966]]]}}, {"type": "Feature", "properties": {"type": "postcode-cell", "postcode": "EX17 3QT", "postcodes": ["EX17 3QT"]}, "geometry": {"type": "Polygon", "coordinates": [[[-3.6736318175265357, 50.79159560021571], [-3.672909624260764, 50.79217120271657], [-3.6727653061673, 50.79225587824341], [-3.672620496587447, 50.79221199673701], [-3.671708224881651, 50.79133972683926], [-3.671754393946527, 50.791171404050274], [-3.6724961074254114, 50.79083903555975], [-3.673399738860054, 50.79118955036254], [-3.67360023957412, 50.79144014232948], [-3.6736318175265357, 50.79159560021571]]]}}, {"type": "Feature", "properties": {"type": "postcode-cell", "postcode": "EX17 3NH", "postcodes": ["EX17 3NH"]}, "geometry": {"type": "Polygon", "coordinates": [[[-3.675496854726452, 50.79280535946279], [-3.672869330560217, 50.79245906294621], [-3.67284318704494, 50.79244451569302], [-3.6727653061673, 50.79225587824341], [-3.672909624260764, 50.79217120271657], [-3.6750070024325234, 50.79228910374632], [-3.675496854726452, 50.79280535946279]]]}}, {"type": "Feature", "properties": {"type": "postcode-cell", "postcode": "EX17 2ED", "postcodes": ["EX17 2ED"]}, "geometry": {"type": "Polygon", "coordinates": [[[-3.676050614510978, 50.79313786344509], [-3.675242989152571, 50.79365849475577], [-3.6738926754402494, 50.79357406960194], [-3.672869330560217, 50.79245906294621], [-3.675496854726452, 50.79280535946279], [-3.676050614510978, 50.79313786344509]]]}}, {"type": "Feature", "properties": {"type": "postcode-cell", "postcode": "EX17 3NX", "postcodes": ["EX17 3NX"]}, "geometry": {"type": "Polygon", "coordinates": [[[-3.672637849054341, 50.790324545673826], [-3.6714295405159127, 50.79000389733763], [-3.6725778402220164, 50.789161495888145], [-3.6726399898081845, 50.789199994793464], [-3.673299468657023, 50.79001464985906], [-3.672637849054341, 50.790324545673826]]]}}, {"type": "Feature", "properties": {"type": "postcode-cell", "postcode": "EX17 2EH", "postcodes": ["EX17 2EH"]}, "geometry": {"type": "Polygon", "coordinates": [[[-3.673657790537494, 50.79365621184411], [-3.6738926754402494, 50.79357406960194], [-3.675242989152571, 50.79365849475577], [-3.6734050688869613, 50.79484323660649], [-3.673657790537494, 50.79365621184411]]]}}, {"type": "Feature", "properties": {"type": "postcode-cell", "postcode": "EX17 2EB", "postcodes": ["EX17 2EB"]}, "geometry": {"type": "Polygon", "coordinates": [[[-3.672869330560217, 50.79245906294621], [-3.6738926754402494, 50.79357406960194], [-3.673657790537494, 50.79365621184411], [-3.672256466590692, 50.79390005497767], [-3.6718217008259817, 50.79347002234827], [-3.67284318704494, 50.79244451569302], [-3.672869330560217, 50.79245906294621]]]}}, {"type": "Feature", "properties": {"type": "postcode-cell", "postcode": "EX17 3JH", "postcodes": ["EX17 3JH"]}, "geometry": {"type": "Polygon", "coordinates": [[[-3.672637849054341, 50.790324545673826], [-3.673299468657023, 50.79001464985906], [-3.6734899898082425, 50.79024999479427], [-3.6739552454614017, 50.790515198623915], [-3.673399738860054, 50.79118955036254], [-3.6724961074254114, 50.79083903555975], [-3.672637849054341, 50.790324545673826]]]}}, {"type": "Feature", "properties": {"type": "postcode-cell", "postcode": "EX17 3NT", "postcodes": ["EX17 3NT"]}, "geometry": {"type": "Polygon", "coordinates": [[[-3.6724961074254114, 50.79083903555975], [-3.671754393946527, 50.791171404050274], [-3.671206897941364, 50.79081545101437], [-3.6708743176417267, 50.79014308923454], [-3.670901606688128, 50.79002536026896], [-3.6714295405159127, 50.79000389733763], [-3.672637849054341, 50.790324545673826], [-3.6724961074254114, 50.79083903555975]]]}}, {"type": "Feature", "properties": {"type": "postcode-cell", "postcode": "EX17 2HB", "postcodes": ["EX17 2HB"]}, "geometry": {"type": "Polygon", "coordinates": [[[-3.6688261158698174, 50.7951191423761], [-3.6693945103427574, 50.7944571981345], [-3.6699556638332753, 50.79429417249906], [-3.6719574163662334, 50.795014553987855], [-3.672307014890243, 50.79555101114101], [-3.672199989804899, 50.79561999479859], [-3.672999989804925, 50.79666999479942], [-3.6690831658970358, 50.79613868095654], [-3.6688261158698174, 50.7951191423761]]]}}, {"type": "Feature", "properties": {"type": "postcode-cell", "postcode": "EX17 2EJ", "postcodes": ["EX17 2EJ"]}, "geometry": {"type": "Polygon", "coordinates": [[[-3.6734050688869613, 50.79484323660649], [-3.672307014890243, 50.79555101114101], [-3.6719574163662334, 50.795014553987855], [-3.672256466590692, 50.79390005497767], [-3.673657790537494, 50.79365621184411], [-3.6734050688869613, 50.79484323660649]]]}}, {"type": "Feature", "properties": {"type": "postcode-cell", "postcode": "EX17 2EA", "postcodes": ["EX17 2EA"]}, "geometry": {"type": "Polygon", "coordinates": [[[-3.6719574163662334, 50.795014553987855], [-3.6699556638332753, 50.79429417249906], [-3.670246978375575, 50.793527172032924], [-3.671646040402395, 50.79343808842006], [-3.6718217008259817, 50.79347002234827], [-3.672256466590692, 50.79390005497767], [-3.6719574163662334, 50.795014553987855]]]}}, {"type": "Feature", "properties": {"type": "postcode-cell", "postcode": "EX17 3NQ", "postcodes": ["EX17 3NQ"]}, "geometry": {"type": "Polygon", "coordinates": [[[-3.672620496587447, 50.79221199673701], [-3.671007990585002, 50.79242127303282], [-3.670960662631826, 50.79241298346545], [-3.670331320003358, 50.791785567113514], [-3.671708224881651, 50.79133972683926], [-3.672620496587447, 50.79221199673701]]]}}, {"type": "Feature", "properties": {"type": "postcode-cell", "postcode": "EX17 3NG", "postcodes": ["EX17 3NG"]}, "geometry": {"type": "Polygon", "coordinates": [[[-3.67284318704494, 50.79244451569302], [-3.6718217008259817, 50.79347002234827], [-3.671646040402395, 50.79343808842006], [-3.671007990585002, 50.79242127303282], [-3.672620496587447, 50.79221199673701], [-3.6727653061673, 50.79225587824341], [-3.67284318704494, 50.79244451569302]]]}}, {"type": "Feature", "properties": {"type": "postcode-cell", "postcode": "EX17 3NU", "postcodes": ["EX17 3NU"]}, "geometry": {"type": "Polygon", "coordinates": [[[-3.6714295405159127, 50.79000389733763], [-3.670901606688128, 50.79002536026896], [-3.6682230624451613, 50.787877564573634], [-3.669239989806831, 50.78739999479207], [-3.6702199898075243, 50.78726999479197], [-3.671139989807483, 50.78862999479303], [-3.6713499898075335, 50.78880999479318], [-3.6715099898077828, 50.788499994792915], [-3.6725778402220164, 50.789161495888145], [-3.6714295405159127, 50.79000389733763]]]}}, {"type": "Feature", "properties": {"type": "postcode-cell", "postcode": "EX17 3NL", "postcodes": ["EX17 3NL"]}, "geometry": {"type": "Polygon", "coordinates": [[[-3.671708224881651, 50.79133972683926], [-3.670331320003358, 50.791785567113514], [-3.6701826225642367, 50.7917553715993], [-3.6700544558361177, 50.791542835385044], [-3.670033986698986, 50.79113675190781], [-3.671206897941364, 50.79081545101437], [-3.671754393946527, 50.791171404050274], [-3.671708224881651, 50.79133972683926]]]}}, {"type": "Feature", "properties": {"type": "postcode-cell", "postcode": "EX17 3JN", "postcodes": ["EX17 3JN"]}, "geometry": {"type": "MultiPolygon", "coordinates": [[[[-3.6623582484056283, 50.7890000021712], [-3.6623999898017248, 50.788879994793355], [-3.662475650154735, 50.7888913451224], [-3.6623582484056283, 50.7890000021712]]], [[[-3.6615852704426444, 50.789715389288205], [-3.6611375003752493, 50.78975508740282], [-3.6592728780046984, 50.78921276779418], [-3.659339989799639, 50.78911999479358], [-3.6620097579004067, 50.7893225316413], [-3.6615852704426444, 50.789715389288205]]]]}}, {"type": "Feature", "properties": {"type": "postcode-cell", "postcode": "EX17 2DZ", "postcodes": ["EX17 2DZ"]}, "geometry": {"type": "Polygon", "coordinates": [[[-3.671646040402395, 50.79343808842006], [-3.670246978375575, 50.793527172032924], [-3.6698541292634115, 50.79315115983258], [-3.6698509423917693, 50.793135907897124], [-3.670960662631826, 50.79241298346545], [-3.671007990585002, 50.79242127303282], [-3.671646040402395, 50.79343808842006]]]}}, {"type": "Feature", "properties": {"type": "postcode-cell", "postcode": "EX17 3NF", "postcodes": ["EX17 3NF"]}, "geometry": {"type": "Polygon", "coordinates": [[[-3.6698509423917693, 50.793135907897124], [-3.6690623265816935, 50.79251277280316], [-3.669889144273607, 50.79188303894793], [-3.6701826225642367, 50.7917553715993], [-3.670331320003358, 50.791785567113514], [-3.670960662631826, 50.79241298346545], [-3.6698509423917693, 50.793135907897124]]]}}, {"type": "Feature", "properties": {"type": "postcode-cell", "postcode": "EX17 3NJ", "postcodes": ["EX17 3NJ"]}, "geometry": {"type": "Polygon", "coordinates": [[[-3.671206897941364, 50.79081545101437], [-3.670033986698986, 50.79113675190781], [-3.669960917001604, 50.791051011710984], [-3.669871921555727, 50.79075421296998], [-3.6708743176417267, 50.79014308923454], [-3.671206897941364, 50.79081545101437]]]}}, {"type": "Feature", "properties": {"type": "postcode-cell", "postcode": "EX17 3NN", "postcodes": ["EX17 3NN"]}, "geometry": {"type": "Polygon", "coordinates": [[[-3.670033986698986, 50.79113675190781], [-3.6700544558361177, 50.791542835385044], [-3.669081259668783, 50.79134249428269], [-3.669112682491705, 50.79106412080739], [-3.669960917001604, 50.791051011710984], [-3.670033986698986, 50.79113675190781]]]}}, {"type": "Feature", "properties": {"type": "postcode-cell", "postcode": "EX17 3LS", "postcodes": ["EX17 3LS"]}, "geometry": {"type": "Polygon", "coordinates": [[[-3.6708743176417267, 50.79014308923454], [-3.669871921555727, 50.79075421296998], [-3.6689151394869355, 50.79039725594985], [-3.6684545699165136, 50.78953620915736], [-3.6680269365541687, 50.787969667156396], [-3.6682230624451613, 50.787877564573634], [-3.670901606688128, 50.79002536026896], [-3.6708743176417267, 50.79014308923454]]]}}, {"type": "Feature", "properties": {"type": "postcode-cell", "postcode": "EX17 3NE", "postcodes": ["EX17 3NE"]}, "geometry": {"type": "Polygon", "coordinates": [[[-3.6701826225642367, 50.7917553715993], [-3.669889144273607, 50.79188303894793], [-3.6688879428621664, 50.79166779658421], [-3.669001969140057, 50.79136370397762], [-3.669081259668783, 50.79134249428269], [-3.6700544558361177, 50.791542835385044], [-3.6701826225642367, 50.7917553715993]]]}}, {"type": "Feature", "properties": {"type": "postcode-cell", "postcode": "EX17 2DY", "postcodes": ["EX17 2DY"]}, "geometry": {"type": "Polygon", "coordinates": [[[-3.670246978375575, 50.793527172032924], [-3.6699556638332753, 50.79429417249906], [-3.6693945103427574, 50.7944571981345], [-3.6680423707254617, 50.79369217085819], [-3.6698541292634115, 50.79315115983258], [-3.670246978375575, 50.793527172032924]]]}}, {"type": "Feature", "properties": {"type": "postcode-cell", "postcode": "EX17 2DU", "postcodes": ["EX17 2DU"]}, "geometry": {"type": "Polygon", "coordinates": [[[-3.6693945103427574, 50.7944571981345], [-3.6688261158698174, 50.7951191423761], [-3.6676478237825454, 50.79479904686245], [-3.667550033089201, 50.793774095073196], [-3.6676162700811905, 50.793616517126296], [-3.6680423707254617, 50.79369217085819], [-3.6693945103427574, 50.7944571981345]]]}}, {"type": "Feature", "properties": {"type": "postcode-cell", "postcode": "EX17 3LR", "postcodes": ["EX17 3LR"]}, "geometry": {"type": "Polygon", "coordinates": [[[-3.6689151394869355, 50.79039725594985], [-3.668777485538385, 50.79070835408044], [-3.667894418005414, 50.79095773819782], [-3.6677527285381903, 50.79086968174738], [-3.6684545699165136, 50.78953620915736], [-3.6689151394869355, 50.79039725594985]]]}}, {"type": "Feature", "properties": {"type": "postcode-cell", "postcode": "EX17 3NW", "postcodes": ["EX17 3NW"]}, "geometry": {"type": "Polygon", "coordinates": [[[-3.669081259668783, 50.79134249428269], [-3.669001969140057, 50.79136370397762], [-3.668521731777636, 50.791286526800484], [-3.6685060775370384, 50.791212823592666], [-3.6688000651423947, 50.79083856263766], [-3.669112682491705, 50.79106412080739], [-3.669081259668783, 50.79134249428269]]]}}, {"type": "Feature", "properties": {"type": "postcode-cell", "postcode": "EX17 3NS", "postcodes": ["EX17 3NS"]}, "geometry": {"type": "Polygon", "coordinates": [[[-3.669960917001604, 50.791051011710984], [-3.669112682491705, 50.79106412080739], [-3.6688000651423947, 50.79083856263766], [-3.668777485538385, 50.79070835408044], [-3.6689151394869355, 50.79039725594985], [-3.669871921555727, 50.79075421296998], [-3.669960917001604, 50.791051011710984]]]}}, {"type": "Feature", "properties": {"type": "postcode-cell", "postcode": "EX17 3PN", "postcodes": ["EX17 3PN"]}, "geometry": {"type": "Polygon", "coordinates": [[[-3.6688000651423947, 50.79083856263766], [-3.6685060775370384, 50.791212823592666], [-3.6679119875600983, 50.79100548979616], [-3.667894418005414, 50.79095773819782], [-3.668777485538385, 50.79070835408044], [-3.6688000651423947, 50.79083856263766]]]}}, {"type": "Feature", "properties": {"type": "postcode-cell", "postcode": "EX17 2DX", "postcodes": ["EX17 2DX"]}, "geometry": {"type": "Polygon", "coordinates": [[[-3.6698541292634115, 50.79315115983258], [-3.6680423707254617, 50.79369217085819], [-3.6676162700811905, 50.793616517126296], [-3.6672365006284307, 50.79326595042455], [-3.667233313225195, 50.793152703172616], [-3.667404917541121, 50.79258930401582], [-3.6680415154361543, 50.79243736671369], [-3.6690623265816935, 50.79251277280316], [-3.6698509423917693, 50.793135907897124], [-3.6698541292634115, 50.79315115983258]]]}}, {"type": "Feature", "properties": {"type": "postcode-cell", "postcode": "EX17 3ND", "postcodes": ["EX17 3ND"]}, "geometry": {"type": "Polygon", "coordinates": [[[-3.6690623265816935, 50.79251277280316], [-3.6680415154361543, 50.79243736671369], [-3.6683695680713875, 50.791799052501865], [-3.6688879428621664, 50.79166779658421], [-3.669889144273607, 50.79188303894793], [-3.6690623265816935, 50.79251277280316]]]}}, {"type": "Feature", "properties": {"type": "postcode-cell", "postcode": "EX17 3RS", "postcodes": ["EX17 3RS"]}, "geometry": {"type": "Polygon", "coordinates": [[[-3.6683695680713875, 50.791799052501865], [-3.6682777979953634, 50.79151933232365], [-3.668521731777636, 50.791286526800484], [-3.669001969140057, 50.79136370397762], [-3.6688879428621664, 50.79166779658421], [-3.6683695680713875, 50.791799052501865]]]}}, {"type": "Feature", "properties": {"type": "postcode-cell", "postcode": "EX17 3NP", "postcodes": ["EX17 3NP"]}, "geometry": {"type": "Polygon", "coordinates": [[[-3.6682777979953634, 50.79151933232365], [-3.6677438192610756, 50.79135197444226], [-3.6679119875600983, 50.79100548979616], [-3.6685060775370384, 50.791212823592666], [-3.668521731777636, 50.791286526800484], [-3.6682777979953634, 50.79151933232365]]]}}, {"type": "Feature", "properties": {"type": "postcode-cell", "postcode": "EX17 3NB", "postcodes": ["EX17 3NB"]}, "geometry": {"type": "Polygon", "coordinates": [[[-3.667404917541121, 50.79258930401582], [-3.667389422392138, 50.792578741148795], [-3.6672191556068223, 50.79187045896526], [-3.667438850544297, 50.79142612781146], [-3.6677438192610756, 50.79135197444226], [-3.6682777979953634, 50.79151933232365], [-3.6683695680713875, 50.791799052501865], [-3.6680415154361543, 50.79243736671369], [-3.667404917541121, 50.79258930401582]]]}}, {"type": "Feature", "properties": {"type": "postcode-cell", "postcode": "EX17 3FB", "postcodes": ["EX17 3FB"]}, "geometry": {"type": "Polygon", "coordinates": [[[-3.6684545699165136, 50.78953620915736], [-3.6677527285381903, 50.79086968174738], [-3.667093357570583, 50.79084231137384], [-3.66672383643838, 50.79056993096701], [-3.6662726965156613, 50.78940016169995], [-3.666762274921623, 50.78824999660291], [-3.6674299898052665, 50.78824999479278], [-3.6680269365541687, 50.787969667156396], [-3.6684545699165136, 50.78953620915736]]]}}, {"type": "Feature", "properties": {"type": "postcode-cell", "postcode": "EX17 3NR", "postcodes": ["EX17 3NR"]}, "geometry": {"type": "Polygon", "coordinates": [[[-3.667894418005414, 50.79095773819782], [-3.6679119875600983, 50.79100548979616], [-3.6677438192610756, 50.79135197444226], [-3.667438850544297, 50.79142612781146], [-3.667088693066695, 50.791171769567555], [-3.667093357570583, 50.79084231137384], [-3.6677527285381903, 50.79086968174738], [-3.667894418005414, 50.79095773819782]]]}}, {"type": "Feature", "properties": {"type": "postcode-cell", "postcode": "EX17 2DT", "postcodes": ["EX17 2DT"]}, "geometry": {"type": "Polygon", "coordinates": [[[-3.666643962152336, 50.795031865917984], [-3.6676478237825454, 50.79479904686245], [-3.6688261158698174, 50.7951191423761], [-3.6690831658970358, 50.79613868095654], [-3.6662708137130897, 50.795757098893816], [-3.666643962152336, 50.795031865917984]]]}}, {"type": "Feature", "properties": {"type": "postcode-cell", "postcode": "EX17 3NA", "postcodes": ["EX17 3NA"]}, "geometry": {"type": "Polygon", "coordinates": [[[-3.6672191556068223, 50.79187045896526], [-3.666668633136713, 50.79155730871097], [-3.6667945509972473, 50.79127805662724], [-3.667088693066695, 50.791171769567555], [-3.667438850544297, 50.79142612781146], [-3.6672191556068223, 50.79187045896526]]]}}, {"type": "Feature", "properties": {"type": "postcode-cell", "postcode": "EX17 3LT", "postcodes": ["EX17 3LT"]}, "geometry": {"type": "Polygon", "coordinates": [[[-3.667389422392138, 50.792578741148795], [-3.6670207459731237, 50.792483406999246], [-3.6660438455079323, 50.791599291956466], [-3.6661997156899653, 50.79154983245442], [-3.666668633136713, 50.79155730871097], [-3.6672191556068223, 50.79187045896526], [-3.667389422392138, 50.792578741148795]]]}}, {"type": "Feature", "properties": {"type": "postcode-cell", "postcode": "EX17 3LP", "postcodes": ["EX17 3LP"]}, "geometry": {"type": "Polygon", "coordinates": [[[-3.6652055156872407, 50.79033385652894], [-3.6650983318126844, 50.79037067905214], [-3.6635596318119457, 50.79041549117742], [-3.663368780850697, 50.790349694550514], [-3.663075181211963, 50.78898128295556], [-3.6659999898037947, 50.78941999479374], [-3.6661299898044284, 50.788249994792814], [-3.666762274921623, 50.78824999660291], [-3.6662726965156613, 50.78940016169995], [-3.6652055156872407, 50.79033385652894]]]}}, {"type": "Feature", "properties": {"type": "postcode-cell", "postcode": "EX17 3QR", "postcodes": ["EX17 3QR"]}, "geometry": {"type": "Polygon", "coordinates": [[[-3.6662726965156613, 50.78940016169995], [-3.66672383643838, 50.79056993096701], [-3.6662703385666915, 50.79103207233793], [-3.6662281762976106, 50.79103834928113], [-3.665831328101412, 50.79094422978099], [-3.665299309294376, 50.79051544495744], [-3.6652055156872407, 50.79033385652894], [-3.6662726965156613, 50.78940016169995]]]}}, {"type": "Feature", "properties": {"type": "postcode-cell", "postcode": "EX17 3LW", "postcodes": ["EX17 3LW"]}, "geometry": {"type": "Polygon", "coordinates": [[[-3.667088693066695, 50.791171769567555], [-3.6667945509972473, 50.79127805662724], [-3.666406174053979, 50.7912046639062], [-3.6662703385666915, 50.79103207233793], [-3.66672383643838, 50.79056993096701], [-3.667093357570583, 50.79084231137384], [-3.667088693066695, 50.791171769567555]]]}}, {"type": "Feature", "properties": {"type": "postcode-cell", "postcode": "EX17 2EZ", "postcodes": ["EX17 2EZ"]}, "geometry": {"type": "Polygon", "coordinates": [[[-3.667550033089201, 50.793774095073196], [-3.6662643259903023, 50.79460111111921], [-3.6654115790406365, 50.79423479732564], [-3.6652091587665563, 50.79395119431529], [-3.6672365006284307, 50.79326595042455], [-3.6676162700811905, 50.793616517126296], [-3.667550033089201, 50.793774095073196]]]}}, {"type": "Feature", "properties": {"type": "postcode-cell", "postcode": "EX17 2DS", "postcodes": ["EX17 2DS"]}, "geometry": {"type": "Polygon", "coordinates": [[[-3.6662643259903023, 50.79460111111921], [-3.667550033089201, 50.793774095073196], [-3.6676478237825454, 50.79479904686245], [-3.666643962152336, 50.795031865917984], [-3.6662643259903023, 50.79460111111921]]]}}, {"type": "Feature", "properties": {"type": "postcode-cell", "postcode": "EX17 2ET", "postcodes": ["EX17 2ET"]}, "geometry": {"type": "Polygon", "coordinates": [[[-3.666643962152336, 50.795031865917984], [-3.6662708137130897, 50.795757098893816], [-3.6658499898007597, 50.79569999479874], [-3.665084506476686, 50.79565793071567], [-3.6648375363484247, 50.79523525830212], [-3.6654115790406365, 50.79423479732564], [-3.6662643259903023, 50.79460111111921], [-3.666643962152336, 50.795031865917984]]]}}, {"type": "Feature", "properties": {"type": "postcode-cell", "postcode": "EX17 3LZ", "postcodes": ["EX17 3LZ"]}, "geometry": {"type": "Polygon", "coordinates": [[[-3.666668633136713, 50.79155730871097], [-3.6661997156899653, 50.79154983245442], [-3.666406174053979, 50.7912046639062], [-3.6667945509972473, 50.79127805662724], [-3.666668633136713, 50.79155730871097]]]}}, {"type": "Feature", "properties": {"type": "postcode-cell", "postcode": "EX17 2DR", "postcodes": ["EX17 2DR"]}, "geometry": {"type": "Polygon", "coordinates": [[[-3.667404917541121, 50.79258930401582], [-3.667233313225195, 50.793152703172616], [-3.665352270890304, 50.79293068150167], [-3.6659225686257093, 50.79235331780172], [-3.6670207459731237, 50.792483406999246], [-3.667389422392138, 50.792578741148795], [-3.667404917541121, 50.79258930401582]]]}}, {"type": "Feature", "properties": {"type": "postcode-cell", "postcode": "EX17 3LN", "postcodes": ["EX17 3LN"]}, "geometry": {"type": "Polygon", "coordinates": [[[-3.666406174053979, 50.7912046639062], [-3.6661997156899653, 50.79154983245442], [-3.6660438455079323, 50.791599291956466], [-3.665536927148032, 50.79158472126832], [-3.66549127574559, 50.79148091449952], [-3.6662281762976106, 50.79103834928113], [-3.6662703385666915, 50.79103207233793], [-3.666406174053979, 50.7912046639062]]]}}, {"type": "Feature", "properties": {"type": "postcode-cell", "postcode": "EX17 3LU", "postcodes": ["EX17 3LU"]}, "geometry": {"type": "Polygon", "coordinates": [[[-3.6670207459731237, 50.792483406999246], [-3.6659225686257093, 50.79235331780172], [-3.6652014755725175, 50.79202003092068], [-3.665536927148032, 50.79158472126832], [-3.6660438455079323, 50.791599291956466], [-3.6670207459731237, 50.792483406999246]]]}}, {"type": "Feature", "properties": {"type": "postcode-cell", "postcode": "EX17 3LL", "postcodes": ["EX17 3LL"]}, "geometry": {"type": "Polygon", "coordinates": [[[-3.66549127574559, 50.79148091449952], [-3.665457609931268, 50.79144722393781], [-3.665831328101412, 50.79094422978099], [-3.6662281762976106, 50.79103834928113], [-3.66549127574559, 50.79148091449952]]]}}, {"type": "Feature", "properties": {"type": "postcode-cell", "postcode": "EX17 3LH", "postcodes": ["EX17 3LH"]}, "geometry": {"type": "Polygon", "coordinates": [[[-3.6652055156872407, 50.79033385652894], [-3.665299309294376, 50.79051544495744], [-3.665395826774752, 50.791402863128276], [-3.6647343077989185, 50.7912367546276], [-3.6646410988517646, 50.79114836210223], [-3.6645779190793335, 50.790991129366944], [-3.6650983318126844, 50.79037067905214], [-3.6652055156872407, 50.79033385652894]]]}}, {"type": "Feature", "properties": {"type": "postcode-cell", "postcode": "EX17 3LJ", "postcodes": ["EX17 3LJ"]}, "geometry": {"type": "Polygon", "coordinates": [[[-3.665831328101412, 50.79094422978099], [-3.665457609931268, 50.79144722393781], [-3.665395826774752, 50.791402863128276], [-3.665299309294376, 50.79051544495744], [-3.665831328101412, 50.79094422978099]]]}}, {"type": "Feature", "properties": {"type": "postcode-cell", "postcode": "EX17 2BD", "postcodes": ["EX17 2BD"]}, "geometry": {"type": "Polygon", "coordinates": [[[-3.665457609931268, 50.79144722393781], [-3.66549127574559, 50.79148091449952], [-3.665536927148032, 50.79158472126832], [-3.6652014755725175, 50.79202003092068], [-3.664950354644376, 50.7920743844711], [-3.6645663817120724, 50.79200223556359], [-3.664449410379944, 50.79153826282741], [-3.6647343077989185, 50.7912367546276], [-3.665395826774752, 50.791402863128276], [-3.665457609931268, 50.79144722393781]]]}}, {"type": "Feature", "properties": {"type": "postcode-cell", "postcode": "EX17 2EF", "postcodes": ["EX17 2EF"]}, "geometry": {"type": "Polygon", "coordinates": [[[-3.6659225686257093, 50.79235331780172], [-3.665352270890304, 50.79293068150167], [-3.6647324173398066, 50.79309584335644], [-3.66468967920529, 50.79304237968998], [-3.664950354644376, 50.7920743844711], [-3.6652014755725175, 50.79202003092068], [-3.6659225686257093, 50.79235331780172]]]}}, {"type": "Feature", "properties": {"type": "postcode-cell", "postcode": "EX17 2DP", "postcodes": ["EX17 2DP"]}, "geometry": {"type": "Polygon", "coordinates": [[[-3.6672365006284307, 50.79326595042455], [-3.6652091587665563, 50.79395119431529], [-3.6646729393428443, 50.79377955390299], [-3.6647324173398066, 50.79309584335644], [-3.665352270890304, 50.79293068150167], [-3.667233313225195, 50.793152703172616], [-3.6672365006284307, 50.79326595042455]]]}}, {"type": "Feature", "properties": {"type": "postcode-cell", "postcode": "EX17 2EU", "postcodes": ["EX17 2EU"]}, "geometry": {"type": "Polygon", "coordinates": [[[-3.6625120425296664, 50.7952382126729], [-3.6642428451555444, 50.79501164435189], [-3.6648375363484247, 50.79523525830212], [-3.665084506476686, 50.79565793071567], [-3.662193535034261, 50.79549902284715], [-3.6625120425296664, 50.7952382126729]]]}}, {"type": "Feature", "properties": {"type": "postcode-cell", "postcode": "EX17 2EN", "postcodes": ["EX17 2EN"]}, "geometry": {"type": "Polygon", "coordinates": [[[-3.6654115790406365, 50.79423479732564], [-3.6648375363484247, 50.79523525830212], [-3.6642428451555444, 50.79501164435189], [-3.6638418084746127, 50.793951065432644], [-3.6646729393428443, 50.79377955390299], [-3.6652091587665563, 50.79395119431529], [-3.6654115790406365, 50.79423479732564]]]}}, {"type": "Feature", "properties": {"type": "postcode-cell", "postcode": "EX17 2DW", "postcodes": ["EX17 2DW"]}, "geometry": {"type": "Polygon", "coordinates": [[[-3.664950354644376, 50.7920743844711], [-3.66468967920529, 50.79304237968998], [-3.66350675970782, 50.792598887815146], [-3.6634871423038793, 50.79257218246938], [-3.6639661696845733, 50.79204874262187], [-3.6645663817120724, 50.79200223556359], [-3.664950354644376, 50.7920743844711]]]}}, {"type": "Feature", "properties": {"type": "postcode-cell", "postcode": "EX17 2BG", "postcodes": ["EX17 2BG"]}, "geometry": {"type": "Polygon", "coordinates": [[[-3.6647343077989185, 50.7912367546276], [-3.664449410379944, 50.79153826282741], [-3.664112522308265, 50.79142497540581], [-3.664120283986568, 50.79131427353221], [-3.6646410988517646, 50.79114836210223], [-3.6647343077989185, 50.7912367546276]]]}}, {"type": "Feature", "properties": {"type": "postcode-cell", "postcode": "EX17 2DQ", "postcodes": ["EX17 2DQ"]}, "geometry": {"type": "Polygon", "coordinates": [[[-3.6647324173398066, 50.79309584335644], [-3.6646729393428443, 50.79377955390299], [-3.6638418084746127, 50.793951065432644], [-3.6632473909924843, 50.79395346505834], [-3.662994361128823, 50.79381872206644], [-3.6629293149704725, 50.79365953338711], [-3.66350675970782, 50.792598887815146], [-3.66468967920529, 50.79304237968998], [-3.6647324173398066, 50.79309584335644]]]}}, {"type": "Feature", "properties": {"type": "postcode-cell", "postcode": "EX17 3LA", "postcodes": ["EX17 3LA"]}, "geometry": {"type": "Polygon", "coordinates": [[[-3.664120283986568, 50.79131427353221], [-3.6638864246490055, 50.7911395257251], [-3.6638927520531777, 50.79096326980403], [-3.6645779190793335, 50.790991129366944], [-3.6646410988517646, 50.79114836210223], [-3.664120283986568, 50.79131427353221]]]}}, {"type": "Feature", "properties": {"type": "postcode-cell", "postcode": "EX17 2BE", "postcodes": ["EX17 2BE"]}, "geometry": {"type": "Polygon", "coordinates": [[[-3.664082953370567, 50.79143670600725], [-3.664112522308265, 50.79142497540581], [-3.664449410379944, 50.79153826282741], [-3.6645663817120724, 50.79200223556359], [-3.6639661696845733, 50.79204874262187], [-3.6636745289437163, 50.79182540671032], [-3.664082953370567, 50.79143670600725]]]}}, {"type": "Feature", "properties": {"type": "postcode-cell", "postcode": "EX17 2AY", "postcodes": ["EX17 2AY"]}, "geometry": {"type": "Polygon", "coordinates": [[[-3.6636745289437163, 50.79182540671032], [-3.6631237972024326, 50.79159221445034], [-3.6630939438360004, 50.7915614893084], [-3.6636211729700254, 50.79135266398618], [-3.664082953370567, 50.79143670600725], [-3.6636745289437163, 50.79182540671032]]]}}, {"type": "Feature", "properties": {"type": "postcode-cell", "postcode": "EX17 3JZ", "postcodes": ["EX17 3JZ"]}, "geometry": {"type": "Polygon", "coordinates": [[[-3.6638927520531777, 50.79096326980403], [-3.6638484727243816, 50.79093408692044], [-3.6635596318119457, 50.79041549117742], [-3.6650983318126844, 50.79037067905214], [-3.6645779190793335, 50.790991129366944], [-3.6638927520531777, 50.79096326980403]]]}}, {"type": "Feature", "properties": {"type": "postcode-cell", "postcode": "EX17 2BA", "postcodes": ["EX17 2BA"]}, "geometry": {"type": "Polygon", "coordinates": [[[-3.664120283986568, 50.79131427353221], [-3.664112522308265, 50.79142497540581], [-3.664082953370567, 50.79143670600725], [-3.6636211729700254, 50.79135266398618], [-3.6638864246490055, 50.7911395257251], [-3.664120283986568, 50.79131427353221]]]}}, {"type": "Feature", "properties": {"type": "postcode-cell", "postcode": "EX17 2AZ", "postcodes": ["EX17 2AZ"]}, "geometry": {"type": "Polygon", "coordinates": [[[-3.6638864246490055, 50.7911395257251], [-3.6636211729700254, 50.79135266398618], [-3.6630939438360004, 50.7915614893084], [-3.663074876844994, 50.79155186653177], [-3.663210166331716, 50.791164174978476], [-3.6638484727243816, 50.79093408692044], [-3.6638927520531777, 50.79096326980403], [-3.6638864246490055, 50.7911395257251]]]}}, {"type": "Feature", "properties": {"type": "postcode-cell", "postcode": "EX17 2AX", "postcodes": ["EX17 2AX"]}, "geometry": {"type": "Polygon", "coordinates": [[[-3.6639661696845733, 50.79204874262187], [-3.6634871423038793, 50.79257218246938], [-3.6626849803801864, 50.792431718662286], [-3.6631237972024326, 50.79159221445034], [-3.6636745289437163, 50.79182540671032], [-3.6639661696845733, 50.79204874262187]]]}}, {"type": "Feature", "properties": {"type": "postcode-cell", "postcode": "EX17 2DN", "postcodes": ["EX17 2DN"]}, "geometry": {"type": "Polygon", "coordinates": [[[-3.662994361128823, 50.79381872206644], [-3.6623731462164995, 50.7938710357938], [-3.6606935500347015, 50.79343336839879], [-3.660656616305815, 50.79340665687023], [-3.6606624396451815, 50.793312218719024], [-3.661975002260878, 50.792882235650225], [-3.6629293149704725, 50.79365953338711], [-3.662994361128823, 50.79381872206644]]]}}, {"type": "Feature", "properties": {"type": "postcode-cell", "postcode": "EX17 2AU", "postcodes": ["EX17 2AU"]}, "geometry": {"type": "Polygon", "coordinates": [[[-3.6631237972024326, 50.79159221445034], [-3.6626849803801864, 50.792431718662286], [-3.6622335107146387, 50.79247537523588], [-3.662060868641489, 50.79169039221232], [-3.6626225299494535, 50.79154506801718], [-3.6628324710672757, 50.79152187514958], [-3.663074876844994, 50.79155186653177], [-3.6630939438360004, 50.7915614893084], [-3.6631237972024326, 50.79159221445034]]]}}, {"type": "Feature", "properties": {"type": "postcode-cell", "postcode": "EX17 2EL", "postcodes": ["EX17 2EL"]}, "geometry": {"type": "Polygon", "coordinates": [[[-3.6642428451555444, 50.79501164435189], [-3.6625120425296664, 50.7952382126729], [-3.6632473909924843, 50.79395346505834], [-3.6638418084746127, 50.793951065432644], [-3.6642428451555444, 50.79501164435189]]]}}, {"type": "Feature", "properties": {"type": "postcode-cell", "postcode": "EX17 2DH", "postcodes": ["EX17 2DH"]}, "geometry": {"type": "Polygon", "coordinates": [[[-3.6625120425296664, 50.7952382126729], [-3.662193535034261, 50.79549902284715], [-3.6613123653089903, 50.79545057315491], [-3.660982309932173, 50.79490934979355], [-3.6611986896878226, 50.79442591149536], [-3.6623731462164995, 50.7938710357938], [-3.662994361128823, 50.79381872206644], [-3.6632473909924843, 50.79395346505834], [-3.6625120425296664, 50.7952382126729]]]}}, {"type": "Feature", "properties": {"type": "postcode-cell", "postcode": "EX17 2DE", "postcodes": ["EX17 2DE"]}, "geometry": {"type": "Polygon", "coordinates": [[[-3.66350675970782, 50.792598887815146], [-3.6629293149704725, 50.79365953338711], [-3.661975002260878, 50.792882235650225], [-3.662104048635996, 50.7925457632772], [-3.6622335107146387, 50.79247537523588], [-3.6626849803801864, 50.792431718662286], [-3.6634871423038793, 50.79257218246938], [-3.66350675970782, 50.792598887815146]]]}}, {"type": "Feature", "properties": {"type": "postcode-cell", "postcode": "EX17 3JX", "postcodes": ["EX17 3JX"]}, "geometry": {"type": "Polygon", "coordinates": [[[-3.6638484727243816, 50.79093408692044], [-3.663210166331716, 50.791164174978476], [-3.6628794909360565, 50.79058350115146], [-3.663368780850697, 50.790349694550514], [-3.6635596318119457, 50.79041549117742], [-3.6638484727243816, 50.79093408692044]]]}}, {"type": "Feature", "properties": {"type": "postcode-cell", "postcode": "EX17 3NY", "postcodes": ["EX17 3NY"]}, "geometry": {"type": "Polygon", "coordinates": [[[-3.6628794909360565, 50.79058350115146], [-3.6625831470913757, 50.79064006668825], [-3.6620193736393616, 50.790407646356634], [-3.6617324026133007, 50.79012556733628], [-3.6615960817892486, 50.78988697394379], [-3.6615852704426444, 50.789715389288205], [-3.6620097579004067, 50.7893225316413], [-3.662239989801406, 50.789339994793714], [-3.6623582484056283, 50.7890000021712], [-3.662475650154735, 50.7888913451224], [-3.663075181211963, 50.78898128295556], [-3.663368780850697, 50.790349694550514], [-3.6628794909360565, 50.79058350115146]]]}}, {"type": "Feature", "properties": {"type": "postcode-cell", "postcode": "EX17 3LB", "postcodes": ["EX17 3LB"]}, "geometry": {"type": "Polygon", "coordinates": [[[-3.663074876844994, 50.79155186653177], [-3.6628324710672757, 50.79152187514958], [-3.6624657115489523, 50.79078664963947], [-3.6625831470913757, 50.79064006668825], [-3.6628794909360565, 50.79058350115146], [-3.663210166331716, 50.791164174978476], [-3.663074876844994, 50.79155186653177]]]}}, {"type": "Feature", "properties": {"type": "postcode-cell", "postcode": "EX17 3LE", "postcodes": ["EX17 3LE"]}, "geometry": {"type": "Polygon", "coordinates": [[[-3.6628324710672757, 50.79152187514958], [-3.6626225299494535, 50.79154506801718], [-3.662051658953773, 50.7909985170622], [-3.6624657115489523, 50.79078664963947], [-3.6628324710672757, 50.79152187514958]]]}}, {"type": "Feature", "properties": {"type": "postcode-cell", "postcode": "EX17 2DG", "postcodes": ["EX17 2DG"]}, "geometry": {"type": "Polygon", "coordinates": [[[-3.662104048635996, 50.7925457632772], [-3.6613745310979016, 50.79233108864138], [-3.6614144715672476, 50.79151112575029], [-3.662060868641489, 50.79169039221232], [-3.6622335107146387, 50.79247537523588], [-3.662104048635996, 50.7925457632772]]]}}, {"type": "Feature", "properties": {"type": "postcode-cell", "postcode": "EX17 3LD", "postcodes": ["EX17 3LD"]}, "geometry": {"type": "Polygon", "coordinates": [[[-3.662060868641489, 50.79169039221232], [-3.6614144715672476, 50.79151112575029], [-3.6613817471526504, 50.79149299553436], [-3.6617778750179952, 50.791065619920474], [-3.662051658953773, 50.7909985170622], [-3.6626225299494535, 50.79154506801718], [-3.662060868641489, 50.79169039221232]]]}}, {"type": "Feature", "properties": {"type": "postcode-cell", "postcode": "EX17 3JT", "postcodes": ["EX17 3JT"]}, "geometry": {"type": "Polygon", "coordinates": [[[-3.662051658953773, 50.7909985170622], [-3.6617778750179952, 50.791065619920474], [-3.661515537424982, 50.79077349673447], [-3.6620193736393616, 50.790407646356634], [-3.6625831470913757, 50.79064006668825], [-3.6624657115489523, 50.79078664963947], [-3.662051658953773, 50.7909985170622]]]}}, {"type": "Feature", "properties": {"type": "postcode-cell", "postcode": "EX17 2EQ", "postcodes": ["EX17 2EQ"]}, "geometry": {"type": "Polygon", "coordinates": [[[-3.6590349970229656, 50.79456881672978], [-3.659179378600772, 50.79447919405864], [-3.660160076700905, 50.79457472696652], [-3.660982309932173, 50.79490934979355], [-3.6613123653089903, 50.79545057315491], [-3.6611199897978293, 50.79543999479859], [-3.6586422616922074, 50.795531291539355], [-3.6590349970229656, 50.79456881672978]]]}}, {"type": "Feature", "properties": {"type": "postcode-cell", "postcode": "EX17 2DJ", "postcodes": ["EX17 2DJ"]}, "geometry": {"type": "Polygon", "coordinates": [[[-3.660982309932173, 50.79490934979355], [-3.660160076700905, 50.79457472696652], [-3.6602605298175632, 50.79361819488186], [-3.660656616305815, 50.79340665687023], [-3.6606935500347015, 50.79343336839879], [-3.6611986896878226, 50.79442591149536], [-3.660982309932173, 50.79490934979355]]]}}, {"type": "Feature", "properties": {"type": "postcode-cell", "postcode": "EX17 3JS", "postcodes": ["EX17 3JS"]}, "geometry": {"type": "Polygon", "coordinates": [[[-3.6620193736393616, 50.790407646356634], [-3.661515537424982, 50.79077349673447], [-3.661220002635377, 50.790712753845746], [-3.66121258755177, 50.79067057109953], [-3.6617324026133007, 50.79012556733628], [-3.6620193736393616, 50.790407646356634]]]}}, {"type": "Feature", "properties": {"type": "postcode-cell", "postcode": "EX17 2DD", "postcodes": ["EX17 2DD"]}, "geometry": {"type": "Polygon", "coordinates": [[[-3.6606624396451815, 50.793312218719024], [-3.6601706769264903, 50.79284333316843], [-3.660315655014195, 50.792613627854585], [-3.6608790048723168, 50.79234700212082], [-3.6613745310979016, 50.79233108864138], [-3.662104048635996, 50.7925457632772], [-3.661975002260878, 50.792882235650225], [-3.6606624396451815, 50.793312218719024]]]}}, {"type": "Feature", "properties": {"type": "postcode-cell", "postcode": "EX17 2HA", "postcodes": ["EX17 2HA"]}, "geometry": {"type": "Polygon", "coordinates": [[[-3.6614144715672476, 50.79151112575029], [-3.6613745310979016, 50.79233108864138], [-3.6608790048723168, 50.79234700212082], [-3.6607350958543847, 50.79166498897051], [-3.6612462253570963, 50.79148411557668], [-3.6613817471526504, 50.79149299553436], [-3.6614144715672476, 50.79151112575029]]]}}, {"type": "Feature", "properties": {"type": "postcode-cell", "postcode": "EX17 3LF", "postcodes": ["EX17 3LF"]}, "geometry": {"type": "Polygon", "coordinates": [[[-3.6617778750179952, 50.791065619920474], [-3.6613817471526504, 50.79149299553436], [-3.6612462253570963, 50.79148411557668], [-3.660743859958112, 50.79095097070518], [-3.660743144406988, 50.79094821332181], [-3.661220002635377, 50.790712753845746], [-3.661515537424982, 50.79077349673447], [-3.6617778750179952, 50.791065619920474]]]}}, {"type": "Feature", "properties": {"type": "postcode-cell", "postcode": "EX17 3JR", "postcodes": ["EX17 3JR"]}, "geometry": {"type": "Polygon", "coordinates": [[[-3.6617324026133007, 50.79012556733628], [-3.66121258755177, 50.79067057109953], [-3.6609243472068393, 50.790399314450646], [-3.6615960817892486, 50.78988697394379], [-3.6617324026133007, 50.79012556733628]]]}}, {"type": "Feature", "properties": {"type": "postcode-cell", "postcode": "EX17 2DL", "postcodes": ["EX17 2DL"]}, "geometry": {"type": "Polygon", "coordinates": [[[-3.6602605298175632, 50.79361819488186], [-3.6591285370817115, 50.79385201241281], [-3.658652204853712, 50.793586930185974], [-3.6585010238651843, 50.793121216385366], [-3.6591030609511543, 50.792791818581], [-3.6601706769264903, 50.79284333316843], [-3.6606624396451815, 50.793312218719024], [-3.660656616305815, 50.79340665687023], [-3.6602605298175632, 50.79361819488186]]]}}, {"type": "Feature", "properties": {"type": "postcode-cell", "postcode": "EX17 2EG", "postcodes": ["EX17 2EG"]}, "geometry": {"type": "Polygon", "coordinates": [[[-3.6611986896878226, 50.79442591149536], [-3.6606935500347015, 50.79343336839879], [-3.6623731462164995, 50.7938710357938], [-3.6611986896878226, 50.79442591149536]]]}}, {"type": "Feature", "properties": {"type": "postcode-cell", "postcode": "EX17 3JU", "postcodes": ["EX17 3JU"]}, "geometry": {"type": "Polygon", "coordinates": [[[-3.6615960817892486, 50.78988697394379], [-3.6609243472068393, 50.790399314450646], [-3.660563563439501, 50.79043658852363], [-3.6605977129835923, 50.78996550969026], [-3.6611375003752493, 50.78975508740282], [-3.6615852704426444, 50.789715389288205], [-3.6615960817892486, 50.78988697394379]]]}}, {"type": "Feature", "properties": {"type": "postcode-cell", "postcode": "EX17 3JP", "postcodes": ["EX17 3JP"]}, "geometry": {"type": "Polygon", "coordinates": [[[-3.661220002635377, 50.790712753845746], [-3.660743144406988, 50.79094821332181], [-3.6604465795080046, 50.790772335208445], [-3.6605276823675497, 50.79045514448158], [-3.660563563439501, 50.79043658852363], [-3.6609243472068393, 50.790399314450646], [-3.66121258755177, 50.79067057109953], [-3.661220002635377, 50.790712753845746]]]}}, {"type": "Feature", "properties": {"type": "postcode-cell", "postcode": "EX17 2DB", "postcodes": ["EX17 2DB"]}, "geometry": {"type": "Polygon", "coordinates": [[[-3.660315655014195, 50.792613627854585], [-3.659830454348228, 50.79174253743156], [-3.659960903113959, 50.791675753319026], [-3.6607350958543847, 50.79166498897051], [-3.6608790048723168, 50.79234700212082], [-3.660315655014195, 50.792613627854585]]]}}, {"type": "Feature", "properties": {"type": "postcode-cell", "postcode": "EX17 2AT", "postcodes": ["EX17 2AT"]}, "geometry": {"type": "Polygon", "coordinates": [[[-3.6607350958543847, 50.79166498897051], [-3.659960903113959, 50.791675753319026], [-3.6599640526942037, 50.791356873498636], [-3.660743859958112, 50.79095097070518], [-3.6612462253570963, 50.79148411557668], [-3.6607350958543847, 50.79166498897051]]]}}, {"type": "Feature", "properties": {"type": "postcode-cell", "postcode": "EX17 2FU", "postcodes": ["EX17 2FU"]}, "geometry": {"type": "Polygon", "coordinates": [[[-3.660743859958112, 50.79095097070518], [-3.6599640526942037, 50.791356873498636], [-3.6598132623550037, 50.79113006996456], [-3.6603170962235017, 50.79078102204549], [-3.6604465795080046, 50.790772335208445], [-3.660743144406988, 50.79094821332181], [-3.660743859958112, 50.79095097070518]]]}}, {"type": "Feature", "properties": {"type": "postcode-cell", "postcode": "EX17 3JL", "postcodes": ["EX17 3JL"]}, "geometry": {"type": "Polygon", "coordinates": [[[-3.6605276823675497, 50.79045514448158], [-3.659990181808356, 50.790279933640115], [-3.66001430264081, 50.78998802893487], [-3.6605977129835923, 50.78996550969026], [-3.660563563439501, 50.79043658852363], [-3.6605276823675497, 50.79045514448158]]]}}, {"type": "Feature", "properties": {"type": "postcode-cell", "postcode": "EX17 3AJ", "postcodes": ["EX17 3AJ"]}, "geometry": {"type": "Polygon", "coordinates": [[[-3.6604465795080046, 50.790772335208445], [-3.6603170962235017, 50.79078102204549], [-3.6596028894803116, 50.79059539536275], [-3.659628439722056, 50.79048968223322], [-3.659990181808356, 50.790279933640115], [-3.6605276823675497, 50.79045514448158], [-3.6604465795080046, 50.790772335208445]]]}}, {"type": "Feature", "properties": {"type": "postcode-cell", "postcode": "EX17 2DF", "postcodes": ["EX17 2DF"]}, "geometry": {"type": "Polygon", "coordinates": [[[-3.660315655014195, 50.792613627854585], [-3.6601706769264903, 50.79284333316843], [-3.6591030609511543, 50.792791818581], [-3.658818467197736, 50.79196740649524], [-3.6592984157137716, 50.79178039576162], [-3.659830454348228, 50.79174253743156], [-3.660315655014195, 50.792613627854585]]]}}, {"type": "Feature", "properties": {"type": "postcode-cell", "postcode": "EX17 2AS", "postcodes": ["EX17 2AS"]}, "geometry": {"type": "Polygon", "coordinates": [[[-3.659830454348228, 50.79174253743156], [-3.6592984157137716, 50.79178039576162], [-3.6590335283632878, 50.79110574010625], [-3.6593397824920086, 50.79091903322543], [-3.6598132623550037, 50.79113006996456], [-3.6599640526942037, 50.791356873498636], [-3.659960903113959, 50.791675753319026], [-3.659830454348228, 50.79174253743156]]]}}, {"type": "Feature", "properties": {"type": "postcode-cell", "postcode": "EX17 3JF", "postcodes": ["EX17 3JF"]}, "geometry": {"type": "Polygon", "coordinates": [[[-3.6605977129835923, 50.78996550969026], [-3.66001430264081, 50.78998802893487], [-3.659131977065122, 50.78940754302838], [-3.6592728780046984, 50.78921276779418], [-3.6611375003752493, 50.78975508740282], [-3.6605977129835923, 50.78996550969026]]]}}, {"type": "Feature", "properties": {"type": "postcode-cell", "postcode": "EX17 3AQ", "postcodes": ["EX17 3AQ"]}, "geometry": {"type": "Polygon", "coordinates": [[[-3.6590901016619877, 50.79007880867664], [-3.6587949995582436, 50.79038234084549], [-3.6585309334978677, 50.79033285729024], [-3.658165190595749, 50.790048070637035], [-3.6586260541624562, 50.78954920492485], [-3.658999989799201, 50.789589994793964], [-3.6590577231539183, 50.7895101876452], [-3.6590901016619877, 50.79007880867664]]]}}, {"type": "Feature", "properties": {"type": "postcode-cell", "postcode": "EX17 3LG", "postcodes": ["EX17 3LG"]}, "geometry": {"type": "Polygon", "coordinates": [[[-3.6598132623550037, 50.79113006996456], [-3.6593397824920086, 50.79091903322543], [-3.659357200532463, 50.79075822583963], [-3.6596028894803116, 50.79059539536275], [-3.6603170962235017, 50.79078102204549], [-3.6598132623550037, 50.79113006996456]]]}}, {"type": "Feature", "properties": {"type": "postcode-cell", "postcode": "EX17 3AP", "postcodes": ["EX17 3AP"]}, "geometry": {"type": "Polygon", "coordinates": [[[-3.659628439722056, 50.79048968223322], [-3.6590901016619877, 50.79007880867664], [-3.6590577231539183, 50.7895101876452], [-3.659131977065122, 50.78940754302838], [-3.66001430264081, 50.78998802893487], [-3.659990181808356, 50.790279933640115], [-3.659628439722056, 50.79048968223322]]]}}, {"type": "Feature", "properties": {"type": "postcode-cell", "postcode": "EX17 2AD", "postcodes": ["EX17 2AD"]}, "geometry": {"type": "Polygon", "coordinates": [[[-3.660160076700905, 50.79457472696652], [-3.659179378600772, 50.79447919405864], [-3.6591285370817115, 50.79385201241281], [-3.6602605298175632, 50.79361819488186], [-3.660160076700905, 50.79457472696652]]]}}, {"type": "Feature", "properties": {"type": "postcode-cell", "postcode": "EX17 3AH", "postcodes": ["EX17 3AH"]}, "geometry": {"type": "Polygon", "coordinates": [[[-3.6596028894803116, 50.79059539536275], [-3.659357200532463, 50.79075822583963], [-3.658814112503012, 50.790572674919545], [-3.6587949995582436, 50.79038234084549], [-3.6590901016619877, 50.79007880867664], [-3.659628439722056, 50.79048968223322], [-3.6596028894803116, 50.79059539536275]]]}}, {"type": "Feature", "properties": {"type": "postcode-cell", "postcode": "EX17 1DU", "postcodes": ["EX17 1DU"]}, "geometry": {"type": "Polygon", "coordinates": [[[-3.6544299388274135, 50.79435308882247], [-3.6546530715066328, 50.79406359128421], [-3.6567839245439946, 50.79461885445115], [-3.656826462013091, 50.79559816461009], [-3.6543734825310876, 50.795688458861534], [-3.6544299388274135, 50.79435308882247]]]}}, {"type": "Feature", "properties": {"type": "postcode-cell", "postcode": "EX17 1EA", "postcodes": ["EX17 1EA"]}, "geometry": {"type": "Polygon", "coordinates": [[[-3.6522521774155114, 50.79414615506616], [-3.652725559538394, 50.79447144343224], [-3.652866057665873, 50.79548184533381], [-3.651617373147278, 50.795253676459026], [-3.6522521774155114, 50.79414615506616]]]}}, {"type": "Feature", "properties": {"type": "postcode-cell", "postcode": "EX17 2BY", "postcodes": ["EX17 2BY"]}, "geometry": {"type": "Polygon", "coordinates": [[[-3.6586422616922074, 50.795531291539355], [-3.656826462013091, 50.79559816461009], [-3.6567839245439946, 50.79461885445115], [-3.657089307168113, 50.79429301214081], [-3.657287455529114, 50.794262148543766], [-3.6590349970229656, 50.79456881672978], [-3.6586422616922074, 50.795531291539355]]]}}, {"type": "Feature", "properties": {"type": "postcode-cell", "postcode": "EX17 3LQ", "postcodes": ["EX17 3LQ"]}, "geometry": {"type": "Polygon", "coordinates": [[[-3.6590335283632878, 50.79110574010625], [-3.6586164035644626, 50.79109425738072], [-3.658446720059652, 50.790959382914245], [-3.658358765496199, 50.790759479598236], [-3.6583692014510976, 50.790741844748375], [-3.658814112503012, 50.790572674919545], [-3.659357200532463, 50.79075822583963], [-3.6593397824920086, 50.79091903322543], [-3.6590335283632878, 50.79110574010625]]]}}, {"type": "Feature", "properties": {"type": "postcode-cell", "postcode": "EX17 2BW", "postcodes": ["EX17 2BW"]}, "geometry": {"type": "Polygon", "coordinates": [[[-3.658818467197736, 50.79196740649524], [-3.6585708260862218, 50.791921509180064], [-3.658376666894986, 50.791612440019], [-3.6583870102409373, 50.79156923553943], [-3.658542476479166, 50.791177311727786], [-3.6586164035644626, 50.79109425738072], [-3.6590335283632878, 50.79110574010625], [-3.6592984157137716, 50.79178039576162], [-3.658818467197736, 50.79196740649524]]]}}, {"type": "Feature", "properties": {"type": "postcode-cell", "postcode": "EX17 2BQ", "postcodes": ["EX17 2BQ"]}, "geometry": {"type": "Polygon", "coordinates": [[[-3.659179378600772, 50.79447919405864], [-3.6590349970229656, 50.79456881672978], [-3.657287455529114, 50.794262148543766], [-3.658652204853712, 50.793586930185974], [-3.6591285370817115, 50.79385201241281], [-3.659179378600772, 50.79447919405864]]]}}, {"type": "Feature", "properties": {"type": "postcode-cell", "postcode": "EX17 3AD", "postcodes": ["EX17 3AD"]}, "geometry": {"type": "Polygon", "coordinates": [[[-3.658165190595749, 50.790048070637035], [-3.6580505930329763, 50.790108576194534], [-3.657560287213226, 50.79007842908762], [-3.657119255466294, 50.78971414098056], [-3.65703387234452, 50.78937551134746], [-3.6586260541624562, 50.78954920492485], [-3.658165190595749, 50.790048070637035]]]}}, {"type": "Feature", "properties": {"type": "postcode-cell", "postcode": "EX17 3AG", "postcodes": ["EX17 3AG"]}, "geometry": {"type": "Polygon", "coordinates": [[[-3.6583692014510976, 50.790741844748375], [-3.6581605057089996, 50.79049128977784], [-3.6585309334978677, 50.79033285729024], [-3.6587949995582436, 50.79038234084549], [-3.658814112503012, 50.790572674919545], [-3.6583692014510976, 50.790741844748375]]]}}, {"type": "Feature", "properties": {"type": "postcode-cell", "postcode": "EX17 2DA", "postcodes": ["EX17 2DA"]}, "geometry": {"type": "Polygon", "coordinates": [[[-3.6585010238651843, 50.793121216385366], [-3.6571251491671033, 50.79285913584338], [-3.6570794626314997, 50.79244945682087], [-3.6571298317797702, 50.792400804194074], [-3.657661914042783, 50.79211183964305], [-3.6585708260862218, 50.791921509180064], [-3.658818467197736, 50.79196740649524], [-3.6591030609511543, 50.792791818581], [-3.6585010238651843, 50.793121216385366]]]}}, {"type": "Feature", "properties": {"type": "postcode-cell", "postcode": "EX17 2EE", "postcodes": ["EX17 2EE"]}, "geometry": {"type": "Polygon", "coordinates": [[[-3.6586164035644626, 50.79109425738072], [-3.658542476479166, 50.791177311727786], [-3.6581007160827337, 50.79122416820562], [-3.6578954564123847, 50.791196679124226], [-3.657951514681257, 50.79110195255927], [-3.658446720059652, 50.790959382914245], [-3.6586164035644626, 50.79109425738072]]]}}, {"type": "Feature", "properties": {"type": "postcode-cell", "postcode": "EX17 3AF", "postcodes": ["EX17 3AF"]}, "geometry": {"type": "Polygon", "coordinates": [[[-3.6580505930329763, 50.790108576194534], [-3.658165190595749, 50.790048070637035], [-3.6585309334978677, 50.79033285729024], [-3.6581605057089996, 50.79049128977784], [-3.6579875220155795, 50.79040281184337], [-3.6580505930329763, 50.790108576194534]]]}}, {"type": "Feature", "properties": {"type": "postcode-cell", "postcode": "EX17 3AE", "postcodes": ["EX17 3AE"]}, "geometry": {"type": "Polygon", "coordinates": [[[-3.6579875220155795, 50.79040281184337], [-3.6575278456145526, 50.790538001464746], [-3.6573883490733885, 50.79032561315241], [-3.657560287213226, 50.79007842908762], [-3.6580505930329763, 50.790108576194534], [-3.6579875220155795, 50.79040281184337]]]}}, {"type": "Feature", "properties": {"type": "postcode-cell", "postcode": "EX17 2BN", "postcodes": ["EX17 2BN"]}, "geometry": {"type": "Polygon", "coordinates": [[[-3.657659959880377, 50.79133693080311], [-3.6578954564123847, 50.791196679124226], [-3.6581007160827337, 50.79122416820562], [-3.6583870102409373, 50.79156923553943], [-3.658376666894986, 50.791612440019], [-3.657659959880377, 50.79133693080311]]]}}, {"type": "Feature", "properties": {"type": "postcode-cell", "postcode": "EX17 2AW", "postcodes": ["EX17 2AW"]}, "geometry": {"type": "Polygon", "coordinates": [[[-3.658376666894986, 50.791612440019], [-3.6585708260862218, 50.791921509180064], [-3.657661914042783, 50.79211183964305], [-3.6574381022334777, 50.79135378026373], [-3.65743898864366, 50.79135130096156], [-3.657659959880377, 50.79133693080311], [-3.658376666894986, 50.791612440019]]]}}, {"type": "Feature", "properties": {"type": "postcode-cell", "postcode": "EX17 2JZ", "postcodes": ["EX17 2JZ"]}, "geometry": {"type": "Polygon", "coordinates": [[[-3.657287455529114, 50.794262148543766], [-3.657089307168113, 50.79429301214081], [-3.65662285916966, 50.79321494498285], [-3.6571251491671033, 50.79285913584338], [-3.6585010238651843, 50.793121216385366], [-3.658652204853712, 50.793586930185974], [-3.657287455529114, 50.794262148543766]]]}}, {"type": "Feature", "properties": {"type": "postcode-cell", "postcode": "EX17 2EX", "postcodes": ["EX17 2EX"]}, "geometry": {"type": "Polygon", "coordinates": [[[-3.6583870102409373, 50.79156923553943], [-3.6581007160827337, 50.79122416820562], [-3.658542476479166, 50.791177311727786], [-3.6583870102409373, 50.79156923553943]]]}}, {"type": "Feature", "properties": {"type": "postcode-cell", "postcode": "EX17 2AJ", "postcodes": ["EX17 2AJ"]}, "geometry": {"type": "Polygon", "coordinates": [[[-3.658446720059652, 50.790959382914245], [-3.657951514681257, 50.79110195255927], [-3.657748692169119, 50.790819140512305], [-3.658358765496199, 50.790759479598236], [-3.658446720059652, 50.790959382914245]]]}}, {"type": "Feature", "properties": {"type": "postcode-cell", "postcode": "EX17 3DU", "postcodes": ["EX17 3DU"]}, "geometry": {"type": "Polygon", "coordinates": [[[-3.658358765496199, 50.790759479598236], [-3.657748692169119, 50.790819140512305], [-3.6576486100295034, 50.79079912959838], [-3.6575642777401893, 50.790746740521115], [-3.657478520399025, 50.79062235399001], [-3.6575278456145526, 50.790538001464746], [-3.6579875220155795, 50.79040281184337], [-3.6581605057089996, 50.79049128977784], [-3.6583692014510976, 50.790741844748375], [-3.658358765496199, 50.790759479598236]]]}}, {"type": "Feature", "properties": {"type": "postcode-cell", "postcode": "EX17 2BX", "postcodes": ["EX17 2BX"]}, "geometry": {"type": "Polygon", "coordinates": [[[-3.65662285916966, 50.79321494498285], [-3.6552262322082196, 50.79324679039602], [-3.6550822613869487, 50.79287554131753], [-3.656030764679015, 50.792083901106416], [-3.6570794626314997, 50.79244945682087], [-3.6571251491671033, 50.79285913584338], [-3.65662285916966, 50.79321494498285]]]}}, {"type": "Feature", "properties": {"type": "postcode-cell", "postcode": "EX17 2BL", "postcodes": ["EX17 2BL"]}, "geometry": {"type": "Polygon", "coordinates": [[[-3.657659959880377, 50.79133693080311], [-3.65743898864366, 50.79135130096156], [-3.6574285928439734, 50.791343222817716], [-3.6576486100295034, 50.79079912959838], [-3.657748692169119, 50.790819140512305], [-3.657951514681257, 50.79110195255927], [-3.6578954564123847, 50.791196679124226], [-3.657659959880377, 50.79133693080311]]]}}, {"type": "Feature", "properties": {"type": "postcode-cell", "postcode": "EX17 2BJ", "postcodes": ["EX17 2BJ"]}, "geometry": {"type": "Polygon", "coordinates": [[[-3.6571298317797702, 50.792400804194074], [-3.6568964313920085, 50.791680750336866], [-3.6574381022334777, 50.79135378026373], [-3.657661914042783, 50.79211183964305], [-3.6571298317797702, 50.792400804194074]]]}}, {"type": "Feature", "properties": {"type": "postcode-cell", "postcode": "EX17 3DY", "postcodes": ["EX17 3DY"]}, "geometry": {"type": "Polygon", "coordinates": [[[-3.657119255466294, 50.78971414098056], [-3.656842033960619, 50.79023310929275], [-3.6563226901490773, 50.790490039660554], [-3.656135145458794, 50.78969781684451], [-3.656149989797407, 50.789489994793904], [-3.656799989797892, 50.789349994793795], [-3.65703387234452, 50.78937551134746], [-3.657119255466294, 50.78971414098056]]]}}, {"type": "Feature", "properties": {"type": "postcode-cell", "postcode": "EX17 2BS", "postcodes": ["EX17 2BS"]}, "geometry": {"type": "Polygon", "coordinates": [[[-3.6574285928439734, 50.791343222817716], [-3.656895725256853, 50.791137113174635], [-3.6575642777401893, 50.790746740521115], [-3.6576486100295034, 50.79079912959838], [-3.6574285928439734, 50.791343222817716]]]}}, {"type": "Feature", "properties": {"type": "postcode-cell", "postcode": "EX17 3AB", "postcodes": ["EX17 3AB"]}, "geometry": {"type": "Polygon", "coordinates": [[[-3.6573883490733885, 50.79032561315241], [-3.656842033960619, 50.79023310929275], [-3.657119255466294, 50.78971414098056], [-3.657560287213226, 50.79007842908762], [-3.6573883490733885, 50.79032561315241]]]}}, {"type": "Feature", "properties": {"type": "postcode-cell", "postcode": "EX17 2AG", "postcodes": ["EX17 2AG"]}, "geometry": {"type": "Polygon", "coordinates": [[[-3.657089307168113, 50.79429301214081], [-3.6567839245439946, 50.79461885445115], [-3.6546530715066328, 50.79406359128421], [-3.6546019498346927, 50.79381168849614], [-3.6547142437472364, 50.79360585901942], [-3.6552262322082196, 50.79324679039602], [-3.65662285916966, 50.79321494498285], [-3.657089307168113, 50.79429301214081]]]}}, {"type": "Feature", "properties": {"type": "postcode-cell", "postcode": "EX17 2BP", "postcodes": ["EX17 2BP"]}, "geometry": {"type": "Polygon", "coordinates": [[[-3.6574381022334777, 50.79135378026373], [-3.6568964313920085, 50.791680750336866], [-3.6562355244267217, 50.791384369092405], [-3.656372337404733, 50.79105505864853], [-3.656895725256853, 50.791137113174635], [-3.6574285928439734, 50.791343222817716], [-3.65743898864366, 50.79135130096156], [-3.6574381022334777, 50.79135378026373]]]}}, {"type": "Feature", "properties": {"type": "postcode-cell", "postcode": "EX17 2BT", "postcodes": ["EX17 2BT"]}, "geometry": {"type": "Polygon", "coordinates": [[[-3.6575642777401893, 50.790746740521115], [-3.656895725256853, 50.791137113174635], [-3.656372337404733, 50.79105505864853], [-3.65615156715836, 50.790710453754045], [-3.656200366444293, 50.790675817709214], [-3.657478520399025, 50.79062235399001], [-3.6575642777401893, 50.790746740521115]]]}}, {"type": "Feature", "properties": {"type": "postcode-cell", "postcode": "EX17 3DX", "postcodes": ["EX17 3DX"]}, "geometry": {"type": "Polygon", "coordinates": [[[-3.657478520399025, 50.79062235399001], [-3.656200366444293, 50.790675817709214], [-3.6563226901490773, 50.790490039660554], [-3.656842033960619, 50.79023310929275], [-3.6573883490733885, 50.79032561315241], [-3.6575278456145526, 50.790538001464746], [-3.657478520399025, 50.79062235399001]]]}}, {"type": "Feature", "properties": {"type": "postcode-cell", "postcode": "EX17 2EY", "postcodes": ["EX17 2EY"]}, "geometry": {"type": "Polygon", "coordinates": [[[-3.6571298317797702, 50.792400804194074], [-3.6570794626314997, 50.79244945682087], [-3.656030764679015, 50.792083901106416], [-3.655908402952681, 50.79196721772143], [-3.656137596387467, 50.791463753926045], [-3.6562355244267217, 50.791384369092405], [-3.6568964313920085, 50.791680750336866], [-3.6571298317797702, 50.792400804194074]]]}}, {"type": "Feature", "properties": {"type": "postcode-cell", "postcode": "EX17 3AW", "postcodes": ["EX17 3AW"]}, "geometry": {"type": "Polygon", "coordinates": [[[-3.6563226901490773, 50.790490039660554], [-3.656200366444293, 50.790675817709214], [-3.65615156715836, 50.790710453754045], [-3.65433979149638, 50.79054958869888], [-3.654075230446478, 50.79039938124469], [-3.654459989795896, 50.79038999479467], [-3.654549989796307, 50.78963999479406], [-3.6561099897971205, 50.79004999479437], [-3.656135145458794, 50.78969781684451], [-3.6563226901490773, 50.790490039660554]]]}}, {"type": "Feature", "properties": {"type": "postcode-cell", "postcode": "EX17 2AA", "postcodes": ["EX17 2AA"]}, "geometry": {"type": "Polygon", "coordinates": [[[-3.656372337404733, 50.79105505864853], [-3.6562355244267217, 50.791384369092405], [-3.656137596387467, 50.791463753926045], [-3.654741668128223, 50.79132856828326], [-3.6546289030503134, 50.79127486175463], [-3.65433979149638, 50.79054958869888], [-3.65615156715836, 50.790710453754045], [-3.656372337404733, 50.79105505864853]]]}}, {"type": "Feature", "properties": {"type": "postcode-cell", "postcode": "EX17 2FB", "postcodes": ["EX17 2FB"]}, "geometry": {"type": "Polygon", "coordinates": [[[-3.6552262322082196, 50.79324679039602], [-3.6547142437472364, 50.79360585901942], [-3.653712932159715, 50.79305355766777], [-3.6538873322600156, 50.79247402041161], [-3.6550569993248656, 50.79285304009956], [-3.6550822613869487, 50.79287554131753], [-3.6552262322082196, 50.79324679039602]]]}}, {"type": "Feature", "properties": {"type": "postcode-cell", "postcode": "EX17 2BZ", "postcodes": ["EX17 2BZ"]}, "geometry": {"type": "Polygon", "coordinates": [[[-3.656030764679015, 50.792083901106416], [-3.6550822613869487, 50.79287554131753], [-3.6550569993248656, 50.79285304009956], [-3.654871735330176, 50.79217437849312], [-3.655428800022669, 50.79192530835698], [-3.655908402952681, 50.79196721772143], [-3.656030764679015, 50.792083901106416]]]}}, {"type": "Feature", "properties": {"type": "postcode-cell", "postcode": "EX17 2BU", "postcodes": ["EX17 2BU"]}, "geometry": {"type": "Polygon", "coordinates": [[[-3.654741668128223, 50.79132856828326], [-3.655428800022669, 50.79192530835698], [-3.654871735330176, 50.79217437849312], [-3.6541222223734136, 50.79196582301228], [-3.6546289030503134, 50.79127486175463], [-3.654741668128223, 50.79132856828326]]]}}, {"type": "Feature", "properties": {"type": "postcode-cell", "postcode": "EX17 2AE", "postcodes": ["EX17 2AE"]}, "geometry": {"type": "Polygon", "coordinates": [[[-3.655908402952681, 50.79196721772143], [-3.655428800022669, 50.79192530835698], [-3.654741668128223, 50.79132856828326], [-3.656137596387467, 50.791463753926045], [-3.655908402952681, 50.79196721772143]]]}}, {"type": "Feature", "properties": {"type": "postcode-cell", "postcode": "EX17 2AP", "postcodes": ["EX17 2AP"]}, "geometry": {"type": "Polygon", "coordinates": [[[-3.6546289030503134, 50.79127486175463], [-3.6541222223734136, 50.79196582301228], [-3.6537917065483234, 50.792077683365775], [-3.6528984770355755, 50.79145286005738], [-3.6530399897944887, 50.791439994795525], [-3.6528199897948204, 50.79042999479473], [-3.654075230446478, 50.79039938124469], [-3.65433979149638, 50.79054958869888], [-3.6546289030503134, 50.79127486175463]]]}}, {"type": "Feature", "properties": {"type": "postcode-cell", "postcode": "EX17 2AR", "postcodes": ["EX17 2AR"]}, "geometry": {"type": "Polygon", "coordinates": [[[-3.6550569993248656, 50.79285304009956], [-3.6538873322600156, 50.79247402041161], [-3.653688733843155, 50.792252794521545], [-3.6537917065483234, 50.792077683365775], [-3.6541222223734136, 50.79196582301228], [-3.654871735330176, 50.79217437849312], [-3.6550569993248656, 50.79285304009956]]]}}, {"type": "Feature", "properties": {"type": "postcode-cell", "postcode": "EX17 1DP", "postcodes": ["EX17 1DP"]}, "geometry": {"type": "Polygon", "coordinates": [[[-3.6547142437472364, 50.79360585901942], [-3.6546019498346927, 50.79381168849614], [-3.6528147566399793, 50.79369326795493], [-3.653181501924893, 50.793045528846235], [-3.653712932159715, 50.79305355766777], [-3.6547142437472364, 50.79360585901942]]]}}, {"type": "Feature", "properties": {"type": "postcode-cell", "postcode": "EX17 2AN", "postcodes": ["EX17 2AN"]}, "geometry": {"type": "Polygon", "coordinates": [[[-3.653688733843155, 50.792252794521545], [-3.6528842926319887, 50.792474955132846], [-3.652170485611797, 50.791519040670984], [-3.6528984770355755, 50.79145286005738], [-3.6537917065483234, 50.792077683365775], [-3.653688733843155, 50.792252794521545]]]}}, {"type": "Feature", "properties": {"type": "postcode-cell", "postcode": "EX17 1DS", "postcodes": ["EX17 1DS"]}, "geometry": {"type": "Polygon", "coordinates": [[[-3.6528842926319887, 50.792474955132846], [-3.65266575213335, 50.79266450592934], [-3.652145403507011, 50.79275253611131], [-3.6521599897938843, 50.791519994795586], [-3.652170485611797, 50.791519040670984], [-3.6528842926319887, 50.792474955132846]]]}}, {"type": "Feature", "properties": {"type": "postcode-cell", "postcode": "EX17 2FA", "postcodes": ["EX17 2FA"]}, "geometry": {"type": "Polygon", "coordinates": [[[-3.6538873322600156, 50.79247402041161], [-3.653712932159715, 50.79305355766777], [-3.653181501924893, 50.793045528846235], [-3.65266575213335, 50.79266450592934], [-3.6528842926319887, 50.792474955132846], [-3.653688733843155, 50.792252794521545], [-3.6538873322600156, 50.79247402041161]]]}}, {"type": "Feature", "properties": {"type": "postcode-cell", "postcode": "EX17 1DZ", "postcodes": ["EX17 1DZ"]}, "geometry": {"type": "Polygon", "coordinates": [[[-3.6546530715066328, 50.79406359128421], [-3.6544299388274135, 50.79435308882247], [-3.652725559538394, 50.79447144343224], [-3.6522521774155114, 50.79414615506616], [-3.652028916199713, 50.79389871274381], [-3.6528147566399793, 50.79369326795493], [-3.6546019498346927, 50.79381168849614], [-3.6546530715066328, 50.79406359128421]]]}}, {"type": "Feature", "properties": {"type": "postcode-cell", "postcode": "EX17 1DT", "postcodes": ["EX17 1DT"]}, "geometry": {"type": "Polygon", "coordinates": [[[-3.6528147566399793, 50.79369326795493], [-3.652028916199713, 50.79389871274381], [-3.6517887336080816, 50.79383518466748], [-3.6521399897930786, 50.79320999479693], [-3.652145403507011, 50.79275253611131], [-3.65266575213335, 50.79266450592934], [-3.653181501924893, 50.793045528846235], [-3.6528147566399793, 50.79369326795493]]]}}, {"type": "Feature", "properties": {"type": "postcode-cell", "postcode": "EX17 1DX", "postcodes": ["EX17 1DX"]}, "geometry": {"type": "Polygon", "coordinates": [[[-3.6543734825310876, 50.795688458861534], [-3.654059989793151, 50.79569999479887], [-3.652866057665873, 50.79548184533381], [-3.652725559538394, 50.79447144343224], [-3.6544299388274135, 50.79435308882247], [-3.6543734825310876, 50.795688458861534]]]}}, {"type": "Feature", "properties": {"type": "postcode-cell", "postcode": "EX17 1DY", "postcodes": ["EX17 1DY"]}, "geometry": {"type": "Polygon", "coordinates": [[[-3.652028916199713, 50.79389871274381], [-3.6522521774155114, 50.79414615506616], [-3.651617373147278, 50.795253676459026], [-3.6510499897914674, 50.79514999479849], [-3.6517887336080816, 50.79383518466748], [-3.652028916199713, 50.79389871274381]]]}}]}