{"type": "FeatureCollection", "features": [{"type": "Feature", "properties": {"type": "ward-outline", "name": "Crediton Boniface"}, "geometry": {"type": "Polygon", "coordinates": [[[-3.63295, 50.79344], [-3.63194, 50.79238], [-3.63359, 50.79026], [-3.63714, 50.79039], [-3.63689, 50.78949], [-3.6357, 50.7893], [-3.6358, 50.78903], [-3.63872, 50.78746], [-3.63754, 50.78707], [-3.63896, 50.7865], [-3.63575, 50.78418], [-3.63801, 50.7843], [-3.63517, 50.78127], [-3.63707, 50.78082], [-3.63969, 50.7795], [-3.64093, 50.78065], [-3.64282, 50.78056], [-3.64294, 50.78003], [-3.64397, 50.77954], [-3.64793, 50.77897], [-3.64881, 50.77947], [-3.65188, 50.77938], [-3.65239, 50.77997], [-3.65349, 50.77933], [-3.65503, 50.77926], [-3.65683, 50.77972], [-3.65772, 50.77943], [-3.65887, 50.77954], [-3.65878, 50.77852], [-3.66119, 50.77841], [-3.66222, 50.7788], [-3.66285, 50.77862], [-3.66306, 50.77785], [-3.66432, 50.77752], [-3.66497, 50.77767], [-3.66477, 50.77912], [-3.6668, 50.78113], [-3.66925, 50.78473], [-3.67022, 50.78727], [-3.66924, 50.7874], [-3.66743, 50.78825], [-3.66613, 50.78825], [-3.666, 50.78942], [-3.6624, 50.78888], [-3.66224, 50.78934], [-3.65934, 50.78912], [-3.659, 50.78959], [-3.6568, 50.78935], [-3.65615, 50.78949], [-3.65611, 50.79005], [-3.65455, 50.78964], [-3.65446, 50.79039], [-3.65282, 50.79043], [-3.65304, 50.79144], [-3.65216, 50.79152], [-3.65214, 50.79321], [-3.65105, 50.79515], [-3.64561, 50.79528], [-3.64316, 50.79708], [-3.63871, 50.79844], [-3.63883, 50.79785], [-3.63806, 50.79772], [-3.63749, 50.79683], [-3.63688, 50.79729], [-3.63592, 50.7967], [-3.63605, 50.79631], [-3.63535, 50.79628], [-3.63573, 50.7958], [-3.63491, 50.79465], [-3.63578, 50.79413], [-3.63464, 50.79359], [-3.6335, 50.79387], [-3.63295, 50.79344]]]}}, {"type": "Feature", "properties": {"type": "postcode-cell", "postcode": "EX17 3PQ", "postcodes": ["EX17 3PQ"]}, "geometry": {"type": "Polygon", "coordinates": [[[-3.6613328521019333, 50.78661339010047], [-3.659715101423624, 50.78408434097034], [-3.6614335072711186, 50.78250442961699], [-3.6679894674679274, 50.78287787589481], [-3.6692499898080864, 50.78472999478994], [-3.6702199898075243, 50.78726999479197], [-3.669239989806831, 50.78739999479207], [-3.6674299898052665, 50.78824999479278], [-3.6661299898044284, 50.788249994792814], [-3.666091744961883, 50.788594203828225], [-3.6613328521019333, 50.78661339010047]]]}}, {"type": "Feature", "properties": {"type": "postcode-cell", "postcode": "EX17 3QN", "postcodes": ["EX17 3QN"]}, "geometry": {"type": "Polygon", "coordinates": [[[-3.6629514617391483, 50.77824793411061], [-3.663059989807313, 50.77784999478456], [-3.6643199898082814, 50.777519994784306], [-3.664969989808631, 50.777669994784404], [-3.6648080704058055, 50.77884391681951], [-3.6629514617391483, 50.77824793411061]]]}}, {"type": "Feature", "properties": {"type": "postcode-cell", "postcode": "EX17 3QW", "postcodes": ["EX17 3QW"]}, "geometry": {"type": "Polygon", "coordinates": [[[-3.6648080704058055, 50.77884391681951], [-3.6647699898078225, 50.77911999478555], [-3.6667999898081916, 50.781129994787136], [-3.6679894674679274, 50.78287787589481], [-3.6614335072711186, 50.78250442961699], [-3.658515132786349, 50.779506053208756], [-3.6588699898038217, 50.77953999478598], [-3.6587799898042412, 50.77851999478515], [-3.661189989805847, 50.77840999478503], [-3.662219989806329, 50.77879999478534], [-3.6628499898068183, 50.77861999478519], [-3.6629514617391483, 50.77824793411061], [-3.6648080704058055, 50.77884391681951]]]}}, {"type": "Feature", "properties": {"type": "postcode-cell", "postcode": "EX17 3PR", "postcodes": ["EX17 3PR"]}, "geometry": {"type": "Polygon", "coordinates": [[[-3.659715101423624, 50.78408434097034], [-3.6588468638782916, 50.784418089206824], [-3.65842757049326, 50.784493705471654], [-3.6580492142826344, 50.784532085836176], [-3.653495360441607, 50.783961934413895], [-3.6517782741504576, 50.783389490487934], [-3.651559453582135, 50.782610759171426], [-3.651576714470353, 50.78187624157466], [-3.6516357689168877, 50.781436250446156], [-3.6518182372913026, 50.78070375572516], [-3.652239553881481, 50.779987381424654], [-3.6523103160573385, 50.779877824349384], [-3.6523899897994427, 50.77996999478639], [-3.653489989800452, 50.77932999478587], [-3.6550299898014784, 50.77925999478581], [-3.656829989802423, 50.77971999478614], [-3.657719989803133, 50.77942999478591], [-3.658515132786349, 50.779506053208756], [-3.6614335072711186, 50.78250442961699], [-3.659715101423624, 50.78408434097034]]]}}, {"type": "Feature", "properties": {"type": "postcode-cell", "postcode": "EX17 3FR", "postcodes": ["EX17 3FR"]}, "geometry": {"type": "Polygon", "coordinates": [[[-3.660807705194561, 50.787471556897586], [-3.65867495431482, 50.787682089031094], [-3.658244029023935, 50.78746460476841], [-3.6588468638782916, 50.784418089206824], [-3.659715101423624, 50.78408434097034], [-3.6613328521019333, 50.78661339010047], [-3.660807705194561, 50.787471556897586]]]}}, {"type": "Feature", "properties": {"type": "postcode-cell", "postcode": "EX17 3HX", "postcodes": ["EX17 3HX"]}, "geometry": {"type": "Polygon", "coordinates": [[[-3.660557537075878, 50.78880724279028], [-3.660807705194561, 50.787471556897586], [-3.6613328521019333, 50.78661339010047], [-3.666091744961883, 50.788594203828225], [-3.6659999898037947, 50.78941999479374], [-3.6623999898017248, 50.788879994793355], [-3.662239989801406, 50.789339994793714], [-3.660837550551778, 50.78923361213065], [-3.660557537075878, 50.78880724279028]]]}}, {"type": "Feature", "properties": {"type": "postcode-cell", "postcode": "EX17 3JA", "postcodes": ["EX17 3JA"]}, "geometry": {"type": "Polygon", "coordinates": [[[-3.660837550551778, 50.78923361213065], [-3.659339989799639, 50.78911999479358], [-3.658999989799201, 50.789589994793964], [-3.6582917722752937, 50.78951273951153], [-3.65782588106405, 50.788694663241536], [-3.6593391476328163, 50.78835659643911], [-3.660557537075878, 50.78880724279028], [-3.660837550551778, 50.78923361213065]]]}}, {"type": "Feature", "properties": {"type": "postcode-cell", "postcode": "EX17 3JD", "postcodes": ["EX17 3JD"]}, "geometry": {"type": "Polygon", "coordinates": [[[-3.660557537075878, 50.78880724279028], [-3.6593391476328163, 50.78835659643911], [-3.65867495431482, 50.787682089031094], [-3.660807705194561, 50.787471556897586], [-3.660557537075878, 50.78880724279028]]]}}, {"type": "Feature", "properties": {"type": "postcode-cell", "postcode": "EX17 3HU", "postcodes": ["EX17 3HU"]}, "geometry": {"type": "Polygon", "coordinates": [[[-3.6593391476328163, 50.78835659643911], [-3.65782588106405, 50.788694663241536], [-3.657658638817278, 50.788602017249566], [-3.65817240966018, 50.787501640837064], [-3.658244029023935, 50.78746460476841], [-3.65867495431482, 50.787682089031094], [-3.6593391476328163, 50.78835659643911]]]}}, {"type": "Feature", "properties": {"type": "postcode-cell", "postcode": "EX17 3HW", "postcodes": ["EX17 3HW"]}, "geometry": {"type": "Polygon", "coordinates": [[[-3.65817240966018, 50.787501640837064], [-3.6568060073383957, 50.78767370038042], [-3.6566273636163396, 50.78760697039415], [-3.656482314694513, 50.78714825085841], [-3.65842757049326, 50.784493705471654], [-3.6588468638782916, 50.784418089206824], [-3.658244029023935, 50.78746460476841], [-3.65817240966018, 50.787501640837064]]]}}, {"type": "Feature", "properties": {"type": "postcode-cell", "postcode": "EX17 3AN", "postcodes": ["EX17 3AN"]}, "geometry": {"type": "MultiPolygon", "coordinates": [[[[-3.654323771727339, 50.79032984320832], [-3.654477772008388, 50.7902418114194], [-3.654459989795896, 50.79038999479467], [-3.6543473295102205, 50.79039274334601], [-3.654323771727339, 50.79032984320832]]], [[[-3.6554363128147624, 50.78969386502573], [-3.6561252684429273, 50.78983609508082], [-3.6561099897971205, 50.79004999479437], [-3.6552217143545613, 50.789816541246736], [-3.6554363128147624, 50.78969386502573]]]]}}, {"type": "Feature", "properties": {"type": "postcode-cell", "postcode": "EX17 1BQ", "postcodes": ["EX17 1BQ"]}, "geometry": {"type": "Polygon", "coordinates": [[[-3.6511995056612014, 50.79278761114476], [-3.651000047736895, 50.79223814104915], [-3.6511785061036734, 50.79210475073716], [-3.65164908588931, 50.792000221874595], [-3.652153600051262, 50.792059928161805], [-3.6521431522697574, 50.792942765611436], [-3.6511995056612014, 50.79278761114476]]]}}, {"type": "Feature", "properties": {"type": "postcode-cell", "postcode": "EX17 3HT", "postcodes": ["EX17 3HT"]}, "geometry": {"type": "Polygon", "coordinates": [[[-3.657658638817278, 50.788602017249566], [-3.6567415903618263, 50.78858050459501], [-3.6568060073383957, 50.78767370038042], [-3.65817240966018, 50.787501640837064], [-3.657658638817278, 50.788602017249566]]]}}, {"type": "Feature", "properties": {"type": "postcode-cell", "postcode": "EX17 3HZ", "postcodes": ["EX17 3HZ"]}, "geometry": {"type": "Polygon", "coordinates": [[[-3.6582917722752937, 50.78951273951153], [-3.656799989797892, 50.789349994793795], [-3.6564356370666937, 50.789428471313805], [-3.656409463917562, 50.789392155843146], [-3.6565564971908984, 50.78864786201256], [-3.6567415903618263, 50.78858050459501], [-3.657658638817278, 50.788602017249566], [-3.65782588106405, 50.788694663241536], [-3.6582917722752937, 50.78951273951153]]]}}, {"type": "Feature", "properties": {"type": "postcode-cell", "postcode": "EX17 3HS", "postcodes": ["EX17 3HS"]}, "geometry": {"type": "Polygon", "coordinates": [[[-3.6567415903618263, 50.78858050459501], [-3.6565564971908984, 50.78864786201256], [-3.6552162939970154, 50.788343629508866], [-3.655149223025354, 50.7882897595863], [-3.655431086398161, 50.78777830693636], [-3.6566273636163396, 50.78760697039415], [-3.6568060073383957, 50.78767370038042], [-3.6567415903618263, 50.78858050459501]]]}}, {"type": "Feature", "properties": {"type": "postcode-cell", "postcode": "EX17 3HY", "postcodes": ["EX17 3HY"]}, "geometry": {"type": "Polygon", "coordinates": [[[-3.656409463917562, 50.789392155843146], [-3.6555447054705597, 50.7893004836196], [-3.6552611007892626, 50.789023198189106], [-3.65515994742323, 50.78864442860669], [-3.6552162939970154, 50.788343629508866], [-3.6565564971908984, 50.78864786201256], [-3.656409463917562, 50.789392155843146]]]}}, {"type": "Feature", "properties": {"type": "postcode-cell", "postcode": "EX17 3EG", "postcodes": ["EX17 3EG"]}, "geometry": {"type": "Polygon", "coordinates": [[[-3.6552611007892626, 50.789023198189106], [-3.654866243712402, 50.78922061547391], [-3.6545056328302974, 50.7891176641307], [-3.65515994742323, 50.78864442860669], [-3.6552611007892626, 50.789023198189106]]]}}, {"type": "Feature", "properties": {"type": "postcode-cell", "postcode": "EX17 3EQ", "postcodes": ["EX17 3EQ"]}, "geometry": {"type": "Polygon", "coordinates": [[[-3.6552162939970154, 50.788343629508866], [-3.65515994742323, 50.78864442860669], [-3.6545056328302974, 50.7891176641307], [-3.6544956573222787, 50.789119780445354], [-3.6540391304901494, 50.78868989706158], [-3.6540429638523833, 50.78868663632216], [-3.655133537146405, 50.788289554414455], [-3.655149223025354, 50.7882897595863], [-3.6552162939970154, 50.788343629508866]]]}}, {"type": "Feature", "properties": {"type": "postcode-cell", "postcode": "EX17 3HH", "postcodes": ["EX17 3HH"]}, "geometry": {"type": "Polygon", "coordinates": [[[-3.6566273636163396, 50.78760697039415], [-3.655431086398161, 50.78777830693636], [-3.655152940538541, 50.78727791703782], [-3.6552700481826625, 50.78706588349391], [-3.656482314694513, 50.78714825085841], [-3.6566273636163396, 50.78760697039415]]]}}, {"type": "Feature", "properties": {"type": "postcode-cell", "postcode": "EX17 3HQ", "postcodes": ["EX17 3HQ"]}, "geometry": {"type": "Polygon", "coordinates": [[[-3.656482314694513, 50.78714825085841], [-3.6552700481826625, 50.78706588349391], [-3.655176878536133, 50.78616897738424], [-3.6580492142826344, 50.784532085836176], [-3.65842757049326, 50.784493705471654], [-3.656482314694513, 50.78714825085841]]]}}, {"type": "Feature", "properties": {"type": "postcode-cell", "postcode": "EX17 3EA", "postcodes": ["EX17 3EA"]}, "geometry": {"type": "Polygon", "coordinates": [[[-3.6553287307817457, 50.78949413162245], [-3.655371569330656, 50.78940058593502], [-3.6555447054705597, 50.7893004836196], [-3.656409463917562, 50.789392155843146], [-3.6564356370666937, 50.789428471313805], [-3.656149989797407, 50.789489994793904], [-3.6561252684429273, 50.78983609508082], [-3.6554363128147624, 50.78969386502573], [-3.6553287307817457, 50.78949413162245]]]}}, {"type": "Feature", "properties": {"type": "postcode-cell", "postcode": "EX17 3EB", "postcodes": ["EX17 3EB"]}, "geometry": {"type": "MultiPolygon", "coordinates": [[[[-3.6554363128147624, 50.78969386502573], [-3.6552217143545613, 50.789816541246736], [-3.654932315565302, 50.789740480459514], [-3.6553287307817457, 50.78949413162245], [-3.6554363128147624, 50.78969386502573]]], [[[-3.654323771727339, 50.79032984320832], [-3.654239144542336, 50.79017123625391], [-3.654506152089813, 50.79000531173692], [-3.654477772008388, 50.7902418114194], [-3.654323771727339, 50.79032984320832]]]]}}, {"type": "Feature", "properties": {"type": "postcode-cell", "postcode": "EX17 3EF", "postcodes": ["EX17 3EF"]}, "geometry": {"type": "Polygon", "coordinates": [[[-3.655371569330656, 50.78940058593502], [-3.654883574826946, 50.789396695893466], [-3.654866243712402, 50.78922061547391], [-3.6552611007892626, 50.789023198189106], [-3.6555447054705597, 50.7893004836196], [-3.655371569330656, 50.78940058593502]]]}}, {"type": "Feature", "properties": {"type": "postcode-cell", "postcode": "EX17 1EB", "postcodes": ["EX17 1EB"]}, "geometry": {"type": "Polygon", "coordinates": [[[-3.650585337881623, 50.79359922366848], [-3.650444659402851, 50.79334405726048], [-3.6506215263835067, 50.79304604127255], [-3.6511995056612014, 50.79278761114476], [-3.6521431522697574, 50.792942765611436], [-3.6521399897930786, 50.79320999479693], [-3.6517364938529258, 50.79392816308223], [-3.650585337881623, 50.79359922366848]]]}}, {"type": "Feature", "properties": {"type": "postcode-cell", "postcode": "EX17 3ED", "postcodes": ["EX17 3ED"]}, "geometry": {"type": "Polygon", "coordinates": [[[-3.6542762496911982, 50.78975452229273], [-3.654883574826946, 50.789396695893466], [-3.655371569330656, 50.78940058593502], [-3.6553287307817457, 50.78949413162245], [-3.654932315565302, 50.789740480459514], [-3.654549989796307, 50.78963999479406], [-3.654506152089813, 50.79000531173692], [-3.654239144542336, 50.79017123625391], [-3.6542236595677204, 50.79015111873961], [-3.6542762496911982, 50.78975452229273]]]}}, {"type": "Feature", "properties": {"type": "postcode-cell", "postcode": "EX17 3AR", "postcodes": ["EX17 3AR"]}, "geometry": {"type": "Polygon", "coordinates": [[[-3.6542236595677204, 50.79015111873961], [-3.6524272986486945, 50.78951648523257], [-3.652386192318687, 50.78947828103727], [-3.65240618008064, 50.78939316678054], [-3.6530116578012435, 50.78920861215512], [-3.6535459045913177, 50.78919495708948], [-3.654157492890886, 50.789422002633074], [-3.6542762496911982, 50.78975452229273], [-3.6542236595677204, 50.79015111873961]]]}}, {"type": "Feature", "properties": {"type": "postcode-cell", "postcode": "EX17 3DN", "postcodes": ["EX17 3DN"]}, "geometry": {"type": "Polygon", "coordinates": [[[-3.655149223025354, 50.7882897595863], [-3.655133537146405, 50.788289554414455], [-3.6541279842290963, 50.787946144060236], [-3.654003468121212, 50.7873963582708], [-3.654076813015085, 50.78733895882049], [-3.655152940538541, 50.78727791703782], [-3.655431086398161, 50.78777830693636], [-3.655149223025354, 50.7882897595863]]]}}, {"type": "Feature", "properties": {"type": "postcode-cell", "postcode": "EX17 3DD", "postcodes": ["EX17 3DD"]}, "geometry": {"type": "Polygon", "coordinates": [[[-3.651559453582135, 50.782610759171426], [-3.6477537997033505, 50.7830630974149], [-3.647330862763948, 50.78294132111614], [-3.6473224848719057, 50.78255914714443], [-3.651576714470353, 50.78187624157466], [-3.651559453582135, 50.782610759171426]]]}}, {"type": "Feature", "properties": {"type": "postcode-cell", "postcode": "EX17 3DQ", "postcodes": ["EX17 3DQ"]}, "geometry": {"type": "Polygon", "coordinates": [[[-3.652239553881481, 50.779987381424654], [-3.645880763034338, 50.78099946596139], [-3.648433951020947, 50.77925633853261], [-3.648809989797373, 50.77946999478606], [-3.651879989799392, 50.77937999478596], [-3.6523103160573385, 50.779877824349384], [-3.652239553881481, 50.779987381424654]]]}}, {"type": "Feature", "properties": {"type": "postcode-cell", "postcode": "EX17 3EE", "postcodes": ["EX17 3EE"]}, "geometry": {"type": "Polygon", "coordinates": [[[-3.654157492890886, 50.789422002633074], [-3.6541840827077827, 50.789378884200595], [-3.6544956573222787, 50.789119780445354], [-3.6545056328302974, 50.7891176641307], [-3.654866243712402, 50.78922061547391], [-3.654883574826946, 50.789396695893466], [-3.6542762496911982, 50.78975452229273], [-3.654157492890886, 50.789422002633074]]]}}, {"type": "Feature", "properties": {"type": "postcode-cell", "postcode": "EX17 3AL", "postcodes": ["EX17 3AL"]}, "geometry": {"type": "Polygon", "coordinates": [[[-3.654157492890886, 50.789422002633074], [-3.6535459045913177, 50.78919495708948], [-3.6539385773777457, 50.788811173184726], [-3.6541840827077827, 50.789378884200595], [-3.654157492890886, 50.789422002633074]]]}}, {"type": "Feature", "properties": {"type": "postcode-cell", "postcode": "EX17 3HG", "postcodes": ["EX17 3HG"]}, "geometry": {"type": "Polygon", "coordinates": [[[-3.655152940538541, 50.78727791703782], [-3.654076813015085, 50.78733895882049], [-3.6538552821750194, 50.78673375303417], [-3.6545172164784523, 50.78623442346904], [-3.6545560692961825, 50.786226498669556], [-3.655176878536133, 50.78616897738424], [-3.6552700481826625, 50.78706588349391], [-3.655152940538541, 50.78727791703782]]]}}, {"type": "Feature", "properties": {"type": "postcode-cell", "postcode": "EX17 3EH", "postcodes": ["EX17 3EH"]}, "geometry": {"type": "Polygon", "coordinates": [[[-3.6544956573222787, 50.789119780445354], [-3.6541840827077827, 50.789378884200595], [-3.6539385773777457, 50.788811173184726], [-3.65397425111705, 50.788718219200305], [-3.6540391304901494, 50.78868989706158], [-3.6544956573222787, 50.789119780445354]]]}}, {"type": "Feature", "properties": {"type": "postcode-cell", "postcode": "EX17 3HR", "postcodes": ["EX17 3HR"]}, "geometry": {"type": "Polygon", "coordinates": [[[-3.655133537146405, 50.788289554414455], [-3.6540429638523833, 50.78868663632216], [-3.653570472535492, 50.78819048498753], [-3.6537995654155035, 50.7880273889484], [-3.6541279842290963, 50.787946144060236], [-3.655133537146405, 50.788289554414455]]]}}, {"type": "Feature", "properties": {"type": "postcode-cell", "postcode": "EX17 3HE", "postcodes": ["EX17 3HE"]}, "geometry": {"type": "Polygon", "coordinates": [[[-3.655176878536133, 50.78616897738424], [-3.6545560692961825, 50.786226498669556], [-3.6534166786735103, 50.78505209230966], [-3.653495360441607, 50.783961934413895], [-3.6580492142826344, 50.784532085836176], [-3.655176878536133, 50.78616897738424]]]}}, {"type": "Feature", "properties": {"type": "postcode-cell", "postcode": "EX17 3HL", "postcodes": ["EX17 3HL"]}, "geometry": {"type": "Polygon", "coordinates": [[[-3.6541279842290963, 50.787946144060236], [-3.6537995654155035, 50.7880273889484], [-3.652982821457719, 50.78759477639623], [-3.653211521226465, 50.78745085355868], [-3.654003468121212, 50.7873963582708], [-3.6541279842290963, 50.787946144060236]]]}}, {"type": "Feature", "properties": {"type": "postcode-cell", "postcode": "EX17 3HD", "postcodes": ["EX17 3HD"]}, "geometry": {"type": "Polygon", "coordinates": [[[-3.6534166786735103, 50.78505209230966], [-3.6532466633863385, 50.78549126107155], [-3.6527534928132677, 50.7858887140792], [-3.6522198314750827, 50.78582400947935], [-3.651285988666108, 50.78380038161637], [-3.6517782741504576, 50.783389490487934], [-3.653495360441607, 50.783961934413895], [-3.6534166786735103, 50.78505209230966]]]}}, {"type": "Feature", "properties": {"type": "postcode-cell", "postcode": "EX17 2AQ", "postcodes": ["EX17 2AQ"]}, "geometry": {"type": "Polygon", "coordinates": [[[-3.654239144542336, 50.79017123625391], [-3.654323771727339, 50.79032984320832], [-3.6543473295102205, 50.79039274334601], [-3.6528199897948204, 50.79042999479473], [-3.6529533585118905, 50.791042284004696], [-3.6524142733257237, 50.790871929315834], [-3.6524272986486945, 50.78951648523257], [-3.6542236595677204, 50.79015111873961], [-3.654239144542336, 50.79017123625391]]]}}, {"type": "Feature", "properties": {"type": "postcode-cell", "postcode": "EX17 3HP", "postcodes": ["EX17 3HP"]}, "geometry": {"type": "Polygon", "coordinates": [[[-3.65397425111705, 50.788718219200305], [-3.653444121018294, 50.7887063859031], [-3.6530898064931936, 50.788472228143505], [-3.65334529199937, 50.788235900536165], [-3.653570472535492, 50.78819048498753], [-3.6540429638523833, 50.78868663632216], [-3.6540391304901494, 50.78868989706158], [-3.65397425111705, 50.788718219200305]]]}}, {"type": "Feature", "properties": {"type": "postcode-cell", "postcode": "EX17 3HJ", "postcodes": ["EX17 3HJ"]}, "geometry": {"type": "Polygon", "coordinates": [[[-3.654003468121212, 50.7873963582708], [-3.653211521226465, 50.78745085355868], [-3.6530475284072925, 50.78686017942562], [-3.653318206711183, 50.78677180386806], [-3.6538552821750194, 50.78673375303417], [-3.654076813015085, 50.78733895882049], [-3.654003468121212, 50.7873963582708]]]}}, {"type": "Feature", "properties": {"type": "postcode-cell", "postcode": "EX17 3HF", "postcodes": ["EX17 3HF"]}, "geometry": {"type": "Polygon", "coordinates": [[[-3.6545172164784523, 50.78623442346904], [-3.6540815715686765, 50.78614153909786], [-3.6532466633863385, 50.78549126107155], [-3.6534166786735103, 50.78505209230966], [-3.6545560692961825, 50.786226498669556], [-3.6545172164784523, 50.78623442346904]]]}}, {"type": "Feature", "properties": {"type": "postcode-cell", "postcode": "EX17 3EL", "postcodes": ["EX17 3EL"]}, "geometry": {"type": "Polygon", "coordinates": [[[-3.6535459045913177, 50.78919495708948], [-3.6530116578012435, 50.78920861215512], [-3.653444121018294, 50.7887063859031], [-3.65397425111705, 50.788718219200305], [-3.6539385773777457, 50.788811173184726], [-3.6535459045913177, 50.78919495708948]]]}}, {"type": "Feature", "properties": {"type": "postcode-cell", "postcode": "EX17 3HN", "postcodes": ["EX17 3HN"]}, "geometry": {"type": "Polygon", "coordinates": [[[-3.6537995654155035, 50.7880273889484], [-3.653570472535492, 50.78819048498753], [-3.65334529199937, 50.788235900536165], [-3.6527799237677843, 50.78783784648357], [-3.652808774890379, 50.78764568138341], [-3.652982821457719, 50.78759477639623], [-3.6537995654155035, 50.7880273889484]]]}}, {"type": "Feature", "properties": {"type": "postcode-cell", "postcode": "EX17 3HA", "postcodes": ["EX17 3HA"]}, "geometry": {"type": "Polygon", "coordinates": [[[-3.653318206711183, 50.78677180386806], [-3.653036708256734, 50.786124233661], [-3.6540815715686765, 50.78614153909786], [-3.6545172164784523, 50.78623442346904], [-3.6538552821750194, 50.78673375303417], [-3.653318206711183, 50.78677180386806]]]}}, {"type": "Feature", "properties": {"type": "postcode-cell", "postcode": "EX17 3EJ", "postcodes": ["EX17 3EJ"]}, "geometry": {"type": "Polygon", "coordinates": [[[-3.653444121018294, 50.7887063859031], [-3.6530116578012435, 50.78920861215512], [-3.65240618008064, 50.78939316678054], [-3.6523752861003675, 50.78934287695307], [-3.652684587741146, 50.78869596891641], [-3.652883239948754, 50.78849508152673], [-3.6530898064931936, 50.788472228143505], [-3.653444121018294, 50.7887063859031]]]}}, {"type": "Feature", "properties": {"type": "postcode-cell", "postcode": "EX17 3HB", "postcodes": ["EX17 3HB"]}, "geometry": {"type": "Polygon", "coordinates": [[[-3.6532466633863385, 50.78549126107155], [-3.6540815715686765, 50.78614153909786], [-3.653036708256734, 50.786124233661], [-3.652974803592418, 50.786107649110846], [-3.6527534928132677, 50.7858887140792], [-3.6532466633863385, 50.78549126107155]]]}}, {"type": "Feature", "properties": {"type": "postcode-cell", "postcode": "EX17 3EZ", "postcodes": ["EX17 3EZ"]}, "geometry": {"type": "Polygon", "coordinates": [[[-3.653318206711183, 50.78677180386806], [-3.6530475284072925, 50.78686017942562], [-3.6522697746010864, 50.78676711021425], [-3.652974803592418, 50.786107649110846], [-3.653036708256734, 50.786124233661], [-3.653318206711183, 50.78677180386806]]]}}, {"type": "Feature", "properties": {"type": "postcode-cell", "postcode": "EX17 3ET", "postcodes": ["EX17 3ET"]}, "geometry": {"type": "Polygon", "coordinates": [[[-3.652982821457719, 50.78759477639623], [-3.652808774890379, 50.78764568138341], [-3.651959714209978, 50.787377576475585], [-3.651947613866728, 50.78733213988171], [-3.65221882439254, 50.78677421285001], [-3.6522697746010864, 50.78676711021425], [-3.6530475284072925, 50.78686017942562], [-3.653211521226465, 50.78745085355868], [-3.652982821457719, 50.78759477639623]]]}}, {"type": "Feature", "properties": {"type": "postcode-cell", "postcode": "EX17 3EP", "postcodes": ["EX17 3EP"]}, "geometry": {"type": "Polygon", "coordinates": [[[-3.652684587741146, 50.78869596891641], [-3.6521245557733013, 50.78848810482222], [-3.6526695469868646, 50.78835844211914], [-3.652883239948754, 50.78849508152673], [-3.652684587741146, 50.78869596891641]]]}}, {"type": "Feature", "properties": {"type": "postcode-cell", "postcode": "EX17 3JB", "postcodes": ["EX17 3JB"]}, "geometry": {"type": "Polygon", "coordinates": [[[-3.6530898064931936, 50.788472228143505], [-3.652883239948754, 50.78849508152673], [-3.6526695469868646, 50.78835844211914], [-3.652492627138852, 50.78810734196661], [-3.6527799237677843, 50.78783784648357], [-3.65334529199937, 50.788235900536165], [-3.6530898064931936, 50.788472228143505]]]}}, {"type": "Feature", "properties": {"type": "postcode-cell", "postcode": "EX17 3EY", "postcodes": ["EX17 3EY"]}, "geometry": {"type": "Polygon", "coordinates": [[[-3.6522697746010864, 50.78676711021425], [-3.65221882439254, 50.78677421285001], [-3.6517281938487076, 50.78647661633643], [-3.6517859792497127, 50.78609762390374], [-3.6522198314750827, 50.78582400947935], [-3.6527534928132677, 50.7858887140792], [-3.652974803592418, 50.786107649110846], [-3.6522697746010864, 50.78676711021425]]]}}, {"type": "Feature", "properties": {"type": "postcode-cell", "postcode": "EX17 3ER", "postcodes": ["EX17 3ER"]}, "geometry": {"type": "Polygon", "coordinates": [[[-3.6526695469868646, 50.78835844211914], [-3.6521245557733013, 50.78848810482222], [-3.6516668746021432, 50.78847516194921], [-3.6512315141540643, 50.78820174096908], [-3.652492627138852, 50.78810734196661], [-3.6526695469868646, 50.78835844211914]]]}}, {"type": "Feature", "properties": {"type": "postcode-cell", "postcode": "EX17 1DR", "postcodes": ["EX17 1DR"]}, "geometry": {"type": "Polygon", "coordinates": [[[-3.65164908588931, 50.792000221874595], [-3.6512687930018575, 50.79101201175947], [-3.651396152102041, 50.79085687781522], [-3.6524142733257237, 50.790871929315834], [-3.6529533585118905, 50.791042284004696], [-3.6530399897944887, 50.791439994795525], [-3.6521599897938843, 50.791519994795586], [-3.652153600051262, 50.792059928161805], [-3.65164908588931, 50.792000221874595]]]}}, {"type": "Feature", "properties": {"type": "postcode-cell", "postcode": "EX17 3AY", "postcodes": ["EX17 3AY"]}, "geometry": {"type": "Polygon", "coordinates": [[[-3.6523752861003675, 50.78934287695307], [-3.65240618008064, 50.78939316678054], [-3.652386192318687, 50.78947828103727], [-3.6515448635326977, 50.78970889674549], [-3.6510450338603997, 50.78923463004104], [-3.6510634594392495, 50.78897180764658], [-3.6523252212099555, 50.789308320614346], [-3.6523752861003675, 50.78934287695307]]]}}, {"type": "Feature", "properties": {"type": "postcode-cell", "postcode": "EX17 3EW", "postcodes": ["EX17 3EW"]}, "geometry": {"type": "Polygon", "coordinates": [[[-3.6523252212099555, 50.789308320614346], [-3.6516668746021432, 50.78847516194921], [-3.6521245557733013, 50.78848810482222], [-3.652684587741146, 50.78869596891641], [-3.6523752861003675, 50.78934287695307], [-3.6523252212099555, 50.789308320614346]]]}}, {"type": "Feature", "properties": {"type": "postcode-cell", "postcode": "EX17 3EN", "postcodes": ["EX17 3EN"]}, "geometry": {"type": "Polygon", "coordinates": [[[-3.6527799237677843, 50.78783784648357], [-3.652492627138852, 50.78810734196661], [-3.6512315141540643, 50.78820174096908], [-3.65106701762985, 50.788152916941954], [-3.651959714209978, 50.787377576475585], [-3.652808774890379, 50.78764568138341], [-3.6527799237677843, 50.78783784648357]]]}}, {"type": "Feature", "properties": {"type": "postcode-cell", "postcode": "EX17 3BY", "postcodes": ["EX17 3BY"]}, "geometry": {"type": "Polygon", "coordinates": [[[-3.651285988666108, 50.78380038161637], [-3.6504857084951743, 50.78425292510211], [-3.6497860024331, 50.78444426987162], [-3.648980100087702, 50.784174316438715], [-3.647949592933097, 50.78361876878326], [-3.6477537997033505, 50.7830630974149], [-3.651559453582135, 50.782610759171426], [-3.6517782741504576, 50.783389490487934], [-3.651285988666108, 50.78380038161637]]]}}, {"type": "Feature", "properties": {"type": "postcode-cell", "postcode": "EX17 3AX", "postcodes": ["EX17 3AX"]}, "geometry": {"type": "Polygon", "coordinates": [[[-3.6512315141540643, 50.78820174096908], [-3.6516668746021432, 50.78847516194921], [-3.6523252212099555, 50.789308320614346], [-3.6510634594392495, 50.78897180764658], [-3.651010633521549, 50.78893005723014], [-3.65103696881726, 50.78815595749054], [-3.65106701762985, 50.788152916941954], [-3.6512315141540643, 50.78820174096908]]]}}, {"type": "Feature", "properties": {"type": "postcode-cell", "postcode": "EX17 2AH", "postcodes": ["EX17 2AH"]}, "geometry": {"type": "Polygon", "coordinates": [[[-3.6524272986486945, 50.78951648523257], [-3.6524142733257237, 50.790871929315834], [-3.651396152102041, 50.79085687781522], [-3.6505399649860215, 50.7901806043392], [-3.6515448635326977, 50.78970889674549], [-3.652386192318687, 50.78947828103727], [-3.6524272986486945, 50.78951648523257]]]}}, {"type": "Feature", "properties": {"type": "postcode-cell", "postcode": "EX17 3EU", "postcodes": ["EX17 3EU"]}, "geometry": {"type": "Polygon", "coordinates": [[[-3.65221882439254, 50.78677421285001], [-3.651947613866728, 50.78733213988171], [-3.6506887852615537, 50.787011583799064], [-3.6508763795957844, 50.78660197828783], [-3.6517281938487076, 50.78647661633643], [-3.65221882439254, 50.78677421285001]]]}}, {"type": "Feature", "properties": {"type": "postcode-cell", "postcode": "EX17 1DL", "postcodes": ["EX17 1DL"]}, "geometry": {"type": "Polygon", "coordinates": [[[-3.650423837559989, 50.794640231109675], [-3.6515060860497934, 50.79433824755004], [-3.651071645635488, 50.79511145300242], [-3.650423837559989, 50.794640231109675]]]}}, {"type": "Feature", "properties": {"type": "postcode-cell", "postcode": "EX17 1EJ", "postcodes": ["EX17 1EJ"]}, "geometry": {"type": "Polygon", "coordinates": [[[-3.6512687930018575, 50.79101201175947], [-3.650506078271687, 50.79144834708164], [-3.6503279800768023, 50.791474917074865], [-3.64964714567377, 50.79098370201484], [-3.6494168799451936, 50.790317713556426], [-3.6495144982204812, 50.79022652261843], [-3.6498624700801456, 50.79006256369229], [-3.6505399649860215, 50.7901806043392], [-3.651396152102041, 50.79085687781522], [-3.6512687930018575, 50.79101201175947]]]}}, {"type": "Feature", "properties": {"type": "postcode-cell", "postcode": "EX17 3DW", "postcodes": ["EX17 3DW"]}, "geometry": {"type": "Polygon", "coordinates": [[[-3.6504857084951743, 50.78425292510211], [-3.651285988666108, 50.78380038161637], [-3.6522198314750827, 50.78582400947935], [-3.6517859792497127, 50.78609762390374], [-3.6507670699399757, 50.78570803432691], [-3.6504857084951743, 50.78425292510211]]]}}, {"type": "Feature", "properties": {"type": "postcode-cell", "postcode": "EX17 3DS", "postcodes": ["EX17 3DS"]}, "geometry": {"type": "Polygon", "coordinates": [[[-3.6507670699399757, 50.78570803432691], [-3.6503533887739628, 50.78623650991265], [-3.6496558099861143, 50.78629063445106], [-3.64916994554803, 50.786014188173546], [-3.6493496515110357, 50.78482525569935], [-3.649715802168663, 50.784487583305975], [-3.6497860024331, 50.78444426987162], [-3.6504857084951743, 50.78425292510211], [-3.6507670699399757, 50.78570803432691]]]}}, {"type": "Feature", "properties": {"type": "postcode-cell", "postcode": "EX17 3ES", "postcodes": ["EX17 3ES"]}, "geometry": {"type": "Polygon", "coordinates": [[[-3.651959714209978, 50.787377576475585], [-3.65106701762985, 50.788152916941954], [-3.65103696881726, 50.78815595749054], [-3.6507916847838326, 50.788118171956484], [-3.650298739461799, 50.78759669620792], [-3.650312001768104, 50.787225040574796], [-3.6506887852615537, 50.787011583799064], [-3.651947613866728, 50.78733213988171], [-3.651959714209978, 50.787377576475585]]]}}, {"type": "Feature", "properties": {"type": "postcode-cell", "postcode": "EX17 1HT", "postcodes": ["EX17 1HT"]}, "geometry": {"type": "Polygon", "coordinates": [[[-3.6511785061036734, 50.79210475073716], [-3.650506078271687, 50.79144834708164], [-3.6512687930018575, 50.79101201175947], [-3.65164908588931, 50.792000221874595], [-3.6511785061036734, 50.79210475073716]]]}}, {"type": "Feature", "properties": {"type": "postcode-cell", "postcode": "EX17 3EX", "postcodes": ["EX17 3EX"]}, "geometry": {"type": "Polygon", "coordinates": [[[-3.6517281938487076, 50.78647661633643], [-3.6508763795957844, 50.78660197828783], [-3.6503533887739628, 50.78623650991265], [-3.6507670699399757, 50.78570803432691], [-3.6517859792497127, 50.78609762390374], [-3.6517281938487076, 50.78647661633643]]]}}, {"type": "Feature", "properties": {"type": "postcode-cell", "postcode": "EX17 3DR", "postcodes": ["EX17 3DR"]}, "geometry": {"type": "Polygon", "coordinates": [[[-3.6505399649860215, 50.7901806043392], [-3.6498624700801456, 50.79006256369229], [-3.6498391466981466, 50.789951885476796], [-3.6500966799248062, 50.78955395536744], [-3.6510450338603997, 50.78923463004104], [-3.6515448635326977, 50.78970889674549], [-3.6505399649860215, 50.7901806043392]]]}}, {"type": "Feature", "properties": {"type": "postcode-cell", "postcode": "EX17 3BE", "postcodes": ["EX17 3BE"]}, "geometry": {"type": "Polygon", "coordinates": [[[-3.651010633521549, 50.78893005723014], [-3.650241125012204, 50.78919456742682], [-3.6500336490631446, 50.78877215140705], [-3.650459412684461, 50.78825212067705], [-3.6507916847838326, 50.788118171956484], [-3.65103696881726, 50.78815595749054], [-3.651010633521549, 50.78893005723014]]]}}, {"type": "Feature", "properties": {"type": "postcode-cell", "postcode": "EX17 3AZ", "postcodes": ["EX17 3AZ"]}, "geometry": {"type": "Polygon", "coordinates": [[[-3.6510450338603997, 50.78923463004104], [-3.6500966799248062, 50.78955395536744], [-3.650241125012204, 50.78919456742682], [-3.651010633521549, 50.78893005723014], [-3.6510634594392495, 50.78897180764658], [-3.6510450338603997, 50.78923463004104]]]}}, {"type": "Feature", "properties": {"type": "postcode-cell", "postcode": "EX17 3DL", "postcodes": ["EX17 3DL"]}, "geometry": {"type": "Polygon", "coordinates": [[[-3.6506887852615537, 50.787011583799064], [-3.650312001768104, 50.787225040574796], [-3.6500391457576247, 50.78711370585149], [-3.649639600517396, 50.78634278736742], [-3.6496558099861143, 50.78629063445106], [-3.6503533887739628, 50.78623650991265], [-3.6508763795957844, 50.78660197828783], [-3.6506887852615537, 50.787011583799064]]]}}, {"type": "Feature", "properties": {"type": "postcode-cell", "postcode": "EX17 1ED", "postcodes": ["EX17 1ED"]}, "geometry": {"type": "Polygon", "coordinates": [[[-3.6506215263835067, 50.79304604127255], [-3.649816215686057, 50.79228418742146], [-3.651000047736895, 50.79223814104915], [-3.6511995056612014, 50.79278761114476], [-3.6506215263835067, 50.79304604127255]]]}}, {"type": "Feature", "properties": {"type": "postcode-cell", "postcode": "EX17 1JD", "postcodes": ["EX17 1JD"]}, "geometry": {"type": "Polygon", "coordinates": [[[-3.6517364938529258, 50.79392816308223], [-3.6515060860497934, 50.79433824755004], [-3.650423837559989, 50.794640231109675], [-3.6497584483450476, 50.794680650770715], [-3.649444562534639, 50.79426275485839], [-3.650585337881623, 50.79359922366848], [-3.6517364938529258, 50.79392816308223]]]}}, {"type": "Feature", "properties": {"type": "postcode-cell", "postcode": "EX17 1EE", "postcodes": ["EX17 1EE"]}, "geometry": {"type": "Polygon", "coordinates": [[[-3.651000047736895, 50.79223814104915], [-3.649816215686057, 50.79228418742146], [-3.649768741953858, 50.79227259838522], [-3.6496285487502007, 50.79194596338241], [-3.6503279800768023, 50.791474917074865], [-3.650506078271687, 50.79144834708164], [-3.6511785061036734, 50.79210475073716], [-3.651000047736895, 50.79223814104915]]]}}, {"type": "Feature", "properties": {"type": "postcode-cell", "postcode": "EX17 3BA", "postcodes": ["EX17 3BA"]}, "geometry": {"type": "Polygon", "coordinates": [[[-3.6500966799248062, 50.78955395536744], [-3.6498391466981466, 50.789951885476796], [-3.649048540284066, 50.78924044628671], [-3.64964260376846, 50.78880148655349], [-3.6500336490631446, 50.78877215140705], [-3.650241125012204, 50.78919456742682], [-3.6500966799248062, 50.78955395536744]]]}}, {"type": "Feature", "properties": {"type": "postcode-cell", "postcode": "EX17 1HR", "postcodes": ["EX17 1HR"]}, "geometry": {"type": "Polygon", "coordinates": [[[-3.650444659402851, 50.79334405726048], [-3.6488359014505254, 50.79302900035135], [-3.6488573866317755, 50.79291648231824], [-3.649768741953858, 50.79227259838522], [-3.649816215686057, 50.79228418742146], [-3.6506215263835067, 50.79304604127255], [-3.650444659402851, 50.79334405726048]]]}}, {"type": "Feature", "properties": {"type": "postcode-cell", "postcode": "EX17 1AA", "postcodes": ["EX17 1AA"]}, "geometry": {"type": "Polygon", "coordinates": [[[-3.6497584483450476, 50.794680650770715], [-3.650423837559989, 50.794640231109675], [-3.651071645635488, 50.79511145300242], [-3.6510499897914674, 50.79514999479849], [-3.649587812812624, 50.79518496152084], [-3.6497584483450476, 50.794680650770715]]]}}, {"type": "Feature", "properties": {"type": "postcode-cell", "postcode": "EX17 1HW", "postcodes": ["EX17 1HW"]}, "geometry": {"type": "Polygon", "coordinates": [[[-3.649587812812624, 50.79518496152084], [-3.6462343818180494, 50.79526508658613], [-3.6462332266200117, 50.79525936727915], [-3.6493252713628594, 50.79422430825975], [-3.649444562534639, 50.79426275485839], [-3.6497584483450476, 50.794680650770715], [-3.649587812812624, 50.79518496152084]]]}}, {"type": "Feature", "properties": {"type": "postcode-cell", "postcode": "EX17 1EF", "postcodes": ["EX17 1EF"]}, "geometry": {"type": "Polygon", "coordinates": [[[-3.649444562534639, 50.79426275485839], [-3.6493252713628594, 50.79422430825975], [-3.648620956498695, 50.79365762959015], [-3.6485356261070403, 50.79329222002125], [-3.6488359014505254, 50.79302900035135], [-3.650444659402851, 50.79334405726048], [-3.650585337881623, 50.79359922366848], [-3.649444562534639, 50.79426275485839]]]}}, {"type": "Feature", "properties": {"type": "postcode-cell", "postcode": "EX17 3BQ", "postcodes": ["EX17 3BQ"]}, "geometry": {"type": "Polygon", "coordinates": [[[-3.6507916847838326, 50.788118171956484], [-3.650459412684461, 50.78825212067705], [-3.6493323428041107, 50.7882579575511], [-3.6493162065776867, 50.78783938764203], [-3.649418387901665, 50.78766003891546], [-3.650298739461799, 50.78759669620792], [-3.6507916847838326, 50.788118171956484]]]}}, {"type": "Feature", "properties": {"type": "postcode-cell", "postcode": "EX17 1EY", "postcodes": ["EX17 1EY"]}, "geometry": {"type": "Polygon", "coordinates": [[[-3.6498624700801456, 50.79006256369229], [-3.6495144982204812, 50.79022652261843], [-3.648787685846436, 50.789989531822094], [-3.6481657992267094, 50.78975126234067], [-3.648103329215522, 50.789487372271225], [-3.648509946129518, 50.78914032619383], [-3.64866238106788, 50.78908791985825], [-3.649048540284066, 50.78924044628671], [-3.6498391466981466, 50.789951885476796], [-3.6498624700801456, 50.79006256369229]]]}}, {"type": "Feature", "properties": {"type": "postcode-cell", "postcode": "EX17 3BW", "postcodes": ["EX17 3BW"]}, "geometry": {"type": "Polygon", "coordinates": [[[-3.64916994554803, 50.786014188173546], [-3.6477828314857788, 50.78635475535127], [-3.6465194694549483, 50.786366762279606], [-3.6480107042713645, 50.78526936084646], [-3.6493496515110357, 50.78482525569935], [-3.64916994554803, 50.786014188173546]]]}}, {"type": "Feature", "properties": {"type": "postcode-cell", "postcode": "EX17 1EQ", "postcodes": ["EX17 1EQ"]}, "geometry": {"type": "Polygon", "coordinates": [[[-3.6489882048781874, 50.791695005816266], [-3.64964714567377, 50.79098370201484], [-3.6503279800768023, 50.791474917074865], [-3.6496285487502007, 50.79194596338241], [-3.6489882048781874, 50.791695005816266]]]}}, {"type": "Feature", "properties": {"type": "postcode-cell", "postcode": "EX17 1EW", "postcodes": ["EX17 1EW"]}, "geometry": {"type": "Polygon", "coordinates": [[[-3.6496285487502007, 50.79194596338241], [-3.649768741953858, 50.79227259838522], [-3.6488573866317755, 50.79291648231824], [-3.6480098843707665, 50.79223280322081], [-3.6487572632081267, 50.79166401849446], [-3.6489882048781874, 50.791695005816266], [-3.6496285487502007, 50.79194596338241]]]}}, {"type": "Feature", "properties": {"type": "postcode-cell", "postcode": "EX17 3BB", "postcodes": ["EX17 3BB"]}, "geometry": {"type": "Polygon", "coordinates": [[[-3.64964260376846, 50.78880148655349], [-3.6494452508966373, 50.788681849840025], [-3.649245050451752, 50.788327396744464], [-3.6492758570720176, 50.78828532803576], [-3.649298805505419, 50.78827092697794], [-3.6493323428041107, 50.7882579575511], [-3.650459412684461, 50.78825212067705], [-3.6500336490631446, 50.78877215140705], [-3.64964260376846, 50.78880148655349]]]}}, {"type": "Feature", "properties": {"type": "postcode-cell", "postcode": "EX17 3BS", "postcodes": ["EX17 3BS"]}, "geometry": {"type": "Polygon", "coordinates": [[[-3.650312001768104, 50.787225040574796], [-3.650298739461799, 50.78759669620792], [-3.649418387901665, 50.78766003891546], [-3.649018707699665, 50.787472548760114], [-3.64891011517656, 50.787269599856], [-3.6494774094243896, 50.7870907883226], [-3.6500391457576247, 50.78711370585149], [-3.650312001768104, 50.787225040574796]]]}}, {"type": "Feature", "properties": {"type": "postcode-cell", "postcode": "EX17 3DJ", "postcodes": ["EX17 3DJ"]}, "geometry": {"type": "Polygon", "coordinates": [[[-3.6500391457576247, 50.78711370585149], [-3.6494774094243896, 50.7870907883226], [-3.649257168835682, 50.78668429761607], [-3.649639600517396, 50.78634278736742], [-3.6500391457576247, 50.78711370585149]]]}}, {"type": "Feature", "properties": {"type": "postcode-cell", "postcode": "EX17 3BH", "postcodes": ["EX17 3BH"]}, "geometry": {"type": "Polygon", "coordinates": [[[-3.649257168835682, 50.78668429761607], [-3.64877646063414, 50.7868033746485], [-3.6477828314857788, 50.78635475535127], [-3.64916994554803, 50.786014188173546], [-3.6496558099861143, 50.78629063445106], [-3.649639600517396, 50.78634278736742], [-3.649257168835682, 50.78668429761607]]]}}, {"type": "Feature", "properties": {"type": "postcode-cell", "postcode": "EX17 3AT", "postcodes": ["EX17 3AT"]}, "geometry": {"type": "Polygon", "coordinates": [[[-3.649048540284066, 50.78924044628671], [-3.64866238106788, 50.78908791985825], [-3.6486179501939016, 50.788870383223255], [-3.6494452508966373, 50.788681849840025], [-3.64964260376846, 50.78880148655349], [-3.649048540284066, 50.78924044628671]]]}}, {"type": "Feature", "properties": {"type": "postcode-cell", "postcode": "EX17 1EH", "postcodes": ["EX17 1EH"]}, "geometry": {"type": "Polygon", "coordinates": [[[-3.64964714567377, 50.79098370201484], [-3.6489882048781874, 50.791695005816266], [-3.6487572632081267, 50.79166401849446], [-3.6483530628895995, 50.79130738679694], [-3.649263121176594, 50.79037862912219], [-3.6494168799451936, 50.790317713556426], [-3.64964714567377, 50.79098370201484]]]}}, {"type": "Feature", "properties": {"type": "postcode-cell", "postcode": "EX17 3BP", "postcodes": ["EX17 3BP"]}, "geometry": {"type": "Polygon", "coordinates": [[[-3.64891011517656, 50.787269599856], [-3.6488786585198247, 50.78725703751615], [-3.64877646063414, 50.7868033746485], [-3.649257168835682, 50.78668429761607], [-3.6494774094243896, 50.7870907883226], [-3.64891011517656, 50.787269599856]]]}}, {"type": "Feature", "properties": {"type": "postcode-cell", "postcode": "EX17 3AU", "postcodes": ["EX17 3AU"]}, "geometry": {"type": "Polygon", "coordinates": [[[-3.6494452508966373, 50.788681849840025], [-3.6486179501939016, 50.788870383223255], [-3.648537658206213, 50.78870507377931], [-3.649245050451752, 50.788327396744464], [-3.6494452508966373, 50.788681849840025]]]}}, {"type": "Feature", "properties": {"type": "postcode-cell", "postcode": "EX17 3FE", "postcodes": ["EX17 3FE"]}, "geometry": {"type": "Polygon", "coordinates": [[[-3.6493323428041107, 50.7882579575511], [-3.649298805505419, 50.78827092697794], [-3.648786692198219, 50.787906139773156], [-3.6493162065776867, 50.78783938764203], [-3.6493323428041107, 50.7882579575511]]]}}, {"type": "Feature", "properties": {"type": "postcode-cell", "postcode": "EX17 3DP", "postcodes": ["EX17 3DP"]}, "geometry": {"type": "Polygon", "coordinates": [[[-3.64891011517656, 50.787269599856], [-3.649018707699665, 50.787472548760114], [-3.6485757332292126, 50.787821760101565], [-3.6477576828034013, 50.787305628607676], [-3.6488786585198247, 50.78725703751615], [-3.64891011517656, 50.787269599856]]]}}, {"type": "Feature", "properties": {"type": "postcode-cell", "postcode": "EX17 1HQ", "postcodes": ["EX17 1HQ"]}, "geometry": {"type": "Polygon", "coordinates": [[[-3.64866238106788, 50.78908791985825], [-3.648509946129518, 50.78914032619383], [-3.647388738017021, 50.78902898008857], [-3.6473849843273323, 50.78902515944521], [-3.6476636753509073, 50.78877159607455], [-3.6484225234121213, 50.78864693959648], [-3.648537658206213, 50.78870507377931], [-3.6486179501939016, 50.788870383223255], [-3.64866238106788, 50.78908791985825]]]}}, {"type": "Feature", "properties": {"type": "postcode-cell", "postcode": "EX17 3BR", "postcodes": ["EX17 3BR"]}, "geometry": {"type": "Polygon", "coordinates": [[[-3.6493162065776867, 50.78783938764203], [-3.648786692198219, 50.787906139773156], [-3.648574045552399, 50.78785838025025], [-3.6485757332292126, 50.787821760101565], [-3.649018707699665, 50.787472548760114], [-3.649418387901665, 50.78766003891546], [-3.6493162065776867, 50.78783938764203]]]}}, {"type": "Feature", "properties": {"type": "postcode-cell", "postcode": "EX17 3BD", "postcodes": ["EX17 3BD"]}, "geometry": {"type": "Polygon", "coordinates": [[[-3.649245050451752, 50.788327396744464], [-3.648537658206213, 50.78870507377931], [-3.6484225234121213, 50.78864693959648], [-3.648402304975003, 50.78861930573578], [-3.648496167601729, 50.78812602689214], [-3.6492758570720176, 50.78828532803576], [-3.649245050451752, 50.788327396744464]]]}}, {"type": "Feature", "properties": {"type": "postcode-cell", "postcode": "EX17 3BG", "postcodes": ["EX17 3BG"]}, "geometry": {"type": "Polygon", "coordinates": [[[-3.6492758570720176, 50.78828532803576], [-3.648496167601729, 50.78812602689214], [-3.6484088476888905, 50.78801669017366], [-3.648574045552399, 50.78785838025025], [-3.648786692198219, 50.787906139773156], [-3.649298805505419, 50.78827092697794], [-3.6492758570720176, 50.78828532803576]]]}}, {"type": "Feature", "properties": {"type": "postcode-cell", "postcode": "EX17 1EZ", "postcodes": ["EX17 1EZ"]}, "geometry": {"type": "Polygon", "coordinates": [[[-3.6494168799451936, 50.790317713556426], [-3.649263121176594, 50.79037862912219], [-3.648433325689458, 50.79043054863891], [-3.647788423073256, 50.79009961976765], [-3.648787685846436, 50.789989531822094], [-3.6495144982204812, 50.79022652261843], [-3.6494168799451936, 50.790317713556426]]]}}, {"type": "Feature", "properties": {"type": "postcode-cell", "postcode": "EX17 3FQ", "postcodes": ["EX17 3FQ"]}, "geometry": {"type": "Polygon", "coordinates": [[[-3.648574045552399, 50.78785838025025], [-3.6484088476888905, 50.78801669017366], [-3.6476176748194713, 50.788047411368936], [-3.6453319795468815, 50.787177963484], [-3.6456679255170075, 50.78700934331647], [-3.6477576828034013, 50.787305628607676], [-3.6485757332292126, 50.787821760101565], [-3.648574045552399, 50.78785838025025]]]}}, {"type": "Feature", "properties": {"type": "postcode-cell", "postcode": "EX17 1EN", "postcodes": ["EX17 1EN"]}, "geometry": {"type": "Polygon", "coordinates": [[[-3.6488359014505254, 50.79302900035135], [-3.6485356261070403, 50.79329222002125], [-3.645726803748065, 50.79308546088439], [-3.6455004782275595, 50.79278619723334], [-3.6464467229887982, 50.79216308893231], [-3.6480098843707665, 50.79223280322081], [-3.6488573866317755, 50.79291648231824], [-3.6488359014505254, 50.79302900035135]]]}}, {"type": "Feature", "properties": {"type": "postcode-cell", "postcode": "EX17 3AA", "postcodes": ["EX17 3AA"]}, "geometry": {"type": "Polygon", "coordinates": [[[-3.648402304975003, 50.78861930573578], [-3.647817668705782, 50.78830738249899], [-3.6476176748194713, 50.788047411368936], [-3.6484088476888905, 50.78801669017366], [-3.648496167601729, 50.78812602689214], [-3.648402304975003, 50.78861930573578]]]}}, {"type": "Feature", "properties": {"type": "postcode-cell", "postcode": "EX17 3BJ", "postcodes": ["EX17 3BJ"]}, "geometry": {"type": "Polygon", "coordinates": [[[-3.6488786585198247, 50.78725703751615], [-3.6477576828034013, 50.787305628607676], [-3.6456679255170075, 50.78700934331647], [-3.6464382363614067, 50.7863873368544], [-3.6465194694549483, 50.786366762279606], [-3.6477828314857788, 50.78635475535127], [-3.64877646063414, 50.7868033746485], [-3.6488786585198247, 50.78725703751615]]]}}, {"type": "Feature", "properties": {"type": "postcode-cell", "postcode": "EX17 3PP", "postcodes": ["EX17 3PP"]}, "geometry": {"type": "Polygon", "coordinates": [[[-3.6477537997033505, 50.7830630974149], [-3.647949592933097, 50.78361876878326], [-3.6470233618187997, 50.78387781211214], [-3.6470382599155435, 50.78305652120927], [-3.647330862763948, 50.78294132111614], [-3.6477537997033505, 50.7830630974149]]]}}, {"type": "Feature", "properties": {"type": "postcode-cell", "postcode": "EX17 3BU", "postcodes": ["EX17 3BU"]}, "geometry": {"type": "Polygon", "coordinates": [[[-3.649715802168663, 50.784487583305975], [-3.6468373811041657, 50.78455864887619], [-3.646444995036927, 50.78448266859963], [-3.646381691740432, 50.7843203494087], [-3.6468806272673104, 50.78404433719047], [-3.648980100087702, 50.784174316438715], [-3.6497860024331, 50.78444426987162], [-3.649715802168663, 50.784487583305975]]]}}, {"type": "Feature", "properties": {"type": "postcode-cell", "postcode": "EX17 1EX", "postcodes": ["EX17 1EX"]}, "geometry": {"type": "Polygon", "coordinates": [[[-3.6483530628895995, 50.79130738679694], [-3.6480527524647774, 50.791269778996444], [-3.647649832311959, 50.79072334422558], [-3.6481223388718944, 50.79051384805067], [-3.648433325689458, 50.79043054863891], [-3.649263121176594, 50.79037862912219], [-3.6483530628895995, 50.79130738679694]]]}}, {"type": "Feature", "properties": {"type": "postcode-cell", "postcode": "EX17 1DW", "postcodes": ["EX17 1DW"]}, "geometry": {"type": "Polygon", "coordinates": [[[-3.642358042137112, 50.796253780308575], [-3.6433897463342424, 50.794780598477], [-3.64432465679749, 50.79456838135018], [-3.6458631579381366, 50.79470113663253], [-3.6460614680999504, 50.79491874544858], [-3.6462332266200117, 50.79525936727915], [-3.6462343818180494, 50.79526508658613], [-3.645609989787901, 50.79527999479866], [-3.6431599897854787, 50.79707999480013], [-3.6423776241432053, 50.79731911774265], [-3.642358042137112, 50.796253780308575]]]}}, {"type": "Feature", "properties": {"type": "postcode-cell", "postcode": "EX17 1JB", "postcodes": ["EX17 1JB"]}, "geometry": {"type": "Polygon", "coordinates": [[[-3.6493252713628594, 50.79422430825975], [-3.6462332266200117, 50.79525936727915], [-3.6460614680999504, 50.79491874544858], [-3.648620956498695, 50.79365762959015], [-3.6493252713628594, 50.79422430825975]]]}}, {"type": "Feature", "properties": {"type": "postcode-cell", "postcode": "EX17 1EG", "postcodes": ["EX17 1EG"]}, "geometry": {"type": "Polygon", "coordinates": [[[-3.6458631579381366, 50.79470113663253], [-3.645726803748065, 50.79308546088439], [-3.6485356261070403, 50.79329222002125], [-3.648620956498695, 50.79365762959015], [-3.6460614680999504, 50.79491874544858], [-3.6458631579381366, 50.79470113663253]]]}}, {"type": "Feature", "properties": {"type": "postcode-cell", "postcode": "EX17 3BL", "postcodes": ["EX17 3BL"]}, "geometry": {"type": "Polygon", "coordinates": [[[-3.6465194694549483, 50.786366762279606], [-3.6464382363614067, 50.7863873368544], [-3.646129388565675, 50.78508973021819], [-3.646444995036927, 50.78448266859963], [-3.6468373811041657, 50.78455864887619], [-3.6480107042713645, 50.78526936084646], [-3.6465194694549483, 50.786366762279606]]]}}, {"type": "Feature", "properties": {"type": "postcode-cell", "postcode": "EX17 3DE", "postcodes": ["EX17 3DE"]}, "geometry": {"type": "Polygon", "coordinates": [[[-3.651576714470353, 50.78187624157466], [-3.6473224848719057, 50.78255914714443], [-3.6471533173554893, 50.78225474431712], [-3.6516357689168877, 50.781436250446156], [-3.651576714470353, 50.78187624157466]]]}}, {"type": "Feature", "properties": {"type": "postcode-cell", "postcode": "EX17 1EL", "postcodes": ["EX17 1EL"]}, "geometry": {"type": "Polygon", "coordinates": [[[-3.6487572632081267, 50.79166401849446], [-3.6480098843707665, 50.79223280322081], [-3.6464467229887982, 50.79216308893231], [-3.6466555180154696, 50.791674622515316], [-3.6480527524647774, 50.791269778996444], [-3.6483530628895995, 50.79130738679694], [-3.6487572632081267, 50.79166401849446]]]}}, {"type": "Feature", "properties": {"type": "postcode-cell", "postcode": "EX17 3DB", "postcodes": ["EX17 3DB"]}, "geometry": {"type": "Polygon", "coordinates": [[[-3.6516357689168877, 50.781436250446156], [-3.6471533173554893, 50.78225474431712], [-3.647085648995101, 50.782201247899806], [-3.649643188386732, 50.78106660318966], [-3.6518182372913026, 50.78070375572516], [-3.6516357689168877, 50.781436250446156]]]}}, {"type": "Feature", "properties": {"type": "postcode-cell", "postcode": "EX17 3BX", "postcodes": ["EX17 3BX"]}, "geometry": {"type": "Polygon", "coordinates": [[[-3.648980100087702, 50.784174316438715], [-3.6468806272673104, 50.78404433719047], [-3.6470233618187997, 50.78387781211214], [-3.647949592933097, 50.78361876878326], [-3.648980100087702, 50.784174316438715]]]}}, {"type": "Feature", "properties": {"type": "postcode-cell", "postcode": "EX17 3BZ", "postcodes": ["EX17 3BZ"]}, "geometry": {"type": "Polygon", "coordinates": [[[-3.6471533173554893, 50.78225474431712], [-3.6473224848719057, 50.78255914714443], [-3.647330862763948, 50.78294132111614], [-3.6470382599155435, 50.78305652120927], [-3.64572564237432, 50.7831072779542], [-3.6444199178712555, 50.78244161602287], [-3.6435857604735675, 50.7814442442639], [-3.6451815374570526, 50.78138598585244], [-3.6460498720214254, 50.78155790726945], [-3.647085648995101, 50.782201247899806], [-3.6471533173554893, 50.78225474431712]]]}}, {"type": "Feature", "properties": {"type": "postcode-cell", "postcode": "EX17 1GA", "postcodes": ["EX17 1GA"]}, "geometry": {"type": "Polygon", "coordinates": [[[-3.648787685846436, 50.789989531822094], [-3.647788423073256, 50.79009961976765], [-3.6475615931826684, 50.79001885535414], [-3.6475055332134247, 50.78996747190721], [-3.6481657992267094, 50.78975126234067], [-3.648787685846436, 50.789989531822094]]]}}, {"type": "Feature", "properties": {"type": "postcode-cell", "postcode": "EX17 1HE", "postcodes": ["EX17 1HE"]}, "geometry": {"type": "Polygon", "coordinates": [[[-3.648402304975003, 50.78861930573578], [-3.6484225234121213, 50.78864693959648], [-3.6476636753509073, 50.78877159607455], [-3.647597821906571, 50.78862020140369], [-3.647817668705782, 50.78830738249899], [-3.648402304975003, 50.78861930573578]]]}}, {"type": "Feature", "properties": {"type": "postcode-cell", "postcode": "EX17 3DG", "postcodes": ["EX17 3DG"]}, "geometry": {"type": "Polygon", "coordinates": [[[-3.649643188386732, 50.78106660318966], [-3.6460498720214254, 50.78155790726945], [-3.6451815374570526, 50.78138598585244], [-3.645880763034338, 50.78099946596139], [-3.652239553881481, 50.779987381424654], [-3.6518182372913026, 50.78070375572516], [-3.649643188386732, 50.78106660318966]]]}}, {"type": "Feature", "properties": {"type": "postcode-cell", "postcode": "EX17 1HA", "postcodes": ["EX17 1HA"]}, "geometry": {"type": "Polygon", "coordinates": [[[-3.647788423073256, 50.79009961976765], [-3.648433325689458, 50.79043054863891], [-3.6481223388718944, 50.79051384805067], [-3.6476124521237523, 50.79023244337107], [-3.6475615931826684, 50.79001885535414], [-3.647788423073256, 50.79009961976765]]]}}, {"type": "Feature", "properties": {"type": "postcode-cell", "postcode": "EX17 1FA", "postcodes": ["EX17 1FA"]}, "geometry": {"type": "Polygon", "coordinates": [[[-3.6481657992267094, 50.78975126234067], [-3.6475055332134247, 50.78996747190721], [-3.6474190636087407, 50.789950757057404], [-3.6471642902304966, 50.789639565412024], [-3.647429079250411, 50.7893961175589], [-3.648103329215522, 50.789487372271225], [-3.6481657992267094, 50.78975126234067]]]}}, {"type": "Feature", "properties": {"type": "postcode-cell", "postcode": "EX17 3BT", "postcodes": ["EX17 3BT"]}, "geometry": {"type": "Polygon", "coordinates": [[[-3.6493496515110357, 50.78482525569935], [-3.6480107042713645, 50.78526936084646], [-3.6468373811041657, 50.78455864887619], [-3.649715802168663, 50.784487583305975], [-3.6493496515110357, 50.78482525569935]]]}}, {"type": "Feature", "properties": {"type": "postcode-cell", "postcode": "EX17 3DF", "postcodes": ["EX17 3DF"]}, "geometry": {"type": "Polygon", "coordinates": [[[-3.647085648995101, 50.782201247899806], [-3.6460498720214254, 50.78155790726945], [-3.649643188386732, 50.78106660318966], [-3.647085648995101, 50.782201247899806]]]}}, {"type": "Feature", "properties": {"type": "postcode-cell", "postcode": "EX17 1HD", "postcodes": ["EX17 1HD"]}, "geometry": {"type": "Polygon", "coordinates": [[[-3.648103329215522, 50.789487372271225], [-3.647429079250411, 50.7893961175589], [-3.647388738017021, 50.78902898008857], [-3.648509946129518, 50.78914032619383], [-3.648103329215522, 50.789487372271225]]]}}, {"type": "Feature", "properties": {"type": "postcode-cell", "postcode": "EX17 1HH", "postcodes": ["EX17 1HH"]}, "geometry": {"type": "Polygon", "coordinates": [[[-3.647817668705782, 50.78830738249899], [-3.647597821906571, 50.78862020140369], [-3.6452288240227544, 50.78774372816359], [-3.6450681530085767, 50.78725987865322], [-3.6453319795468815, 50.787177963484], [-3.6476176748194713, 50.788047411368936], [-3.647817668705782, 50.78830738249899]]]}}, {"type": "Feature", "properties": {"type": "postcode-cell", "postcode": "EX17 1HF", "postcodes": ["EX17 1HF"]}, "geometry": {"type": "Polygon", "coordinates": [[[-3.6473849843273323, 50.78902515944521], [-3.6454170645329906, 50.78853835888622], [-3.6452288240227544, 50.78774372816359], [-3.647597821906571, 50.78862020140369], [-3.6476636753509073, 50.78877159607455], [-3.6473849843273323, 50.78902515944521]]]}}, {"type": "Feature", "properties": {"type": "postcode-cell", "postcode": "EX17 3FP", "postcodes": ["EX17 3FP"]}, "geometry": {"type": "Polygon", "coordinates": [[[-3.6464382363614067, 50.7863873368544], [-3.6456679255170075, 50.78700934331647], [-3.6453319795468815, 50.787177963484], [-3.6450681530085767, 50.78725987865322], [-3.6444664052294224, 50.78716591844254], [-3.644206936775013, 50.78517512641815], [-3.644470561084542, 50.78488826373909], [-3.646129388565675, 50.78508973021819], [-3.6464382363614067, 50.7863873368544]]]}}, {"type": "Feature", "properties": {"type": "postcode-cell", "postcode": "EX17 1GB", "postcodes": ["EX17 1GB"]}, "geometry": {"type": "Polygon", "coordinates": [[[-3.6481223388718944, 50.79051384805067], [-3.647649832311959, 50.79072334422558], [-3.6474382919416657, 50.79068084833717], [-3.6476124521237523, 50.79023244337107], [-3.6481223388718944, 50.79051384805067]]]}}, {"type": "Feature", "properties": {"type": "postcode-cell", "postcode": "EX17 1EP", "postcodes": ["EX17 1EP"]}, "geometry": {"type": "Polygon", "coordinates": [[[-3.6480527524647774, 50.791269778996444], [-3.6466555180154696, 50.791674622515316], [-3.646339230542502, 50.79087483297906], [-3.646504589730055, 50.79076285827473], [-3.646875106607697, 50.790675436940205], [-3.6474382919416657, 50.79068084833717], [-3.647649832311959, 50.79072334422558], [-3.6480527524647774, 50.791269778996444]]]}}, {"type": "Feature", "properties": {"type": "postcode-cell", "postcode": "EX17 3FA", "postcodes": ["EX17 3FA"]}, "geometry": {"type": "Polygon", "coordinates": [[[-3.6468806272673104, 50.78404433719047], [-3.646381691740432, 50.7843203494087], [-3.646028648830049, 50.78414518708285], [-3.64572564237432, 50.7831072779542], [-3.6470382599155435, 50.78305652120927], [-3.6470233618187997, 50.78387781211214], [-3.6468806272673104, 50.78404433719047]]]}}, {"type": "Feature", "properties": {"type": "postcode-cell", "postcode": "EX17 1GD", "postcodes": ["EX17 1GD"]}, "geometry": {"type": "Polygon", "coordinates": [[[-3.6475615931826684, 50.79001885535414], [-3.6476124521237523, 50.79023244337107], [-3.6474382919416657, 50.79068084833717], [-3.646875106607697, 50.790675436940205], [-3.647312445495877, 50.790014903664], [-3.6474190636087407, 50.789950757057404], [-3.6475055332134247, 50.78996747190721], [-3.6475615931826684, 50.79001885535414]]]}}, {"type": "Feature", "properties": {"type": "postcode-cell", "postcode": "EX17 1HG", "postcodes": ["EX17 1HG"]}, "geometry": {"type": "Polygon", "coordinates": [[[-3.647429079250411, 50.7893961175589], [-3.6471642902304966, 50.789639565412024], [-3.6459562617079255, 50.78953793560997], [-3.645392585130895, 50.789305306650306], [-3.6452920806634985, 50.78911017990829], [-3.6454170645329906, 50.78853835888622], [-3.6473849843273323, 50.78902515944521], [-3.647388738017021, 50.78902898008857], [-3.647429079250411, 50.7893961175589]]]}}, {"type": "Feature", "properties": {"type": "postcode-cell", "postcode": "EX17 3DH", "postcodes": ["EX17 3DH"]}, "geometry": {"type": "MultiPolygon", "coordinates": [[[[-3.645880763034338, 50.78099946596139], [-3.6451815374570526, 50.78138598585244], [-3.6435857604735675, 50.7814442442639], [-3.6410764788162173, 50.78064302022554], [-3.6428199897930056, 50.780559994786984], [-3.6429399897933306, 50.78002999478658], [-3.6439699897942233, 50.77953999478617], [-3.6479299897970408, 50.77896999478567], [-3.648433951020947, 50.77925633853261], [-3.645880763034338, 50.78099946596139]]], [[[-3.6392901478544157, 50.78007258737612], [-3.6389181453020485, 50.77988887675614], [-3.639689989791488, 50.77949999478621], [-3.6408415926390103, 50.78056801589805], [-3.6392901478544157, 50.78007258737612]]]]}}, {"type": "Feature", "properties": {"type": "postcode-cell", "postcode": "EX17 1ER", "postcodes": ["EX17 1ER"]}, "geometry": {"type": "Polygon", "coordinates": [[[-3.644543903259948, 50.792550780450576], [-3.64315411328719, 50.7920693367768], [-3.6444984795389885, 50.790736593551415], [-3.6448236321378, 50.7906089368821], [-3.646339230542502, 50.79087483297906], [-3.6466555180154696, 50.791674622515316], [-3.6464467229887982, 50.79216308893231], [-3.6455004782275595, 50.79278619723334], [-3.644543903259948, 50.792550780450576]]]}}, {"type": "Feature", "properties": {"type": "postcode-cell", "postcode": "EX17 1BY", "postcodes": ["EX17 1BY"]}, "geometry": {"type": "Polygon", "coordinates": [[[-3.6455004782275595, 50.79278619723334], [-3.645726803748065, 50.79308546088439], [-3.6458631579381366, 50.79470113663253], [-3.64432465679749, 50.79456838135018], [-3.643538116338845, 50.79407262509111], [-3.644543903259948, 50.792550780450576], [-3.6455004782275595, 50.79278619723334]]]}}, {"type": "Feature", "properties": {"type": "postcode-cell", "postcode": "EX17 3FN", "postcodes": ["EX17 3FN"]}, "geometry": {"type": "Polygon", "coordinates": [[[-3.646444995036927, 50.78448266859963], [-3.646129388565675, 50.78508973021819], [-3.644470561084542, 50.78488826373909], [-3.6443858420077446, 50.7844021831727], [-3.6449846747349293, 50.78419146178405], [-3.646028648830049, 50.78414518708285], [-3.646381691740432, 50.7843203494087], [-3.646444995036927, 50.78448266859963]]]}}, {"type": "Feature", "properties": {"type": "postcode-cell", "postcode": "EX17 1HB", "postcodes": ["EX17 1HB"]}, "geometry": {"type": "Polygon", "coordinates": [[[-3.647312445495877, 50.790014903664], [-3.6464469620721505, 50.790106341292464], [-3.6459562617079255, 50.78953793560997], [-3.6471642902304966, 50.789639565412024], [-3.6474190636087407, 50.789950757057404], [-3.647312445495877, 50.790014903664]]]}}, {"type": "Feature", "properties": {"type": "postcode-cell", "postcode": "EX17 1HX", "postcodes": ["EX17 1HX", "EX17 3YZ", "EX17 9AY", "EX17 9AZ", "EX17 9BA", "EX17 9BB", "EX17 9BG", "EX17 9BJ", "EX17 9BY", "EX17 9BZ"]}, "geometry": {"type": "Polygon", "coordinates": [[[-3.646504589730055, 50.79076285827473], [-3.6464469620721505, 50.790106341292464], [-3.647312445495877, 50.790014903664], [-3.646875106607697, 50.790675436940205], [-3.646504589730055, 50.79076285827473]]]}}, {"type": "Feature", "properties": {"type": "postcode-cell", "postcode": "EX17 1HJ", "postcodes": ["EX17 1HJ"]}, "geometry": {"type": "Polygon", "coordinates": [[[-3.6452288240227544, 50.78774372816359], [-3.6454170645329906, 50.78853835888622], [-3.6452920806634985, 50.78911017990829], [-3.642980560746041, 50.78964916306882], [-3.641302847065872, 50.7894596609091], [-3.6402987601288013, 50.787970998131755], [-3.642995368543025, 50.787198163975646], [-3.6444664052294224, 50.78716591844254], [-3.6450681530085767, 50.78725987865322], [-3.6452288240227544, 50.78774372816359]]]}}, {"type": "Feature", "properties": {"type": "postcode-cell", "postcode": "EX17 1HZ", "postcodes": ["EX17 1HZ"]}, "geometry": {"type": "Polygon", "coordinates": [[[-3.646504589730055, 50.79076285827473], [-3.646339230542502, 50.79087483297906], [-3.6448236321378, 50.7906089368821], [-3.645392585130895, 50.789305306650306], [-3.6459562617079255, 50.78953793560997], [-3.6464469620721505, 50.790106341292464], [-3.646504589730055, 50.79076285827473]]]}}, {"type": "Feature", "properties": {"type": "postcode-cell", "postcode": "EX17 3PH", "postcodes": ["EX17 3PH"]}, "geometry": {"type": "Polygon", "coordinates": [[[-3.646028648830049, 50.78414518708285], [-3.6449846747349293, 50.78419146178405], [-3.6443966442008398, 50.78267560591096], [-3.6444199178712555, 50.78244161602287], [-3.64572564237432, 50.7831072779542], [-3.646028648830049, 50.78414518708285]]]}}, {"type": "Feature", "properties": {"type": "postcode-cell", "postcode": "EX17 1ES", "postcodes": ["EX17 1ES"]}, "geometry": {"type": "Polygon", "coordinates": [[[-3.645392585130895, 50.789305306650306], [-3.6448236321378, 50.7906089368821], [-3.6444984795389885, 50.790736593551415], [-3.642980560746041, 50.78964916306882], [-3.6452920806634985, 50.78911017990829], [-3.645392585130895, 50.789305306650306]]]}}, {"type": "Feature", "properties": {"type": "postcode-cell", "postcode": "EX17 3FD", "postcodes": ["EX17 3FD"]}, "geometry": {"type": "Polygon", "coordinates": [[[-3.6444199178712555, 50.78244161602287], [-3.6443966442008398, 50.78267560591096], [-3.6437961751391397, 50.7841890013773], [-3.6429350400918152, 50.784244829233835], [-3.641972432581334, 50.783666735336304], [-3.6392901478544157, 50.78007258737612], [-3.6408415926390103, 50.78056801589805], [-3.6409299897917458, 50.7806499947871], [-3.6410764788162173, 50.78064302022554], [-3.6435857604735675, 50.7814442442639], [-3.6444199178712555, 50.78244161602287]]]}}, {"type": "Feature", "properties": {"type": "postcode-cell", "postcode": "EX17 3BN", "postcodes": ["EX17 3BN"]}, "geometry": {"type": "Polygon", "coordinates": [[[-3.6443858420077446, 50.7844021831727], [-3.6437961751391397, 50.7841890013773], [-3.6443966442008398, 50.78267560591096], [-3.6449846747349293, 50.78419146178405], [-3.6443858420077446, 50.7844021831727]]]}}, {"type": "Feature", "properties": {"type": "postcode-cell", "postcode": "EX17 3FG", "postcodes": ["EX17 3FG"]}, "geometry": {"type": "Polygon", "coordinates": [[[-3.644470561084542, 50.78488826373909], [-3.644206936775013, 50.78517512641815], [-3.6430086318202766, 50.78498917610942], [-3.642846331423126, 50.784613369785816], [-3.6429350400918152, 50.784244829233835], [-3.6437961751391397, 50.7841890013773], [-3.6443858420077446, 50.7844021831727], [-3.644470561084542, 50.78488826373909]]]}}, {"type": "Feature", "properties": {"type": "postcode-cell", "postcode": "EX17 1DB", "postcodes": ["EX17 1DB"]}, "geometry": {"type": "Polygon", "coordinates": [[[-3.644543903259948, 50.792550780450576], [-3.643538116338845, 50.79407262509111], [-3.643351661734278, 50.79404412593559], [-3.6424435480155983, 50.79356420087078], [-3.642744021864387, 50.79216448905607], [-3.64299237041541, 50.79207410009334], [-3.64315411328719, 50.7920693367768], [-3.644543903259948, 50.792550780450576]]]}}, {"type": "Feature", "properties": {"type": "postcode-cell", "postcode": "EX17 3FL", "postcodes": ["EX17 3FL"]}, "geometry": {"type": "Polygon", "coordinates": [[[-3.6444664052294224, 50.78716591844254], [-3.642995368543025, 50.787198163975646], [-3.642404550751603, 50.7857220381522], [-3.6430086318202766, 50.78498917610942], [-3.644206936775013, 50.78517512641815], [-3.6444664052294224, 50.78716591844254]]]}}, {"type": "Feature", "properties": {"type": "postcode-cell", "postcode": "EX17 3FH", "postcodes": ["EX17 3FH"]}, "geometry": {"type": "Polygon", "coordinates": [[[-3.6429350400918152, 50.784244829233835], [-3.642846331423126, 50.784613369785816], [-3.6412450345446796, 50.78505497037363], [-3.6412029411127493, 50.78504342810935], [-3.641972432581334, 50.783666735336304], [-3.6429350400918152, 50.784244829233835]]]}}, {"type": "Feature", "properties": {"type": "postcode-cell", "postcode": "EX17 1ET", "postcodes": ["EX17 1ET"]}, "geometry": {"type": "Polygon", "coordinates": [[[-3.6444984795389885, 50.790736593551415], [-3.64315411328719, 50.7920693367768], [-3.64299237041541, 50.79207410009334], [-3.641300553337776, 50.789478669691235], [-3.641302847065872, 50.7894596609091], [-3.642980560746041, 50.78964916306882], [-3.6444984795389885, 50.790736593551415]]]}}, {"type": "Feature", "properties": {"type": "postcode-cell", "postcode": "EX17 1DA", "postcodes": ["EX17 1DA"]}, "geometry": {"type": "Polygon", "coordinates": [[[-3.642358090930386, 50.7936485892377], [-3.6424435480155983, 50.79356420087078], [-3.643351661734278, 50.79404412593559], [-3.642857514145741, 50.79440337935138], [-3.6422922292056876, 50.79430440674488], [-3.642358090930386, 50.7936485892377]]]}}, {"type": "Feature", "properties": {"type": "postcode-cell", "postcode": "EX17 1BZ", "postcodes": ["EX17 1BZ"]}, "geometry": {"type": "Polygon", "coordinates": [[[-3.6422922292056876, 50.79430440674488], [-3.6417106985007672, 50.794757573840755], [-3.640699751426975, 50.79447882126925], [-3.6404159807696135, 50.794109478893674], [-3.642358090930386, 50.7936485892377], [-3.6422922292056876, 50.79430440674488]]]}}, {"type": "Feature", "properties": {"type": "postcode-cell", "postcode": "EX17 3FF", "postcodes": ["EX17 3FF"]}, "geometry": {"type": "Polygon", "coordinates": [[[-3.6430086318202766, 50.78498917610942], [-3.642404550751603, 50.7857220381522], [-3.6412450345446796, 50.78505497037363], [-3.642846331423126, 50.784613369785816], [-3.6430086318202766, 50.78498917610942]]]}}, {"type": "Feature", "properties": {"type": "postcode-cell", "postcode": "EX17 1BX", "postcodes": ["EX17 1BX"]}, "geometry": {"type": "Polygon", "coordinates": [[[-3.6432835973409543, 50.79474186947995], [-3.642857514145741, 50.79440337935138], [-3.643351661734278, 50.79404412593559], [-3.643538116338845, 50.79407262509111], [-3.64432465679749, 50.79456838135018], [-3.6433897463342424, 50.794780598477], [-3.6432835973409543, 50.79474186947995]]]}}, {"type": "Feature", "properties": {"type": "postcode-cell", "postcode": "EX17 1DF", "postcodes": ["EX17 1DF"]}, "geometry": {"type": "Polygon", "coordinates": [[[-3.6433897463342424, 50.794780598477], [-3.642358042137112, 50.796253780308575], [-3.6417429091856146, 50.79479559109346], [-3.6432835973409543, 50.79474186947995], [-3.6433897463342424, 50.794780598477]]]}}, {"type": "Feature", "properties": {"type": "postcode-cell", "postcode": "EX17 1DE", "postcodes": ["EX17 1DE"]}, "geometry": {"type": "Polygon", "coordinates": [[[-3.642857514145741, 50.79440337935138], [-3.6432835973409543, 50.79474186947995], [-3.6417429091856146, 50.79479559109346], [-3.6417106985007672, 50.794757573840755], [-3.6422922292056876, 50.79430440674488], [-3.642857514145741, 50.79440337935138]]]}}, {"type": "Feature", "properties": {"type": "postcode-cell", "postcode": "EX17 3FJ", "postcodes": ["EX17 3FJ"]}, "geometry": {"type": "Polygon", "coordinates": [[[-3.642995368543025, 50.787198163975646], [-3.6402987601288013, 50.787970998131755], [-3.6384186960862044, 50.78762199994458], [-3.638719989787129, 50.787459994792535], [-3.637539989786554, 50.78706999479223], [-3.638959989787734, 50.78649999479177], [-3.6373588824176264, 50.78534284845254], [-3.6412029411127493, 50.78504342810935], [-3.6412450345446796, 50.78505497037363], [-3.642404550751603, 50.7857220381522], [-3.642995368543025, 50.787198163975646]]]}}, {"type": "Feature", "properties": {"type": "postcode-cell", "postcode": "EX17 1DD", "postcodes": ["EX17 1DD"]}, "geometry": {"type": "Polygon", "coordinates": [[[-3.642358090930386, 50.7936485892377], [-3.6404159807696135, 50.794109478893674], [-3.6387040279146206, 50.79310282997423], [-3.6406969599408288, 50.79230183219994], [-3.642744021864387, 50.79216448905607], [-3.6424435480155983, 50.79356420087078], [-3.642358090930386, 50.7936485892377]]]}}, {"type": "Feature", "properties": {"type": "postcode-cell", "postcode": "EX17 1JZ", "postcodes": ["EX17 1JZ"]}, "geometry": {"type": "Polygon", "coordinates": [[[-3.640699751426975, 50.79447882126925], [-3.6417106985007672, 50.794757573840755], [-3.6417429091856146, 50.79479559109346], [-3.642358042137112, 50.796253780308575], [-3.6423776241432053, 50.79731911774265], [-3.6387099897819755, 50.798439994801264], [-3.6388299897823306, 50.797849994800806], [-3.638139514114263, 50.79773342125663], [-3.640699751426975, 50.79447882126925]]]}}, {"type": "Feature", "properties": {"type": "postcode-cell", "postcode": "EX17 1HS", "postcodes": ["EX17 1HS"]}, "geometry": {"type": "Polygon", "coordinates": [[[-3.641300553337776, 50.789478669691235], [-3.6398686743479525, 50.79077972267123], [-3.6385598081411312, 50.7907851210013], [-3.637026309586185, 50.78998075063399], [-3.6368899897849976, 50.78948999479416], [-3.636222514519457, 50.78938342480483], [-3.635993179337062, 50.788926127801304], [-3.6384186960862044, 50.78762199994458], [-3.6402987601288013, 50.787970998131755], [-3.641302847065872, 50.7894596609091], [-3.641300553337776, 50.789478669691235]]]}}, {"type": "Feature", "properties": {"type": "postcode-cell", "postcode": "EX17 3PJ", "postcodes": ["EX17 3PJ"]}, "geometry": {"type": "Polygon", "coordinates": [[[-3.6392901478544157, 50.78007258737612], [-3.641972432581334, 50.783666735336304], [-3.6412029411127493, 50.78504342810935], [-3.6373588824176264, 50.78534284845254], [-3.635749989786756, 50.784179994789966], [-3.638009989788156, 50.784299994790054], [-3.6351699897877476, 50.78126999478767], [-3.6370699897891825, 50.78081999478729], [-3.6389181453020485, 50.77988887675614], [-3.6392901478544157, 50.78007258737612]]]}}, {"type": "Feature", "properties": {"type": "postcode-cell", "postcode": "EX17 1EU", "postcodes": ["EX17 1EU"]}, "geometry": {"type": "Polygon", "coordinates": [[[-3.642744021864387, 50.79216448905607], [-3.6406969599408288, 50.79230183219994], [-3.6398686743479525, 50.79077972267123], [-3.641300553337776, 50.789478669691235], [-3.64299237041541, 50.79207410009334], [-3.642744021864387, 50.79216448905607]]]}}, {"type": "Feature", "properties": {"type": "postcode-cell", "postcode": "EX17 1FE", "postcodes": ["EX17 1FE"]}, "geometry": {"type": "Polygon", "coordinates": [[[-3.635868796954324, 50.79363229400931], [-3.6382390766992474, 50.79312572158985], [-3.6387040279146206, 50.79310282997423], [-3.6404159807696135, 50.794109478893674], [-3.640699751426975, 50.79447882126925], [-3.638139514114263, 50.79773342125663], [-3.6380599897818926, 50.7977199948007], [-3.637489989781944, 50.796829994799985], [-3.636879989781335, 50.79728999480035], [-3.6359199897809944, 50.7966999947999], [-3.6360499897812595, 50.79630999479961], [-3.6353499897808224, 50.7962799947996], [-3.6357299897812925, 50.79579999479921], [-3.634909989781303, 50.79464999479831], [-3.63577998978211, 50.794129994797885], [-3.6353473466243433, 50.793925061371105], [-3.635868796954324, 50.79363229400931]]]}}, {"type": "Feature", "properties": {"type": "postcode-cell", "postcode": "EX17 1FB", "postcodes": ["EX17 1FB"]}, "geometry": {"type": "Polygon", "coordinates": [[[-3.6406969599408288, 50.79230183219994], [-3.6387040279146206, 50.79310282997423], [-3.6382390766992474, 50.79312572158985], [-3.6385598081411312, 50.7907851210013], [-3.6398686743479525, 50.79077972267123], [-3.6406969599408288, 50.79230183219994]]]}}, {"type": "Feature", "properties": {"type": "postcode-cell", "postcode": "EX17 1HN", "postcodes": ["EX17 1HN"]}, "geometry": {"type": "MultiPolygon", "coordinates": [[[[-3.636222514519457, 50.78938342480483], [-3.6356999897843227, 50.789299994794035], [-3.6357999897845112, 50.789029994793815], [-3.635993179337062, 50.788926127801304], [-3.636222514519457, 50.78938342480483]]], [[[-3.635868796954324, 50.79363229400931], [-3.6353473466243433, 50.793925061371105], [-3.634639989781628, 50.79358999479746], [-3.633499989780763, 50.7938699947977], [-3.6329499897806103, 50.79343999479735], [-3.631939989780458, 50.79237999479653], [-3.6335899897825144, 50.79025999479483], [-3.6362552544042694, 50.79035760622076], [-3.635868796954324, 50.79363229400931]]]]}}, {"type": "Feature", "properties": {"type": "postcode-cell", "postcode": "EX17 1DN", "postcodes": ["EX17 1DN"]}, "geometry": {"type": "Polygon", "coordinates": [[[-3.6385598081411312, 50.7907851210013], [-3.6382390766992474, 50.79312572158985], [-3.635868796954324, 50.79363229400931], [-3.6362552544042694, 50.79035760622076], [-3.6371399897847367, 50.790389994794886], [-3.637026309586185, 50.78998075063399], [-3.6385598081411312, 50.7907851210013]]]}}]}