{"type": "FeatureCollection", "features": [{"type": "Feature", "properties": {"type": "ward-outline", "name": "Cullompton Vale"}, "geometry": {"type": "Polygon", "coordinates": [[[-3.34837, 50.84577], [-3.34879, 50.84465], [-3.34848, 50.84424], [-3.34648, 50.84324], [-3.34478, 50.84166], [-3.34293, 50.84304], [-3.34165, 50.84051], [-3.34259, 50.83738], [-3.34226, 50.83628], [-3.34071, 50.83541], [-3.34175, 50.83413], [-3.34347, 50.83308], [-3.3436, 50.83244], [-3.34487, 50.83123], [-3.34484, 50.83089], [-3.34285, 50.831], [-3.34281, 50.83043], [-3.34123, 50.82838], [-3.34226, 50.82773], [-3.34357, 50.82583], [-3.3509, 50.82729], [-3.35384, 50.82645], [-3.35701, 50.8269], [-3.35541, 50.83149], [-3.3559, 50.8339], [-3.36236, 50.83178], [-3.36402, 50.83254], [-3.36675, 50.82932], [-3.36762, 50.82953], [-3.36747, 50.82723], [-3.368, 50.82356], [-3.36699, 50.82053], [-3.36175, 50.82099], [-3.35991, 50.81484], [-3.35996, 50.81188], [-3.36107, 50.81196], [-3.36126, 50.81239], [-3.36254, 50.81214], [-3.36303, 50.81165], [-3.36685, 50.81222], [-3.36831, 50.81087], [-3.37315, 50.81098], [-3.37654, 50.81014], [-3.37892, 50.81029], [-3.3791, 50.80977], [-3.38047, 50.81019], [-3.38087, 50.81074], [-3.38386, 50.81022], [-3.38718, 50.80877], [-3.38872, 50.80879], [-3.39125, 50.80793], [-3.39492, 50.80779], [-3.39714, 50.80739], [-3.3992, 50.80664], [-3.40199, 50.80653], [-3.40587, 50.80505], [-3.41047, 50.80461], [-3.41208, 50.80497], [-3.41067, 50.80541], [-3.41233, 50.80668], [-3.41347, 50.80701], [-3.41384, 50.80688], [-3.41666, 50.80847], [-3.4179, 50.81047], [-3.41893, 50.81105], [-3.41986, 50.81147], [-3.42265, 50.81152], [-3.42358, 50.812], [-3.42428, 50.81156], [-3.42567, 50.81189], [-3.42476, 50.81242], [-3.42352, 50.81241], [-3.4223, 50.81404], [-3.42134, 50.81379], [-3.42105, 50.81464], [-3.42034, 50.81508], [-3.4173, 50.81512], [-3.41286, 50.81751], [-3.40855, 50.81908], [-3.40806, 50.81937], [-3.40828, 50.81973], [-3.40892, 50.81972], [-3.40864, 50.8206], [-3.40708, 50.82125], [-3.40544, 50.82129], [-3.40525, 50.82168], [-3.40558, 50.82183], [-3.40478, 50.8221], [-3.40382, 50.82164], [-3.40338, 50.82176], [-3.40347, 50.82146], [-3.40296, 50.8216], [-3.40306, 50.82136], [-3.40256, 50.82132], [-3.4029, 50.82109], [-3.40223, 50.8212], [-3.4011, 50.82045], [-3.39917, 50.81977], [-3.39958, 50.81864], [-3.39942, 50.81592], [-3.40125, 50.81648], [-3.40203, 50.81567], [-3.40365, 50.81494], [-3.40427, 50.8141], [-3.40372, 50.81261], [-3.40072, 50.81077], [-3.40036, 50.80885], [-3.39926, 50.80809], [-3.39636, 50.80979], [-3.39464, 50.81163], [-3.39487, 50.81377], [-3.39383, 50.81851], [-3.39291, 50.81875], [-3.39233, 50.81955], [-3.39042, 50.81952], [-3.38931, 50.81993], [-3.38874, 50.82031], [-3.38907, 50.82075], [-3.38853, 50.8211], [-3.38739, 50.821], [-3.38742, 50.82478], [-3.3891, 50.82588], [-3.39268, 50.82739], [-3.39474, 50.82772], [-3.396, 50.82824], [-3.39618, 50.82787], [-3.39878, 50.82783], [-3.39954, 50.82884], [-3.39862, 50.82921], [-3.39849, 50.82997], [-3.39806, 50.82959], [-3.39782, 50.82974], [-3.39758, 50.8305], [-3.39793, 50.83075], [-3.39854, 50.83037], [-3.39885, 50.83104], [-3.39851, 50.83144], [-3.39751, 50.83162], [-3.39723, 50.8322], [-3.39777, 50.83262], [-3.39791, 50.83198], [-3.39838, 50.83198], [-3.39905, 50.83279], [-3.39843, 50.83517], [-3.39331, 50.83754], [-3.3929, 50.83816], [-3.39221, 50.83835], [-3.39253, 50.83877], [-3.39066, 50.83992], [-3.39063, 50.84054], [-3.38995, 50.84045], [-3.38952, 50.84439], [-3.38886, 50.84623], [-3.38567, 50.85082], [-3.38454, 50.85431], [-3.38217, 50.87222], [-3.38045, 50.87247], [-3.38052, 50.87287], [-3.3799, 50.87324], [-3.37879, 50.87297], [-3.37826, 50.87338], [-3.37736, 50.87345], [-3.37714, 50.87417], [-3.37515, 50.87467], [-3.37481, 50.87452], [-3.37252, 50.87581], [-3.37225, 50.87629], [-3.37171, 50.87619], [-3.37145, 50.87662], [-3.37093, 50.87654], [-3.37106, 50.87729], [-3.37029, 50.87761], [-3.37041, 50.878], [-3.36857, 50.8798], [-3.3676, 50.87952], [-3.36742, 50.87992], [-3.36725, 50.8797], [-3.36667, 50.87979], [-3.36625, 50.88037], [-3.36588, 50.88025], [-3.36375, 50.88088], [-3.36344, 50.88068], [-3.36166, 50.87907], [-3.36159, 50.87858], [-3.36184, 50.87503], [-3.3615, 50.87488], [-3.36239, 50.87397], [-3.36252, 50.87233], [-3.35973, 50.87248], [-3.35315, 50.86953], [-3.35644, 50.8692], [-3.35628, 50.86708], [-3.35685, 50.8636], [-3.35788, 50.86284], [-3.35721, 50.86091], [-3.35758, 50.85405], [-3.36088, 50.85066], [-3.36214, 50.85026], [-3.36271, 50.84955], [-3.36427, 50.84933], [-3.36435, 50.849], [-3.36288, 50.84762], [-3.36019, 50.84739], [-3.35953, 50.84679], [-3.35162, 50.84663], [-3.34837, 50.84577]]]}}, {"type": "Feature", "properties": {"type": "postcode-cell", "postcode": "EX5 4BL", "postcodes": ["EX5 4BL"]}, "geometry": {"type": "Polygon", "coordinates": [[[-3.4169580805442203, 50.81468999325998], [-3.421538152058065, 50.811500077423354], [-3.4226499896379443, 50.81151999481454], [-3.423579989638302, 50.811999994814904], [-3.4242799896389537, 50.81155999481455], [-3.4256699896396743, 50.81188999481479], [-3.4247599896388476, 50.812419994815244], [-3.4235199896380695, 50.81240999481524], [-3.4222999896365196, 50.81403999481653], [-3.421339989636033, 50.813789994816354], [-3.4210499896354443, 50.814639994817014], [-3.4203399896347855, 50.815079994817395], [-3.4172999896328453, 50.81511999481746], [-3.416178033199535, 50.81572396961494], [-3.4169580805442203, 50.81468999325998]]]}}, {"type": "Feature", "properties": {"type": "postcode-cell", "postcode": "EX5 4LB", "postcodes": ["EX5 4LB"]}, "geometry": {"type": "Polygon", "coordinates": [[[-3.4169580805442203, 50.81468999325998], [-3.41884699163042, 50.8110032589514], [-3.4189299896358167, 50.81104999481423], [-3.4198599896362043, 50.81146999481454], [-3.421538152058065, 50.811500077423354], [-3.4169580805442203, 50.81468999325998]]]}}, {"type": "Feature", "properties": {"type": "postcode-cell", "postcode": "EX5 4LA", "postcodes": ["EX5 4LA"]}, "geometry": {"type": "MultiPolygon", "coordinates": [[[[-3.4169580805442203, 50.81468999325998], [-3.416178033199535, 50.81572396961494], [-3.415953706136333, 50.81584472685454], [-3.4103989357754734, 50.813473525744435], [-3.4111062712237024, 50.80574378558224], [-3.4123299896337373, 50.80667999481086], [-3.4134699896343, 50.807009994811104], [-3.413839989634595, 50.806879994811005], [-3.416659989635616, 50.808469994812235], [-3.4178999896354445, 50.8104699948138], [-3.41884699163042, 50.8110032589514], [-3.4169580805442203, 50.81468999325998]]], [[[-3.4111951691403597, 50.80477215020074], [-3.412079989634395, 50.80496999480952], [-3.4111505308731305, 50.80526004151024], [-3.4111951691403597, 50.80477215020074]]]]}}, {"type": "Feature", "properties": {"type": "postcode-cell", "postcode": "EX5 4LD", "postcodes": ["EX5 4LD"]}, "geometry": {"type": "MultiPolygon", "coordinates": [[[[-3.4054313021356157, 50.82176240983831], [-3.405579989622245, 50.82182999482294], [-3.4053759893004454, 50.82189884574519], [-3.4054313021356157, 50.82176240983831]]], [[[-3.4085718297674386, 50.81401459382605], [-3.4103989357754734, 50.813473525744435], [-3.415953706136333, 50.81584472685454], [-3.4128599896289, 50.81750999481942], [-3.4085499896254303, 50.81907999482071], [-3.4080599896249835, 50.819369994820974], [-3.4082799896249507, 50.81972999482123], [-3.408919989625359, 50.81971999482121], [-3.408639989624763, 50.82059999482193], [-3.4070799896234685, 50.82124999482245], [-3.4056246480279575, 50.821285492113645], [-3.4085718297674386, 50.81401459382605]]]]}}, {"type": "Feature", "properties": {"type": "postcode-cell", "postcode": "EX5 4LF", "postcodes": ["EX5 4LF"]}, "geometry": {"type": "Polygon", "coordinates": [[[-3.4111505308731305, 50.80526004151024], [-3.410669989633296, 50.80540999480989], [-3.4111062712237024, 50.80574378558224], [-3.4103989357754734, 50.813473525744435], [-3.4085718297674386, 50.81401459382605], [-3.4042618503437123, 50.81407794549622], [-3.4037199896254733, 50.812609994815666], [-3.4007199896244606, 50.81076999481426], [-3.4003599896251515, 50.80884999481273], [-3.3992599896248223, 50.80808999481217], [-3.3963599896221814, 50.809789994813535], [-3.3946399896202175, 50.81162999481503], [-3.394869989619339, 50.81376999481669], [-3.3947719488299652, 50.814216874212235], [-3.3933531605867078, 50.81423757836694], [-3.390862642423529, 50.81171008488965], [-3.3901217523797844, 50.80831351692291], [-3.3912499896198534, 50.80792999481215], [-3.3949199896222293, 50.80778999481198], [-3.39713998962382, 50.80738999481164], [-3.3991999896254765, 50.806639994811015], [-3.4019899896272885, 50.80652999481089], [-3.405869989630441, 50.80504999480967], [-3.410469989633552, 50.80460999480925], [-3.4111951691403597, 50.80477215020074], [-3.4111505308731305, 50.80526004151024]]]}}, {"type": "Feature", "properties": {"type": "postcode-cell", "postcode": "EX15 1RY", "postcodes": ["EX15 1RY"]}, "geometry": {"type": "Polygon", "coordinates": [[[-3.3896762254041284, 50.83350067850119], [-3.389334577872743, 50.83105232114446], [-3.398611023566602, 50.831321132165726], [-3.398509989613193, 50.831439994830625], [-3.397509989612476, 50.83161999483078], [-3.397229989612023, 50.83219999483127], [-3.397769989612162, 50.83261999483155], [-3.397909989612557, 50.83197999483108], [-3.3983799896128537, 50.831979994831066], [-3.3990499896128896, 50.83278999483169], [-3.3987198852459684, 50.83405719914338], [-3.3896762254041284, 50.83350067850119]]]}}, {"type": "Feature", "properties": {"type": "postcode-cell", "postcode": "EX15 1RZ", "postcodes": ["EX15 1RZ"]}, "geometry": {"type": "Polygon", "coordinates": [[[-3.389334577872743, 50.83105232114446], [-3.3886318880990918, 50.8296739281352], [-3.3889178700559923, 50.829598700051676], [-3.399015251483463, 50.82814265075081], [-3.3995399896150857, 50.82883999482856], [-3.3986199896143274, 50.82920999482887], [-3.3984899896138825, 50.82996999482948], [-3.398059989613793, 50.82958999482918], [-3.3978199896135703, 50.829739994829296], [-3.3975799896130545, 50.8304999948299], [-3.3979299896131567, 50.83074999483009], [-3.398539989613724, 50.83036999482979], [-3.3988499896135984, 50.83103999483031], [-3.398611023566602, 50.831321132165726], [-3.389334577872743, 50.83105232114446]]]}}, {"type": "Feature", "properties": {"type": "postcode-cell", "postcode": "EX5 4LE", "postcodes": ["EX5 4LE"]}, "geometry": {"type": "MultiPolygon", "coordinates": [[[[-3.4056246480279575, 50.821285492113645], [-3.405439989622414, 50.82128999482252], [-3.4052499896221073, 50.82167999482283], [-3.4054313021356157, 50.82176240983831], [-3.4053759893004454, 50.82189884574519], [-3.404779989621611, 50.822099994823176], [-3.4038199896212253, 50.82163999482281], [-3.403379989620889, 50.82175999482292], [-3.4034699896210885, 50.821459994822675], [-3.4029599896207006, 50.821599994822776], [-3.4030599896208775, 50.821359994822586], [-3.4025599896205816, 50.82131999482258], [-3.402899989620906, 50.82108999482237], [-3.402229989620431, 50.82119999482249], [-3.401099989620076, 50.8204499948219], [-3.399169989619183, 50.8197699948214], [-3.3995799896199803, 50.818639994820494], [-3.3994199896211796, 50.81591999481835], [-3.4012499896220674, 50.81647999481877], [-3.402029989622945, 50.8156699948181], [-3.403649989624316, 50.8149399948175], [-3.404269989625109, 50.814099994816836], [-3.4042618503437123, 50.81407794549622], [-3.4085718297674386, 50.81401459382605], [-3.4056246480279575, 50.821285492113645]]], [[[-3.3933531605867078, 50.81423757836694], [-3.3947719488299652, 50.814216874212235], [-3.3939930531003917, 50.8177668630193], [-3.3933531605867078, 50.81423757836694]]]]}}, {"type": "Feature", "properties": {"type": "postcode-cell", "postcode": "EX15 1YQ", "postcodes": ["EX15 1YQ"]}, "geometry": {"type": "Polygon", "coordinates": [[[-3.3889178700559923, 50.829598700051676], [-3.3917218460382066, 50.82698588212728], [-3.39267998961145, 50.82738999482753], [-3.394739989612592, 50.82771999482774], [-3.3959999896131388, 50.82823999482813], [-3.396179989613429, 50.82786999482785], [-3.398779989615088, 50.827829994827795], [-3.399015251483463, 50.82814265075081], [-3.3889178700559923, 50.829598700051676]]]}}, {"type": "Feature", "properties": {"type": "postcode-cell", "postcode": "EX15 1TP", "postcodes": ["EX15 1TP"]}, "geometry": {"type": "Polygon", "coordinates": [[[-3.3863226574882233, 50.836440072299844], [-3.386199513860548, 50.836150973959555], [-3.3896762254041284, 50.83350067850119], [-3.3987198852459684, 50.83405719914338], [-3.398429989611362, 50.83516999483358], [-3.3933099896069994, 50.83753999483554], [-3.392899989606445, 50.83815999483603], [-3.392209989605919, 50.83834999483619], [-3.3925299896059187, 50.83876999483651], [-3.390918014660901, 50.839761321442786], [-3.3863226574882233, 50.836440072299844]]]}}, {"type": "Feature", "properties": {"type": "postcode-cell", "postcode": "EX15 1RJ", "postcodes": ["EX15 1RJ"]}, "geometry": {"type": "Polygon", "coordinates": [[[-3.389334577872743, 50.83105232114446], [-3.3896762254041284, 50.83350067850119], [-3.386199513860548, 50.836150973959555], [-3.3844174312757382, 50.83546093240262], [-3.379926740409552, 50.830118822431295], [-3.388579345612761, 50.829653416127265], [-3.3886318880990918, 50.8296739281352], [-3.389334577872743, 50.83105232114446]]]}}, {"type": "Feature", "properties": {"type": "postcode-cell", "postcode": "EX15 1SA", "postcodes": ["EX15 1SA"]}, "geometry": {"type": "Polygon", "coordinates": [[[-3.3886318880990918, 50.8296739281352], [-3.388579345612761, 50.829653416127265], [-3.3873423690061917, 50.82458455187569], [-3.387417976950514, 50.82452644271871], [-3.3874199896093797, 50.8247799948255], [-3.389099989609914, 50.825879994826366], [-3.3917218460382066, 50.82698588212728], [-3.3889178700559923, 50.829598700051676], [-3.3886318880990918, 50.8296739281352]]]}}, {"type": "Feature", "properties": {"type": "postcode-cell", "postcode": "EX15 1QL", "postcodes": ["EX15 1QL"]}, "geometry": {"type": "Polygon", "coordinates": [[[-3.3767676797626867, 50.863202529591696], [-3.3789073661145794, 50.862669260713545], [-3.3835084247660823, 50.86210706447471], [-3.3829988310393992, 50.86595792711735], [-3.3767676797626867, 50.863202529591696]]]}}, {"type": "Feature", "properties": {"type": "postcode-cell", "postcode": "EX15 1SE", "postcodes": ["EX15 1SE"]}, "geometry": {"type": "Polygon", "coordinates": [[[-3.38617694575073, 50.821079299291064], [-3.381187404931306, 50.817118380064024], [-3.3813309328486536, 50.816802065825456], [-3.389230062024121, 50.812396640319086], [-3.390862642423529, 50.81171008488965], [-3.3933531605867078, 50.81423757836694], [-3.3939930531003917, 50.8177668630193], [-3.39382998961642, 50.81850999482049], [-3.392909989615725, 50.81874999482068], [-3.392329989614974, 50.81954999482131], [-3.3904199896137874, 50.81951999482132], [-3.3893099896128924, 50.819929994821656], [-3.38873998961235, 50.82030999482195], [-3.3890699896123477, 50.82074999482231], [-3.3885299896118397, 50.82109999482259], [-3.387389989611169, 50.820999994822536], [-3.387391299912796, 50.82116512149184], [-3.38617694575073, 50.821079299291064]]]}}, {"type": "Feature", "properties": {"type": "postcode-cell", "postcode": "EX15 1RH", "postcodes": ["EX15 1RH"]}, "geometry": {"type": "Polygon", "coordinates": [[[-3.388579345612761, 50.829653416127265], [-3.379926740409552, 50.830118822431295], [-3.3765637624864318, 50.828953752370815], [-3.3755868485728455, 50.82679009827028], [-3.3873423690061917, 50.82458455187569], [-3.388579345612761, 50.829653416127265]]]}}, {"type": "Feature", "properties": {"type": "postcode-cell", "postcode": "EX15 1RW", "postcodes": ["EX15 1RW"]}, "geometry": {"type": "Polygon", "coordinates": [[[-3.390918014660901, 50.839761321442786], [-3.390659989604192, 50.83991999483745], [-3.390629989603875, 50.840539994837926], [-3.3899499896034895, 50.840449994837876], [-3.389519989601336, 50.844389994841], [-3.3888599896000424, 50.84622999484247], [-3.387565381023973, 50.84809288792974], [-3.3799285494110562, 50.84615891507074], [-3.3773562915075583, 50.842165840706855], [-3.3863226574882233, 50.836440072299844], [-3.390918014660901, 50.839761321442786]]]}}, {"type": "Feature", "properties": {"type": "postcode-cell", "postcode": "EX15 1RQ", "postcodes": ["EX15 1RQ"]}, "geometry": {"type": "Polygon", "coordinates": [[[-3.3873423690061917, 50.82458455187569], [-3.3755868485728455, 50.82679009827028], [-3.37470582980137, 50.82610719531802], [-3.375423215355182, 50.82238948541182], [-3.379103544813076, 50.820825708576464], [-3.38617694575073, 50.821079299291064], [-3.387391299912796, 50.82116512149184], [-3.387417976950514, 50.82452644271871], [-3.3873423690061917, 50.82458455187569]]]}}, {"type": "Feature", "properties": {"type": "postcode-cell", "postcode": "EX15 1RL", "postcodes": ["EX15 1RL"]}, "geometry": {"type": "Polygon", "coordinates": [[[-3.3844174312757382, 50.83546093240262], [-3.369962316317726, 50.837262663742784], [-3.3697803685094843, 50.83719355403417], [-3.3765637624864318, 50.828953752370815], [-3.379926740409552, 50.830118822431295], [-3.3844174312757382, 50.83546093240262]]]}}, {"type": "Feature", "properties": {"type": "postcode-cell", "postcode": "EX15 1RG", "postcodes": ["EX15 1RG"]}, "geometry": {"type": "Polygon", "coordinates": [[[-3.381187404931306, 50.817118380064024], [-3.379103544813076, 50.820825708576464], [-3.375423215355182, 50.82238948541182], [-3.368307665257564, 50.81537397425402], [-3.369308011997347, 50.81538051291616], [-3.3813309328486536, 50.816802065825456], [-3.381187404931306, 50.817118380064024]]]}}, {"type": "Feature", "properties": {"type": "postcode-cell", "postcode": "EX15 1NT", "postcodes": ["EX15 1NT"]}, "geometry": {"type": "Polygon", "coordinates": [[[-3.382168823023275, 50.86052391655768], [-3.3802743900751038, 50.85836329501757], [-3.3821642395804887, 50.85765961932201], [-3.3841334092184434, 50.85738341706476], [-3.3836823658758854, 50.86079250282951], [-3.382168823023275, 50.86052391655768]]]}}, {"type": "Feature", "properties": {"type": "postcode-cell", "postcode": "EX15 1RN", "postcodes": ["EX15 1RN"]}, "geometry": {"type": "Polygon", "coordinates": [[[-3.3863226574882233, 50.836440072299844], [-3.3773562915075583, 50.842165840706855], [-3.369962316317726, 50.837262663742784], [-3.3844174312757382, 50.83546093240262], [-3.386199513860548, 50.836150973959555], [-3.3863226574882233, 50.836440072299844]]]}}, {"type": "Feature", "properties": {"type": "postcode-cell", "postcode": "EX15 1SF", "postcodes": ["EX15 1SF"]}, "geometry": {"type": "Polygon", "coordinates": [[[-3.38617694575073, 50.821079299291064], [-3.379103544813076, 50.820825708576464], [-3.381187404931306, 50.817118380064024], [-3.38617694575073, 50.821079299291064]]]}}, {"type": "Feature", "properties": {"type": "postcode-cell", "postcode": "EX15 1RB", "postcodes": ["EX15 1RB"]}, "geometry": {"type": "Polygon", "coordinates": [[[-3.3755868485728455, 50.82679009827028], [-3.3765637624864318, 50.828953752370815], [-3.3697803685094843, 50.83719355403417], [-3.3678270497751592, 50.83732308045978], [-3.360973186722014, 50.83223515277564], [-3.3623599895902543, 50.83177999483139], [-3.3640199895909353, 50.832539994831976], [-3.366749989594195, 50.82931999482938], [-3.367619989594642, 50.82952999482956], [-3.3674699895956484, 50.827229994827725], [-3.367624051565742, 50.82616324414731], [-3.37470582980137, 50.82610719531802], [-3.3755868485728455, 50.82679009827028]]]}}, {"type": "Feature", "properties": {"type": "postcode-cell", "postcode": "EX15 1US", "postcodes": ["EX15 1US"]}, "geometry": {"type": "Polygon", "coordinates": [[[-3.3821642395804887, 50.85765961932201], [-3.3795194042138443, 50.85735350010358], [-3.3795029688538656, 50.857049628466285], [-3.384399450862806, 50.85537239778609], [-3.3841334092184434, 50.85738341706476], [-3.3821642395804887, 50.85765961932201]]]}}, {"type": "Feature", "properties": {"type": "postcode-cell", "postcode": "EX15 1NL", "postcodes": ["EX15 1NL"]}, "geometry": {"type": "Polygon", "coordinates": [[[-3.3802743900751038, 50.85836329501757], [-3.3790070503057597, 50.858404733592174], [-3.3789802262644093, 50.85784297098979], [-3.3795194042138443, 50.85735350010358], [-3.3821642395804887, 50.85765961932201], [-3.3802743900751038, 50.85836329501757]]]}}, {"type": "Feature", "properties": {"type": "postcode-cell", "postcode": "EX15 1GY", "postcodes": ["EX15 1GY"]}, "geometry": {"type": "Polygon", "coordinates": [[[-3.3772668167842204, 50.854791335241075], [-3.3766281142433674, 50.8548961974567], [-3.3689983110944763, 50.85395377092705], [-3.368064612755309, 50.85232362092502], [-3.367221700744047, 50.850694418332516], [-3.366945537335743, 50.85006695334023], [-3.3799285494110562, 50.84615891507074], [-3.387565381023973, 50.84809288792974], [-3.3856699895958378, 50.850819994846134], [-3.385208042875831, 50.85224677777922], [-3.3772668167842204, 50.854791335241075]]]}}, {"type": "Feature", "properties": {"type": "postcode-cell", "postcode": "EX15 1UW", "postcodes": ["EX15 1UW"]}, "geometry": {"type": "Polygon", "coordinates": [[[-3.385208042875831, 50.85224677777922], [-3.3845399895934576, 50.854309994848926], [-3.384399450862806, 50.85537239778609], [-3.3795029688538656, 50.857049628466285], [-3.3772668167842204, 50.854791335241075], [-3.385208042875831, 50.85224677777922]]]}}, {"type": "Feature", "properties": {"type": "postcode-cell", "postcode": "EX15 1NU", "postcodes": ["EX15 1NU"]}, "geometry": {"type": "Polygon", "coordinates": [[[-3.382168823023275, 50.86052391655768], [-3.3799222495471337, 50.86031067456718], [-3.3786944144461977, 50.860083904113495], [-3.378037591842922, 50.85936339381936], [-3.3790070503057597, 50.858404733592174], [-3.3802743900751038, 50.85836329501757], [-3.382168823023275, 50.86052391655768]]]}}, {"type": "Feature", "properties": {"type": "postcode-cell", "postcode": "EX15 1BS", "postcodes": ["EX15 1BS"]}, "geometry": {"type": "Polygon", "coordinates": [[[-3.382168823023275, 50.86052391655768], [-3.3836823658758854, 50.86079250282951], [-3.3835084247660823, 50.86210706447471], [-3.3789073661145794, 50.862669260713545], [-3.3799222495471337, 50.86031067456718], [-3.382168823023275, 50.86052391655768]]]}}, {"type": "Feature", "properties": {"type": "postcode-cell", "postcode": "EX15 1BH", "postcodes": ["EX15 1BH"]}, "geometry": {"type": "Polygon", "coordinates": [[[-3.3799222495471337, 50.86031067456718], [-3.3789073661145794, 50.862669260713545], [-3.3767676797626867, 50.863202529591696], [-3.375843479056848, 50.86311178582005], [-3.375912025814949, 50.86254130843154], [-3.3786944144461977, 50.860083904113495], [-3.3799222495471337, 50.86031067456718]]]}}, {"type": "Feature", "properties": {"type": "postcode-cell", "postcode": "EX15 1NJ", "postcodes": ["EX15 1NJ"]}, "geometry": {"type": "Polygon", "coordinates": [[[-3.3789802262644093, 50.85784297098979], [-3.377319054950334, 50.85712092377595], [-3.376745552956292, 50.856063718046315], [-3.3766281142433674, 50.8548961974567], [-3.3772668167842204, 50.854791335241075], [-3.3795029688538656, 50.857049628466285], [-3.3795194042138443, 50.85735350010358], [-3.3789802262644093, 50.85784297098979]]]}}, {"type": "Feature", "properties": {"type": "postcode-cell", "postcode": "EX15 1SG", "postcodes": ["EX15 1SG"]}, "geometry": {"type": "Polygon", "coordinates": [[[-3.369308011997347, 50.81538051291616], [-3.389230062024121, 50.812396640319086], [-3.3813309328486536, 50.816802065825456], [-3.369308011997347, 50.81538051291616]]]}}, {"type": "Feature", "properties": {"type": "postcode-cell", "postcode": "EX15 1QJ", "postcodes": ["EX15 1QJ"]}, "geometry": {"type": "Polygon", "coordinates": [[[-3.3829988310393992, 50.86595792711735], [-3.3827264755680706, 50.868015801433486], [-3.373831754676743, 50.86420053986999], [-3.375843479056848, 50.86311178582005], [-3.3767676797626867, 50.863202529591696], [-3.3829988310393992, 50.86595792711735]]]}}, {"type": "Feature", "properties": {"type": "postcode-cell", "postcode": "EX15 1SQ", "postcodes": ["EX15 1SQ"]}, "geometry": {"type": "MultiPolygon", "coordinates": [[[[-3.390862642423529, 50.81171008488965], [-3.389230062024121, 50.812396640319086], [-3.369308011997347, 50.81538051291616], [-3.368307665257564, 50.81537397425402], [-3.361610534930549, 50.81232153058821], [-3.3625399895997776, 50.81213999481588], [-3.363029989600323, 50.811649994815504], [-3.3668499896024473, 50.812219994815905], [-3.368309989604013, 50.8108699948148], [-3.3731499896070027, 50.810979994814815], [-3.3765399896095367, 50.810139994814094], [-3.3789199896109605, 50.8102899948142], [-3.379099989611323, 50.80976999481376], [-3.380469989611984, 50.810189994814095], [-3.3808699896119725, 50.810739994814504], [-3.3838599896141015, 50.810219994814055], [-3.3871799896168877, 50.80876999481287], [-3.3887199896178473, 50.80878999481286], [-3.3901217523797844, 50.80831351692291], [-3.390862642423529, 50.81171008488965]]], [[[-3.3607700062363803, 50.81193837546332], [-3.361069989598941, 50.811959994815766], [-3.3611336913635554, 50.81210416290622], [-3.3607700062363803, 50.81193837546332]]]]}}, {"type": "Feature", "properties": {"type": "postcode-cell", "postcode": "EX15 1RF", "postcodes": ["EX15 1RF"]}, "geometry": {"type": "Polygon", "coordinates": [[[-3.37470582980137, 50.82610719531802], [-3.367624051565742, 50.82616324414731], [-3.367999989597738, 50.82355999482482], [-3.366989989598556, 50.820529994822444], [-3.361749989595039, 50.82098999482288], [-3.359909989596833, 50.81483999481804], [-3.3599599895982815, 50.811879994815705], [-3.3607700062363803, 50.81193837546332], [-3.3611336913635554, 50.81210416290622], [-3.3612599895988535, 50.81238999481608], [-3.361610534930549, 50.81232153058821], [-3.368307665257564, 50.81537397425402], [-3.375423215355182, 50.82238948541182], [-3.37470582980137, 50.82610719531802]]]}}, {"type": "Feature", "properties": {"type": "postcode-cell", "postcode": "EX15 1NX", "postcodes": ["EX15 1NX"]}, "geometry": {"type": "Polygon", "coordinates": [[[-3.3790070503057597, 50.858404733592174], [-3.378037591842922, 50.85936339381936], [-3.37794782037561, 50.85934216880667], [-3.376537586256452, 50.85878791791525], [-3.377319054950334, 50.85712092377595], [-3.3789802262644093, 50.85784297098979], [-3.3790070503057597, 50.858404733592174]]]}}, {"type": "Feature", "properties": {"type": "postcode-cell", "postcode": "EX15 1DH", "postcodes": ["EX15 1DH"]}, "geometry": {"type": "Polygon", "coordinates": [[[-3.3786944144461977, 50.860083904113495], [-3.375912025814949, 50.86254130843154], [-3.3745622964170554, 50.86072613034868], [-3.37794782037561, 50.85934216880667], [-3.378037591842922, 50.85936339381936], [-3.3786944144461977, 50.860083904113495]]]}}, {"type": "Feature", "properties": {"type": "postcode-cell", "postcode": "EX15 1BJ", "postcodes": ["EX15 1BJ"]}, "geometry": {"type": "Polygon", "coordinates": [[[-3.3689983110944763, 50.85395377092705], [-3.3679413905910076, 50.85802957232049], [-3.3612256621495735, 50.86365688526709], [-3.3575317450594655, 50.863096955731976], [-3.3578799895725715, 50.86283999485604], [-3.3572099895730725, 50.86090999485451], [-3.357329961143141, 50.85868583920645], [-3.3607094447704826, 50.856024251114974], [-3.368064612755309, 50.85232362092502], [-3.3689983110944763, 50.85395377092705]]]}}, {"type": "Feature", "properties": {"type": "postcode-cell", "postcode": "EX15 1RA", "postcodes": ["EX15 1RA"]}, "geometry": {"type": "Polygon", "coordinates": [[[-3.3799285494110562, 50.84615891507074], [-3.366945537335743, 50.85006695334023], [-3.364310760310243, 50.84916181616322], [-3.364349989583266, 50.848999994844974], [-3.3638519237098397, 50.848532434154], [-3.3660441788843114, 50.83856395494264], [-3.3678270497751592, 50.83732308045978], [-3.3697803685094843, 50.83719355403417], [-3.369962316317726, 50.837262663742784], [-3.3773562915075583, 50.842165840706855], [-3.3799285494110562, 50.84615891507074]]]}}, {"type": "Feature", "properties": {"type": "postcode-cell", "postcode": "EX15 1QW", "postcodes": ["EX15 1QW"]}, "geometry": {"type": "Polygon", "coordinates": [[[-3.3651257224930773, 50.86814652981897], [-3.380743049220975, 50.87109747887864], [-3.3822623396428804, 50.871522348654906], [-3.3821699895834136, 50.87221999486316], [-3.3804499895822095, 50.872469994863394], [-3.380519989582063, 50.87286999486372], [-3.3798999895814927, 50.873239994864015], [-3.3787899895809206, 50.87296999486384], [-3.3782599895803904, 50.873379994864116], [-3.3773599895797877, 50.87344999486421], [-3.3771399895793066, 50.874169994864786], [-3.375149989577812, 50.87466999486522], [-3.374809989577669, 50.87451999486509], [-3.372519989575606, 50.87580999486614], [-3.3722499895752067, 50.876289994866525], [-3.3717099895749154, 50.87618999486645], [-3.3714499895745447, 50.87661999486681], [-3.370929989574253, 50.876539994866725], [-3.3710599895739795, 50.87728999486735], [-3.370289989573338, 50.8776099948676], [-3.370409989573229, 50.87799999486791], [-3.368569989571209, 50.879799994869344], [-3.3675999895707287, 50.879519994869156], [-3.367419989570424, 50.87991999486947], [-3.367249989570422, 50.87969999486931], [-3.3666699895700147, 50.879789994869384], [-3.366249989569473, 50.88036999486983], [-3.3658799895692955, 50.88024999486975], [-3.3637499895676504, 50.88087999487028], [-3.36343998956755, 50.88067999487011], [-3.3622216459449743, 50.879578025026966], [-3.3651257224930773, 50.86814652981897]]]}}, {"type": "Feature", "properties": {"type": "postcode-cell", "postcode": "EX15 1NZ", "postcodes": ["EX15 1NZ"]}, "geometry": {"type": "Polygon", "coordinates": [[[-3.376537586256452, 50.85878791791525], [-3.374813722378646, 50.85862752345275], [-3.376745552956292, 50.856063718046315], [-3.377319054950334, 50.85712092377595], [-3.376537586256452, 50.85878791791525]]]}}, {"type": "Feature", "properties": {"type": "postcode-cell", "postcode": "EX15 1TS", "postcodes": ["EX15 1TS"]}, "geometry": {"type": "Polygon", "coordinates": [[[-3.375843479056848, 50.86311178582005], [-3.373831754676743, 50.86420053986999], [-3.3732710522999345, 50.86436820332743], [-3.363989931226529, 50.865680406556], [-3.3612256621495735, 50.86365688526709], [-3.3679413905910076, 50.85802957232049], [-3.3721340223418226, 50.85889045579368], [-3.3745622964170554, 50.86072613034868], [-3.375912025814949, 50.86254130843154], [-3.375843479056848, 50.86311178582005]]]}}, {"type": "Feature", "properties": {"type": "postcode-cell", "postcode": "EX15 1PA", "postcodes": ["EX15 1PA"]}, "geometry": {"type": "Polygon", "coordinates": [[[-3.374813722378646, 50.85862752345275], [-3.3721340223418226, 50.85889045579368], [-3.3679413905910076, 50.85802957232049], [-3.3689983110944763, 50.85395377092705], [-3.3766281142433674, 50.8548961974567], [-3.376745552956292, 50.856063718046315], [-3.374813722378646, 50.85862752345275]]]}}, {"type": "Feature", "properties": {"type": "postcode-cell", "postcode": "EX15 1UY", "postcodes": ["EX15 1UY"]}, "geometry": {"type": "Polygon", "coordinates": [[[-3.3827264755680706, 50.868015801433486], [-3.3822623396428804, 50.871522348654906], [-3.380743049220975, 50.87109747887864], [-3.3732710522999345, 50.86436820332743], [-3.373831754676743, 50.86420053986999], [-3.3827264755680706, 50.868015801433486]]]}}, {"type": "Feature", "properties": {"type": "postcode-cell", "postcode": "EX15 1DY", "postcodes": ["EX15 1DY"]}, "geometry": {"type": "Polygon", "coordinates": [[[-3.3721340223418226, 50.85889045579368], [-3.374813722378646, 50.85862752345275], [-3.376537586256452, 50.85878791791525], [-3.37794782037561, 50.85934216880667], [-3.3745622964170554, 50.86072613034868], [-3.3721340223418226, 50.85889045579368]]]}}, {"type": "Feature", "properties": {"type": "postcode-cell", "postcode": "EX15 1QN", "postcodes": ["EX15 1QN"]}, "geometry": {"type": "Polygon", "coordinates": [[[-3.380743049220975, 50.87109747887864], [-3.3651257224930773, 50.86814652981897], [-3.363989931226529, 50.865680406556], [-3.3732710522999345, 50.86436820332743], [-3.380743049220975, 50.87109747887864]]]}}, {"type": "Feature", "properties": {"type": "postcode-cell", "postcode": "EX15 2AU", "postcodes": ["EX15 2AU"]}, "geometry": {"type": "Polygon", "coordinates": [[[-3.3612256621495735, 50.86365688526709], [-3.363989931226529, 50.865680406556], [-3.3651257224930773, 50.86814652981897], [-3.3622216459449743, 50.879578025026966], [-3.3616599895671975, 50.879069994868864], [-3.3615899895673866, 50.878579994868474], [-3.361839989569238, 50.87502999486565], [-3.3614999895690985, 50.87487999486553], [-3.3623899895700933, 50.873969994864815], [-3.3625199895709588, 50.87232999486351], [-3.3597299895691295, 50.872479994863674], [-3.3531499895663934, 50.8695299948614], [-3.3564399895686226, 50.869199994861084], [-3.3562799895695354, 50.86707999485944], [-3.3568499895715593, 50.863599994856656], [-3.3575317450594655, 50.863096955731976], [-3.3612256621495735, 50.86365688526709]]]}}, {"type": "Feature", "properties": {"type": "postcode-cell", "postcode": "EX15 1WH", "postcodes": ["EX15 1WH"]}, "geometry": {"type": "Polygon", "coordinates": [[[-3.357329961143141, 50.85868583920645], [-3.357432246290669, 50.85678943454382], [-3.361278816336368, 50.855074628872806], [-3.3607094447704826, 50.856024251114974], [-3.357329961143141, 50.85868583920645]]]}}, {"type": "Feature", "properties": {"type": "postcode-cell", "postcode": "EX15 2LR", "postcodes": ["EX15 2LR"]}, "geometry": {"type": "Polygon", "coordinates": [[[-3.3527203997284354, 50.83211760449118], [-3.3416473315109236, 50.828116626960636], [-3.342259989579568, 50.82772999482848], [-3.3435699895813022, 50.82582999482696], [-3.3508999895852054, 50.827289994828014], [-3.3538399895874536, 50.826449994827286], [-3.3570099895892294, 50.82689999482761], [-3.3555083091884854, 50.83120796641815], [-3.3527203997284354, 50.83211760449118]]]}}, {"type": "Feature", "properties": {"type": "postcode-cell", "postcode": "EX15 1BY", "postcodes": ["EX15 1BY"]}, "geometry": {"type": "Polygon", "coordinates": [[[-3.367221700744047, 50.850694418332516], [-3.368064612755309, 50.85232362092502], [-3.3607094447704826, 50.856024251114974], [-3.361278816336368, 50.855074628872806], [-3.367221700744047, 50.850694418332516]]]}}, {"type": "Feature", "properties": {"type": "postcode-cell", "postcode": "EX15 1QQ", "postcodes": ["EX15 1QQ"]}, "geometry": {"type": "Polygon", "coordinates": [[[-3.361278816336368, 50.855074628872806], [-3.357432246290669, 50.85678943454382], [-3.3575799895765868, 50.85404999484908], [-3.3608799895802868, 50.85065999484635], [-3.3621399895812716, 50.85025999484603], [-3.3627099895819703, 50.84954999484546], [-3.364269989583058, 50.849329994845256], [-3.364310760310243, 50.84916181616322], [-3.366945537335743, 50.85006695334023], [-3.367221700744047, 50.850694418332516], [-3.361278816336368, 50.855074628872806]]]}}, {"type": "Feature", "properties": {"type": "postcode-cell", "postcode": "EX15 1RD", "postcodes": ["EX15 1RD"]}, "geometry": {"type": "Polygon", "coordinates": [[[-3.3638519237098397, 50.848532434154], [-3.362879989583001, 50.84761999484393], [-3.360189989581418, 50.84738999484376], [-3.3595299895812882, 50.8467899948433], [-3.3553054882047517, 50.84670461036839], [-3.3534114429131505, 50.84042097241587], [-3.3660441788843114, 50.83856395494264], [-3.3638519237098397, 50.848532434154]]]}}, {"type": "Feature", "properties": {"type": "postcode-cell", "postcode": "EX15 2BZ", "postcodes": ["EX15 2BZ"]}, "geometry": {"type": "MultiPolygon", "coordinates": [[[[-3.34346979706078, 50.84263733900751], [-3.3429299895726476, 50.843039994840574], [-3.3428118598941787, 50.84280651648257], [-3.34346979706078, 50.84263733900751]]], [[[-3.3529133853453104, 50.840208537270314], [-3.3534114429131505, 50.84042097241587], [-3.3553054882047517, 50.84670461036839], [-3.3516199895763896, 50.8466299948433], [-3.3483699895747563, 50.84576999484264], [-3.3487899895755575, 50.84464999484176], [-3.3484799895755604, 50.84423999484144], [-3.346479989574783, 50.84323999484069], [-3.3453197157852164, 50.842161637174215], [-3.3529133853453104, 50.840208537270314]]]]}}, {"type": "Feature", "properties": {"type": "postcode-cell", "postcode": "EX15 1RE", "postcodes": ["EX15 1RE"]}, "geometry": {"type": "Polygon", "coordinates": [[[-3.3660441788843114, 50.83856395494264], [-3.3534114429131505, 50.84042097241587], [-3.3529133853453104, 50.840208537270314], [-3.350351032322261, 50.83568884192349], [-3.3527203997284354, 50.83211760449118], [-3.3555083091884854, 50.83120796641815], [-3.355409989586024, 50.83148999483128], [-3.355899989585177, 50.833899994833146], [-3.360973186722014, 50.83223515277564], [-3.3678270497751592, 50.83732308045978], [-3.3660441788843114, 50.83856395494264]]]}}, {"type": "Feature", "properties": {"type": "postcode-cell", "postcode": "EX15 2DB", "postcodes": ["EX15 2DB"]}, "geometry": {"type": "Polygon", "coordinates": [[[-3.350351032322261, 50.83568884192349], [-3.3529133853453104, 50.840208537270314], [-3.3453197157852164, 50.842161637174215], [-3.344779989574472, 50.84165999483945], [-3.34346979706078, 50.84263733900751], [-3.3428118598941787, 50.84280651648257], [-3.3416499895730567, 50.84050999483858], [-3.342589989575148, 50.837379994836084], [-3.3422599895754685, 50.83627999483522], [-3.3422116843178813, 50.83625288236881], [-3.350351032322261, 50.83568884192349]]]}}, {"type": "Feature", "properties": {"type": "postcode-cell", "postcode": "EX15 2DD", "postcodes": ["EX15 2DD"]}, "geometry": {"type": "Polygon", "coordinates": [[[-3.3527203997284354, 50.83211760449118], [-3.350351032322261, 50.83568884192349], [-3.3422116843178813, 50.83625288236881], [-3.3407099895749117, 50.83540999483456], [-3.341749989576178, 50.83412999483354], [-3.34346998957776, 50.83307999483267], [-3.34359998957815, 50.832439994832164], [-3.344869989579527, 50.8312299948312], [-3.3448399895796728, 50.83088999483092], [-3.3428499895783705, 50.83099999483104], [-3.342809989578618, 50.830429994830595], [-3.34122998957861, 50.82837999482901], [-3.3416473315109236, 50.828116626960636], [-3.3527203997284354, 50.83211760449118]]]}}]}