{"type": "FeatureCollection", "features": [{"type": "Feature", "properties": {"type": "ward-outline", "name": "Dartington & Staverton"}, "geometry": {"type": "Polygon", "coordinates": [[[-3.72758, 50.49775], [-3.72519, 50.49532], [-3.72334, 50.49438], [-3.72269, 50.49457], [-3.72233, 50.49427], [-3.72153, 50.49433], [-3.7207, 50.49402], [-3.72023, 50.4934], [-3.71936, 50.49345], [-3.71849, 50.49304], [-3.71871, 50.49244], [-3.71696, 50.49067], [-3.71761, 50.4892], [-3.71685, 50.48827], [-3.71705, 50.48742], [-3.7162, 50.48673], [-3.71608, 50.48575], [-3.71548, 50.48502], [-3.71207, 50.48301], [-3.71164, 50.48236], [-3.71095, 50.48283], [-3.71045, 50.48261], [-3.71024, 50.48179], [-3.70838, 50.48099], [-3.70787, 50.48128], [-3.70752, 50.48096], [-3.70648, 50.48114], [-3.70601, 50.48049], [-3.70387, 50.48046], [-3.70316, 50.48002], [-3.7, 50.47965], [-3.69868, 50.4787], [-3.69829, 50.47885], [-3.69719, 50.47827], [-3.69407, 50.47785], [-3.69375, 50.47594], [-3.69228, 50.47472], [-3.69123, 50.47447], [-3.69139, 50.47397], [-3.69079, 50.47363], [-3.69081, 50.47325], [-3.68989, 50.47289], [-3.6895, 50.47225], [-3.6885, 50.47199], [-3.68631, 50.4701], [-3.68302, 50.46909], [-3.68247, 50.46842], [-3.68193, 50.46852], [-3.6815, 50.46822], [-3.68152, 50.46794], [-3.68002, 50.46808], [-3.6796, 50.46761], [-3.67788, 50.46701], [-3.67679, 50.46698], [-3.67495, 50.46611], [-3.67957, 50.46167], [-3.67964, 50.45847], [-3.68101, 50.45711], [-3.68245, 50.45664], [-3.68185, 50.45533], [-3.68264, 50.45355], [-3.68477, 50.45197], [-3.68563, 50.45022], [-3.68609, 50.44972], [-3.68665, 50.4497], [-3.68743, 50.44848], [-3.68929, 50.44713], [-3.69104, 50.44485], [-3.69134, 50.43932], [-3.69251, 50.44064], [-3.69482, 50.43904], [-3.6957, 50.43964], [-3.69789, 50.43833], [-3.69831, 50.4377], [-3.69845, 50.43718], [-3.69672, 50.43676], [-3.69783, 50.43542], [-3.69498, 50.43481], [-3.69321, 50.43386], [-3.69346, 50.43373], [-3.69482, 50.43396], [-3.69604, 50.4333], [-3.69762, 50.43352], [-3.69908, 50.43313], [-3.70049, 50.43325], [-3.70166, 50.43277], [-3.70479, 50.43227], [-3.70869, 50.4344], [-3.70968, 50.43453], [-3.71033, 50.43499], [-3.71287, 50.43529], [-3.71583, 50.43572], [-3.71695, 50.43549], [-3.71883, 50.43648], [-3.7187, 50.43764], [-3.7207, 50.4376], [-3.72183, 50.43993], [-3.72104, 50.441], [-3.72169, 50.44122], [-3.72324, 50.44097], [-3.72421, 50.44143], [-3.72609, 50.44081], [-3.72815, 50.43943], [-3.72985, 50.43762], [-3.73291, 50.43706], [-3.73336, 50.43654], [-3.73539, 50.43632], [-3.73878, 50.43429], [-3.7451, 50.43199], [-3.75122, 50.42746], [-3.75114, 50.42523], [-3.7532, 50.42533], [-3.75351, 50.42596], [-3.7553, 50.42603], [-3.75687, 50.4267], [-3.75801, 50.42617], [-3.75968, 50.42625], [-3.76034, 50.42602], [-3.76228, 50.42655], [-3.76231, 50.42686], [-3.76521, 50.42686], [-3.76652, 50.42728], [-3.76498, 50.42875], [-3.76536, 50.43143], [-3.76358, 50.43205], [-3.76275, 50.43277], [-3.76033, 50.43299], [-3.75891, 50.43384], [-3.75813, 50.43675], [-3.75951, 50.43702], [-3.75808, 50.43715], [-3.75872, 50.43838], [-3.76122, 50.43906], [-3.76005, 50.44037], [-3.75672, 50.44285], [-3.75607, 50.44139], [-3.75533, 50.44082], [-3.75462, 50.44173], [-3.75263, 50.44083], [-3.75056, 50.44054], [-3.74945, 50.44209], [-3.74828, 50.44234], [-3.74898, 50.44348], [-3.7488, 50.44462], [-3.74952, 50.44618], [-3.74836, 50.44775], [-3.74746, 50.4482], [-3.74773, 50.4486], [-3.74631, 50.44935], [-3.74207, 50.44991], [-3.73993, 50.45216], [-3.73848, 50.4544], [-3.73163, 50.45756], [-3.73016, 50.45794], [-3.73107, 50.4584], [-3.72963, 50.45906], [-3.7295, 50.45946], [-3.73047, 50.45971], [-3.73369, 50.46156], [-3.73865, 50.46327], [-3.74054, 50.46364], [-3.74296, 50.46343], [-3.74494, 50.46244], [-3.74868, 50.46123], [-3.75235, 50.46083], [-3.75484, 50.46115], [-3.75625, 50.4616], [-3.75792, 50.4633], [-3.75873, 50.46468], [-3.75886, 50.46682], [-3.75894, 50.47004], [-3.75769, 50.47354], [-3.75789, 50.47442], [-3.76091, 50.47719], [-3.76079, 50.47853], [-3.7612, 50.47905], [-3.7663, 50.48187], [-3.76748, 50.48489], [-3.7692, 50.48581], [-3.76833, 50.48886], [-3.76613, 50.49243], [-3.76559, 50.49403], [-3.76578, 50.496], [-3.76781, 50.49955], [-3.76823, 50.50136], [-3.76777, 50.50341], [-3.76658, 50.50506], [-3.76436, 50.50671], [-3.75835, 50.50915], [-3.75629, 50.51039], [-3.75037, 50.50933], [-3.74743, 50.50803], [-3.74521, 50.50759], [-3.74185, 50.50796], [-3.7374, 50.50634], [-3.73725, 50.50548], [-3.73586, 50.50382], [-3.73527, 50.50239], [-3.73413, 50.50138], [-3.73042, 50.49885], [-3.72758, 50.49775]]]}}, {"type": "Feature", "properties": {"type": "postcode-cell", "postcode": "TQ13 7JJ", "postcodes": ["TQ13 7JJ"]}, "geometry": {"type": "Polygon", "coordinates": [[[-3.7601141031451393, 50.5007574050072], [-3.757989164600776, 50.494865835701326], [-3.765276083159347, 50.49026831053787], [-3.767380945566701, 50.49040010465691], [-3.7661299900075833, 50.49242999455874], [-3.765589990006487, 50.49402999455999], [-3.765779990005678, 50.49599999456151], [-3.7678099900053055, 50.499549994564234], [-3.7682299900047216, 50.50135999456561], [-3.7682285767954644, 50.50136629282342], [-3.7601141031451393, 50.5007574050072]]]}}, {"type": "Feature", "properties": {"type": "postcode-cell", "postcode": "TQ11 0JR", "postcodes": ["TQ11 0JR"]}, "geometry": {"type": "Polygon", "coordinates": [[[-3.765276083159347, 50.49026831053787], [-3.7584962244825015, 50.485883341462554], [-3.7622946678582934, 50.47965533471678], [-3.766299990012672, 50.481869994550536], [-3.7674799900120024, 50.48488999455285], [-3.769199990012667, 50.48580999455353], [-3.7683299900106744, 50.48885999455592], [-3.767380945566701, 50.49040010465691], [-3.765276083159347, 50.49026831053787]]]}}, {"type": "Feature", "properties": {"type": "postcode-cell", "postcode": "TQ13 7NF", "postcodes": ["TQ13 7NF"]}, "geometry": {"type": "Polygon", "coordinates": [[[-3.757989164600776, 50.494865835701326], [-3.7492799457824404, 50.49244293486905], [-3.749903165393403, 50.48950655418224], [-3.7573680051199565, 50.4860544177344], [-3.7584962244825015, 50.485883341462554], [-3.765276083159347, 50.49026831053787], [-3.757989164600776, 50.494865835701326]]]}}, {"type": "Feature", "properties": {"type": "postcode-cell", "postcode": "TQ13 7JH", "postcodes": ["TQ13 7JH"]}, "geometry": {"type": "Polygon", "coordinates": [[[-3.7540982489767813, 50.503628956396255], [-3.7544247143538976, 50.50322238764378], [-3.7601141031451393, 50.5007574050072], [-3.7682285767954644, 50.50136629282342], [-3.767769990003461, 50.50340999456722], [-3.766579990001922, 50.50505999456852], [-3.764359989999727, 50.506709994569874], [-3.759771880216645, 50.508572771767525], [-3.7540982489767813, 50.503628956396255]]]}}, {"type": "Feature", "properties": {"type": "postcode-cell", "postcode": "TQ13 7NG", "postcodes": ["TQ13 7NG"]}, "geometry": {"type": "Polygon", "coordinates": [[[-3.7601141031451393, 50.5007574050072], [-3.7544247143538976, 50.50322238764378], [-3.7439890434550223, 50.495230014812144], [-3.7492799457824404, 50.49244293486905], [-3.757989164600776, 50.494865835701326], [-3.7601141031451393, 50.5007574050072]]]}}, {"type": "Feature", "properties": {"type": "postcode-cell", "postcode": "TQ9 6DW", "postcodes": ["TQ9 6DW"]}, "geometry": {"type": "Polygon", "coordinates": [[[-3.753837305833456, 50.431506864863785], [-3.749495828623168, 50.43259741860117], [-3.745816043294086, 50.43146003543805], [-3.7512199900287624, 50.4274599945088], [-3.7511399900297646, 50.42522999450708], [-3.753199990031031, 50.425329994507116], [-3.753509990030928, 50.42595999450759], [-3.755299990032032, 50.42602999450761], [-3.756869990032715, 50.426699994508084], [-3.7580099900336905, 50.42616999450766], [-3.7585304683682064, 50.42619493020557], [-3.753837305833456, 50.431506864863785]]]}}, {"type": "Feature", "properties": {"type": "postcode-cell", "postcode": "TQ9 6DP", "postcodes": ["TQ9 6DP"]}, "geometry": {"type": "Polygon", "coordinates": [[[-3.753837305833456, 50.431506864863785], [-3.7585304683682064, 50.42619493020557], [-3.7596799900347144, 50.426249994507685], [-3.7603399900352446, 50.42601999450748], [-3.7622799900362276, 50.42654999450786], [-3.762309990036102, 50.426859994508085], [-3.7652099900379485, 50.426859994508035], [-3.7665199900385837, 50.427279994508325], [-3.7649799900369083, 50.42874999450949], [-3.7653599900358823, 50.43142999451156], [-3.7635799900344558, 50.43204999451206], [-3.762749990033586, 50.43276999451264], [-3.7603299900319427, 50.43298999451288], [-3.7589099900306375, 50.43383999451357], [-3.758289812545404, 50.43615376178755], [-3.753837305833456, 50.431506864863785]]]}}, {"type": "Feature", "properties": {"type": "postcode-cell", "postcode": "TQ11 0LF", "postcodes": ["TQ11 0LF"]}, "geometry": {"type": "Polygon", "coordinates": [[[-3.7584962244825015, 50.485883341462554], [-3.7573680051199565, 50.4860544177344], [-3.7486967550375048, 50.48169288291034], [-3.752316656695236, 50.47860622553913], [-3.76085020865816, 50.47785756117036], [-3.760789990010725, 50.47852999454804], [-3.7611999900107436, 50.479049994548454], [-3.7622946678582934, 50.47965533471678], [-3.7584962244825015, 50.485883341462554]]]}}, {"type": "Feature", "properties": {"type": "postcode-cell", "postcode": "TQ9 6DS", "postcodes": ["TQ9 6DS"]}, "geometry": {"type": "Polygon", "coordinates": [[[-3.746789452729258, 50.43854367654037], [-3.7501635322189184, 50.43597710942791], [-3.758169648026967, 50.43660204802932], [-3.7581299900287637, 50.436749994515814], [-3.759509990029516, 50.437019994515985], [-3.758079990028543, 50.437149994516126], [-3.758719990028369, 50.43837999451706], [-3.7612199900296384, 50.43905999451752], [-3.7600499900282762, 50.440369994518576], [-3.7567199900249815, 50.442849994520536], [-3.7560699900252557, 50.44138999451941], [-3.755329990025055, 50.440819994519025], [-3.7546199900241732, 50.441729994519726], [-3.7526299900233324, 50.44082999451909], [-3.7505599900221527, 50.440539994518886], [-3.7494499900207114, 50.44208999452012], [-3.749147668493397, 50.44215459451124], [-3.746789452729258, 50.43854367654037]]]}}, {"type": "Feature", "properties": {"type": "postcode-cell", "postcode": "TQ9 6DR", "postcodes": ["TQ9 6DR"]}, "geometry": {"type": "Polygon", "coordinates": [[[-3.749495828623168, 50.43259741860117], [-3.753837305833456, 50.431506864863785], [-3.758289812545404, 50.43615376178755], [-3.758169648026967, 50.43660204802932], [-3.7501635322189184, 50.43597710942791], [-3.749495828623168, 50.43259741860117]]]}}, {"type": "Feature", "properties": {"type": "postcode-cell", "postcode": "TQ9 6DT", "postcodes": ["TQ9 6DT"]}, "geometry": {"type": "Polygon", "coordinates": [[[-3.7501635322189184, 50.43597710942791], [-3.746789452729258, 50.43854367654037], [-3.7438590782840566, 50.43768189084964], [-3.739709791043238, 50.43395165288212], [-3.7450999900227244, 50.431989994512406], [-3.745816043294086, 50.43146003543805], [-3.749495828623168, 50.43259741860117], [-3.7501635322189184, 50.43597710942791]]]}}, {"type": "Feature", "properties": {"type": "postcode-cell", "postcode": "TQ11 0JX", "postcodes": ["TQ11 0JX"]}, "geometry": {"type": "Polygon", "coordinates": [[[-3.7493777389081977, 50.47174346435212], [-3.746005092579148, 50.46907987367132], [-3.754835256338056, 50.461149386245545], [-3.7548399900151366, 50.461149994534736], [-3.7562499900158217, 50.46159999453504], [-3.7579199900160827, 50.46329999453634], [-3.7587299900159477, 50.464679994537384], [-3.758859990015022, 50.466819994539016], [-3.758939990013551, 50.47003999454153], [-3.7581755970174107, 50.47218035588287], [-3.7493777389081977, 50.47174346435212]]]}}, {"type": "Feature", "properties": {"type": "postcode-cell", "postcode": "TQ13 7RW", "postcodes": ["TQ13 7RW"]}, "geometry": {"type": "Polygon", "coordinates": [[[-3.7540982489767813, 50.503628956396255], [-3.759771880216645, 50.508572771767525], [-3.758349989994731, 50.50914999457188], [-3.75628998999283, 50.51038999457288], [-3.750369989989544, 50.509329994572155], [-3.7474299899882793, 50.508029994571224], [-3.7457737743070987, 50.50770174041883], [-3.7540982489767813, 50.503628956396255]]]}}, {"type": "Feature", "properties": {"type": "postcode-cell", "postcode": "TQ13 7NQ", "postcodes": ["TQ13 7NQ"]}, "geometry": {"type": "Polygon", "coordinates": [[[-3.7192791686547455, 50.486833488627326], [-3.7198870987714616, 50.48680535903636], [-3.7242228936738515, 50.48689121626769], [-3.726235387594016, 50.48735333431723], [-3.7281032202419957, 50.489735096910515], [-3.7300330435747413, 50.49273804171445], [-3.733050890342772, 50.49797661799049], [-3.7313050723095564, 50.49945360401754], [-3.7304199899817534, 50.498849994564424], [-3.727579989980465, 50.49774999456364], [-3.7251899899800875, 50.4953199945618], [-3.7233399899793524, 50.49437999456111], [-3.7226899899788513, 50.494569994561274], [-3.7223299899787627, 50.494269994561044], [-3.721529989978226, 50.49432999456111], [-3.720699989977843, 50.49401999456088], [-3.720229989977836, 50.493399994560406], [-3.71935998997726, 50.49344999456047], [-3.7184899899768977, 50.49303999456015], [-3.7187099899773255, 50.492439994559696], [-3.7169599899770462, 50.49066999455835], [-3.717609989978155, 50.489199994557204], [-3.716849989978112, 50.488269994556504], [-3.7170499899786433, 50.48741999455585], [-3.7169377076805916, 50.487328849280644], [-3.7192791686547455, 50.486833488627326]]]}}, {"type": "Feature", "properties": {"type": "postcode-cell", "postcode": "TQ11 0JU", "postcodes": ["TQ11 0JU"]}, "geometry": {"type": "Polygon", "coordinates": [[[-3.7493777389081977, 50.47174346435212], [-3.7474993375967243, 50.47556755227737], [-3.742295433576728, 50.47673286569567], [-3.738159510914432, 50.47086972012842], [-3.740423131386357, 50.469013277660984], [-3.746005092579148, 50.46907987367132], [-3.7493777389081977, 50.47174346435212]]]}}, {"type": "Feature", "properties": {"type": "postcode-cell", "postcode": "TQ11 0LE", "postcodes": ["TQ11 0LE"]}, "geometry": {"type": "Polygon", "coordinates": [[[-3.749903165393403, 50.48950655418224], [-3.741045235363333, 50.483465607104826], [-3.7486967550375048, 50.48169288291034], [-3.7573680051199565, 50.4860544177344], [-3.749903165393403, 50.48950655418224]]]}}, {"type": "Feature", "properties": {"type": "postcode-cell", "postcode": "TQ11 0JT", "postcodes": ["TQ11 0JT"]}, "geometry": {"type": "Polygon", "coordinates": [[[-3.752316656695236, 50.47860622553913], [-3.7474993375967243, 50.47556755227737], [-3.7493777389081977, 50.47174346435212], [-3.7581755970174107, 50.47218035588287], [-3.757689990011102, 50.47353999454426], [-3.7578899900108156, 50.47441999454495], [-3.7609099900114344, 50.477189994547004], [-3.76085020865816, 50.47785756117036], [-3.752316656695236, 50.47860622553913]]]}}, {"type": "Feature", "properties": {"type": "postcode-cell", "postcode": "TQ11 0FA", "postcodes": ["TQ11 0FA"]}, "geometry": {"type": "Polygon", "coordinates": [[[-3.7486967550375048, 50.48169288291034], [-3.741045235363333, 50.483465607104826], [-3.73936438842373, 50.48319188815894], [-3.7381638739787095, 50.481562114281736], [-3.742295433576728, 50.47673286569567], [-3.7474993375967243, 50.47556755227737], [-3.752316656695236, 50.47860622553913], [-3.7486967550375048, 50.48169288291034]]]}}, {"type": "Feature", "properties": {"type": "postcode-cell", "postcode": "TQ13 7ND", "postcodes": ["TQ13 7ND"]}, "geometry": {"type": "Polygon", "coordinates": [[[-3.7544247143538976, 50.50322238764378], [-3.7540982489767813, 50.503628956396255], [-3.7457737743070987, 50.50770174041883], [-3.745209989987068, 50.50758999457091], [-3.741849989984746, 50.50795999457127], [-3.73739998998267, 50.5063399945701], [-3.7372499899829807, 50.505479994569434], [-3.7358599899828793, 50.50381999456816], [-3.7352699899831756, 50.50238999456707], [-3.734129989982923, 50.5013799945663], [-3.7313050723095564, 50.49945360401754], [-3.733050890342772, 50.49797661799049], [-3.737365445972971, 50.49594202962113], [-3.7439890434550223, 50.495230014812144], [-3.7544247143538976, 50.50322238764378]]]}}, {"type": "Feature", "properties": {"type": "postcode-cell", "postcode": "TQ13 7NE", "postcodes": ["TQ13 7NE"]}, "geometry": {"type": "Polygon", "coordinates": [[[-3.7439890434550223, 50.495230014812144], [-3.737365445972971, 50.49594202962113], [-3.7373434448632388, 50.48671839208542], [-3.7375092462598922, 50.485028844915966], [-3.73936438842373, 50.48319188815894], [-3.741045235363333, 50.483465607104826], [-3.749903165393403, 50.48950655418224], [-3.7492799457824404, 50.49244293486905], [-3.7439890434550223, 50.495230014812144]]]}}, {"type": "Feature", "properties": {"type": "postcode-cell", "postcode": "TQ11 0JY", "postcodes": ["TQ11 0JY"]}, "geometry": {"type": "Polygon", "coordinates": [[[-3.746005092579148, 50.46907987367132], [-3.740423131386357, 50.469013277660984], [-3.737261406653141, 50.46447806147287], [-3.7380701523035564, 50.463070108242185], [-3.7386499900038173, 50.4632699945367], [-3.7405399900048457, 50.46363999453697], [-3.742959990006487, 50.46342999453674], [-3.7449399900082163, 50.46243999453592], [-3.7486799900111714, 50.46122999453492], [-3.7523499900136987, 50.460829994534535], [-3.754835256338056, 50.461149386245545], [-3.746005092579148, 50.46907987367132]]]}}, {"type": "Feature", "properties": {"type": "postcode-cell", "postcode": "TQ9 6DU", "postcodes": ["TQ9 6DU"]}, "geometry": {"type": "Polygon", "coordinates": [[[-3.7438590782840566, 50.43768189084964], [-3.734051199745959, 50.443260294399316], [-3.7299467794977503, 50.4376022828382], [-3.732909990012576, 50.4370599945166], [-3.7333599900131103, 50.436539994516174], [-3.7353899900145033, 50.43631999451598], [-3.738779990017618, 50.43428999451432], [-3.739709791043238, 50.43395165288212], [-3.7438590782840566, 50.43768189084964]]]}}, {"type": "Feature", "properties": {"type": "postcode-cell", "postcode": "TQ9 6AF", "postcodes": ["TQ9 6AF"]}, "geometry": {"type": "Polygon", "coordinates": [[[-3.737261406653141, 50.46447806147287], [-3.7310240490015976, 50.46493222677296], [-3.7242113052313233, 50.463261238386615], [-3.7245624583474144, 50.46074831228347], [-3.7311503178744294, 50.46010088583429], [-3.7336899900014697, 50.46155999453551], [-3.7380701523035564, 50.463070108242185], [-3.737261406653141, 50.46447806147287]]]}}, {"type": "Feature", "properties": {"type": "postcode-cell", "postcode": "TQ9 6DY", "postcodes": ["TQ9 6DY"]}, "geometry": {"type": "Polygon", "coordinates": [[[-3.749147668493397, 50.44215459451124], [-3.7482799900198485, 50.442339994520346], [-3.7489799900197545, 50.4434799945212], [-3.748799990019102, 50.444619994522085], [-3.7495199900188205, 50.44617999452328], [-3.7483599900173403, 50.44774999452451], [-3.747459990016556, 50.448199994524856], [-3.747729990016538, 50.448599994525196], [-3.746309990015279, 50.44934999452579], [-3.744288809888777, 50.4496169637082], [-3.7341785202004214, 50.443819977066575], [-3.734051199745959, 50.443260294399316], [-3.7438590782840566, 50.43768189084964], [-3.746789452729258, 50.43854367654037], [-3.749147668493397, 50.44215459451124]]]}}, {"type": "Feature", "properties": {"type": "postcode-cell", "postcode": "TQ13 7LU", "postcodes": ["TQ13 7LU"]}, "geometry": {"type": "Polygon", "coordinates": [[[-3.7300330435747413, 50.49273804171445], [-3.732173165002617, 50.4891418800389], [-3.7373434448632388, 50.48671839208542], [-3.737365445972971, 50.49594202962113], [-3.733050890342772, 50.49797661799049], [-3.7300330435747413, 50.49273804171445]]]}}, {"type": "Feature", "properties": {"type": "postcode-cell", "postcode": "TQ11 0LA", "postcodes": ["TQ11 0LA"]}, "geometry": {"type": "Polygon", "coordinates": [[[-3.738159510914432, 50.47086972012842], [-3.7368354032788544, 50.47119457296289], [-3.7302636147649664, 50.46940413422082], [-3.7310240490015976, 50.46493222677296], [-3.737261406653141, 50.46447806147287], [-3.740423131386357, 50.469013277660984], [-3.738159510914432, 50.47086972012842]]]}}, {"type": "Feature", "properties": {"type": "postcode-cell", "postcode": "TQ11 0LD", "postcodes": ["TQ11 0LD"]}, "geometry": {"type": "Polygon", "coordinates": [[[-3.742295433576728, 50.47673286569567], [-3.7381638739787095, 50.481562114281736], [-3.731152616207409, 50.478847632525095], [-3.7305001497125816, 50.47841937734154], [-3.7301737680302116, 50.476282009506455], [-3.7368354032788544, 50.47119457296289], [-3.738159510914432, 50.47086972012842], [-3.742295433576728, 50.47673286569567]]]}}, {"type": "Feature", "properties": {"type": "postcode-cell", "postcode": "TQ13 7LY", "postcodes": ["TQ13 7LY"]}, "geometry": {"type": "Polygon", "coordinates": [[[-3.7375092462598922, 50.485028844915966], [-3.726235387594016, 50.48735333431723], [-3.7242228936738515, 50.48689121626769], [-3.731152616207409, 50.478847632525095], [-3.7381638739787095, 50.481562114281736], [-3.73936438842373, 50.48319188815894], [-3.7375092462598922, 50.485028844915966]]]}}, {"type": "Feature", "properties": {"type": "postcode-cell", "postcode": "TQ9 6DJ", "postcodes": ["TQ9 6DJ"]}, "geometry": {"type": "Polygon", "coordinates": [[[-3.7193146859145636, 50.43981549034682], [-3.7175657651332688, 50.44022445254527], [-3.7155554322073665, 50.44016693264532], [-3.7129898346151435, 50.439327614512756], [-3.708389535187686, 50.43670602339552], [-3.707549532469343, 50.43377716294981], [-3.7086899899984673, 50.43439999451507], [-3.7096799899990347, 50.43452999451515], [-3.710329989999227, 50.43498999451549], [-3.7128699900006965, 50.43528999451568], [-3.7158299900023692, 50.43571999451593], [-3.7169499900031893, 50.43548999451573], [-3.7188299900039135, 50.43647999451646], [-3.7186999900032784, 50.43763999451734], [-3.7206999900045683, 50.43759999451728], [-3.7210626531181377, 50.438347813531784], [-3.7193146859145636, 50.43981549034682]]]}}, {"type": "Feature", "properties": {"type": "postcode-cell", "postcode": "TQ13 7LX", "postcodes": ["TQ13 7LX"]}, "geometry": {"type": "Polygon", "coordinates": [[[-3.7373434448632388, 50.48671839208542], [-3.732173165002617, 50.4891418800389], [-3.7281032202419957, 50.489735096910515], [-3.726235387594016, 50.48735333431723], [-3.7375092462598922, 50.485028844915966], [-3.7373434448632388, 50.48671839208542]]]}}, {"type": "Feature", "properties": {"type": "postcode-cell", "postcode": "TQ9 6AE", "postcodes": ["TQ9 6AE"]}, "geometry": {"type": "Polygon", "coordinates": [[[-3.7245624583474144, 50.46074831228347], [-3.723588234753645, 50.45860417145375], [-3.7301785884262504, 50.457949396096986], [-3.7310699900013007, 50.45839999453311], [-3.72962999000007, 50.45905999453363], [-3.729499989999797, 50.45945999453395], [-3.7304699900002984, 50.45970999453415], [-3.7311503178744294, 50.46010088583429], [-3.7245624583474144, 50.46074831228347]]]}}, {"type": "Feature", "properties": {"type": "postcode-cell", "postcode": "TQ11 0LB", "postcodes": ["TQ11 0LB"]}, "geometry": {"type": "Polygon", "coordinates": [[[-3.7301737680302116, 50.476282009506455], [-3.7233282561631027, 50.471753545217254], [-3.724029157943095, 50.470738578985916], [-3.7302636147649664, 50.46940413422082], [-3.7368354032788544, 50.47119457296289], [-3.7301737680302116, 50.476282009506455]]]}}, {"type": "Feature", "properties": {"type": "postcode-cell", "postcode": "TQ9 6AB", "postcodes": ["TQ9 6AB"]}, "geometry": {"type": "Polygon", "coordinates": [[[-3.723588234753645, 50.45860417145375], [-3.723035947108538, 50.457752640895684], [-3.7271203966385045, 50.4533682787358], [-3.7392759231905757, 50.45317044293855], [-3.738479990007905, 50.45439999452984], [-3.7316299900020526, 50.45755999453244], [-3.7301599900009372, 50.45793999453278], [-3.7301785884262504, 50.457949396096986], [-3.723588234753645, 50.45860417145375]]]}}, {"type": "Feature", "properties": {"type": "postcode-cell", "postcode": "TQ11 0JZ", "postcodes": ["TQ11 0JZ"]}, "geometry": {"type": "Polygon", "coordinates": [[[-3.7302636147649664, 50.46940413422082], [-3.724029157943095, 50.470738578985916], [-3.722752682927882, 50.464246819580254], [-3.7242113052313233, 50.463261238386615], [-3.7310240490015976, 50.46493222677296], [-3.7302636147649664, 50.46940413422082]]]}}, {"type": "Feature", "properties": {"type": "postcode-cell", "postcode": "TQ9 6DZ", "postcodes": ["TQ9 6DZ"]}, "geometry": {"type": "Polygon", "coordinates": [[[-3.7271203966385045, 50.4533682787358], [-3.725365434343517, 50.45151180469254], [-3.7256955894302966, 50.45017100605484], [-3.7274299266518676, 50.44592419130591], [-3.7341785202004214, 50.443819977066575], [-3.744288809888777, 50.4496169637082], [-3.7420699900123133, 50.449909994526315], [-3.7399299900098906, 50.4521599945281], [-3.7392759231905757, 50.45317044293855], [-3.7271203966385045, 50.4533682787358]]]}}, {"type": "Feature", "properties": {"type": "postcode-cell", "postcode": "TQ9 6JN", "postcodes": ["TQ9 6JN"]}, "geometry": {"type": "Polygon", "coordinates": [[[-3.725365434343517, 50.45151180469254], [-3.724626342223684, 50.45140154570596], [-3.721479077271466, 50.44946847774226], [-3.7202994276746417, 50.44720483758619], [-3.7256955894302966, 50.45017100605484], [-3.725365434343517, 50.45151180469254]]]}}, {"type": "Feature", "properties": {"type": "postcode-cell", "postcode": "TQ9 6DX", "postcodes": ["TQ9 6DX"]}, "geometry": {"type": "Polygon", "coordinates": [[[-3.7341785202004214, 50.443819977066575], [-3.7274299266518676, 50.44592419130591], [-3.7226317672053204, 50.44493004146545], [-3.7193146859145636, 50.43981549034682], [-3.7210626531181377, 50.438347813531784], [-3.72182999000418, 50.43992999451904], [-3.721039990003172, 50.440999994519906], [-3.721689990003479, 50.44121999452004], [-3.723239990004582, 50.44096999451982], [-3.724209990004978, 50.44142999452017], [-3.726089990006468, 50.44080999451964], [-3.7281499900084296, 50.43942999451852], [-3.7298499900103685, 50.4376199945171], [-3.7299467794977503, 50.4376022828382], [-3.734051199745959, 50.443260294399316], [-3.7341785202004214, 50.443819977066575]]]}}, {"type": "Feature", "properties": {"type": "postcode-cell", "postcode": "TQ13 7LT", "postcodes": ["TQ13 7LT"]}, "geometry": {"type": "Polygon", "coordinates": [[[-3.7300330435747413, 50.49273804171445], [-3.7281032202419957, 50.489735096910515], [-3.732173165002617, 50.4891418800389], [-3.7300330435747413, 50.49273804171445]]]}}, {"type": "Feature", "properties": {"type": "postcode-cell", "postcode": "TQ9 6JP", "postcodes": ["TQ9 6JP"]}, "geometry": {"type": "Polygon", "coordinates": [[[-3.724626342223684, 50.45140154570596], [-3.718413557209826, 50.451483917414016], [-3.718311361189059, 50.44916048873323], [-3.7186107103102817, 50.448865076678445], [-3.721479077271466, 50.44946847774226], [-3.724626342223684, 50.45140154570596]]]}}, {"type": "Feature", "properties": {"type": "postcode-cell", "postcode": "TQ9 6AG", "postcodes": ["TQ9 6AG"]}, "geometry": {"type": "Polygon", "coordinates": [[[-3.7242113052313233, 50.463261238386615], [-3.722752682927882, 50.464246819580254], [-3.719495237557978, 50.464519282259104], [-3.715834223622514, 50.46282771008169], [-3.715493575606828, 50.45998086803123], [-3.7168294081240747, 50.4579615112765], [-3.721564645691857, 50.457541673174724], [-3.723035947108538, 50.457752640895684], [-3.723588234753645, 50.45860417145375], [-3.7245624583474144, 50.46074831228347], [-3.7242113052313233, 50.463261238386615]]]}}, {"type": "Feature", "properties": {"type": "postcode-cell", "postcode": "TQ13 7LE", "postcodes": ["TQ13 7LE"]}, "geometry": {"type": "Polygon", "coordinates": [[[-3.728755105833851, 50.47870623180041], [-3.7198870987714616, 50.48680535903636], [-3.7192791686547455, 50.486833488627326], [-3.7200031490844916, 50.48542067274792], [-3.726972967130025, 50.478850751421476], [-3.728755105833851, 50.47870623180041]]]}}, {"type": "Feature", "properties": {"type": "postcode-cell", "postcode": "TQ9 6AN", "postcodes": ["TQ9 6AN"]}, "geometry": {"type": "Polygon", "coordinates": [[[-3.726972967130025, 50.478850751421476], [-3.722956703551243, 50.47901398994573], [-3.7197548453821403, 50.47611301098462], [-3.7197506107592635, 50.47252059534515], [-3.7233282561631027, 50.471753545217254], [-3.7301737680302116, 50.476282009506455], [-3.7305001497125816, 50.47841937734154], [-3.728755105833851, 50.47870623180041], [-3.726972967130025, 50.478850751421476]]]}}, {"type": "Feature", "properties": {"type": "postcode-cell", "postcode": "TQ13 7RR", "postcodes": ["TQ13 7RR"]}, "geometry": {"type": "Polygon", "coordinates": [[[-3.731152616207409, 50.478847632525095], [-3.7242228936738515, 50.48689121626769], [-3.7198870987714616, 50.48680535903636], [-3.728755105833851, 50.47870623180041], [-3.7305001497125816, 50.47841937734154], [-3.731152616207409, 50.478847632525095]]]}}, {"type": "Feature", "properties": {"type": "postcode-cell", "postcode": "TQ9 6JW", "postcodes": ["TQ9 6JW"]}, "geometry": {"type": "Polygon", "coordinates": [[[-3.7256955894302966, 50.45017100605484], [-3.7202994276746417, 50.44720483758619], [-3.7202562257039777, 50.4471579803681], [-3.721926279033252, 50.44526636290297], [-3.7226317672053204, 50.44493004146545], [-3.7274299266518676, 50.44592419130591], [-3.7256955894302966, 50.45017100605484]]]}}, {"type": "Feature", "properties": {"type": "postcode-cell", "postcode": "TQ9 6JH", "postcodes": ["TQ9 6JH"]}, "geometry": {"type": "Polygon", "coordinates": [[[-3.7193146859145636, 50.43981549034682], [-3.7226317672053204, 50.44493004146545], [-3.721926279033252, 50.44526636290297], [-3.717236872580667, 50.44536078130876], [-3.7167890202559697, 50.44501463387025], [-3.716448352356133, 50.44454701811495], [-3.7162376886054505, 50.44293250270557], [-3.7163220613082046, 50.44264853101525], [-3.7175657651332688, 50.44022445254527], [-3.7193146859145636, 50.43981549034682]]]}}, {"type": "Feature", "properties": {"type": "postcode-cell", "postcode": "TQ13 7NA", "postcodes": ["TQ13 7NA"]}, "geometry": {"type": "Polygon", "coordinates": [[[-3.7167034613862295, 50.47994901334569], [-3.722618884144994, 50.47918091075455], [-3.7200031490844916, 50.48542067274792], [-3.7192791686547455, 50.486833488627326], [-3.7169377076805916, 50.487328849280644], [-3.7161999899784273, 50.48672999455532], [-3.7160799899788155, 50.48574999455457], [-3.71547998997878, 50.48501999455402], [-3.7153494468155848, 50.4849430518657], [-3.7167034613862295, 50.47994901334569]]]}}, {"type": "Feature", "properties": {"type": "postcode-cell", "postcode": "TQ13 7FQ", "postcodes": ["TQ13 7FQ"]}, "geometry": {"type": "Polygon", "coordinates": [[[-3.7153494468155848, 50.4849430518657], [-3.7120699899775635, 50.48300999455255], [-3.7116399899775954, 50.48235999455204], [-3.7109499899769327, 50.482829994552425], [-3.7104499899767207, 50.48260999455226], [-3.7102399899769765, 50.48178999455161], [-3.7083799899761725, 50.48098999455104], [-3.7078699899757104, 50.48127999455127], [-3.7075199899756393, 50.480959994551036], [-3.706479989974894, 50.481139994551214], [-3.706217904867283, 50.48077753891136], [-3.714516343115338, 50.47824116466995], [-3.7152366023331753, 50.47849400480712], [-3.7167034613862295, 50.47994901334569], [-3.7153494468155848, 50.4849430518657]]]}}, {"type": "Feature", "properties": {"type": "postcode-cell", "postcode": "TQ9 6AJ", "postcodes": ["TQ9 6AJ"]}, "geometry": {"type": "Polygon", "coordinates": [[[-3.7233282561631027, 50.471753545217254], [-3.7197506107592635, 50.47252059534515], [-3.7137940591876366, 50.47187549671813], [-3.7121772492380565, 50.468351678269755], [-3.719495237557978, 50.464519282259104], [-3.722752682927882, 50.464246819580254], [-3.724029157943095, 50.470738578985916], [-3.7233282561631027, 50.471753545217254]]]}}, {"type": "Feature", "properties": {"type": "postcode-cell", "postcode": "TQ9 6AA", "postcodes": ["TQ9 6AA"]}, "geometry": {"type": "Polygon", "coordinates": [[[-3.725365434343517, 50.45151180469254], [-3.7271203966385045, 50.4533682787358], [-3.723035947108538, 50.457752640895684], [-3.721564645691857, 50.457541673174724], [-3.7176705804686736, 50.45393218980041], [-3.71757096810168, 50.45177347012746], [-3.718413557209826, 50.451483917414016], [-3.724626342223684, 50.45140154570596], [-3.725365434343517, 50.45151180469254]]]}}, {"type": "Feature", "properties": {"type": "postcode-cell", "postcode": "TQ9 6JL", "postcodes": ["TQ9 6JL"]}, "geometry": {"type": "Polygon", "coordinates": [[[-3.7202994276746417, 50.44720483758619], [-3.721479077271466, 50.44946847774226], [-3.7186107103102817, 50.448865076678445], [-3.7187617404916717, 50.44772611254868], [-3.7202562257039777, 50.4471579803681], [-3.7202994276746417, 50.44720483758619]]]}}, {"type": "Feature", "properties": {"type": "postcode-cell", "postcode": "TQ13 7LZ", "postcodes": ["TQ13 7LZ"]}, "geometry": {"type": "Polygon", "coordinates": [[[-3.7200031490844916, 50.48542067274792], [-3.722618884144994, 50.47918091075455], [-3.722956703551243, 50.47901398994573], [-3.726972967130025, 50.478850751421476], [-3.7200031490844916, 50.48542067274792]]]}}, {"type": "Feature", "properties": {"type": "postcode-cell", "postcode": "TQ9 6JJ", "postcodes": ["TQ9 6JJ"]}, "geometry": {"type": "Polygon", "coordinates": [[[-3.7202562257039777, 50.4471579803681], [-3.7187617404916717, 50.44772611254868], [-3.7160857029189254, 50.447117289347894], [-3.717236872580667, 50.44536078130876], [-3.721926279033252, 50.44526636290297], [-3.7202562257039777, 50.4471579803681]]]}}, {"type": "Feature", "properties": {"type": "postcode-cell", "postcode": "TQ9 6TZ", "postcodes": ["TQ9 6TZ"]}, "geometry": {"type": "Polygon", "coordinates": [[[-3.7186107103102817, 50.448865076678445], [-3.718311361189059, 50.44916048873323], [-3.716871515346836, 50.4490987582653], [-3.7159641818449276, 50.447242029896884], [-3.715961743187455, 50.44714605477638], [-3.7160857029189254, 50.447117289347894], [-3.7187617404916717, 50.44772611254868], [-3.7186107103102817, 50.448865076678445]]]}}, {"type": "Feature", "properties": {"type": "postcode-cell", "postcode": "TQ13 7NB", "postcodes": ["TQ13 7NB"]}, "geometry": {"type": "Polygon", "coordinates": [[[-3.722618884144994, 50.47918091075455], [-3.7167034613862295, 50.47994901334569], [-3.7152366023331753, 50.47849400480712], [-3.7190320031430413, 50.4764826042025], [-3.7197548453821403, 50.47611301098462], [-3.722956703551243, 50.47901398994573], [-3.722618884144994, 50.47918091075455]]]}}, {"type": "Feature", "properties": {"type": "postcode-cell", "postcode": "TQ9 6TP", "postcodes": ["TQ9 6TP"]}, "geometry": {"type": "Polygon", "coordinates": [[[-3.7167890202559697, 50.44501463387025], [-3.7156809298487317, 50.44530217110632], [-3.71480826200026, 50.44535668686018], [-3.7145301695351858, 50.44502152374419], [-3.714809568324768, 50.44482086449275], [-3.716448352356133, 50.44454701811495], [-3.7167890202559697, 50.44501463387025]]]}}, {"type": "Feature", "properties": {"type": "postcode-cell", "postcode": "TQ9 6JR", "postcodes": ["TQ9 6JR"]}, "geometry": {"type": "Polygon", "coordinates": [[[-3.71757096810168, 50.45177347012746], [-3.7171665952170105, 50.45170596467597], [-3.7154383237041557, 50.449553415922374], [-3.7155398931878, 50.44944105050386], [-3.716871515346836, 50.4490987582653], [-3.718311361189059, 50.44916048873323], [-3.718413557209826, 50.451483917414016], [-3.71757096810168, 50.45177347012746]]]}}, {"type": "Feature", "properties": {"type": "postcode-cell", "postcode": "TQ9 6GY", "postcodes": ["TQ9 6GY"]}, "geometry": {"type": "Polygon", "coordinates": [[[-3.7152366023331753, 50.47849400480712], [-3.714516343115338, 50.47824116466995], [-3.713224468946377, 50.47595704015951], [-3.7190320031430413, 50.4764826042025], [-3.7152366023331753, 50.47849400480712]]]}}, {"type": "Feature", "properties": {"type": "postcode-cell", "postcode": "TQ9 6AL", "postcodes": ["TQ9 6AL"]}, "geometry": {"type": "Polygon", "coordinates": [[[-3.7197548453821403, 50.47611301098462], [-3.7190320031430413, 50.4764826042025], [-3.713224468946377, 50.47595704015951], [-3.711709705575569, 50.47337936576939], [-3.7137940591876366, 50.47187549671813], [-3.7197506107592635, 50.47252059534515], [-3.7197548453821403, 50.47611301098462]]]}}, {"type": "Feature", "properties": {"type": "postcode-cell", "postcode": "TQ9 6TL", "postcodes": ["TQ9 6TL"]}, "geometry": {"type": "Polygon", "coordinates": [[[-3.7160857029189254, 50.447117289347894], [-3.715961743187455, 50.44714605477638], [-3.715673941474117, 50.447128833975185], [-3.7152406882521696, 50.446529727082975], [-3.7150093692883854, 50.44577703739116], [-3.7156809298487317, 50.44530217110632], [-3.7167890202559697, 50.44501463387025], [-3.717236872580667, 50.44536078130876], [-3.7160857029189254, 50.447117289347894]]]}}, {"type": "Feature", "properties": {"type": "postcode-cell", "postcode": "TQ9 6NS", "postcodes": ["TQ9 6NS"]}, "geometry": {"type": "Polygon", "coordinates": [[[-3.7176705804686736, 50.45393218980041], [-3.7101671442570683, 50.4549221416752], [-3.7124417000402787, 50.45209478601046], [-3.7171665952170105, 50.45170596467597], [-3.71757096810168, 50.45177347012746], [-3.7176705804686736, 50.45393218980041]]]}}, {"type": "Feature", "properties": {"type": "postcode-cell", "postcode": "TQ9 6AH", "postcodes": ["TQ9 6AH"]}, "geometry": {"type": "Polygon", "coordinates": [[[-3.719495237557978, 50.464519282259104], [-3.7121772492380565, 50.468351678269755], [-3.711132110651099, 50.46789723046938], [-3.711087880138021, 50.46448539734249], [-3.714759847934732, 50.46274783023494], [-3.715834223622514, 50.46282771008169], [-3.719495237557978, 50.464519282259104]]]}}, {"type": "Feature", "properties": {"type": "postcode-cell", "postcode": "TQ9 6NT", "postcodes": ["TQ9 6NT"]}, "geometry": {"type": "Polygon", "coordinates": [[[-3.721564645691857, 50.457541673174724], [-3.7168294081240747, 50.4579615112765], [-3.70860238904359, 50.45608932257574], [-3.7101671442570683, 50.4549221416752], [-3.7176705804686736, 50.45393218980041], [-3.721564645691857, 50.457541673174724]]]}}, {"type": "Feature", "properties": {"type": "postcode-cell", "postcode": "TQ9 6TX", "postcodes": ["TQ9 6TX"]}, "geometry": {"type": "Polygon", "coordinates": [[[-3.715961743187455, 50.44714605477638], [-3.7159641818449276, 50.447242029896884], [-3.7154631815060783, 50.44912423884681], [-3.7138248441450963, 50.44809595776701], [-3.7140878893593072, 50.44736942281225], [-3.714194420791423, 50.44733984678067], [-3.715673941474117, 50.447128833975185], [-3.715961743187455, 50.44714605477638]]]}}, {"type": "Feature", "properties": {"type": "postcode-cell", "postcode": "TQ9 6TY", "postcodes": ["TQ9 6TY"]}, "geometry": {"type": "Polygon", "coordinates": [[[-3.7155398931878, 50.44944105050386], [-3.7154631815060783, 50.44912423884681], [-3.7159641818449276, 50.447242029896884], [-3.716871515346836, 50.4490987582653], [-3.7155398931878, 50.44944105050386]]]}}, {"type": "Feature", "properties": {"type": "postcode-cell", "postcode": "TQ9 6TW", "postcodes": ["TQ9 6TW"]}, "geometry": {"type": "Polygon", "coordinates": [[[-3.7154383237041557, 50.449553415922374], [-3.7148551744953053, 50.44959408201904], [-3.7131217045800997, 50.44895979980721], [-3.7138248441450963, 50.44809595776701], [-3.7154631815060783, 50.44912423884681], [-3.7155398931878, 50.44944105050386], [-3.7154383237041557, 50.449553415922374]]]}}, {"type": "Feature", "properties": {"type": "postcode-cell", "postcode": "TQ9 6NU", "postcodes": ["TQ9 6NU"]}, "geometry": {"type": "Polygon", "coordinates": [[[-3.715493575606828, 50.45998086803123], [-3.7116036702939796, 50.46101910877777], [-3.70743202995936, 50.45950633112968], [-3.7049785360138103, 50.45679917262183], [-3.70860238904359, 50.45608932257574], [-3.7168294081240747, 50.4579615112765], [-3.715493575606828, 50.45998086803123]]]}}, {"type": "Feature", "properties": {"type": "postcode-cell", "postcode": "TQ9 6AP", "postcodes": ["TQ9 6AP"]}, "geometry": {"type": "Polygon", "coordinates": [[[-3.7121772492380565, 50.468351678269755], [-3.7137940591876366, 50.47187549671813], [-3.711709705575569, 50.47337936576939], [-3.7067249426382456, 50.474623451806536], [-3.6989605626196913, 50.470805788503384], [-3.698869547164768, 50.47018543740016], [-3.6996044683019647, 50.46935000968851], [-3.7031691737715318, 50.467731201414004], [-3.703170529258468, 50.46773070985463], [-3.7052469132811217, 50.467119554311374], [-3.711132110651099, 50.46789723046938], [-3.7121772492380565, 50.468351678269755]]]}}, {"type": "Feature", "properties": {"type": "postcode-cell", "postcode": "TQ9 6TN", "postcodes": ["TQ9 6TN"]}, "geometry": {"type": "Polygon", "coordinates": [[[-3.7152406882521696, 50.446529727082975], [-3.714004120572276, 50.44567478823237], [-3.7147266404864103, 50.445537606318275], [-3.7150093692883854, 50.44577703739116], [-3.7152406882521696, 50.446529727082975]]]}}, {"type": "Feature", "properties": {"type": "postcode-cell", "postcode": "TQ9 6TH", "postcodes": ["TQ9 6TH"]}, "geometry": {"type": "Polygon", "coordinates": [[[-3.7150093692883854, 50.44577703739116], [-3.7147266404864103, 50.445537606318275], [-3.71480826200026, 50.44535668686018], [-3.7156809298487317, 50.44530217110632], [-3.7150093692883854, 50.44577703739116]]]}}, {"type": "Feature", "properties": {"type": "postcode-cell", "postcode": "TQ9 6JS", "postcodes": ["TQ9 6JS"]}, "geometry": {"type": "Polygon", "coordinates": [[[-3.7124417000402787, 50.45209478601046], [-3.712251567335764, 50.45161694900371], [-3.7148551744953053, 50.44959408201904], [-3.7154383237041557, 50.449553415922374], [-3.7171665952170105, 50.45170596467597], [-3.7124417000402787, 50.45209478601046]]]}}, {"type": "Feature", "properties": {"type": "postcode-cell", "postcode": "TQ9 6FE", "postcodes": ["TQ9 6FE"]}, "geometry": {"type": "Polygon", "coordinates": [[[-3.715834223622514, 50.46282771008169], [-3.714759847934732, 50.46274783023494], [-3.7125793307042123, 50.46191049547762], [-3.7116036702939796, 50.46101910877777], [-3.715493575606828, 50.45998086803123], [-3.715834223622514, 50.46282771008169]]]}}, {"type": "Feature", "properties": {"type": "postcode-cell", "postcode": "TQ9 6JF", "postcodes": ["TQ9 6JF"]}, "geometry": {"type": "Polygon", "coordinates": [[[-3.716448352356133, 50.44454701811495], [-3.714809568324768, 50.44482086449275], [-3.7140908008370954, 50.44420420462863], [-3.7162376886054505, 50.44293250270557], [-3.716448352356133, 50.44454701811495]]]}}, {"type": "Feature", "properties": {"type": "postcode-cell", "postcode": "TQ9 6FT", "postcodes": ["TQ9 6FT"]}, "geometry": {"type": "Polygon", "coordinates": [[[-3.715673941474117, 50.447128833975185], [-3.714194420791423, 50.44733984678067], [-3.713583246262225, 50.445656647509885], [-3.713587083120736, 50.44563577060315], [-3.7137010561639454, 50.44562214376178], [-3.714004120572276, 50.44567478823237], [-3.7152406882521696, 50.446529727082975], [-3.715673941474117, 50.447128833975185]]]}}, {"type": "Feature", "properties": {"type": "postcode-cell", "postcode": "TQ9 6TS", "postcodes": ["TQ9 6TS"]}, "geometry": {"type": "Polygon", "coordinates": [[[-3.7147266404864103, 50.445537606318275], [-3.714004120572276, 50.44567478823237], [-3.7137010561639454, 50.44562214376178], [-3.7143769615725235, 50.44503517545781], [-3.7145301695351858, 50.44502152374419], [-3.71480826200026, 50.44535668686018], [-3.7147266404864103, 50.445537606318275]]]}}, {"type": "Feature", "properties": {"type": "postcode-cell", "postcode": "TQ9 6HU", "postcodes": ["TQ9 6HU"]}, "geometry": {"type": "Polygon", "coordinates": [[[-3.7140908008370954, 50.44420420462863], [-3.7139429900620256, 50.44423510569297], [-3.7133600648489926, 50.444201184175306], [-3.7130713606563144, 50.44368738840864], [-3.7163220613082046, 50.44264853101525], [-3.7162376886054505, 50.44293250270557], [-3.7140908008370954, 50.44420420462863]]]}}, {"type": "Feature", "properties": {"type": "postcode-cell", "postcode": "TQ9 6TU", "postcodes": ["TQ9 6TU"]}, "geometry": {"type": "Polygon", "coordinates": [[[-3.7148551744953053, 50.44959408201904], [-3.712251567335764, 50.45161694900371], [-3.710657206178818, 50.44967008158346], [-3.7131217045800997, 50.44895979980721], [-3.7148551744953053, 50.44959408201904]]]}}, {"type": "Feature", "properties": {"type": "postcode-cell", "postcode": "TQ9 6EA", "postcodes": ["TQ9 6EA"]}, "geometry": {"type": "Polygon", "coordinates": [[[-3.7124417000402787, 50.45209478601046], [-3.7101671442570683, 50.4549221416752], [-3.70860238904359, 50.45608932257574], [-3.7049785360138103, 50.45679917262183], [-3.702827738937401, 50.4564905241949], [-3.7024776703648143, 50.45593869233993], [-3.7052807056748613, 50.449601134503936], [-3.708888727650023, 50.44911963054209], [-3.7094100500357285, 50.44912502542267], [-3.710657206178818, 50.44967008158346], [-3.712251567335764, 50.45161694900371], [-3.7124417000402787, 50.45209478601046]]]}}, {"type": "Feature", "properties": {"type": "postcode-cell", "postcode": "TQ9 6GP", "postcodes": ["TQ9 6GP"]}, "geometry": {"type": "Polygon", "coordinates": [[[-3.7145301695351858, 50.44502152374419], [-3.7143769615725235, 50.44503517545781], [-3.7139429900149015, 50.44486729488789], [-3.7139429900620256, 50.44423510569297], [-3.7140908008370954, 50.44420420462863], [-3.714809568324768, 50.44482086449275], [-3.7145301695351858, 50.44502152374419]]]}}, {"type": "Feature", "properties": {"type": "postcode-cell", "postcode": "TQ9 6FU", "postcodes": ["TQ9 6FU"]}, "geometry": {"type": "Polygon", "coordinates": [[[-3.713583246262225, 50.445656647509885], [-3.7121292701732713, 50.44701423951055], [-3.711778810916188, 50.446986337127306], [-3.7116349994790157, 50.44589552496164], [-3.7129581718775886, 50.44535280388075], [-3.713587083120736, 50.44563577060315], [-3.713583246262225, 50.445656647509885]]]}}, {"type": "Feature", "properties": {"type": "postcode-cell", "postcode": "TQ9 6GQ", "postcodes": ["TQ9 6GQ"]}, "geometry": {"type": "Polygon", "coordinates": [[[-3.7143769615725235, 50.44503517545781], [-3.7137010561639454, 50.44562214376178], [-3.713587083120736, 50.44563577060315], [-3.7129581718775886, 50.44535280388075], [-3.712958567313776, 50.44506659221715], [-3.7139429900149015, 50.44486729488789], [-3.7143769615725235, 50.44503517545781]]]}}, {"type": "Feature", "properties": {"type": "postcode-cell", "postcode": "TQ9 6ES", "postcodes": ["TQ9 6ES"]}, "geometry": {"type": "Polygon", "coordinates": [[[-3.701322034199489, 50.43628775638456], [-3.6980964882260032, 50.43476114212349], [-3.697932657354236, 50.43343647585246], [-3.699079989992988, 50.43312999451429], [-3.7004899899938217, 50.433249994514384], [-3.7016599899947917, 50.432769994513976], [-3.704789989997011, 50.43226999451352], [-3.707410163707846, 50.433701048373045], [-3.701322034199489, 50.43628775638456]]]}}, {"type": "Feature", "properties": {"type": "postcode-cell", "postcode": "TQ9 6JU", "postcodes": ["TQ9 6JU"]}, "geometry": {"type": "Polygon", "coordinates": [[[-3.7138248441450963, 50.44809595776701], [-3.7131217045800997, 50.44895979980721], [-3.710657206178818, 50.44967008158346], [-3.7094100500357285, 50.44912502542267], [-3.7111141592233943, 50.44726339263984], [-3.711778810916188, 50.446986337127306], [-3.7121292701732713, 50.44701423951055], [-3.7140878893593072, 50.44736942281225], [-3.7138248441450963, 50.44809595776701]]]}}, {"type": "Feature", "properties": {"type": "postcode-cell", "postcode": "TQ9 6FS", "postcodes": ["TQ9 6FS"]}, "geometry": {"type": "Polygon", "coordinates": [[[-3.7140878893593072, 50.44736942281225], [-3.7121292701732713, 50.44701423951055], [-3.713583246262225, 50.445656647509885], [-3.714194420791423, 50.44733984678067], [-3.7140878893593072, 50.44736942281225]]]}}, {"type": "Feature", "properties": {"type": "postcode-cell", "postcode": "TQ9 6JG", "postcodes": ["TQ9 6JG"]}, "geometry": {"type": "Polygon", "coordinates": [[[-3.7130713606563144, 50.44368738840864], [-3.712410366246894, 50.44338163175946], [-3.7129341432115845, 50.441664645007734], [-3.7155554322073665, 50.44016693264532], [-3.7175657651332688, 50.44022445254527], [-3.7163220613082046, 50.44264853101525], [-3.7130713606563144, 50.44368738840864]]]}}, {"type": "Feature", "properties": {"type": "postcode-cell", "postcode": "TQ9 6GN", "postcodes": ["TQ9 6GN"]}, "geometry": {"type": "Polygon", "coordinates": [[[-3.7139429900149015, 50.44486729488789], [-3.712958567313776, 50.44506659221715], [-3.7126680441242295, 50.444634254456986], [-3.7133600648489926, 50.444201184175306], [-3.7139429900620256, 50.44423510569297], [-3.7139429900149015, 50.44486729488789]]]}}, {"type": "Feature", "properties": {"type": "postcode-cell", "postcode": "TQ9 6JZ", "postcodes": ["TQ9 6JZ"]}, "geometry": {"type": "Polygon", "coordinates": [[[-3.7130713606563144, 50.44368738840864], [-3.7133600648489926, 50.444201184175306], [-3.7126680441242295, 50.444634254456986], [-3.7120229560673494, 50.444509754762414], [-3.7114713720155565, 50.4438069918418], [-3.712410366246894, 50.44338163175946], [-3.7130713606563144, 50.44368738840864]]]}}, {"type": "Feature", "properties": {"type": "postcode-cell", "postcode": "TQ9 6JY", "postcodes": ["TQ9 6JY"]}, "geometry": {"type": "Polygon", "coordinates": [[[-3.7129581718775886, 50.44535280388075], [-3.7116349994790157, 50.44589552496164], [-3.7108445721815246, 50.44534090186127], [-3.7108641405311023, 50.44528422225683], [-3.7120229560673494, 50.444509754762414], [-3.7126680441242295, 50.444634254456986], [-3.712958567313776, 50.44506659221715], [-3.7129581718775886, 50.44535280388075]]]}}, {"type": "Feature", "properties": {"type": "postcode-cell", "postcode": "TQ9 6JD", "postcodes": ["TQ9 6JD"]}, "geometry": {"type": "Polygon", "coordinates": [[[-3.7111141592233943, 50.44726339263984], [-3.710394833735549, 50.446853992569324], [-3.709908152657208, 50.446186053325064], [-3.7098773755503776, 50.445805267100184], [-3.71033409905337, 50.445423709413454], [-3.7108445721815246, 50.44534090186127], [-3.7116349994790157, 50.44589552496164], [-3.711778810916188, 50.446986337127306], [-3.7111141592233943, 50.44726339263984]]]}}, {"type": "Feature", "properties": {"type": "postcode-cell", "postcode": "TQ9 6AW", "postcodes": ["TQ9 6AW"]}, "geometry": {"type": "Polygon", "coordinates": [[[-3.714516343115338, 50.47824116466995], [-3.706217904867283, 50.48077753891136], [-3.706009989974904, 50.480489994550716], [-3.7039598738920927, 50.4804612553985], [-3.7067249426382456, 50.474623451806536], [-3.711709705575569, 50.47337936576939], [-3.713224468946377, 50.47595704015951], [-3.714516343115338, 50.47824116466995]]]}}, {"type": "Feature", "properties": {"type": "postcode-cell", "postcode": "TQ9 6TB", "postcodes": ["TQ9 6TB"]}, "geometry": {"type": "Polygon", "coordinates": [[[-3.7108641405311023, 50.44528422225683], [-3.7107099185680132, 50.44504028741773], [-3.710796747612548, 50.44371776484189], [-3.7114713720155565, 50.4438069918418], [-3.7120229560673494, 50.444509754762414], [-3.7108641405311023, 50.44528422225683]]]}}, {"type": "Feature", "properties": {"type": "postcode-cell", "postcode": "TQ9 6NX", "postcodes": ["TQ9 6NX"]}, "geometry": {"type": "Polygon", "coordinates": [[[-3.714759847934732, 50.46274783023494], [-3.711087880138021, 50.46448539734249], [-3.710427767814196, 50.46369817951772], [-3.7125793307042123, 50.46191049547762], [-3.714759847934732, 50.46274783023494]]]}}, {"type": "Feature", "properties": {"type": "postcode-cell", "postcode": "TQ9 6JQ", "postcodes": ["TQ9 6JQ"]}, "geometry": {"type": "Polygon", "coordinates": [[[-3.7114713720155565, 50.4438069918418], [-3.710796747612548, 50.44371776484189], [-3.71041022816765, 50.443595995011314], [-3.7104140607390477, 50.44242904390647], [-3.7107371667850186, 50.44218003528654], [-3.7129341432115845, 50.441664645007734], [-3.712410366246894, 50.44338163175946], [-3.7114713720155565, 50.4438069918418]]]}}, {"type": "Feature", "properties": {"type": "postcode-cell", "postcode": "TQ9 6TQ", "postcodes": ["TQ9 6TQ"]}, "geometry": {"type": "Polygon", "coordinates": [[[-3.7094100500357285, 50.44912502542267], [-3.708888727650023, 50.44911963054209], [-3.708362557217172, 50.446454921086996], [-3.710394833735549, 50.446853992569324], [-3.7111141592233943, 50.44726339263984], [-3.7094100500357285, 50.44912502542267]]]}}, {"type": "Feature", "properties": {"type": "postcode-cell", "postcode": "TQ9 6AQ", "postcodes": ["TQ9 6AQ"]}, "geometry": {"type": "Polygon", "coordinates": [[[-3.7125793307042123, 50.46191049547762], [-3.710427767814196, 50.46369817951772], [-3.7079169238730896, 50.46245348919161], [-3.70743202995936, 50.45950633112968], [-3.7116036702939796, 50.46101910877777], [-3.7125793307042123, 50.46191049547762]]]}}, {"type": "Feature", "properties": {"type": "postcode-cell", "postcode": "TQ9 6AR", "postcodes": ["TQ9 6AR"]}, "geometry": {"type": "Polygon", "coordinates": [[[-3.6989605626196913, 50.470805788503384], [-3.7067249426382456, 50.474623451806536], [-3.7039598738920927, 50.4804612553985], [-3.7038699899735588, 50.48045999455073], [-3.703159989973317, 50.4800199945504], [-3.6999999899714835, 50.47964999455018], [-3.6986799899710947, 50.47869999454945], [-3.698289989970776, 50.478849994549606], [-3.697189989970354, 50.47826999454919], [-3.6940699899685727, 50.47784999454891], [-3.6937499899692763, 50.47593999454744], [-3.6935768089357954, 50.47579627036551], [-3.6989605626196913, 50.470805788503384]]]}}, {"type": "Feature", "properties": {"type": "postcode-cell", "postcode": "TQ9 6SG", "postcodes": ["TQ9 6SG"]}, "geometry": {"type": "Polygon", "coordinates": [[[-3.710796747612548, 50.44371776484189], [-3.7107099185680132, 50.44504028741773], [-3.709530428861934, 50.44421834772385], [-3.7101836565021085, 50.44366928984325], [-3.71041022816765, 50.443595995011314], [-3.710796747612548, 50.44371776484189]]]}}, {"type": "Feature", "properties": {"type": "postcode-cell", "postcode": "TQ9 6HG", "postcodes": ["TQ9 6HG"]}, "geometry": {"type": "Polygon", "coordinates": [[[-3.7129341432115845, 50.441664645007734], [-3.7107371667850186, 50.44218003528654], [-3.7099717431908865, 50.441609252775784], [-3.7100966146601535, 50.44058225028912], [-3.7129898346151435, 50.439327614512756], [-3.7155554322073665, 50.44016693264532], [-3.7129341432115845, 50.441664645007734]]]}}, {"type": "Feature", "properties": {"type": "postcode-cell", "postcode": "TQ9 6NY", "postcodes": ["TQ9 6NY"]}, "geometry": {"type": "Polygon", "coordinates": [[[-3.711087880138021, 50.46448539734249], [-3.711132110651099, 50.46789723046938], [-3.7052469132811217, 50.467119554311374], [-3.7053207364743153, 50.465267832240386], [-3.7079169238730896, 50.46245348919161], [-3.710427767814196, 50.46369817951772], [-3.711087880138021, 50.46448539734249]]]}}, {"type": "Feature", "properties": {"type": "postcode-cell", "postcode": "TQ9 6HT", "postcodes": ["TQ9 6HT"]}, "geometry": {"type": "Polygon", "coordinates": [[[-3.7108445721815246, 50.44534090186127], [-3.71033409905337, 50.445423709413454], [-3.7090968970434877, 50.44503750438202], [-3.7090446782416846, 50.44496281272484], [-3.7094491042400404, 50.44424910122498], [-3.709530428861934, 50.44421834772385], [-3.7107099185680132, 50.44504028741773], [-3.7108641405311023, 50.44528422225683], [-3.7108445721815246, 50.44534090186127]]]}}, {"type": "Feature", "properties": {"type": "postcode-cell", "postcode": "TQ9 6DH", "postcodes": ["TQ9 6DH"]}, "geometry": {"type": "Polygon", "coordinates": [[[-3.7100966146601535, 50.44058225028912], [-3.7091861874394962, 50.44067488894078], [-3.708053666930582, 50.44003896718406], [-3.708045443152335, 50.43712442305676], [-3.708389535187686, 50.43670602339552], [-3.7129898346151435, 50.439327614512756], [-3.7100966146601535, 50.44058225028912]]]}}, {"type": "Feature", "properties": {"type": "postcode-cell", "postcode": "TQ9 6HE", "postcodes": ["TQ9 6HE"]}, "geometry": {"type": "Polygon", "coordinates": [[[-3.7104140607390477, 50.44242904390647], [-3.709195114655118, 50.442452818043876], [-3.708066711299553, 50.44206656043324], [-3.7079580530470384, 50.44194028348026], [-3.7080969000735635, 50.44159413367794], [-3.7087870503845015, 50.441357090266386], [-3.7099717431908865, 50.441609252775784], [-3.7107371667850186, 50.44218003528654], [-3.7104140607390477, 50.44242904390647]]]}}, {"type": "Feature", "properties": {"type": "postcode-cell", "postcode": "TQ9 6JA", "postcodes": ["TQ9 6JA"]}, "geometry": {"type": "Polygon", "coordinates": [[[-3.710394833735549, 50.446853992569324], [-3.708362557217172, 50.446454921086996], [-3.7083160074544805, 50.4464061547668], [-3.709908152657208, 50.446186053325064], [-3.710394833735549, 50.446853992569324]]]}}, {"type": "Feature", "properties": {"type": "postcode-cell", "postcode": "TQ9 6HZ", "postcodes": ["TQ9 6HZ"]}, "geometry": {"type": "Polygon", "coordinates": [[[-3.709908152657208, 50.446186053325064], [-3.7083160074544805, 50.4464061547668], [-3.707976810625995, 50.44615212522837], [-3.7084051369667552, 50.445931922260485], [-3.7098773755503776, 50.445805267100184], [-3.709908152657208, 50.446186053325064]]]}}, {"type": "Feature", "properties": {"type": "postcode-cell", "postcode": "TQ9 6HY", "postcodes": ["TQ9 6HY"]}, "geometry": {"type": "Polygon", "coordinates": [[[-3.7098773755503776, 50.445805267100184], [-3.7084051369667552, 50.445931922260485], [-3.7090968970434877, 50.44503750438202], [-3.71033409905337, 50.445423709413454], [-3.7098773755503776, 50.445805267100184]]]}}, {"type": "Feature", "properties": {"type": "postcode-cell", "postcode": "TQ9 6GA", "postcodes": ["TQ9 6GA"]}, "geometry": {"type": "Polygon", "coordinates": [[[-3.71041022816765, 50.443595995011314], [-3.7101836565021085, 50.44366928984325], [-3.708679761520588, 50.44329827391025], [-3.7086306027581633, 50.443258536013005], [-3.709195114655118, 50.442452818043876], [-3.7104140607390477, 50.44242904390647], [-3.71041022816765, 50.443595995011314]]]}}, {"type": "Feature", "properties": {"type": "postcode-cell", "postcode": "TQ9 6PH", "postcodes": ["TQ9 6PH"]}, "geometry": {"type": "Polygon", "coordinates": [[[-3.7031691737715318, 50.467731201414004], [-3.70007561636473, 50.46390198342743], [-3.7001337297287344, 50.46378071257506], [-3.700924249117941, 50.46365423294853], [-3.701319222389467, 50.46377107661485], [-3.703170529258468, 50.46773070985463], [-3.7031691737715318, 50.467731201414004]]]}}, {"type": "Feature", "properties": {"type": "postcode-cell", "postcode": "TQ9 6HF", "postcodes": ["TQ9 6HF"]}, "geometry": {"type": "Polygon", "coordinates": [[[-3.7099717431908865, 50.441609252775784], [-3.7087870503845015, 50.441357090266386], [-3.7091861874394962, 50.44067488894078], [-3.7100966146601535, 50.44058225028912], [-3.7099717431908865, 50.441609252775784]]]}}, {"type": "Feature", "properties": {"type": "postcode-cell", "postcode": "TQ9 6EZ", "postcodes": ["TQ9 6EZ"]}, "geometry": {"type": "Polygon", "coordinates": [[[-3.708053666930582, 50.44003896718406], [-3.707278001401286, 50.44078772742777], [-3.7066945918396397, 50.440816788627714], [-3.7058259912887848, 50.438640630010816], [-3.708045443152335, 50.43712442305676], [-3.708053666930582, 50.44003896718406]]]}}, {"type": "Feature", "properties": {"type": "postcode-cell", "postcode": "TQ9 6JB", "postcodes": ["TQ9 6JB"]}, "geometry": {"type": "Polygon", "coordinates": [[[-3.708362557217172, 50.446454921086996], [-3.708888727650023, 50.44911963054209], [-3.7052807056748613, 50.449601134503936], [-3.7049360060694387, 50.4492344540729], [-3.7044279832630465, 50.44680771716082], [-3.7052986795344864, 50.44655806520881], [-3.7077511124095817, 50.44612158609109], [-3.707976810625995, 50.44615212522837], [-3.7083160074544805, 50.4464061547668], [-3.708362557217172, 50.446454921086996]]]}}, {"type": "Feature", "properties": {"type": "postcode-cell", "postcode": "TQ9 6HJ", "postcodes": ["TQ9 6HJ"]}, "geometry": {"type": "Polygon", "coordinates": [[[-3.709530428861934, 50.44421834772385], [-3.7094491042400404, 50.44424910122498], [-3.70837207547683, 50.444064063805506], [-3.708679761520588, 50.44329827391025], [-3.7101836565021085, 50.44366928984325], [-3.709530428861934, 50.44421834772385]]]}}, {"type": "Feature", "properties": {"type": "postcode-cell", "postcode": "TQ9 6HD", "postcodes": ["TQ9 6HD"]}, "geometry": {"type": "Polygon", "coordinates": [[[-3.709195114655118, 50.442452818043876], [-3.7086306027581633, 50.443258536013005], [-3.70777806279528, 50.44315077470001], [-3.7076533137959244, 50.44298979162004], [-3.708066711299553, 50.44206656043324], [-3.709195114655118, 50.442452818043876]]]}}, {"type": "Feature", "properties": {"type": "postcode-cell", "postcode": "TQ9 6JT", "postcodes": ["TQ9 6JT"]}, "geometry": {"type": "Polygon", "coordinates": [[[-3.7087870503845015, 50.441357090266386], [-3.7080969000735635, 50.44159413367794], [-3.707278001401286, 50.44078772742777], [-3.708053666930582, 50.44003896718406], [-3.7091861874394962, 50.44067488894078], [-3.7087870503845015, 50.441357090266386]]]}}, {"type": "Feature", "properties": {"type": "postcode-cell", "postcode": "TQ9 6HQ", "postcodes": ["TQ9 6HQ"]}, "geometry": {"type": "Polygon", "coordinates": [[[-3.7090446782416846, 50.44496281272484], [-3.708613377095563, 50.444906302298904], [-3.707903798523249, 50.44434427328847], [-3.708219649545665, 50.444091032792336], [-3.70837207547683, 50.444064063805506], [-3.7094491042400404, 50.44424910122498], [-3.7090446782416846, 50.44496281272484]]]}}, {"type": "Feature", "properties": {"type": "postcode-cell", "postcode": "TQ9 6NZ", "postcodes": ["TQ9 6NZ"]}, "geometry": {"type": "Polygon", "coordinates": [[[-3.70743202995936, 50.45950633112968], [-3.7079169238730896, 50.46245348919161], [-3.7053207364743153, 50.465267832240386], [-3.703598786794689, 50.46360411972859], [-3.7026466084710403, 50.46049247903835], [-3.702422146307052, 50.45676938490043], [-3.702827738937401, 50.4564905241949], [-3.7049785360138103, 50.45679917262183], [-3.70743202995936, 50.45950633112968]]]}}, {"type": "Feature", "properties": {"type": "postcode-cell", "postcode": "TQ9 6GZ", "postcodes": ["TQ9 6GZ"]}, "geometry": {"type": "Polygon", "coordinates": [[[-3.707976810625995, 50.44615212522837], [-3.7077511124095817, 50.44612158609109], [-3.707622157109022, 50.445162337778406], [-3.708613377095563, 50.444906302298904], [-3.7090446782416846, 50.44496281272484], [-3.7090968970434877, 50.44503750438202], [-3.7084051369667552, 50.445931922260485], [-3.707976810625995, 50.44615212522837]]]}}, {"type": "Feature", "properties": {"type": "postcode-cell", "postcode": "TQ9 6HH", "postcodes": ["TQ9 6HH"]}, "geometry": {"type": "Polygon", "coordinates": [[[-3.708219649545665, 50.444091032792336], [-3.70750193050219, 50.44353895042426], [-3.70777806279528, 50.44315077470001], [-3.7086306027581633, 50.443258536013005], [-3.708679761520588, 50.44329827391025], [-3.70837207547683, 50.444064063805506], [-3.708219649545665, 50.444091032792336]]]}}, {"type": "Feature", "properties": {"type": "postcode-cell", "postcode": "TQ9 6HB", "postcodes": ["TQ9 6HB"]}, "geometry": {"type": "Polygon", "coordinates": [[[-3.708066711299553, 50.44206656043324], [-3.7076533137959244, 50.44298979162004], [-3.7047837357780566, 50.44267659499416], [-3.7046802358548514, 50.44222515819776], [-3.7079580530470384, 50.44194028348026], [-3.708066711299553, 50.44206656043324]]]}}, {"type": "Feature", "properties": {"type": "postcode-cell", "postcode": "TQ9 6HN", "postcodes": ["TQ9 6HN"]}, "geometry": {"type": "Polygon", "coordinates": [[[-3.708219649545665, 50.444091032792336], [-3.707903798523249, 50.44434427328847], [-3.707275671497177, 50.44450470886904], [-3.706706677316892, 50.44405627606225], [-3.706640666113677, 50.44381172166183], [-3.70750193050219, 50.44353895042426], [-3.708219649545665, 50.444091032792336]]]}}, {"type": "Feature", "properties": {"type": "postcode-cell", "postcode": "TQ9 6JX", "postcodes": ["TQ9 6JX"]}, "geometry": {"type": "Polygon", "coordinates": [[[-3.708613377095563, 50.444906302298904], [-3.707622157109022, 50.445162337778406], [-3.7071634600055265, 50.44480230743313], [-3.707275671497177, 50.44450470886904], [-3.707903798523249, 50.44434427328847], [-3.708613377095563, 50.444906302298904]]]}}, {"type": "Feature", "properties": {"type": "postcode-cell", "postcode": "TQ9 6HL", "postcodes": ["TQ9 6HL"]}, "geometry": {"type": "Polygon", "coordinates": [[[-3.70777806279528, 50.44315077470001], [-3.70750193050219, 50.44353895042426], [-3.706640666113677, 50.44381172166183], [-3.704753667127203, 50.442889894397744], [-3.7047837357780566, 50.44267659499416], [-3.7076533137959244, 50.44298979162004], [-3.70777806279528, 50.44315077470001]]]}}, {"type": "Feature", "properties": {"type": "postcode-cell", "postcode": "TQ9 6EB", "postcodes": ["TQ9 6EB"]}, "geometry": {"type": "Polygon", "coordinates": [[[-3.7049360060694387, 50.4492344540729], [-3.6963098529425142, 50.448042771485255], [-3.69475310375117, 50.44561910234794], [-3.6970343478112846, 50.444821729995006], [-3.7005551855807224, 50.44517181498421], [-3.704177578405512, 50.44660715875554], [-3.7044279832630465, 50.44680771716082], [-3.7049360060694387, 50.4492344540729]]]}}, {"type": "Feature", "properties": {"type": "postcode-cell", "postcode": "TQ9 6FJ", "postcodes": ["TQ9 6FJ"]}, "geometry": {"type": "Polygon", "coordinates": [[[-3.7044279832630465, 50.44680771716082], [-3.704177578405512, 50.44660715875554], [-3.705359627145201, 50.444749702586556], [-3.705424103657893, 50.444737913389545], [-3.7069916958842604, 50.444850857530476], [-3.7052986795344864, 50.44655806520881], [-3.7044279832630465, 50.44680771716082]]]}}, {"type": "Feature", "properties": {"type": "postcode-cell", "postcode": "TQ9 6HS", "postcodes": ["TQ9 6HS"]}, "geometry": {"type": "Polygon", "coordinates": [[[-3.7077511124095817, 50.44612158609109], [-3.7052986795344864, 50.44655806520881], [-3.7069916958842604, 50.444850857530476], [-3.7071634600055265, 50.44480230743313], [-3.707622157109022, 50.445162337778406], [-3.7077511124095817, 50.44612158609109]]]}}, {"type": "Feature", "properties": {"type": "postcode-cell", "postcode": "TQ9 6HR", "postcodes": ["TQ9 6HR"]}, "geometry": {"type": "Polygon", "coordinates": [[[-3.7071634600055265, 50.44480230743313], [-3.7069916958842604, 50.444850857530476], [-3.705424103657893, 50.444737913389545], [-3.706706677316892, 50.44405627606225], [-3.707275671497177, 50.44450470886904], [-3.7071634600055265, 50.44480230743313]]]}}, {"type": "Feature", "properties": {"type": "postcode-cell", "postcode": "TQ9 6HA", "postcodes": ["TQ9 6HA"]}, "geometry": {"type": "Polygon", "coordinates": [[[-3.7079580530470384, 50.44194028348026], [-3.7046802358548514, 50.44222515819776], [-3.704071035116437, 50.44151351952111], [-3.7040731258953588, 50.44148891857534], [-3.7066945918396397, 50.440816788627714], [-3.707278001401286, 50.44078772742777], [-3.7080969000735635, 50.44159413367794], [-3.7079580530470384, 50.44194028348026]]]}}, {"type": "Feature", "properties": {"type": "postcode-cell", "postcode": "TQ9 6HP", "postcodes": ["TQ9 6HP"]}, "geometry": {"type": "Polygon", "coordinates": [[[-3.706706677316892, 50.44405627606225], [-3.705424103657893, 50.444737913389545], [-3.705359627145201, 50.444749702586556], [-3.7044450784986833, 50.44327007055576], [-3.704753667127203, 50.442889894397744], [-3.706640666113677, 50.44381172166183], [-3.706706677316892, 50.44405627606225]]]}}, {"type": "Feature", "properties": {"type": "postcode-cell", "postcode": "TQ9 6NR", "postcodes": ["TQ9 6NR"]}, "geometry": {"type": "Polygon", "coordinates": [[[-3.7044450784986833, 50.44327007055576], [-3.7005551855807224, 50.44517181498421], [-3.6970343478112846, 50.444821729995006], [-3.697087659931116, 50.44474859221006], [-3.698937882999945, 50.4430932673127], [-3.6996845428642047, 50.442762122694276], [-3.704071035116437, 50.44151351952111], [-3.7046802358548514, 50.44222515819776], [-3.7047837357780566, 50.44267659499416], [-3.704753667127203, 50.442889894397744], [-3.7044450784986833, 50.44327007055576]]]}}, {"type": "Feature", "properties": {"type": "postcode-cell", "postcode": "TQ9 6DQ", "postcodes": ["TQ9 6DQ"]}, "geometry": {"type": "Polygon", "coordinates": [[[-3.7058259912887848, 50.438640630010816], [-3.7033079314536965, 50.439986004224785], [-3.7018218645670893, 50.439569369197734], [-3.699287226595062, 50.43844240290078], [-3.699264519838034, 50.43842409969707], [-3.699161001356603, 50.43827616677535], [-3.701322034199489, 50.43628775638456], [-3.707410163707846, 50.433701048373045], [-3.707549532469343, 50.43377716294981], [-3.708389535187686, 50.43670602339552], [-3.708045443152335, 50.43712442305676], [-3.7058259912887848, 50.438640630010816]]]}}, {"type": "Feature", "properties": {"type": "postcode-cell", "postcode": "TQ9 6UA", "postcodes": ["TQ9 6UA", "TQ9 6UB", "TQ9 6UN"]}, "geometry": {"type": "Polygon", "coordinates": [[[-3.7040731258953588, 50.44148891857534], [-3.7033079314536965, 50.439986004224785], [-3.7058259912887848, 50.438640630010816], [-3.7066945918396397, 50.440816788627714], [-3.7040731258953588, 50.44148891857534]]]}}, {"type": "Feature", "properties": {"type": "postcode-cell", "postcode": "TQ9 6EY", "postcodes": ["TQ9 6EY"]}, "geometry": {"type": "Polygon", "coordinates": [[[-3.704071035116437, 50.44151351952111], [-3.6996845428642047, 50.442762122694276], [-3.7018218645670893, 50.439569369197734], [-3.7033079314536965, 50.439986004224785], [-3.7040731258953588, 50.44148891857534], [-3.704071035116437, 50.44151351952111]]]}}, {"type": "Feature", "properties": {"type": "postcode-cell", "postcode": "TQ9 6PA", "postcodes": ["TQ9 6PA"]}, "geometry": {"type": "Polygon", "coordinates": [[[-3.7052469132811217, 50.467119554311374], [-3.703170529258468, 50.46773070985463], [-3.701319222389467, 50.46377107661485], [-3.703598786794689, 50.46360411972859], [-3.7053207364743153, 50.465267832240386], [-3.7052469132811217, 50.467119554311374]]]}}, {"type": "Feature", "properties": {"type": "postcode-cell", "postcode": "TQ9 6HW", "postcodes": ["TQ9 6HW"]}, "geometry": {"type": "Polygon", "coordinates": [[[-3.704177578405512, 50.44660715875554], [-3.7005551855807224, 50.44517181498421], [-3.7044450784986833, 50.44327007055576], [-3.705359627145201, 50.444749702586556], [-3.704177578405512, 50.44660715875554]]]}}, {"type": "Feature", "properties": {"type": "postcode-cell", "postcode": "TQ9 6EG", "postcodes": ["TQ9 6EG"]}, "geometry": {"type": "Polygon", "coordinates": [[[-3.702827738937401, 50.4564905241949], [-3.702422146307052, 50.45676938490043], [-3.701536564331767, 50.45715207715615], [-3.691142320410995, 50.46100014320407], [-3.690966059611972, 50.461010818135115], [-3.688005581301798, 50.46001291798141], [-3.6873254367452617, 50.45917007297834], [-3.6906435543059373, 50.45554378051476], [-3.6941873578858098, 50.454121245887166], [-3.702299145298335, 50.45583865767536], [-3.7024776703648143, 50.45593869233993], [-3.702827738937401, 50.4564905241949]]]}}, {"type": "Feature", "properties": {"type": "postcode-cell", "postcode": "TQ9 6DG", "postcodes": ["TQ9 6DG"]}, "geometry": {"type": "Polygon", "coordinates": [[[-3.699161001356603, 50.43827616677535], [-3.698038745980127, 50.43810686258573], [-3.698309989990326, 50.437699994517835], [-3.6984499899906624, 50.43717999451744], [-3.6967199899897687, 50.436759994517146], [-3.697829989991106, 50.435419994516096], [-3.6969258729287335, 50.43522649105234], [-3.6980964882260032, 50.43476114212349], [-3.701322034199489, 50.43628775638456], [-3.699161001356603, 50.43827616677535]]]}}, {"type": "Feature", "properties": {"type": "postcode-cell", "postcode": "TQ9 6ED", "postcodes": ["TQ9 6ED"]}, "geometry": {"type": "Polygon", "coordinates": [[[-3.7052807056748613, 50.449601134503936], [-3.7024776703648143, 50.45593869233993], [-3.702299145298335, 50.45583865767536], [-3.6980900998770294, 50.451696268354546], [-3.6964011938270285, 50.44951618340971], [-3.6963098529425142, 50.448042771485255], [-3.7049360060694387, 50.4492344540729], [-3.7052807056748613, 50.449601134503936]]]}}, {"type": "Feature", "properties": {"type": "postcode-cell", "postcode": "TQ9 6EX", "postcodes": ["TQ9 6EX"]}, "geometry": {"type": "Polygon", "coordinates": [[[-3.7018218645670893, 50.439569369197734], [-3.6996845428642047, 50.442762122694276], [-3.698937882999945, 50.4430932673127], [-3.699287226595062, 50.43844240290078], [-3.7018218645670893, 50.439569369197734]]]}}, {"type": "Feature", "properties": {"type": "postcode-cell", "postcode": "TQ9 6PG", "postcodes": ["TQ9 6PG"]}, "geometry": {"type": "Polygon", "coordinates": [[[-3.700924249117941, 50.46365423294853], [-3.7026466084710403, 50.46049247903835], [-3.703598786794689, 50.46360411972859], [-3.701319222389467, 50.46377107661485], [-3.700924249117941, 50.46365423294853]]]}}, {"type": "Feature", "properties": {"type": "postcode-cell", "postcode": "TQ9 6EU", "postcodes": ["TQ9 6EU"]}, "geometry": {"type": "Polygon", "coordinates": [[[-3.697087659931116, 50.44474859221006], [-3.696856432797558, 50.44168692846023], [-3.6970010105370332, 50.44090958338268], [-3.697448811228897, 50.440183177202165], [-3.699264519838034, 50.43842409969707], [-3.699287226595062, 50.43844240290078], [-3.698937882999945, 50.4430932673127], [-3.697087659931116, 50.44474859221006]]]}}, {"type": "Feature", "properties": {"type": "postcode-cell", "postcode": "TQ9 6PD", "postcodes": ["TQ9 6PD"]}, "geometry": {"type": "Polygon", "coordinates": [[[-3.700924249117941, 50.46365423294853], [-3.7001337297287344, 50.46378071257506], [-3.6997670284477007, 50.46350051373665], [-3.701536564331767, 50.45715207715615], [-3.702422146307052, 50.45676938490043], [-3.7026466084710403, 50.46049247903835], [-3.700924249117941, 50.46365423294853]]]}}, {"type": "Feature", "properties": {"type": "postcode-cell", "postcode": "TQ9 6PQ", "postcodes": ["TQ9 6PQ"]}, "geometry": {"type": "Polygon", "coordinates": [[[-3.6997670284477007, 50.46350051373665], [-3.6934016958863887, 50.46240862273489], [-3.691142320410995, 50.46100014320407], [-3.701536564331767, 50.45715207715615], [-3.6997670284477007, 50.46350051373665]]]}}, {"type": "Feature", "properties": {"type": "postcode-cell", "postcode": "TQ9 6FL", "postcodes": ["TQ9 6FL"]}, "geometry": {"type": "Polygon", "coordinates": [[[-3.6970343478112846, 50.444821729995006], [-3.69475310375117, 50.44561910234794], [-3.690913286185833, 50.44501507959801], [-3.6910399899823245, 50.44484999452351], [-3.691186316344284, 50.44215283750148], [-3.6958290937074025, 50.44083461190878], [-3.696856432797558, 50.44168692846023], [-3.697087659931116, 50.44474859221006], [-3.6970343478112846, 50.444821729995006]]]}}, {"type": "Feature", "properties": {"type": "postcode-cell", "postcode": "TQ9 6PE", "postcodes": ["TQ9 6PE"]}, "geometry": {"type": "Polygon", "coordinates": [[[-3.7031691737715318, 50.467731201414004], [-3.6996044683019647, 50.46935000968851], [-3.6972952358668394, 50.465655269622644], [-3.70007561636473, 50.46390198342743], [-3.7031691737715318, 50.467731201414004]]]}}, {"type": "Feature", "properties": {"type": "postcode-cell", "postcode": "TQ9 6PB", "postcodes": ["TQ9 6PB"]}, "geometry": {"type": "Polygon", "coordinates": [[[-3.70007561636473, 50.46390198342743], [-3.6972952358668394, 50.465655269622644], [-3.6934016958863887, 50.46240862273489], [-3.6997670284477007, 50.46350051373665], [-3.7001337297287344, 50.46378071257506], [-3.70007561636473, 50.46390198342743]]]}}, {"type": "Feature", "properties": {"type": "postcode-cell", "postcode": "TQ9 6ER", "postcodes": ["TQ9 6ER"]}, "geometry": {"type": "Polygon", "coordinates": [[[-3.6980964882260032, 50.43476114212349], [-3.6969258729287335, 50.43522649105234], [-3.6949799899895908, 50.434809994515675], [-3.6932099899889232, 50.433859994515], [-3.693459989989142, 50.433729994514884], [-3.6948199899898944, 50.433959994515035], [-3.6960399899909793, 50.433299994514506], [-3.697619989991876, 50.43351999451464], [-3.697932657354236, 50.43343647585246], [-3.6980964882260032, 50.43476114212349]]]}}, {"type": "Feature", "properties": {"type": "postcode-cell", "postcode": "TQ9 6AS", "postcodes": ["TQ9 6AS"]}, "geometry": {"type": "Polygon", "coordinates": [[[-3.6888197652535375, 50.46796627289652], [-3.698869547164768, 50.47018543740016], [-3.6989605626196913, 50.470805788503384], [-3.6935768089357954, 50.47579627036551], [-3.6922799899689234, 50.474719994546525], [-3.691229989968375, 50.474469994546354], [-3.691389989968713, 50.47396999454597], [-3.6907899899684944, 50.47362999454571], [-3.6908099899686864, 50.47324999454542], [-3.6898899899682758, 50.47288999454518], [-3.689499989968331, 50.47224999454468], [-3.688499989967821, 50.47198999454451], [-3.68630998996733, 50.4700999945431], [-3.6847244662573204, 50.4696132703362], [-3.6888197652535375, 50.46796627289652]]]}}, {"type": "Feature", "properties": {"type": "postcode-cell", "postcode": "TQ9 6PF", "postcodes": ["TQ9 6PF"]}, "geometry": {"type": "Polygon", "coordinates": [[[-3.698869547164768, 50.47018543740016], [-3.6888197652535375, 50.46796627289652], [-3.690966059611972, 50.461010818135115], [-3.691142320410995, 50.46100014320407], [-3.6934016958863887, 50.46240862273489], [-3.6972952358668394, 50.465655269622644], [-3.6996044683019647, 50.46935000968851], [-3.698869547164768, 50.47018543740016]]]}}, {"type": "Feature", "properties": {"type": "postcode-cell", "postcode": "TQ9 6FP", "postcodes": ["TQ9 6FP"]}, "geometry": {"type": "Polygon", "coordinates": [[[-3.696856432797558, 50.44168692846023], [-3.6958290937074025, 50.44083461190878], [-3.6958415638772015, 50.44054777655], [-3.6970010105370332, 50.44090958338268], [-3.696856432797558, 50.44168692846023]]]}}, {"type": "Feature", "properties": {"type": "postcode-cell", "postcode": "TQ9 6FR", "postcodes": ["TQ9 6FR"]}, "geometry": {"type": "Polygon", "coordinates": [[[-3.697448811228897, 50.440183177202165], [-3.6957606932938627, 50.44044831130131], [-3.6939651710900887, 50.439632094649355], [-3.6948199899874794, 50.439039994518964], [-3.695699989987752, 50.43963999451939], [-3.6978899899897626, 50.43832999451834], [-3.698038745980127, 50.43810686258573], [-3.699161001356603, 50.43827616677535], [-3.699264519838034, 50.43842409969707], [-3.697448811228897, 50.440183177202165]]]}}, {"type": "Feature", "properties": {"type": "postcode-cell", "postcode": "TQ9 6FN", "postcodes": ["TQ9 6FN"]}, "geometry": {"type": "Polygon", "coordinates": [[[-3.6970010105370332, 50.44090958338268], [-3.6958415638772015, 50.44054777655], [-3.6957606932938627, 50.44044831130131], [-3.697448811228897, 50.440183177202165], [-3.6970010105370332, 50.44090958338268]]]}}, {"type": "Feature", "properties": {"type": "postcode-cell", "postcode": "TQ9 6EL", "postcodes": ["TQ9 6EL"]}, "geometry": {"type": "Polygon", "coordinates": [[[-3.6980900998770294, 50.451696268354546], [-3.6933958462422556, 50.45219057993139], [-3.6924756327199852, 50.45121562531946], [-3.6964011938270285, 50.44951618340971], [-3.6980900998770294, 50.451696268354546]]]}}, {"type": "Feature", "properties": {"type": "postcode-cell", "postcode": "TQ9 6FQ", "postcodes": ["TQ9 6FQ"]}, "geometry": {"type": "Polygon", "coordinates": [[[-3.6958290937074025, 50.44083461190878], [-3.691186316344284, 50.44215283750148], [-3.6913399899851425, 50.43931999451924], [-3.692509989985257, 50.44063999452023], [-3.6939651710900887, 50.439632094649355], [-3.6957606932938627, 50.44044831130131], [-3.6958415638772015, 50.44054777655], [-3.6958290937074025, 50.44083461190878]]]}}, {"type": "Feature", "properties": {"type": "postcode-cell", "postcode": "TQ9 6EE", "postcodes": ["TQ9 6EE"]}, "geometry": {"type": "Polygon", "coordinates": [[[-3.702299145298335, 50.45583865767536], [-3.6941873578858098, 50.454121245887166], [-3.693528811870535, 50.453739989972775], [-3.6933958462422556, 50.45219057993139], [-3.6980900998770294, 50.451696268354546], [-3.702299145298335, 50.45583865767536]]]}}, {"type": "Feature", "properties": {"type": "postcode-cell", "postcode": "TQ9 6EN", "postcodes": ["TQ9 6EN"]}, "geometry": {"type": "Polygon", "coordinates": [[[-3.6964011938270285, 50.44951618340971], [-3.6924756327199852, 50.45121562531946], [-3.6877184703887074, 50.45144011010082], [-3.6853131896419655, 50.45086466178608], [-3.6856299899763454, 50.45021999452774], [-3.6860899899768755, 50.449719994527364], [-3.686649989977241, 50.44969999452733], [-3.6874299899783143, 50.44847999452639], [-3.689289989980132, 50.447129994525284], [-3.690913286185833, 50.44501507959801], [-3.69475310375117, 50.44561910234794], [-3.6963098529425142, 50.448042771485255], [-3.6964011938270285, 50.44951618340971]]]}}, {"type": "Feature", "properties": {"type": "postcode-cell", "postcode": "TQ9 6EP", "postcodes": ["TQ9 6EP"]}, "geometry": {"type": "Polygon", "coordinates": [[[-3.6933958462422556, 50.45219057993139], [-3.693528811870535, 50.453739989972775], [-3.69046907595436, 50.45307971525213], [-3.6877184703887074, 50.45144011010082], [-3.6924756327199852, 50.45121562531946], [-3.6933958462422556, 50.45219057993139]]]}}, {"type": "Feature", "properties": {"type": "postcode-cell", "postcode": "TQ9 6PJ", "postcodes": ["TQ9 6PJ"]}, "geometry": {"type": "Polygon", "coordinates": [[[-3.688005581301798, 50.46001291798141], [-3.690966059611972, 50.461010818135115], [-3.6888197652535375, 50.46796627289652], [-3.6847244662573204, 50.4696132703362], [-3.683019989965725, 50.46908999454236], [-3.682469989965693, 50.46841999454186], [-3.6819299899653064, 50.468519994541964], [-3.6814999899651752, 50.46821999454173], [-3.68151998996532, 50.46793999454151], [-3.680019989964305, 50.46807999454167], [-3.679599989964262, 50.46760999454131], [-3.677879989963458, 50.46700999454089], [-3.6767899899627805, 50.46697999454087], [-3.6749499899620304, 50.46610999454025], [-3.6761437101298164, 50.46496287919207], [-3.688005581301798, 50.46001291798141]]]}}, {"type": "Feature", "properties": {"type": "postcode-cell", "postcode": "TQ9 6EQ", "postcodes": ["TQ9 6EQ"]}, "geometry": {"type": "Polygon", "coordinates": [[[-3.6873254367452617, 50.45917007297834], [-3.6819420328692685, 50.455122613714835], [-3.6826399899728703, 50.45354999453039], [-3.68476998997497, 50.451969994529136], [-3.6853131896419655, 50.45086466178608], [-3.6877184703887074, 50.45144011010082], [-3.69046907595436, 50.45307971525213], [-3.6906435543059373, 50.45554378051476], [-3.6873254367452617, 50.45917007297834]]]}}, {"type": "Feature", "properties": {"type": "postcode-cell", "postcode": "TQ9 6EF", "postcodes": ["TQ9 6EF"]}, "geometry": {"type": "Polygon", "coordinates": [[[-3.693528811870535, 50.453739989972775], [-3.6941873578858098, 50.454121245887166], [-3.6906435543059373, 50.45554378051476], [-3.69046907595436, 50.45307971525213], [-3.693528811870535, 50.453739989972775]]]}}, {"type": "Feature", "properties": {"type": "postcode-cell", "postcode": "TQ9 6RS", "postcodes": ["TQ9 6RS"]}, "geometry": {"type": "Polygon", "coordinates": [[[-3.6873254367452617, 50.45917007297834], [-3.688005581301798, 50.46001291798141], [-3.6761437101298164, 50.46496287919207], [-3.6795699899670664, 50.46166999453672], [-3.6796399899686323, 50.458469994534234], [-3.6810099899701476, 50.45710999453319], [-3.682449989971283, 50.45663999453279], [-3.6818499899715253, 50.45532999453177], [-3.6819420328692685, 50.455122613714835], [-3.6873254367452617, 50.45917007297834]]]}}]}