{"type": "FeatureCollection", "features": [{"type": "Feature", "properties": {"type": "ward-outline", "name": "Dartmoor"}, "geometry": {"type": "Polygon", "coordinates": [[[-3.96655, 50.70649], [-3.95865, 50.70153], [-3.94803, 50.69321], [-3.93587, 50.68881], [-3.94245, 50.68454], [-3.94405, 50.67213], [-3.94113, 50.66527], [-3.93724, 50.65989], [-3.93081, 50.65579], [-3.92189, 50.65548], [-3.90768, 50.65319], [-3.89671, 50.65529], [-3.89519, 50.65299], [-3.90017, 50.64677], [-3.89608, 50.64635], [-3.8906, 50.64533], [-3.8868, 50.64173], [-3.88589, 50.64148], [-3.88532, 50.63987], [-3.88198, 50.63827], [-3.87913, 50.61616], [-3.87336, 50.6143], [-3.8725, 50.61264], [-3.87303, 50.61097], [-3.87492, 50.60913], [-3.87919, 50.59953], [-3.88248, 50.59672], [-3.88282, 50.595], [-3.88179, 50.59309], [-3.88114, 50.59247], [-3.88118, 50.59044], [-3.88051, 50.58933], [-3.88137, 50.58774], [-3.88058, 50.58742], [-3.8807, 50.58696], [-3.87925, 50.58626], [-3.88039, 50.5857], [-3.88094, 50.58435], [-3.87928, 50.58086], [-3.87836, 50.58046], [-3.87842, 50.57993], [-3.87729, 50.57904], [-3.87771, 50.57874], [-3.87735, 50.57565], [-3.87698, 50.57515], [-3.8738, 50.57515], [-3.87258, 50.57338], [-3.87013, 50.57214], [-3.86969, 50.5713], [-3.87071, 50.56919], [-3.87188, 50.56812], [-3.87186, 50.56677], [-3.8728, 50.56644], [-3.87301, 50.56557], [-3.87434, 50.56479], [-3.87485, 50.56402], [-3.87428, 50.56182], [-3.87623, 50.55891], [-3.87593, 50.55698], [-3.87404, 50.5562], [-3.87459, 50.55518], [-3.87429, 50.55421], [-3.87683, 50.55316], [-3.87743, 50.5525], [-3.87713, 50.55], [-3.87591, 50.54925], [-3.87561, 50.54766], [-3.87599, 50.54725], [-3.87513, 50.54662], [-3.87488, 50.54543], [-3.87586, 50.54456], [-3.8756, 50.54243], [-3.87609, 50.54262], [-3.87744, 50.54243], [-3.87969, 50.54156], [-3.88044, 50.54028], [-3.8822, 50.53997], [-3.8835, 50.53923], [-3.88467, 50.5372], [-3.88649, 50.53614], [-3.88916, 50.53632], [-3.88812, 50.53322], [-3.88431, 50.53065], [-3.88402, 50.52936], [-3.88458, 50.52867], [-3.88457, 50.52703], [-3.88576, 50.52511], [-3.88641, 50.52463], [-3.89118, 50.52352], [-3.89065, 50.51964], [-3.8926, 50.51385], [-3.89134, 50.50589], [-3.88433, 50.50156], [-3.88319, 50.49957], [-3.88387, 50.49802], [-3.88368, 50.49589], [-3.88304, 50.49527], [-3.88274, 50.49282], [-3.88124, 50.49076], [-3.87986, 50.4873], [-3.88024, 50.48567], [-3.88191, 50.48406], [-3.88235, 50.4827], [-3.88373, 50.4808], [-3.88372, 50.48], [-3.88806, 50.4801], [-3.89153, 50.47946], [-3.8917, 50.47838], [-3.89832, 50.47416], [-3.89897, 50.47264], [-3.90384, 50.47717], [-3.90626, 50.47683], [-3.90924, 50.47844], [-3.9114, 50.48026], [-3.91372, 50.48124], [-3.9138, 50.48168], [-3.91478, 50.48186], [-3.91998, 50.48165], [-3.92147, 50.48104], [-3.92241, 50.48004], [-3.92374, 50.47949], [-3.92393, 50.47876], [-3.92566, 50.47977], [-3.92638, 50.48097], [-3.92749, 50.48089], [-3.92831, 50.48129], [-3.93189, 50.48191], [-3.93219, 50.48222], [-3.93259, 50.48195], [-3.93589, 50.48353], [-3.93704, 50.48365], [-3.93898, 50.48442], [-3.94601, 50.48908], [-3.94878, 50.48866], [-3.94871, 50.49274], [-3.94579, 50.49827], [-3.94657, 50.498], [-3.9491, 50.49836], [-3.95236, 50.49906], [-3.95485, 50.50022], [-3.95597, 50.50024], [-3.9602, 50.49923], [-3.96247, 50.49819], [-3.96439, 50.4964], [-3.97601, 50.50036], [-3.96929, 50.51258], [-3.98106, 50.53419], [-3.99641, 50.54355], [-4.00238, 50.54227], [-4.0044, 50.54076], [-4.00583, 50.54029], [-4.01816, 50.54101], [-4.01967, 50.54067], [-4.02206, 50.53945], [-4.02418, 50.53948], [-4.02541, 50.54022], [-4.02823, 50.54293], [-4.02836, 50.54361], [-4.02738, 50.54525], [-4.02928, 50.54589], [-4.03037, 50.54729], [-4.03319, 50.54967], [-4.03646, 50.55165], [-4.03805, 50.55202], [-4.04112, 50.55143], [-4.04468, 50.55015], [-4.04914, 50.54968], [-4.0515, 50.54893], [-4.05184, 50.54838], [-4.05409, 50.54807], [-4.05579, 50.54352], [-4.05534, 50.54256], [-4.05575, 50.54136], [-4.05532, 50.54025], [-4.05594, 50.53999], [-4.05659, 50.53905], [-4.05617, 50.53766], [-4.05714, 50.53582], [-4.0565, 50.53526], [-4.05682, 50.5347], [-4.0564, 50.53275], [-4.05549, 50.53188], [-4.05547, 50.53127], [-4.05666, 50.53026], [-4.05852, 50.5297], [-4.06004, 50.52733], [-4.06161, 50.5264], [-4.0616, 50.52494], [-4.06305, 50.52406], [-4.06303, 50.52181], [-4.0643, 50.52174], [-4.06556, 50.52124], [-4.06808, 50.51907], [-4.07, 50.51815], [-4.07131, 50.51655], [-4.07448, 50.51532], [-4.07894, 50.51475], [-4.07833, 50.51382], [-4.07996, 50.51311], [-4.08104, 50.51167], [-4.08226, 50.51215], [-4.08104, 50.51345], [-4.08749, 50.51486], [-4.08748, 50.51528], [-4.08912, 50.51591], [-4.09089, 50.51524], [-4.09251, 50.51527], [-4.09238, 50.51706], [-4.09369, 50.51891], [-4.09436, 50.52087], [-4.09226, 50.52283], [-4.09427, 50.52365], [-4.09429, 50.52443], [-4.09622, 50.52534], [-4.10242, 50.52103], [-4.10525, 50.52059], [-4.10513, 50.52033], [-4.1066, 50.52008], [-4.10836, 50.52028], [-4.10977, 50.52129], [-4.1115, 50.5209], [-4.11168, 50.52042], [-4.11373, 50.51901], [-4.1144, 50.51911], [-4.11659, 50.51822], [-4.11794, 50.51464], [-4.11898, 50.51412], [-4.11987, 50.51407], [-4.12141, 50.51467], [-4.12459, 50.51506], [-4.12673, 50.51643], [-4.12929, 50.51735], [-4.13111, 50.51893], [-4.13219, 50.51926], [-4.13325, 50.51916], [-4.13382, 50.51872], [-4.1344, 50.51706], [-4.13288, 50.51515], [-4.13446, 50.51377], [-4.13644, 50.51264], [-4.13677, 50.51206], [-4.13986, 50.51092], [-4.14202, 50.51101], [-4.14406, 50.51073], [-4.14556, 50.50949], [-4.14924, 50.50854], [-4.15103, 50.50899], [-4.14992, 50.50971], [-4.15091, 50.51211], [-4.15349, 50.51197], [-4.15653, 50.51239], [-4.15986, 50.5123], [-4.16115, 50.51203], [-4.1623, 50.51127], [-4.16348, 50.51111], [-4.16428, 50.51227], [-4.16259, 50.51436], [-4.15898, 50.51522], [-4.1577, 50.51741], [-4.15807, 50.51846], [-4.1589, 50.51898], [-4.16412, 50.51961], [-4.16468, 50.52011], [-4.16499, 50.52142], [-4.16443, 50.52344], [-4.16537, 50.52408], [-4.1653, 50.5248], [-4.16127, 50.52792], [-4.15985, 50.52862], [-4.15848, 50.52849], [-4.15554, 50.52909], [-4.15443, 50.53105], [-4.15488, 50.53269], [-4.15054, 50.5334], [-4.14426, 50.53395], [-4.14319, 50.53379], [-4.14144, 50.53309], [-4.14185, 50.53272], [-4.1408, 50.53248], [-4.13742, 50.53043], [-4.13697, 50.52962], [-4.13363, 50.53004], [-4.13327, 50.53023], [-4.13332, 50.5309], [-4.13165, 50.5313], [-4.12167, 50.5334], [-4.12201, 50.5344], [-4.12271, 50.53476], [-4.1206, 50.53632], [-4.12506, 50.54381], [-4.12859, 50.54504], [-4.13088, 50.5472], [-4.1291, 50.54769], [-4.12673, 50.54773], [-4.12505, 50.54846], [-4.1238, 50.54953], [-4.12497, 50.55042], [-4.12473, 50.55066], [-4.12357, 50.5505], [-4.12343, 50.55253], [-4.11925, 50.55196], [-4.11251, 50.55224], [-4.10278, 50.5521], [-4.10382, 50.55218], [-4.10426, 50.55287], [-4.10573, 50.55305], [-4.10615, 50.55529], [-4.10311, 50.55543], [-4.10149, 50.5552], [-4.10055, 50.55548], [-4.10147, 50.55739], [-4.0999, 50.55801], [-4.09892, 50.5579], [-4.09798, 50.55874], [-4.09292, 50.55985], [-4.07957, 50.55994], [-4.07671, 50.56043], [-4.0742, 50.56165], [-4.07043, 50.56492], [-4.05438, 50.56973], [-4.05094, 50.56875], [-4.04754, 50.56829], [-4.04605, 50.56846], [-4.04571, 50.57095], [-4.04618, 50.57177], [-4.04542, 50.57301], [-4.04571, 50.57394], [-4.04522, 50.57459], [-4.0455, 50.57532], [-4.04492, 50.57812], [-4.04418, 50.57875], [-4.04167, 50.57978], [-4.04083, 50.58105], [-4.0398, 50.58122], [-4.03779, 50.581], [-4.03533, 50.58195], [-4.03379, 50.58422], [-4.03386, 50.58477], [-4.03172, 50.58543], [-4.02981, 50.5852], [-4.0276, 50.58561], [-4.02728, 50.58625], [-4.02772, 50.58854], [-4.02397, 50.59589], [-4.02854, 50.60746], [-4.02956, 50.61734], [-4.02861, 50.62394], [-4.02823, 50.6242], [-4.02829, 50.6262], [-4.02913, 50.62721], [-4.02926, 50.62918], [-4.02823, 50.63092], [-4.0288, 50.63127], [-4.03064, 50.63111], [-4.03459, 50.63481], [-4.03759, 50.6356], [-4.03658, 50.63568], [-4.03687, 50.63726], [-4.03588, 50.63822], [-4.03504, 50.63968], [-4.034, 50.64022], [-4.03413, 50.64113], [-4.0361, 50.64371], [-4.0355, 50.64403], [-4.03564, 50.64472], [-4.03512, 50.64488], [-4.03575, 50.64576], [-4.03528, 50.64597], [-4.03694, 50.64947], [-4.03761, 50.64967], [-4.03818, 50.65045], [-4.03854, 50.65033], [-4.03856, 50.65083], [-4.03912, 50.65086], [-4.03979, 50.65162], [-4.03875, 50.65482], [-4.03908, 50.65533], [-4.03885, 50.6577], [-4.03954, 50.65998], [-4.039, 50.66306], [-4.03946, 50.66435], [-4.04068, 50.6654], [-4.03996, 50.66572], [-4.04019, 50.66694], [-4.03974, 50.66883], [-4.03899, 50.66942], [-4.02802, 50.67411], [-4.01922, 50.67348], [-4.00783, 50.67936], [-4.00097, 50.68471], [-3.99501, 50.69112], [-3.9882, 50.69962], [-3.97994, 50.7017], [-3.97771, 50.70162], [-3.97567, 50.70276], [-3.9755, 50.70225], [-3.974, 50.70161], [-3.97301, 50.70515], [-3.97335, 50.70644], [-3.96655, 50.70649]]]}}, {"type": "Feature", "properties": {"type": "postcode-cell", "postcode": "PL19 9EB", "postcodes": ["PL19 9EB"]}, "geometry": {"type": "Polygon", "coordinates": [[[-4.145201396809345, 50.52674008598263], [-4.156507883209311, 50.52889247523507], [-4.15553999024431, 50.52908999458014], [-4.154429990242683, 50.531049994581714], [-4.154879990242236, 50.532689994583016], [-4.150539990239038, 50.53339999458365], [-4.144259990234619, 50.533949994584184], [-4.143189990233982, 50.53378999458408], [-4.141439990233139, 50.533089994583555], [-4.141849990233583, 50.53271999458327], [-4.140799990232994, 50.53247999458309], [-4.139137420411799, 50.5314716662324], [-4.145201396809345, 50.52674008598263]]]}}, {"type": "Feature", "properties": {"type": "postcode-cell", "postcode": "PL19 9EQ", "postcodes": ["PL19 9EQ"]}, "geometry": {"type": "Polygon", "coordinates": [[[-4.145201396809345, 50.52674008598263], [-4.140775707400047, 50.519665674624854], [-4.141344288658144, 50.51762611764364], [-4.158831596376902, 50.5154738980547], [-4.157699990251054, 50.51740999457091], [-4.158069990250822, 50.51845999457176], [-4.158899990251135, 50.518979994572135], [-4.164119990254313, 50.51960999457254], [-4.164679990254454, 50.52010999457291], [-4.164989990254067, 50.52141999457394], [-4.164429990252778, 50.523439994575554], [-4.16536999025311, 50.52407999457604], [-4.165299990252738, 50.524799994576604], [-4.161269990248643, 50.52791999457913], [-4.159849990247383, 50.52861999457972], [-4.158479990246534, 50.52848999457962], [-4.156507883209311, 50.52889247523507], [-4.145201396809345, 50.52674008598263]]]}}, {"type": "Feature", "properties": {"type": "postcode-cell", "postcode": "PL19 9EH", "postcodes": ["PL19 9EH"]}, "geometry": {"type": "Polygon", "coordinates": [[[-4.145201396809345, 50.52674008598263], [-4.139137420411799, 50.5314716662324], [-4.137419990231689, 50.53042999458152], [-4.13696999023176, 50.52961999458089], [-4.133629990229359, 50.530039994581294], [-4.133269990229032, 50.53022999458146], [-4.13331999022876, 50.53089999458197], [-4.13164999022747, 50.53129999458233], [-4.129926631405708, 50.53166269926999], [-4.132976144035642, 50.52469156194835], [-4.140775707400047, 50.519665674624854], [-4.145201396809345, 50.52674008598263]]]}}, {"type": "Feature", "properties": {"type": "postcode-cell", "postcode": "PL19 9LD", "postcodes": ["PL19 9LD"]}, "geometry": {"type": "Polygon", "coordinates": [[[-4.141344288658144, 50.51762611764364], [-4.1346784112862185, 50.51377372435323], [-4.134603437952094, 50.51368813086021], [-4.136439990239145, 50.512639994567536], [-4.136769990239628, 50.51205999456709], [-4.139859990242193, 50.51091999456614], [-4.142019990243579, 50.51100999456615], [-4.144059990245059, 50.51072999456592], [-4.145559990246618, 50.5094899945649], [-4.149239990249485, 50.5085399945641], [-4.151029990250466, 50.508989994564395], [-4.149919990249402, 50.50970999456498], [-4.150909990248964, 50.51210999456687], [-4.1534899902507405, 50.51196999456669], [-4.156529990252563, 50.51238999456699], [-4.159859990254811, 50.512299994566845], [-4.1611499902557885, 50.51202999456664], [-4.162299990256898, 50.51126999456602], [-4.163479990257752, 50.51110999456586], [-4.164279990257756, 50.51226999456676], [-4.162589990255684, 50.51435999456842], [-4.158979990252899, 50.51521999456918], [-4.158831596376902, 50.5154738980547], [-4.141344288658144, 50.51762611764364]]]}}, {"type": "Feature", "properties": {"type": "postcode-cell", "postcode": "PL19 9ES", "postcodes": ["PL19 9ES"]}, "geometry": {"type": "Polygon", "coordinates": [[[-4.140775707400047, 50.519665674624854], [-4.132976144035642, 50.52469156194835], [-4.127479490673993, 50.522682508599296], [-4.126273319114303, 50.52183641826419], [-4.125564915542338, 50.5211541487653], [-4.125252568908329, 50.520707247031645], [-4.129531749876857, 50.517559881689444], [-4.131109990232749, 50.51892999457257], [-4.132189990233314, 50.51925999457283], [-4.133249990234063, 50.51915999457273], [-4.133819990234638, 50.51871999457237], [-4.13439999023578, 50.517059994571035], [-4.132879990235645, 50.51514999456958], [-4.133266036145816, 50.514812824518934], [-4.1346784112862185, 50.51377372435323], [-4.141344288658144, 50.51762611764364], [-4.140775707400047, 50.519665674624854]]]}}, {"type": "Feature", "properties": {"type": "postcode-cell", "postcode": "PL19 9DZ", "postcodes": ["PL19 9DZ"]}, "geometry": {"type": "Polygon", "coordinates": [[[-4.113784572518332, 50.5491480311787], [-4.110322897915638, 50.54669897789337], [-4.108882987271058, 50.54469448753735], [-4.109768832052066, 50.54230859536909], [-4.122683952907776, 50.53243453070731], [-4.124552455193512, 50.532793570377194], [-4.1216699902199085, 50.533399994584144], [-4.122009990219676, 50.53439999458493], [-4.122709990219977, 50.534759994585194], [-4.120599990217868, 50.536319994586464], [-4.1241749107625365, 50.54232382538892], [-4.113784572518332, 50.5491480311787]]]}}, {"type": "Feature", "properties": {"type": "postcode-cell", "postcode": "PL19 9ER", "postcodes": ["PL19 9ER"]}, "geometry": {"type": "Polygon", "coordinates": [[[-4.129926631405708, 50.53166269926999], [-4.124552455193512, 50.532793570377194], [-4.122683952907776, 50.53243453070731], [-4.120140819747258, 50.530983966870465], [-4.120123440474071, 50.53093672734349], [-4.127479490673993, 50.522682508599296], [-4.132976144035642, 50.52469156194835], [-4.129926631405708, 50.53166269926999]]]}}, {"type": "Feature", "properties": {"type": "postcode-cell", "postcode": "PL19 9NE", "postcodes": ["PL19 9NE"]}, "geometry": {"type": "Polygon", "coordinates": [[[-4.126273319114303, 50.52183641826419], [-4.119733180252119, 50.53016354274116], [-4.118975840692292, 50.52888593263468], [-4.125564915542338, 50.5211541487653], [-4.126273319114303, 50.52183641826419]]]}}, {"type": "Feature", "properties": {"type": "postcode-cell", "postcode": "PL19 9LB", "postcodes": ["PL19 9LB"]}, "geometry": {"type": "Polygon", "coordinates": [[[-4.108882987271058, 50.54469448753735], [-4.096647045714151, 50.54163425294586], [-4.094937221682157, 50.533109780440455], [-4.097576114749503, 50.53017820203283], [-4.1040020256870235, 50.53194500015448], [-4.109768832052066, 50.54230859536909], [-4.108882987271058, 50.54469448753735]]]}}, {"type": "Feature", "properties": {"type": "postcode-cell", "postcode": "PL19 9EN", "postcodes": ["PL19 9EN"]}, "geometry": {"type": "Polygon", "coordinates": [[[-4.127479490673993, 50.522682508599296], [-4.120123440474071, 50.53093672734349], [-4.119733180252119, 50.53016354274116], [-4.126273319114303, 50.52183641826419], [-4.127479490673993, 50.522682508599296]]]}}, {"type": "Feature", "properties": {"type": "postcode-cell", "postcode": "PL19 9LF", "postcodes": ["PL19 9LF"]}, "geometry": {"type": "Polygon", "coordinates": [[[-4.113784572518332, 50.5491480311787], [-4.1241749107625365, 50.54232382538892], [-4.1250599902174105, 50.543809994592294], [-4.128589990219188, 50.54503999459319], [-4.1308799902197215, 50.547199994594855], [-4.12909999021832, 50.54768999459528], [-4.126729990216727, 50.54772999459534], [-4.125049990215283, 50.54845999459594], [-4.12379999021397, 50.54952999459682], [-4.124969990214336, 50.5504199945975], [-4.1247299902140675, 50.55065999459768], [-4.1235699902133724, 50.55049999459758], [-4.123429990212355, 50.552529994599176], [-4.119249990209847, 50.551959994598796], [-4.115487556547824, 50.55211634595425], [-4.113784572518332, 50.5491480311787]]]}}, {"type": "Feature", "properties": {"type": "postcode-cell", "postcode": "PL19 9EP", "postcodes": ["PL19 9EP"]}, "geometry": {"type": "MultiPolygon", "coordinates": [[[[-4.133266036145816, 50.514812824518934], [-4.13445999023732, 50.51376999456845], [-4.134603437952094, 50.51368813086021], [-4.1346784112862185, 50.51377372435323], [-4.133266036145816, 50.514812824518934]]], [[[-4.125252568908329, 50.520707247031645], [-4.117602491628631, 50.52031592162116], [-4.1228179266807805, 50.51484267757919], [-4.124589990230203, 50.51505999456966], [-4.126729990230994, 50.51642999457069], [-4.129289990232268, 50.51734999457137], [-4.129531749876857, 50.517559881689444], [-4.125252568908329, 50.520707247031645]]]]}}, {"type": "Feature", "properties": {"type": "postcode-cell", "postcode": "PL19 9EW", "postcodes": ["PL19 9EW"]}, "geometry": {"type": "Polygon", "coordinates": [[[-4.125252568908329, 50.520707247031645], [-4.125564915542338, 50.5211541487653], [-4.118975840692292, 50.52888593263468], [-4.113514095573657, 50.52137656579738], [-4.117602491628631, 50.52031592162116], [-4.125252568908329, 50.520707247031645]]]}}, {"type": "Feature", "properties": {"type": "postcode-cell", "postcode": "PL19 9LE", "postcodes": ["PL19 9LE"]}, "geometry": {"type": "Polygon", "coordinates": [[[-4.122683952907776, 50.53243453070731], [-4.109768832052066, 50.54230859536909], [-4.1040020256870235, 50.53194500015448], [-4.120140819747258, 50.530983966870465], [-4.122683952907776, 50.53243453070731]]]}}, {"type": "Feature", "properties": {"type": "postcode-cell", "postcode": "PL20 7SB", "postcodes": ["PL20 7SB"]}, "geometry": {"type": "Polygon", "coordinates": [[[-4.117602491628631, 50.52031592162116], [-4.113514095573657, 50.52137656579738], [-4.111543940320142, 50.52078279519421], [-4.1116799902192245, 50.5204199945741], [-4.113729990221224, 50.51900999457295], [-4.114399990221621, 50.51910999457302], [-4.116589990223474, 50.51821999457226], [-4.117939990226002, 50.51463999456944], [-4.118979990226926, 50.514119994569015], [-4.119869990227535, 50.514069994568956], [-4.1214099902282815, 50.51466999456942], [-4.1228179266807805, 50.51484267757919], [-4.117602491628631, 50.52031592162116]]]}}, {"type": "Feature", "properties": {"type": "postcode-cell", "postcode": "PL19 9EJ", "postcodes": ["PL19 9EJ"]}, "geometry": {"type": "Polygon", "coordinates": [[[-4.120140819747258, 50.530983966870465], [-4.1040020256870235, 50.53194500015448], [-4.097576114749503, 50.53017820203283], [-4.095995940640145, 50.52628889047855], [-4.103255602474365, 50.52090008404017], [-4.105249990214903, 50.520589994574344], [-4.1051299902149445, 50.52032999457414], [-4.1065999902160275, 50.52007999457391], [-4.108359990217097, 50.52027999457405], [-4.109769990217569, 50.521289994574815], [-4.1114999902188885, 50.520899994574464], [-4.111543940320142, 50.52078279519421], [-4.113514095573657, 50.52137656579738], [-4.118975840692292, 50.52888593263468], [-4.119733180252119, 50.53016354274116], [-4.120123440474071, 50.53093672734349], [-4.120140819747258, 50.530983966870465]]]}}, {"type": "Feature", "properties": {"type": "postcode-cell", "postcode": "PL20 6LP", "postcodes": ["PL20 6LP"]}, "geometry": {"type": "Polygon", "coordinates": [[[-4.08339165586963, 50.514762948460934], [-4.07397427647384, 50.520558656308836], [-4.063042595043386, 50.52322810767071], [-4.063029990186521, 50.52180999457604], [-4.064299990187387, 50.52173999457598], [-4.065559990188445, 50.52123999457555], [-4.0680799901911, 50.519069994573805], [-4.069999990192786, 50.51814999457306], [-4.071309990194379, 50.51654999457177], [-4.074479990197031, 50.51531999457075], [-4.078939990200229, 50.51474999457023], [-4.0783299902002526, 50.5138199945695], [-4.079959990201648, 50.51310999456891], [-4.08103999020302, 50.511669994567754], [-4.082259990203606, 50.51214999456811], [-4.081039990202206, 50.51344999456917], [-4.083540670738498, 50.51399670772404], [-4.08339165586963, 50.514762948460934]]]}}, {"type": "Feature", "properties": {"type": "postcode-cell", "postcode": "PL19 9JX", "postcodes": ["PL19 9JX"]}, "geometry": {"type": "Polygon", "coordinates": [[[-4.113784572518332, 50.5491480311787], [-4.115487556547824, 50.55211634595425], [-4.1125099902052575, 50.55223999459914], [-4.102779990198885, 50.552099994599224], [-4.103819990199536, 50.55217999459925], [-4.104259990199512, 50.55286999459978], [-4.105729990200404, 50.55304999459991], [-4.1061499901996585, 50.55528999460165], [-4.103109990197585, 50.55542999460184], [-4.101489990196616, 50.55519999460166], [-4.100549990195868, 50.5554799946019], [-4.100575578940286, 50.5555331213265], [-4.0983081641990005, 50.55525764061733], [-4.096934694023045, 50.552938592120555], [-4.0975547971009245, 50.549516923972675], [-4.110322897915638, 50.54669897789337], [-4.113784572518332, 50.5491480311787]]]}}, {"type": "Feature", "properties": {"type": "postcode-cell", "postcode": "PL20 7QY", "postcodes": ["PL20 7QY"]}, "geometry": {"type": "Polygon", "coordinates": [[[-4.095995940640145, 50.52628889047855], [-4.091407053926727, 50.52521436906383], [-4.085643925838562, 50.518048808116866], [-4.08339165586963, 50.514762948460934], [-4.083540670738498, 50.51399670772404], [-4.0874899902058095, 50.514859994570166], [-4.087479990205611, 50.51527999457049], [-4.089119990206402, 50.515909994570954], [-4.0908899902078755, 50.51523999457039], [-4.0925099902089315, 50.51526999457038], [-4.092379990208025, 50.5170599945718], [-4.093689990208044, 50.518909994573235], [-4.094359990207589, 50.520869994574774], [-4.092259990205308, 50.52282999457633], [-4.094269990206256, 50.523649994576935], [-4.0942899902059136, 50.52442999457753], [-4.09621999020677, 50.52533999457823], [-4.102419990212832, 50.52102999457472], [-4.103255602474365, 50.52090008404017], [-4.095995940640145, 50.52628889047855]]]}}, {"type": "Feature", "properties": {"type": "postcode-cell", "postcode": "PL19 9LA", "postcodes": ["PL19 9LA"]}, "geometry": {"type": "Polygon", "coordinates": [[[-4.096647045714151, 50.54163425294586], [-4.091177879601805, 50.543685570336415], [-4.07957412836282, 50.540395938800216], [-4.080375431118892, 50.536840579743135], [-4.094937221682157, 50.533109780440455], [-4.096647045714151, 50.54163425294586]]]}}, {"type": "Feature", "properties": {"type": "postcode-cell", "postcode": "PL19 9JT", "postcodes": ["PL19 9JT"]}, "geometry": {"type": "MultiPolygon", "coordinates": [[[[-4.073616176466118, 50.561787000231504], [-4.0742779784744165, 50.56161208969239], [-4.074199990175637, 50.561649994607215], [-4.073609544820709, 50.56216216905027], [-4.073616176466118, 50.561787000231504]]], [[[-4.0983081641990005, 50.55525764061733], [-4.100575578940286, 50.5555331213265], [-4.1014699901956035, 50.55738999460339], [-4.099899990194284, 50.5580099946039], [-4.098919990193685, 50.55789999460384], [-4.097979990192678, 50.55873999460452], [-4.092919990188827, 50.559849994605486], [-4.080630489139316, 50.559932901156785], [-4.0983081641990005, 50.55525764061733]]]]}}, {"type": "Feature", "properties": {"type": "postcode-cell", "postcode": "PL19 9JY", "postcodes": ["PL19 9JY"]}, "geometry": {"type": "Polygon", "coordinates": [[[-4.110322897915638, 50.54669897789337], [-4.0975547971009245, 50.549516923972675], [-4.09040198987277, 50.54816646796434], [-4.091177879601805, 50.543685570336415], [-4.096647045714151, 50.54163425294586], [-4.108882987271058, 50.54469448753735], [-4.110322897915638, 50.54669897789337]]]}}, {"type": "Feature", "properties": {"type": "postcode-cell", "postcode": "PL19 9LQ", "postcodes": ["PL19 9LQ"]}, "geometry": {"type": "Polygon", "coordinates": [[[-4.072624176566858, 50.55842838786226], [-4.087275818887564, 50.55061373364806], [-4.096934694023045, 50.552938592120555], [-4.0983081641990005, 50.55525764061733], [-4.080630489139316, 50.559932901156785], [-4.079569990179965, 50.55993999460578], [-4.076709990177854, 50.560429994606224], [-4.0742779784744165, 50.56161208969239], [-4.073616176466118, 50.561787000231504], [-4.072624176566858, 50.55842838786226]]]}}, {"type": "Feature", "properties": {"type": "postcode-cell", "postcode": "PL20 6ST", "postcodes": ["PL20 6ST"]}, "geometry": {"type": "MultiPolygon", "coordinates": [[[[-4.073616176466118, 50.561787000231504], [-4.073609544820709, 50.56216216905027], [-4.070429990171656, 50.56491999460986], [-4.0543799901588695, 50.56972999461392], [-4.050939990157048, 50.56874999461321], [-4.047539990155021, 50.568289994612904], [-4.046049990153962, 50.56845999461306], [-4.045709990152596, 50.57094999461501], [-4.046179990152531, 50.57176999461566], [-4.045419990151462, 50.57300999461667], [-4.045709990151226, 50.57393999461737], [-4.045219990150605, 50.574589994617895], [-4.0454999901504545, 50.575319994618454], [-4.044919990148792, 50.57811999462071], [-4.044179990148016, 50.5787499946212], [-4.041669990145891, 50.57977999462206], [-4.040829990144755, 50.58104999462307], [-4.039799990144, 50.58121999462323], [-4.037789990142775, 50.58099999462309], [-4.035329990140719, 50.58194999462387], [-4.033789990138662, 50.58421999462569], [-4.033859990138456, 50.58476999462613], [-4.031719990136748, 50.585429994626686], [-4.029809990135596, 50.58519999462654], [-4.029432944962927, 50.585269947639986], [-4.034981907745907, 50.55075504131068], [-4.036459990155357, 50.55164999459998], [-4.038049990156235, 50.55201999460024], [-4.041119990158525, 50.55142999459974], [-4.04467999016145, 50.55014999459866], [-4.049139990164604, 50.54967999459819], [-4.0514999901665, 50.54892999459757], [-4.051839990166975, 50.548379994597134], [-4.054089990168599, 50.54806999459686], [-4.054199753642002, 50.54777624209427], [-4.066640488076076, 50.55163126691568], [-4.072624176566858, 50.55842838786226], [-4.073616176466118, 50.561787000231504]]], [[[-4.022599880631244, 50.639804834113356], [-4.021219812595758, 50.63627124883994], [-4.026637056219613, 50.602643023409044], [-4.028539990124561, 50.607459994644145], [-4.029559990120708, 50.61733999465193], [-4.028609990117063, 50.62393999465718], [-4.028229990116692, 50.62419999465739], [-4.02828999011582, 50.626199994658975], [-4.02912999011591, 50.627209994659786], [-4.029259990115097, 50.629179994661335], [-4.028229990113619, 50.63091999466271], [-4.028799990113835, 50.63126999466299], [-4.030639990115124, 50.63110999466285], [-4.03458999011604, 50.63480999466571], [-4.037589990117661, 50.63559999466629], [-4.03657999011696, 50.635679994666376], [-4.036869990116426, 50.6372599946676], [-4.035879990115336, 50.638219994668404], [-4.035039990114114, 50.63967999466957], [-4.033999990113178, 50.640219994670005], [-4.034129990112849, 50.64112999467072], [-4.036099990112972, 50.64370999467277], [-4.035499990112429, 50.64402999467301], [-4.035639990112205, 50.64471999467355], [-4.035119990111791, 50.64487999467369], [-4.035749990111804, 50.64575999467438], [-4.0352799901113965, 50.645969994674545], [-4.036939990110898, 50.64946999467731], [-4.0376099901112505, 50.649669994677474], [-4.038179990111271, 50.65044999467806], [-4.0385399901115635, 50.65032999467797], [-4.038559990111346, 50.650829994678354], [-4.039119990111705, 50.65085999467838], [-4.0397899901118, 50.651619994678974], [-4.038749990109655, 50.65481999468153], [-4.039079990109638, 50.655329994681914], [-4.038849990108404, 50.65769999468382], [-4.039539990107821, 50.65997999468561], [-4.038999990106059, 50.663059994688076], [-4.039459990105776, 50.664349994689104], [-4.040679990106105, 50.66539999468991], [-4.039959990105482, 50.66571999469017], [-4.040189990105076, 50.666939994691134], [-4.040120445699102, 50.66723209064503], [-4.022599880631244, 50.639804834113356]]]]}}, {"type": "Feature", "properties": {"type": "postcode-cell", "postcode": "PL19 9JZ", "postcodes": ["PL19 9JZ"]}, "geometry": {"type": "Polygon", "coordinates": [[[-4.09040198987277, 50.54816646796434], [-4.087275818887564, 50.55061373364806], [-4.072624176566858, 50.55842838786226], [-4.066640488076076, 50.55163126691568], [-4.072700824380653, 50.5447134060484], [-4.07957412836282, 50.540395938800216], [-4.091177879601805, 50.543685570336415], [-4.09040198987277, 50.54816646796434]]]}}, {"type": "Feature", "properties": {"type": "postcode-cell", "postcode": "PL19 9JU", "postcodes": ["PL19 9JU"]}, "geometry": {"type": "Polygon", "coordinates": [[[-4.096934694023045, 50.552938592120555], [-4.087275818887564, 50.55061373364806], [-4.09040198987277, 50.54816646796434], [-4.0975547971009245, 50.549516923972675], [-4.096934694023045, 50.552938592120555]]]}}, {"type": "Feature", "properties": {"type": "postcode-cell", "postcode": "PL20 6LE", "postcodes": ["PL20 6LE"]}, "geometry": {"type": "Polygon", "coordinates": [[[-4.094937221682157, 50.533109780440455], [-4.080375431118892, 50.536840579743135], [-4.079462695438448, 50.535957070373435], [-4.078653184704493, 50.53398488713565], [-4.081363825852224, 50.52766530127987], [-4.085937393952152, 50.525978751235975], [-4.091407053926727, 50.52521436906383], [-4.095995940640145, 50.52628889047855], [-4.097576114749503, 50.53017820203283], [-4.094937221682157, 50.533109780440455]]]}}, {"type": "Feature", "properties": {"type": "postcode-cell", "postcode": "PL20 6LQ", "postcodes": ["PL20 6LQ"]}, "geometry": {"type": "Polygon", "coordinates": [[[-4.072700824380653, 50.5447134060484], [-4.067441213784552, 50.537759235696626], [-4.0699395635345725, 50.535300790818305], [-4.079462695438448, 50.535957070373435], [-4.080375431118892, 50.536840579743135], [-4.07957412836282, 50.540395938800216], [-4.072700824380653, 50.5447134060484]]]}}, {"type": "Feature", "properties": {"type": "postcode-cell", "postcode": "PL20 7QU", "postcodes": ["PL20 7QU"]}, "geometry": {"type": "Polygon", "coordinates": [[[-4.079214713170488, 50.52248487959206], [-4.085643925838562, 50.518048808116866], [-4.091407053926727, 50.52521436906383], [-4.085937393952152, 50.525978751235975], [-4.079214713170488, 50.52248487959206]]]}}, {"type": "Feature", "properties": {"type": "postcode-cell", "postcode": "PL20 6LD", "postcodes": ["PL20 6LD"]}, "geometry": {"type": "Polygon", "coordinates": [[[-4.085937393952152, 50.525978751235975], [-4.081363825852224, 50.52766530127987], [-4.062532134296259, 50.52437428530785], [-4.063049990185501, 50.524059994577804], [-4.063042595043386, 50.52322810767071], [-4.07397427647384, 50.520558656308836], [-4.079214713170488, 50.52248487959206], [-4.085937393952152, 50.525978751235975]]]}}, {"type": "Feature", "properties": {"type": "postcode-cell", "postcode": "PL20 6LG", "postcodes": ["PL20 6LG"]}, "geometry": {"type": "Polygon", "coordinates": [[[-4.072700824380653, 50.5447134060484], [-4.066640488076076, 50.55163126691568], [-4.054199753642002, 50.54777624209427], [-4.055789990171804, 50.543519994593225], [-4.055339990171947, 50.5425599945925], [-4.0557499901727665, 50.541359994591545], [-4.055319990172992, 50.54024999459068], [-4.05593999017352, 50.53998999459045], [-4.056589990174378, 50.53904999458972], [-4.056169990174741, 50.537659994588644], [-4.057139990176223, 50.53581999458715], [-4.056499990176057, 50.53525999458674], [-4.056679269729586, 50.534946257069336], [-4.067441213784552, 50.537759235696626], [-4.072700824380653, 50.5447134060484]]]}}, {"type": "Feature", "properties": {"type": "postcode-cell", "postcode": "PL20 6LH", "postcodes": ["PL20 6LH"]}, "geometry": {"type": "Polygon", "coordinates": [[[-4.079462695438448, 50.535957070373435], [-4.0699395635345725, 50.535300790818305], [-4.060523659962156, 50.527043495648556], [-4.061609990183482, 50.52639999457968], [-4.061609489641647, 50.52632692225103], [-4.078653184704493, 50.53398488713565], [-4.079462695438448, 50.535957070373435]]]}}, {"type": "Feature", "properties": {"type": "postcode-cell", "postcode": "PL20 7QX", "postcodes": ["PL20 7QX"]}, "geometry": {"type": "Polygon", "coordinates": [[[-4.085643925838562, 50.518048808116866], [-4.079214713170488, 50.52248487959206], [-4.07397427647384, 50.520558656308836], [-4.08339165586963, 50.514762948460934], [-4.085643925838562, 50.518048808116866]]]}}, {"type": "Feature", "properties": {"type": "postcode-cell", "postcode": "PL20 6FF", "postcodes": ["PL20 6FF"]}, "geometry": {"type": "Polygon", "coordinates": [[[-4.081363825852224, 50.52766530127987], [-4.078653184704493, 50.53398488713565], [-4.061609489641647, 50.52632692225103], [-4.0615999901841455, 50.524939994578546], [-4.062532134296259, 50.52437428530785], [-4.081363825852224, 50.52766530127987]]]}}, {"type": "Feature", "properties": {"type": "postcode-cell", "postcode": "PL20 6LF", "postcodes": ["PL20 6LF"]}, "geometry": {"type": "Polygon", "coordinates": [[[-4.0699395635345725, 50.535300790818305], [-4.067441213784552, 50.537759235696626], [-4.056679269729586, 50.534946257069336], [-4.056819990176525, 50.53469999458628], [-4.056399990177144, 50.53274999458477], [-4.055489990176942, 50.531879994584095], [-4.05546999017721, 50.53126999458362], [-4.056659990178456, 50.53025999458281], [-4.058519990179936, 50.52969999458231], [-4.060039990182024, 50.527329994580434], [-4.060523659962156, 50.527043495648556], [-4.0699395635345725, 50.535300790818305]]]}}, {"type": "Feature", "properties": {"type": "postcode-cell", "postcode": "PL20 6RU", "postcodes": ["PL20 6RU"]}, "geometry": {"type": "Polygon", "coordinates": [[[-4.015200167461641, 50.54360575422259], [-3.9966863243461415, 50.546099088412454], [-3.996408461812268, 50.54596261854806], [-3.9963105092840148, 50.54557758668136], [-3.9978001977093744, 50.54471913796535], [-4.011335048955359, 50.540611622273865], [-4.018159990148226, 50.54100999459194], [-4.0196699901493735, 50.540669994591646], [-4.022059990151502, 50.53944999459063], [-4.022823363305775, 50.53946080149594], [-4.018608759032053, 50.54268717092281], [-4.015200167461641, 50.54360575422259]]]}}, {"type": "Feature", "properties": {"type": "postcode-cell", "postcode": "PL20 6RN", "postcodes": ["PL20 6RN"]}, "geometry": {"type": "Polygon", "coordinates": [[[-4.018608759032053, 50.54268717092281], [-3.9961468415468038, 50.56837853981502], [-3.9906979230685913, 50.56073369820268], [-4.0002016924031905, 50.54840571448785], [-4.001837454299616, 50.547624553957796], [-4.002643065704029, 50.547304323730806], [-4.015200167461641, 50.54360575422259], [-4.018608759032053, 50.54268717092281]]]}}, {"type": "Feature", "properties": {"type": "postcode-cell", "postcode": "PL20 6SS", "postcodes": ["PL20 6SS"]}, "geometry": {"type": "Polygon", "coordinates": [[[-4.029432944962927, 50.585269947639986], [-4.0275999901339485, 50.585609994626886], [-4.027279990133446, 50.586249994627394], [-4.027719990132687, 50.588539994629215], [-4.023969990126849, 50.59588999463508], [-4.026637056219613, 50.602643023409044], [-4.021219812595758, 50.63627124883994], [-4.000292669831634, 50.60211446748865], [-3.9961468415468038, 50.56837853981502], [-4.018608759032053, 50.54268717092281], [-4.022823363305775, 50.53946080149594], [-4.024179990152879, 50.53947999459062], [-4.025409990153348, 50.54021999459119], [-4.028229990153953, 50.54292999459325], [-4.028359990153726, 50.5436099945938], [-4.027379990152328, 50.545249994595096], [-4.029279990153283, 50.54588999459555], [-4.030369990153354, 50.54728999459663], [-4.033189990154117, 50.54966999459847], [-4.034981907745907, 50.55075504131068], [-4.029432944962927, 50.585269947639986]]]}}, {"type": "Feature", "properties": {"type": "postcode-cell", "postcode": "PL20 6SP", "postcodes": ["PL20 6SP"]}, "geometry": {"type": "Polygon", "coordinates": [[[-4.021219812595758, 50.63627124883994], [-4.022599880631244, 50.639804834113356], [-3.921274928597867, 50.58189005819363], [-3.9170525019621105, 50.568178856658584], [-3.934467278125846, 50.56205624082838], [-3.989801359527916, 50.594028633013146], [-4.000292669831634, 50.60211446748865], [-4.021219812595758, 50.63627124883994]]]}}, {"type": "Feature", "properties": {"type": "postcode-cell", "postcode": "PL20 6SR", "postcodes": ["PL20 6SR"]}, "geometry": {"type": "Polygon", "coordinates": [[[-3.989801359527916, 50.594028633013146], [-3.961988800864409, 50.558199834188116], [-3.9832016292769, 50.55494920035451], [-3.987477778887611, 50.557130502195925], [-3.9906979230685913, 50.56073369820268], [-3.9961468415468038, 50.56837853981502], [-4.000292669831634, 50.60211446748865], [-3.989801359527916, 50.594028633013146]]]}}, {"type": "Feature", "properties": {"type": "postcode-cell", "postcode": "PL20 6QZ", "postcodes": ["PL20 6QZ"]}, "geometry": {"type": "Polygon", "coordinates": [[[-3.9978001977093744, 50.54471913796535], [-3.995715933876844, 50.544331262684594], [-3.9986819838659478, 50.543062911006665], [-4.002379990137302, 50.542269994593205], [-4.004399990139321, 50.54075999459197], [-4.005829990140471, 50.54028999459158], [-4.011335048955359, 50.540611622273865], [-3.9978001977093744, 50.54471913796535]]]}}, {"type": "Feature", "properties": {"type": "postcode-cell", "postcode": "PL20 6RR", "postcodes": ["PL20 6RR"]}, "geometry": {"type": "Polygon", "coordinates": [[[-3.987477778887611, 50.557130502195925], [-3.9883766438736017, 50.55532680406659], [-3.9952141338144083, 50.5491099623307], [-3.9966718320851036, 50.54840742626697], [-4.0002016924031905, 50.54840571448785], [-3.9906979230685913, 50.56073369820268], [-3.987477778887611, 50.557130502195925]]]}}, {"type": "Feature", "properties": {"type": "postcode-cell", "postcode": "PL20 6FD", "postcodes": ["PL20 6FD"]}, "geometry": {"type": "Polygon", "coordinates": [[[-4.001837454299616, 50.547624553957796], [-3.997702939431564, 50.54733271008377], [-3.996890199336248, 50.54700168475504], [-3.9970592925924726, 50.546619671585944], [-4.002643065704029, 50.547304323730806], [-4.001837454299616, 50.547624553957796]]]}}, {"type": "Feature", "properties": {"type": "postcode-cell", "postcode": "PL20 6QD", "postcodes": ["PL20 6QD"]}, "geometry": {"type": "Polygon", "coordinates": [[[-3.996890199336248, 50.54700168475504], [-3.9964502798514556, 50.54736870845869], [-3.996324676515677, 50.54733537976973], [-3.995326600562781, 50.54646706859002], [-3.996408461812268, 50.54596261854806], [-3.9966863243461415, 50.546099088412454], [-3.9970592925924726, 50.546619671585944], [-3.996890199336248, 50.54700168475504]]]}}, {"type": "Feature", "properties": {"type": "postcode-cell", "postcode": "PL20 6RL", "postcodes": ["PL20 6RL"]}, "geometry": {"type": "Polygon", "coordinates": [[[-4.002643065704029, 50.547304323730806], [-3.9970592925924726, 50.546619671585944], [-3.9966863243461415, 50.546099088412454], [-4.015200167461641, 50.54360575422259], [-4.002643065704029, 50.547304323730806]]]}}, {"type": "Feature", "properties": {"type": "postcode-cell", "postcode": "PL20 6RA", "postcodes": ["PL20 6RA"]}, "geometry": {"type": "Polygon", "coordinates": [[[-3.9963105092840148, 50.54557758668136], [-3.9954441860670786, 50.54514467196518], [-3.995492801928179, 50.5443546803467], [-3.995715933876844, 50.544331262684594], [-3.9978001977093744, 50.54471913796535], [-3.9963105092840148, 50.54557758668136]]]}}, {"type": "Feature", "properties": {"type": "postcode-cell", "postcode": "PL20 6QY", "postcodes": ["PL20 6QY"]}, "geometry": {"type": "Polygon", "coordinates": [[[-3.995715933876844, 50.544331262684594], [-3.995492801928179, 50.5443546803467], [-3.994389091241132, 50.543481679543255], [-3.995403815582377, 50.542936635548145], [-3.9964099901328014, 50.54354999459431], [-3.9986819838659478, 50.543062911006665], [-3.995715933876844, 50.544331262684594]]]}}, {"type": "Feature", "properties": {"type": "postcode-cell", "postcode": "PL20 6RW", "postcodes": ["PL20 6RW"]}, "geometry": {"type": "Polygon", "coordinates": [[[-4.0002016924031905, 50.54840571448785], [-3.9966718320851036, 50.54840742626697], [-3.9966411681075775, 50.548003884136726], [-3.997702939431564, 50.54733271008377], [-4.001837454299616, 50.547624553957796], [-4.0002016924031905, 50.54840571448785]]]}}, {"type": "Feature", "properties": {"type": "postcode-cell", "postcode": "PL20 6RP", "postcodes": ["PL20 6RP"]}, "geometry": {"type": "Polygon", "coordinates": [[[-3.997702939431564, 50.54733271008377], [-3.9966411681075775, 50.548003884136726], [-3.9964502798514556, 50.54736870845869], [-3.996890199336248, 50.54700168475504], [-3.997702939431564, 50.54733271008377]]]}}, {"type": "Feature", "properties": {"type": "postcode-cell", "postcode": "PL20 6RJ", "postcodes": ["PL20 6RJ"]}, "geometry": {"type": "Polygon", "coordinates": [[[-3.9966718320851036, 50.54840742626697], [-3.9952141338144083, 50.5491099623307], [-3.9949059113375482, 50.54764778179173], [-3.995640407429929, 50.54734723617422], [-3.996324676515677, 50.54733537976973], [-3.9964502798514556, 50.54736870845869], [-3.9966411681075775, 50.548003884136726], [-3.9966718320851036, 50.54840742626697]]]}}, {"type": "Feature", "properties": {"type": "postcode-cell", "postcode": "PL20 6RE", "postcodes": ["PL20 6RE"]}, "geometry": {"type": "Polygon", "coordinates": [[[-3.996408461812268, 50.54596261854806], [-3.995326600562781, 50.54646706859002], [-3.9952186909863023, 50.546487647661976], [-3.994978830965465, 50.54646917879536], [-3.9949109117898898, 50.54639540732386], [-3.994517870470231, 50.54531342605725], [-3.9954441860670786, 50.54514467196518], [-3.9963105092840148, 50.54557758668136], [-3.996408461812268, 50.54596261854806]]]}}, {"type": "Feature", "properties": {"type": "postcode-cell", "postcode": "PL20 6QX", "postcodes": ["PL20 6QX"]}, "geometry": {"type": "Polygon", "coordinates": [[[-3.994389091241132, 50.543481679543255], [-3.995492801928179, 50.5443546803467], [-3.9954441860670786, 50.54514467196518], [-3.994517870470231, 50.54531342605725], [-3.9936810886441205, 50.545289881642006], [-3.9934250235462287, 50.54398431718003], [-3.9940882754881333, 50.543498419413844], [-3.994389091241132, 50.543481679543255]]]}}, {"type": "Feature", "properties": {"type": "postcode-cell", "postcode": "PL20 6QH", "postcodes": ["PL20 6QH"]}, "geometry": {"type": "Polygon", "coordinates": [[[-3.9940882754881333, 50.543498419413844], [-3.992127286927683, 50.54206596677492], [-3.9898904898738077, 50.53957529608363], [-3.995403815582377, 50.542936635548145], [-3.994389091241132, 50.543481679543255], [-3.9940882754881333, 50.543498419413844]]]}}, {"type": "Feature", "properties": {"type": "postcode-cell", "postcode": "PL20 6RG", "postcodes": ["PL20 6RG"]}, "geometry": {"type": "Polygon", "coordinates": [[[-3.996324676515677, 50.54733537976973], [-3.995640407429929, 50.54734723617422], [-3.9952129791343207, 50.5469543358638], [-3.9952186909863023, 50.546487647661976], [-3.995326600562781, 50.54646706859002], [-3.996324676515677, 50.54733537976973]]]}}, {"type": "Feature", "properties": {"type": "postcode-cell", "postcode": "PL20 6RH", "postcodes": ["PL20 6RH"]}, "geometry": {"type": "Polygon", "coordinates": [[[-3.9952141338144083, 50.5491099623307], [-3.9883766438736017, 50.55532680406659], [-3.990105996412824, 50.54804899038856], [-3.99023635309099, 50.547967400868274], [-3.9939383908120045, 50.54719578264627], [-3.994726403368924, 50.5474936416047], [-3.9949059113375482, 50.54764778179173], [-3.9952141338144083, 50.5491099623307]]]}}, {"type": "Feature", "properties": {"type": "postcode-cell", "postcode": "PL20 6RS", "postcodes": ["PL20 6RS"]}, "geometry": {"type": "Polygon", "coordinates": [[[-3.994726403368924, 50.5474936416047], [-3.9952129791343207, 50.5469543358638], [-3.995640407429929, 50.54734723617422], [-3.9949059113375482, 50.54764778179173], [-3.994726403368924, 50.5474936416047]]]}}, {"type": "Feature", "properties": {"type": "postcode-cell", "postcode": "PL20 6RQ", "postcodes": ["PL20 6RQ"]}, "geometry": {"type": "Polygon", "coordinates": [[[-3.9952186909863023, 50.546487647661976], [-3.9952129791343207, 50.5469543358638], [-3.994726403368924, 50.5474936416047], [-3.9939383908120045, 50.54719578264627], [-3.9944036536399437, 50.546657070557394], [-3.994978830965465, 50.54646917879536], [-3.9952186909863023, 50.546487647661976]]]}}, {"type": "Feature", "properties": {"type": "postcode-cell", "postcode": "PL20 6RB", "postcodes": ["PL20 6RB"]}, "geometry": {"type": "Polygon", "coordinates": [[[-3.9949109117898898, 50.54639540732386], [-3.9932471773399807, 50.545570096970245], [-3.9936810886441205, 50.545289881642006], [-3.994517870470231, 50.54531342605725], [-3.9949109117898898, 50.54639540732386]]]}}, {"type": "Feature", "properties": {"type": "postcode-cell", "postcode": "PL20 6RF", "postcodes": ["PL20 6RF"]}, "geometry": {"type": "Polygon", "coordinates": [[[-3.9944036536399437, 50.546657070557394], [-3.992544508790654, 50.54587422693426], [-3.9932471773399807, 50.545570096970245], [-3.9949109117898898, 50.54639540732386], [-3.994978830965465, 50.54646917879536], [-3.9944036536399437, 50.546657070557394]]]}}, {"type": "Feature", "properties": {"type": "postcode-cell", "postcode": "PL20 6QF", "postcodes": ["PL20 6QF"]}, "geometry": {"type": "Polygon", "coordinates": [[[-3.9932471773399807, 50.545570096970245], [-3.992544508790654, 50.54587422693426], [-3.9922719841198484, 50.54593412930939], [-3.991772892074399, 50.54529588319331], [-3.9923521900748375, 50.54412590239222], [-3.9923946086291537, 50.54411355227218], [-3.9934250235462287, 50.54398431718003], [-3.9936810886441205, 50.545289881642006], [-3.9932471773399807, 50.545570096970245]]]}}, {"type": "Feature", "properties": {"type": "postcode-cell", "postcode": "PL20 6SL", "postcodes": ["PL20 6SL"]}, "geometry": {"type": "Polygon", "coordinates": [[[-3.985782279854868, 50.540386052514485], [-3.9857736596200914, 50.54039989964899], [-3.9849914138624984, 50.54147301239147], [-3.9848566440123863, 50.54163250652061], [-3.9818115089897073, 50.54423505933715], [-3.974581853842226, 50.54794010544867], [-3.9458095088792877, 50.54112785862009], [-3.9452690022677497, 50.53997971072388], [-3.9417692592423945, 50.50886099164172], [-3.9435982015373363, 50.48748143749262], [-3.9460099901251073, 50.489079994552576], [-3.948779990127106, 50.48865999455222], [-3.948709990125164, 50.492739994555386], [-3.945789990120704, 50.49826999455976], [-3.9465699901213345, 50.49799999455956], [-3.9490999901228157, 50.49835999455978], [-3.952359990124611, 50.49905999456025], [-3.954849990125692, 50.500219994561114], [-3.955969990126411, 50.500239994561106], [-3.960199990129632, 50.49922999456024], [-3.962469990131591, 50.4981899945594], [-3.9643899901336708, 50.49639999455797], [-3.9760099901394104, 50.500359994560824], [-3.9692899901293774, 50.51257999457052], [-3.981059990127073, 50.53418999458724], [-3.9870095693205876, 50.537818571203246], [-3.985782279854868, 50.540386052514485]]]}}, {"type": "Feature", "properties": {"type": "postcode-cell", "postcode": "PL20 6QU", "postcodes": ["PL20 6QU"]}, "geometry": {"type": "Polygon", "coordinates": [[[-3.9883766438736017, 50.55532680406659], [-3.987477778887611, 50.557130502195925], [-3.9832016292769, 50.55494920035451], [-3.974581853842226, 50.54794010544867], [-3.9818115089897073, 50.54423505933715], [-3.988997371111586, 50.546781357940276], [-3.990105996412824, 50.54804899038856], [-3.9883766438736017, 50.55532680406659]]]}}, {"type": "Feature", "properties": {"type": "postcode-cell", "postcode": "PL20 6FB", "postcodes": ["PL20 6FB"]}, "geometry": {"type": "Polygon", "coordinates": [[[-3.9922719841198484, 50.54593412930939], [-3.992544508790654, 50.54587422693426], [-3.9944036536399437, 50.546657070557394], [-3.9939383908120045, 50.54719578264627], [-3.99023635309099, 50.547967400868274], [-3.9922719841198484, 50.54593412930939]]]}}, {"type": "Feature", "properties": {"type": "postcode-cell", "postcode": "PL20 6RT", "postcodes": ["PL20 6RT"]}, "geometry": {"type": "Polygon", "coordinates": [[[-3.99023635309099, 50.547967400868274], [-3.990105996412824, 50.54804899038856], [-3.988997371111586, 50.546781357940276], [-3.9891134403363244, 50.5461640960566], [-3.9897787035583043, 50.54536715435178], [-3.9899120025830994, 50.545256955189316], [-3.9910916846998687, 50.54503087754845], [-3.991772892074399, 50.54529588319331], [-3.9922719841198484, 50.54593412930939], [-3.99023635309099, 50.547967400868274]]]}}, {"type": "Feature", "properties": {"type": "postcode-cell", "postcode": "PL20 6QE", "postcodes": ["PL20 6QE"]}, "geometry": {"type": "Polygon", "coordinates": [[[-3.991772892074399, 50.54529588319331], [-3.9910916846998687, 50.54503087754845], [-3.990747149304055, 50.54436475334313], [-3.991384081434566, 50.54404322606823], [-3.9923521900748375, 50.54412590239222], [-3.991772892074399, 50.54529588319331]]]}}, {"type": "Feature", "properties": {"type": "postcode-cell", "postcode": "PL20 6QJ", "postcodes": ["PL20 6QJ"]}, "geometry": {"type": "Polygon", "coordinates": [[[-3.9934250235462287, 50.54398431718003], [-3.9923946086291537, 50.54411355227218], [-3.9918177979098965, 50.54326059806215], [-3.992127286927683, 50.54206596677492], [-3.9940882754881333, 50.543498419413844], [-3.9934250235462287, 50.54398431718003]]]}}, {"type": "Feature", "properties": {"type": "postcode-cell", "postcode": "PL20 6QG", "postcodes": ["PL20 6QG"]}, "geometry": {"type": "Polygon", "coordinates": [[[-3.9918177979098965, 50.54326059806215], [-3.991124367592718, 50.543672022554915], [-3.985782279854868, 50.540386052514485], [-3.9870095693205876, 50.537818571203246], [-3.9898904898738077, 50.53957529608363], [-3.992127286927683, 50.54206596677492], [-3.9918177979098965, 50.54326059806215]]]}}, {"type": "Feature", "properties": {"type": "postcode-cell", "postcode": "PL20 6QL", "postcodes": ["PL20 6QL"]}, "geometry": {"type": "Polygon", "coordinates": [[[-3.991124367592718, 50.543672022554915], [-3.9918177979098965, 50.54326059806215], [-3.9923946086291537, 50.54411355227218], [-3.9923521900748375, 50.54412590239222], [-3.991384081434566, 50.54404322606823], [-3.991124367592718, 50.543672022554915]]]}}, {"type": "Feature", "properties": {"type": "postcode-cell", "postcode": "PL20 6QQ", "postcodes": ["PL20 6QQ"]}, "geometry": {"type": "Polygon", "coordinates": [[[-3.991384081434566, 50.54404322606823], [-3.990747149304055, 50.54436475334313], [-3.9906618057625227, 50.54435768083036], [-3.9857736596200914, 50.54039989964899], [-3.985782279854868, 50.540386052514485], [-3.991124367592718, 50.543672022554915], [-3.991384081434566, 50.54404322606823]]]}}, {"type": "Feature", "properties": {"type": "postcode-cell", "postcode": "PL20 6QW", "postcodes": ["PL20 6QW"]}, "geometry": {"type": "Polygon", "coordinates": [[[-3.9891134403363244, 50.5461640960566], [-3.988611862581952, 50.54525744923271], [-3.9891615075946447, 50.544764759374914], [-3.9897787035583043, 50.54536715435178], [-3.9891134403363244, 50.5461640960566]]]}}, {"type": "Feature", "properties": {"type": "postcode-cell", "postcode": "PL20 6QS", "postcodes": ["PL20 6QS"]}, "geometry": {"type": "Polygon", "coordinates": [[[-3.9897787035583043, 50.54536715435178], [-3.9891615075946447, 50.544764759374914], [-3.9891691928691997, 50.54470031001865], [-3.989887203148579, 50.544662242619694], [-3.9899120025830994, 50.545256955189316], [-3.9897787035583043, 50.54536715435178]]]}}, {"type": "Feature", "properties": {"type": "postcode-cell", "postcode": "PL20 6FG", "postcodes": ["PL20 6FG"]}, "geometry": {"type": "Polygon", "coordinates": [[[-3.9910916846998687, 50.54503087754845], [-3.9899120025830994, 50.545256955189316], [-3.989887203148579, 50.544662242619694], [-3.989968235549732, 50.54455337962847], [-3.9906618057625227, 50.54435768083036], [-3.990747149304055, 50.54436475334313], [-3.9910916846998687, 50.54503087754845]]]}}, {"type": "Feature", "properties": {"type": "postcode-cell", "postcode": "PL20 6QT", "postcodes": ["PL20 6QT"]}, "geometry": {"type": "Polygon", "coordinates": [[[-3.9857736596200914, 50.54039989964899], [-3.9906618057625227, 50.54435768083036], [-3.989968235549732, 50.54455337962847], [-3.9849914138624984, 50.54147301239147], [-3.9857736596200914, 50.54039989964899]]]}}, {"type": "Feature", "properties": {"type": "postcode-cell", "postcode": "PL20 6QR", "postcodes": ["PL20 6QR"]}, "geometry": {"type": "Polygon", "coordinates": [[[-3.988997371111586, 50.546781357940276], [-3.9818115089897073, 50.54423505933715], [-3.9848566440123863, 50.54163250652061], [-3.985173496053291, 50.54190598127441], [-3.988611862581952, 50.54525744923271], [-3.9891134403363244, 50.5461640960566], [-3.988997371111586, 50.546781357940276]]]}}, {"type": "Feature", "properties": {"type": "postcode-cell", "postcode": "PL20 6QP", "postcodes": ["PL20 6QP"]}, "geometry": {"type": "Polygon", "coordinates": [[[-3.989887203148579, 50.544662242619694], [-3.9891691928691997, 50.54470031001865], [-3.985173496053291, 50.54190598127441], [-3.9848566440123863, 50.54163250652061], [-3.9849914138624984, 50.54147301239147], [-3.989968235549732, 50.54455337962847], [-3.989887203148579, 50.544662242619694]]]}}, {"type": "Feature", "properties": {"type": "postcode-cell", "postcode": "PL20 6QN", "postcodes": ["PL20 6QN"]}, "geometry": {"type": "Polygon", "coordinates": [[[-3.9891615075946447, 50.544764759374914], [-3.988611862581952, 50.54525744923271], [-3.985173496053291, 50.54190598127441], [-3.9891691928691997, 50.54470031001865], [-3.9891615075946447, 50.544764759374914]]]}}, {"type": "Feature", "properties": {"type": "postcode-cell", "postcode": "PL20 6SF", "postcodes": ["PL20 6SF"]}, "geometry": {"type": "Polygon", "coordinates": [[[-3.9452690022677497, 50.53997971072388], [-3.896981498321266, 50.55308177807585], [-3.9003577049597244, 50.546136846378914], [-3.9417692592423945, 50.50886099164172], [-3.9452690022677497, 50.53997971072388]]]}}, {"type": "Feature", "properties": {"type": "postcode-cell", "postcode": "PL20 6SN", "postcodes": ["PL20 6SN"]}, "geometry": {"type": "Polygon", "coordinates": [[[-3.9832016292769, 50.55494920035451], [-3.961988800864409, 50.558199834188116], [-3.945077568093053, 50.5470215702031], [-3.9458095088792877, 50.54112785862009], [-3.974581853842226, 50.54794010544867], [-3.9832016292769, 50.55494920035451]]]}}, {"type": "Feature", "properties": {"type": "postcode-cell", "postcode": "PL20 6SW", "postcodes": ["PL20 6SW"]}, "geometry": {"type": "Polygon", "coordinates": [[[-3.961988800864409, 50.558199834188116], [-3.989801359527916, 50.594028633013146], [-3.934467278125846, 50.56205624082838], [-3.945077568093053, 50.5470215702031], [-3.961988800864409, 50.558199834188116]]]}}, {"type": "Feature", "properties": {"type": "postcode-cell", "postcode": "PL20 6SA", "postcodes": ["PL20 6SA"]}, "geometry": {"type": "Polygon", "coordinates": [[[-3.945077568093053, 50.5470215702031], [-3.934467278125846, 50.56205624082838], [-3.9170525019621105, 50.568178856658584], [-3.916115486835711, 50.56795660306126], [-3.8969655301893282, 50.553095168013755], [-3.896981498321266, 50.55308177807585], [-3.9452690022677497, 50.53997971072388], [-3.9458095088792877, 50.54112785862009], [-3.945077568093053, 50.5470215702031]]]}}, {"type": "Feature", "properties": {"type": "postcode-cell", "postcode": "PL20 6TH", "postcodes": ["PL20 6TH"]}, "geometry": {"type": "Polygon", "coordinates": [[[-4.040120445699102, 50.66723209064503], [-4.039739990103914, 50.66882999469265], [-4.03929813454889, 50.669177590077254], [-3.9130977623666108, 50.599325010451686], [-3.907727979745306, 50.594669576765405], [-3.905776046813077, 50.588312991582924], [-3.9119301228418744, 50.585479545087914], [-3.921274928597867, 50.58189005819363], [-4.022599880631244, 50.639804834113356], [-4.040120445699102, 50.66723209064503]]]}}, {"type": "Feature", "properties": {"type": "postcode-cell", "postcode": "PL20 6SZ", "postcodes": ["PL20 6SZ"]}, "geometry": {"type": "Polygon", "coordinates": [[[-3.8918133301159816, 50.608828983460135], [-3.8986064590653915, 50.59936443069265], [-3.9130977623666108, 50.599325010451686], [-4.03929813454889, 50.669177590077254], [-4.038989990103152, 50.669419994693136], [-4.028019990093747, 50.67410999469703], [-4.019219990088214, 50.67347999469665], [-4.007829990077997, 50.67935999470149], [-4.000969990071018, 50.684709994705855], [-3.9950099900641476, 50.69111999471104], [-3.988199990055762, 50.699619994717914], [-3.9879969460019504, 50.69967113363275], [-3.8918133301159816, 50.608828983460135]]]}}, {"type": "Feature", "properties": {"type": "postcode-cell", "postcode": "PL20 6TU", "postcodes": ["PL20 6TU"]}, "geometry": {"type": "Polygon", "coordinates": [[[-3.921274928597867, 50.58189005819363], [-3.9119301228418744, 50.585479545087914], [-3.9026552640333203, 50.58180527008191], [-3.893895014164823, 50.574198201577985], [-3.916115486835711, 50.56795660306126], [-3.9170525019621105, 50.568178856658584], [-3.921274928597867, 50.58189005819363]]]}}, {"type": "Feature", "properties": {"type": "postcode-cell", "postcode": "PL20 6SD", "postcodes": ["PL20 6SD"]}, "geometry": {"type": "Polygon", "coordinates": [[[-3.9417692592423945, 50.50886099164172], [-3.9003577049597244, 50.546136846378914], [-3.887318277128802, 50.52441865117571], [-3.891179990073524, 50.52351999458052], [-3.8906499900749876, 50.51963999457749], [-3.8925999900789456, 50.51384999457294], [-3.8913399900818373, 50.50588999456676], [-3.884329990079321, 50.501559994563515], [-3.8831899900795106, 50.49956999456199], [-3.883869990080673, 50.49801999456074], [-3.8836799900815437, 50.49588999455909], [-3.883039990081421, 50.49526999455863], [-3.882739990082368, 50.49281999455671], [-3.881239990082358, 50.49075999455517], [-3.879859990083081, 50.487299994552494], [-3.880239990084088, 50.485669994551216], [-3.881909990085921, 50.48405999454992], [-3.882349990086839, 50.48269999454886], [-3.883729990088616, 50.48079999454736], [-3.883719990088984, 50.479999994546716], [-3.8880599900917403, 50.48009999454671], [-3.891529990094281, 50.47945999454614], [-3.8916999900948936, 50.4783799945453], [-3.8983199901011396, 50.474159994541886], [-3.8989699901022705, 50.4726399945407], [-3.9038399901033065, 50.47716999454412], [-3.906259990105032, 50.476829994543834], [-3.9092399901062094, 50.47843999454501], [-3.9113999901067604, 50.480259994546394], [-3.913719990107809, 50.481239994547124], [-3.913799990107654, 50.481679994547456], [-3.9147799901082037, 50.48185999454756], [-3.9199799901116714, 50.48164999454728], [-3.9214699901129206, 50.4810399945468], [-3.9224099901139944, 50.48003999454601], [-3.9237399901151124, 50.47948999454554], [-3.9239299901155746, 50.47875999454499], [-3.9256599901162277, 50.47976999454571], [-3.9263799901161356, 50.480969994546655], [-3.9274899901168925, 50.48088999454657], [-3.928309990117237, 50.48128999454688], [-3.9318899901192714, 50.48190999454728], [-3.9321899901193227, 50.48221999454752], [-3.932589990119707, 50.481949994547286], [-3.9358899901211144, 50.48352999454847], [-3.937039990121805, 50.483649994548536], [-3.9389799901227085, 50.48441999454911], [-3.9435982015373363, 50.48748143749262], [-3.9417692592423945, 50.50886099164172]]]}}, {"type": "Feature", "properties": {"type": "postcode-cell", "postcode": "PL20 6SY", "postcodes": ["PL20 6SY"]}, "geometry": {"type": "Polygon", "coordinates": [[[-3.9130977623666108, 50.599325010451686], [-3.8986064590653915, 50.59936443069265], [-3.898771280600903, 50.59811473484398], [-3.907727979745306, 50.594669576765405], [-3.9130977623666108, 50.599325010451686]]]}}, {"type": "Feature", "properties": {"type": "postcode-cell", "postcode": "PL20 6TJ", "postcodes": ["PL20 6TJ"]}, "geometry": {"type": "Polygon", "coordinates": [[[-3.907727979745306, 50.594669576765405], [-3.898771280600903, 50.59811473484398], [-3.8935499426177356, 50.59121318601567], [-3.901193657543833, 50.58842333475708], [-3.905776046813077, 50.588312991582924], [-3.907727979745306, 50.594669576765405]]]}}, {"type": "Feature", "properties": {"type": "postcode-cell", "postcode": "PL20 6TA", "postcodes": ["PL20 6TA"]}, "geometry": {"type": "Polygon", "coordinates": [[[-3.8918133301159816, 50.608828983460135], [-3.9879969460019504, 50.69967113363275], [-3.9799399900493557, 50.70169999471967], [-3.9777099900479183, 50.70161999471963], [-3.9756699900460517, 50.702759994720566], [-3.975499990046173, 50.70224999472018], [-3.9739999900454754, 50.70160999471969], [-3.9730099900432014, 50.70514999472251], [-3.9733499900428364, 50.70643999472353], [-3.9665499900383243, 50.706489994723675], [-3.958649990035389, 50.70152999471983], [-3.948029990032212, 50.69320999471334], [-3.9358699900262373, 50.68880999471004], [-3.9424499900325247, 50.684539994706554], [-3.9440499900392805, 50.67212999469669], [-3.9411299900405177, 50.665269994691286], [-3.9372399900404367, 50.65988999468706], [-3.93080999003811, 50.655789994683914], [-3.921889990032407, 50.655479994683795], [-3.9076799900241603, 50.6531899946822], [-3.8967099900160167, 50.655289994684026], [-3.8951899900160862, 50.65298999468224], [-3.900169990022217, 50.64676999467724], [-3.896079990019736, 50.64634999467696], [-3.8905999900166317, 50.64532999467625], [-3.886799990015813, 50.641729994673454], [-3.885889990015338, 50.64147999467328], [-3.885319990015712, 50.63986999467203], [-3.8819799900142753, 50.63826999467082], [-3.8791299900226623, 50.616159994653415], [-3.8733599900197713, 50.61429999465205], [-3.8724999900199792, 50.61263999465074], [-3.8730299900211, 50.61096999464945], [-3.8749199900231837, 50.60912999464796], [-3.877986079408475, 50.60223707900984], [-3.8918133301159816, 50.608828983460135]]]}}, {"type": "Feature", "properties": {"type": "postcode-cell", "postcode": "PL20 6TL", "postcodes": ["PL20 6TL"]}, "geometry": {"type": "Polygon", "coordinates": [[[-3.898771280600903, 50.59811473484398], [-3.8986064590653915, 50.59936443069265], [-3.8918133301159816, 50.608828983460135], [-3.877986079408475, 50.60223707900984], [-3.87896584625101, 50.60003402273763], [-3.8926549399594044, 50.59124900124939], [-3.8935499426177356, 50.59121318601567], [-3.898771280600903, 50.59811473484398]]]}}, {"type": "Feature", "properties": {"type": "postcode-cell", "postcode": "PL20 6TT", "postcodes": ["PL20 6TT"]}, "geometry": {"type": "Polygon", "coordinates": [[[-3.916115486835711, 50.56795660306126], [-3.893895014164823, 50.574198201577985], [-3.8884113115814047, 50.57563730126695], [-3.8773630428654418, 50.575762039306525], [-3.87734999004031, 50.5756499946216], [-3.8769799900403012, 50.57514999462122], [-3.8737999900382385, 50.57514999462126], [-3.8725799900382674, 50.573379994619884], [-3.8701299900372566, 50.572139994618965], [-3.8696899900373607, 50.57129999461832], [-3.870709990039002, 50.56918999461663], [-3.8718799900402607, 50.56811999461578], [-3.8718599900408743, 50.566769994614724], [-3.8727999900416377, 50.56643999461445], [-3.8730099900421795, 50.565569994613774], [-3.8743399900434032, 50.564789994613136], [-3.874849990044095, 50.564019994612515], [-3.874279990044748, 50.56181999461081], [-3.876229990047364, 50.5589099946085], [-3.8760858346870273, 50.55798261669649], [-3.8935176271470016, 50.55305903483211], [-3.8969655301893282, 50.553095168013755], [-3.916115486835711, 50.56795660306126]]]}}, {"type": "Feature", "properties": {"type": "postcode-cell", "postcode": "PL20 6TW", "postcodes": ["PL20 6TW"]}, "geometry": {"type": "Polygon", "coordinates": [[[-3.9119301228418744, 50.585479545087914], [-3.905776046813077, 50.588312991582924], [-3.901193657543833, 50.58842333475708], [-3.892114147543766, 50.57888929174449], [-3.9026552640333203, 50.58180527008191], [-3.9119301228418744, 50.585479545087914]]]}}, {"type": "Feature", "properties": {"type": "postcode-cell", "postcode": "PL20 6SB", "postcodes": ["PL20 6SB"]}, "geometry": {"type": "Polygon", "coordinates": [[[-3.9003577049597244, 50.546136846378914], [-3.896981498321266, 50.55308177807585], [-3.8969655301893282, 50.553095168013755], [-3.8935176271470016, 50.55305903483211], [-3.8824668574072607, 50.53981808853687], [-3.8834999900612366, 50.53922999459295], [-3.8846699900629376, 50.53719999459135], [-3.8864899900646113, 50.53613999459048], [-3.88915999006626, 50.53631999459056], [-3.8881199900670276, 50.53321999458815], [-3.884309990065754, 50.53064999458621], [-3.884019990066168, 50.52935999458522], [-3.884579990066852, 50.52866999458466], [-3.8845699900676087, 50.52702999458339], [-3.8857599900692734, 50.52510999458187], [-3.8864099900699185, 50.52462999458148], [-3.887318277128802, 50.52441865117571], [-3.9003577049597244, 50.546136846378914]]]}}, {"type": "Feature", "properties": {"type": "postcode-cell", "postcode": "PL20 6TP", "postcodes": ["PL20 6TP"]}, "geometry": {"type": "Polygon", "coordinates": [[[-3.892114147543766, 50.57888929174449], [-3.8884113115814047, 50.57563730126695], [-3.893895014164823, 50.574198201577985], [-3.9026552640333203, 50.58180527008191], [-3.892114147543766, 50.57888929174449]]]}}, {"type": "Feature", "properties": {"type": "postcode-cell", "postcode": "PL20 6TR", "postcodes": ["PL20 6TR"]}, "geometry": {"type": "Polygon", "coordinates": [[[-3.892114147543766, 50.57888929174449], [-3.901193657543833, 50.58842333475708], [-3.8935499426177356, 50.59121318601567], [-3.8926549399594044, 50.59124900124939], [-3.880397004201448, 50.5832084773485], [-3.879279990039143, 50.58085999462565], [-3.8783599900387293, 50.580459994625365], [-3.878419990039017, 50.57992999462494], [-3.877289990038693, 50.57903999462425], [-3.877709990039106, 50.57873999462401], [-3.8773630428654418, 50.575762039306525], [-3.8884113115814047, 50.57563730126695], [-3.892114147543766, 50.57888929174449]]]}}, {"type": "Feature", "properties": {"type": "postcode-cell", "postcode": "PL20 6SG", "postcodes": ["PL20 6SG"]}, "geometry": {"type": "Polygon", "coordinates": [[[-3.8935176271470016, 50.55305903483211], [-3.8760858346870273, 50.55798261669649], [-3.8759299900480704, 50.556979994607005], [-3.874039990047207, 50.5561999946064], [-3.874589990048037, 50.5551799946056], [-3.874289990048294, 50.55420999460484], [-3.87682999005043, 50.55315999460397], [-3.8774299900511253, 50.552499994603444], [-3.8771299900520964, 50.5499999946015], [-3.8759099900516545, 50.54924999460094], [-3.8756099900521983, 50.54765999459969], [-3.875989990052636, 50.54724999459936], [-3.8751299900523732, 50.54661999459889], [-3.8748799900527637, 50.545429994597946], [-3.875859990053804, 50.54455999459726], [-3.875599990054627, 50.54242999459557], [-3.876089990054857, 50.542619994595746], [-3.877439990055821, 50.542429994595565], [-3.8796899900576785, 50.54155999459482], [-3.8804399900587647, 50.54027999459382], [-3.882199990060049, 50.53996999459353], [-3.8824668574072607, 50.53981808853687], [-3.8935176271470016, 50.55305903483211]]]}}, {"type": "Feature", "properties": {"type": "postcode-cell", "postcode": "PL20 6TN", "postcodes": ["PL20 6TN"]}, "geometry": {"type": "Polygon", "coordinates": [[[-3.8926549399594044, 50.59124900124939], [-3.87896584625101, 50.60003402273763], [-3.879189990030415, 50.599529994640335], [-3.882479990033858, 50.59671999463806], [-3.882819990034879, 50.59499999463672], [-3.8817899900350943, 50.59308999463522], [-3.881139990034959, 50.59246999463475], [-3.8811799900359283, 50.590439994633165], [-3.8805099900360096, 50.58932999463228], [-3.8813699900373075, 50.58773999463103], [-3.880579990036941, 50.58741999463079], [-3.8806999900372325, 50.58695999463042], [-3.8792499900366133, 50.58625999462989], [-3.880389990037615, 50.585699994629444], [-3.8809399900385997, 50.584349994628354], [-3.880397004201448, 50.5832084773485], [-3.8926549399594044, 50.59124900124939]]]}}]}