{"type": "FeatureCollection", "features": [{"type": "Feature", "properties": {"type": "ward-outline", "name": "Drewsteignton"}, "geometry": {"type": "Polygon", "coordinates": [[[-3.84539, 50.78158], [-3.84525, 50.78128], [-3.82709, 50.78066], [-3.82204, 50.781], [-3.82258, 50.78039], [-3.8221, 50.77978], [-3.82236, 50.77928], [-3.82429, 50.77818], [-3.82513, 50.77692], [-3.82295, 50.7753], [-3.82259, 50.77371], [-3.82168, 50.77318], [-3.82061, 50.77168], [-3.81972, 50.76932], [-3.81609, 50.7638], [-3.81502, 50.76349], [-3.81304, 50.76226], [-3.81386, 50.76124], [-3.8145, 50.76123], [-3.81473, 50.76088], [-3.81132, 50.76], [-3.80738, 50.75998], [-3.80737, 50.76043], [-3.80623, 50.75972], [-3.80584, 50.75901], [-3.80673, 50.75895], [-3.80687, 50.75929], [-3.80766, 50.75921], [-3.80769, 50.75899], [-3.8083, 50.75921], [-3.80903, 50.75875], [-3.81003, 50.75886], [-3.81073, 50.75855], [-3.81096, 50.75894], [-3.81196, 50.75888], [-3.812, 50.75857], [-3.81245, 50.7586], [-3.81204, 50.75845], [-3.8123, 50.75825], [-3.81308, 50.75835], [-3.81276, 50.75818], [-3.81309, 50.75784], [-3.81407, 50.75791], [-3.81378, 50.75761], [-3.81446, 50.75746], [-3.81484, 50.75684], [-3.8169, 50.75635], [-3.81685, 50.75585], [-3.81807, 50.75508], [-3.81782, 50.75486], [-3.81831, 50.75487], [-3.81808, 50.75441], [-3.81857, 50.7544], [-3.81834, 50.75402], [-3.81887, 50.75393], [-3.81871, 50.75314], [-3.81915, 50.75306], [-3.81975, 50.75169], [-3.82071, 50.75105], [-3.82061, 50.75049], [-3.8212, 50.75028], [-3.82099, 50.75004], [-3.82141, 50.75016], [-3.82171, 50.74969], [-3.8222, 50.74968], [-3.82268, 50.74902], [-3.82248, 50.748], [-3.82286, 50.74774], [-3.82307, 50.74559], [-3.82457, 50.7439], [-3.82423, 50.74326], [-3.82498, 50.74218], [-3.8247, 50.74152], [-3.82507, 50.74117], [-3.82471, 50.74103], [-3.82732, 50.73866], [-3.82861, 50.73625], [-3.83063, 50.73503], [-3.83119, 50.73501], [-3.83215, 50.73403], [-3.83381, 50.73352], [-3.8363, 50.73217], [-3.83385, 50.73055], [-3.83184, 50.72784], [-3.82753, 50.7291], [-3.82545, 50.73028], [-3.82249, 50.72638], [-3.82143, 50.72436], [-3.82213, 50.72322], [-3.81988, 50.72101], [-3.81961, 50.71912], [-3.8186, 50.71696], [-3.80941, 50.71649], [-3.80381, 50.71683], [-3.79989, 50.71741], [-3.79348, 50.71907], [-3.78353, 50.72283], [-3.76626, 50.72756], [-3.76589, 50.72583], [-3.76421, 50.72598], [-3.76197, 50.72456], [-3.75927, 50.72399], [-3.75799, 50.72296], [-3.75697, 50.72267], [-3.75687, 50.72114], [-3.75501, 50.71995], [-3.75546, 50.71933], [-3.75533, 50.71788], [-3.75367, 50.71605], [-3.75158, 50.71463], [-3.75143, 50.71372], [-3.75226, 50.71181], [-3.75085, 50.7105], [-3.75075, 50.7092], [-3.75028, 50.70862], [-3.74835, 50.70804], [-3.74772, 50.70819], [-3.74777, 50.70786], [-3.7458, 50.70749], [-3.74332, 50.70597], [-3.74149, 50.70547], [-3.73991, 50.70552], [-3.73908, 50.70475], [-3.73772, 50.70446], [-3.73752, 50.70406], [-3.73646, 50.70386], [-3.73628, 50.7033], [-3.73559, 50.70318], [-3.73568, 50.70252], [-3.73501, 50.702], [-3.73525, 50.70172], [-3.73488, 50.70169], [-3.73513, 50.70125], [-3.7337, 50.70024], [-3.73403, 50.70014], [-3.73347, 50.69946], [-3.73369, 50.6986], [-3.73225, 50.697], [-3.73508, 50.6959], [-3.74179, 50.69552], [-3.7456, 50.69666], [-3.74954, 50.69716], [-3.75267, 50.69633], [-3.75344, 50.69431], [-3.75674, 50.69483], [-3.75848, 50.69443], [-3.76064, 50.69331], [-3.76165, 50.69322], [-3.76848, 50.69498], [-3.77383, 50.69317], [-3.77575, 50.69306], [-3.7771, 50.69347], [-3.78, 50.69532], [-3.78257, 50.69553], [-3.78378, 50.69489], [-3.78428, 50.69342], [-3.78494, 50.69281], [-3.78678, 50.69216], [-3.78937, 50.6928], [-3.79188, 50.69384], [-3.79878, 50.69291], [-3.80166, 50.69369], [-3.80332, 50.69364], [-3.80728, 50.69474], [-3.80892, 50.694], [-3.80974, 50.69258], [-3.81162, 50.69102], [-3.81282, 50.6901], [-3.81582, 50.69011], [-3.82071, 50.68906], [-3.82395, 50.68918], [-3.82597, 50.68993], [-3.82795, 50.68991], [-3.82923, 50.69069], [-3.83143, 50.69067], [-3.83304, 50.69161], [-3.83381, 50.69171], [-3.83555, 50.69294], [-3.83692, 50.69485], [-3.83868, 50.69547], [-3.8394, 50.69609], [-3.84491, 50.69717], [-3.84529, 50.69423], [-3.84466, 50.69128], [-3.84715, 50.68902], [-3.84775, 50.68596], [-3.85012, 50.68228], [-3.85019, 50.68091], [-3.84913, 50.67922], [-3.84945, 50.67829], [-3.8508, 50.67786], [-3.8502, 50.67652], [-3.85224, 50.67575], [-3.85335, 50.67475], [-3.85511, 50.67541], [-3.8559, 50.67515], [-3.85654, 50.67697], [-3.85812, 50.67702], [-3.85899, 50.67609], [-3.85847, 50.67517], [-3.85981, 50.67398], [-3.86043, 50.67398], [-3.86149, 50.67456], [-3.86383, 50.67412], [-3.86528, 50.67334], [-3.86531, 50.6722], [-3.8659, 50.67159], [-3.86716, 50.67096], [-3.86814, 50.67088], [-3.86856, 50.67039], [-3.86998, 50.67066], [-3.87111, 50.67125], [-3.87363, 50.67339], [-3.8775, 50.67175], [-3.88479, 50.67072], [-3.88452, 50.66989], [-3.88804, 50.66916], [-3.88954, 50.66843], [-3.89668, 50.66064], [-3.89777, 50.65838], [-3.89671, 50.65529], [-3.90768, 50.65319], [-3.92189, 50.65548], [-3.93081, 50.65579], [-3.93724, 50.65989], [-3.94113, 50.66527], [-3.94405, 50.67213], [-3.94245, 50.68454], [-3.93587, 50.68881], [-3.93019, 50.68912], [-3.9255, 50.69411], [-3.92328, 50.6944], [-3.92232, 50.69405], [-3.91988, 50.6945], [-3.91914, 50.69435], [-3.91661, 50.69852], [-3.91687, 50.70036], [-3.91638, 50.70136], [-3.91457, 50.70227], [-3.912, 50.70471], [-3.91071, 50.70505], [-3.91024, 50.70483], [-3.90805, 50.70484], [-3.90596, 50.7055], [-3.90575, 50.70614], [-3.904, 50.70639], [-3.90318, 50.70694], [-3.90305, 50.70742], [-3.9001, 50.70988], [-3.89953, 50.70976], [-3.89826, 50.71029], [-3.89772, 50.71011], [-3.89749, 50.71035], [-3.89589, 50.71036], [-3.89596, 50.71096], [-3.89545, 50.71133], [-3.89355, 50.71051], [-3.8937, 50.70994], [-3.88935, 50.708], [-3.88684, 50.70603], [-3.88472, 50.70592], [-3.87913, 50.70414], [-3.87734, 50.70291], [-3.87664, 50.70292], [-3.87595, 50.70239], [-3.87573, 50.70162], [-3.87466, 50.70111], [-3.87352, 50.69976], [-3.87243, 50.70015], [-3.87052, 50.69833], [-3.8706, 50.6978], [-3.86872, 50.69479], [-3.8688, 50.69413], [-3.86719, 50.69244], [-3.86461, 50.6941], [-3.86116, 50.69569], [-3.85748, 50.69697], [-3.85565, 50.69718], [-3.85623, 50.69802], [-3.85599, 50.6993], [-3.85704, 50.70097], [-3.85696, 50.70199], [-3.85787, 50.70356], [-3.85795, 50.70505], [-3.85775, 50.70572], [-3.85636, 50.70695], [-3.85635, 50.70981], [-3.85566, 50.71253], [-3.85633, 50.71443], [-3.85588, 50.71531], [-3.86373, 50.71711], [-3.87297, 50.71822], [-3.87586, 50.71913], [-3.88129, 50.72], [-3.87991, 50.72219], [-3.87661, 50.72212], [-3.8743, 50.72172], [-3.87432, 50.72344], [-3.87263, 50.72478], [-3.86955, 50.72482], [-3.86228, 50.72389], [-3.85806, 50.72436], [-3.8562, 50.72501], [-3.85611, 50.72582], [-3.86104, 50.72995], [-3.8624, 50.73225], [-3.86181, 50.73644], [-3.85845, 50.73987], [-3.85681, 50.74496], [-3.85967, 50.7504], [-3.86027, 50.75254], [-3.8614, 50.75251], [-3.86119, 50.75142], [-3.8607, 50.75134], [-3.86113, 50.75091], [-3.86097, 50.75009], [-3.86178, 50.74924], [-3.86264, 50.74903], [-3.86271, 50.74835], [-3.86375, 50.74757], [-3.86538, 50.74716], [-3.86948, 50.74684], [-3.87266, 50.74878], [-3.88007, 50.75712], [-3.87709, 50.75909], [-3.87628, 50.75881], [-3.87521, 50.75891], [-3.8739, 50.75952], [-3.86925, 50.76344], [-3.86821, 50.76377], [-3.86357, 50.76664], [-3.86201, 50.76669], [-3.86003, 50.76726], [-3.85772, 50.76928], [-3.85501, 50.77205], [-3.85467, 50.77311], [-3.85618, 50.77488], [-3.85387, 50.77797], [-3.8535, 50.78179], [-3.84623, 50.78141], [-3.84539, 50.78158]]]}}, {"type": "Feature", "properties": {"type": "postcode-cell", "postcode": "EX20 2QF", "postcodes": ["EX20 2QF"]}, "geometry": {"type": "Polygon", "coordinates": [[[-3.893187188747822, 50.705134653246944], [-3.9035958656631995, 50.70666105603741], [-3.9031799899964303, 50.70693999472491], [-3.9030499899961257, 50.707419994725306], [-3.900099989993054, 50.70987999472729], [-3.899529989992737, 50.70975999472721], [-3.8982599899916623, 50.71028999472765], [-3.897719989991391, 50.710109994727524], [-3.897489989991129, 50.710349994727714], [-3.8958899899900747, 50.710359994727725], [-3.8959599899898403, 50.71095999472819], [-3.895449989989338, 50.71132999472851], [-3.89354998998847, 50.71050999472788], [-3.893699989988832, 50.70993999472745], [-3.890009500535334, 50.70829414224213], [-3.893187188747822, 50.705134653246944]]]}}, {"type": "Feature", "properties": {"type": "postcode-cell", "postcode": "EX20 2QE", "postcodes": ["EX20 2QE"]}, "geometry": {"type": "MultiPolygon", "coordinates": [[[[-3.893187188747822, 50.705134653246944], [-3.895863249796904, 50.70151911697466], [-3.907789129551362, 50.6956267793403], [-3.919037148931064, 50.69451951475845], [-3.916609990009122, 50.698519994718026], [-3.9168699900084465, 50.7003599947195], [-3.9163799900076617, 50.7013599947203], [-3.914569990006056, 50.70226999472105], [-3.9119999900032436, 50.70470999472301], [-3.9107099900022435, 50.70504999472332], [-3.9102399900020335, 50.70482999472314], [-3.908049990000594, 50.70483999472318], [-3.905959989998917, 50.705499994723745], [-3.9057499899984833, 50.70613999472423], [-3.9039999899972213, 50.70638999472446], [-3.9035958656631995, 50.70666105603741], [-3.893187188747822, 50.705134653246944]]], [[[-3.920619037419739, 50.69436370126551], [-3.9198799900131154, 50.69449999471478], [-3.919669179550692, 50.694457263443766], [-3.920619037419739, 50.69436370126551]]], [[[-3.9257353605313074, 50.69385959785509], [-3.9254999900169856, 50.69410999471439], [-3.9232799900153945, 50.69439999471466], [-3.922635552921177, 50.69416504515207], [-3.9257353605313074, 50.69385959785509]]]]}}, {"type": "Feature", "properties": {"type": "postcode-cell", "postcode": "TQ13 8HU", "postcodes": ["TQ13 8HU"]}, "geometry": {"type": "Polygon", "coordinates": [[[-3.922635552921177, 50.69416504515207], [-3.9223199900149246, 50.69404999471439], [-3.920619037419739, 50.69436370126551], [-3.919669179550692, 50.694457263443766], [-3.919139990012702, 50.69434999471468], [-3.919037148931064, 50.69451951475845], [-3.907789129551362, 50.6956267793403], [-3.891755130500035, 50.692419759867235], [-3.8879153361146415, 50.68749530855041], [-3.902179792454074, 50.68057436326514], [-3.9435273731872313, 50.6761841888908], [-3.9424499900325247, 50.684539994706554], [-3.9358699900262373, 50.68880999471004], [-3.930189990022363, 50.68911999471036], [-3.9257353605313074, 50.69385959785509], [-3.922635552921177, 50.69416504515207]]]}}, {"type": "Feature", "properties": {"type": "postcode-cell", "postcode": "EX20 2HU", "postcodes": ["EX20 2HU"]}, "geometry": {"type": "Polygon", "coordinates": [[[-3.890009500535334, 50.70829414224213], [-3.8893499899868718, 50.707999994725945], [-3.886839989986139, 50.70602999472442], [-3.8847199899848004, 50.705919994724375], [-3.882859478748168, 50.70532760513675], [-3.8885858703242193, 50.700805113927565], [-3.8901946632300755, 50.700099612499315], [-3.895863249796904, 50.70151911697466], [-3.893187188747822, 50.705134653246944], [-3.890009500535334, 50.70829414224213]]]}}, {"type": "Feature", "properties": {"type": "postcode-cell", "postcode": "TQ13 8EU", "postcodes": ["TQ13 8EU"]}, "geometry": {"type": "Polygon", "coordinates": [[[-3.888852353995646, 50.66876464938908], [-3.8895399900052605, 50.668429994694556], [-3.896679990013526, 50.66063999468828], [-3.897769990015283, 50.65837999468646], [-3.8967099900160167, 50.655289994684026], [-3.9076799900241603, 50.6531899946822], [-3.921889990032407, 50.655479994683795], [-3.93080999003811, 50.655789994683914], [-3.9372399900404367, 50.65988999468706], [-3.9411299900405177, 50.665269994691286], [-3.9440499900392805, 50.67212999469669], [-3.9436020949204718, 50.67560457438257], [-3.888852353995646, 50.66876464938908]]]}}, {"type": "Feature", "properties": {"type": "postcode-cell", "postcode": "EX20 2HX", "postcodes": ["EX20 2HX"]}, "geometry": {"type": "Polygon", "coordinates": [[[-3.907789129551362, 50.6956267793403], [-3.895863249796904, 50.70151911697466], [-3.8901946632300755, 50.700099612499315], [-3.885097993177386, 50.69711450547334], [-3.886291175561831, 50.69504408939146], [-3.891755130500035, 50.692419759867235], [-3.907789129551362, 50.6956267793403]]]}}, {"type": "Feature", "properties": {"type": "postcode-cell", "postcode": "TQ13 8HR", "postcodes": ["TQ13 8HR"]}, "geometry": {"type": "Polygon", "coordinates": [[[-3.8843400505996586, 50.68308607954243], [-3.8766745668321247, 50.68180309647408], [-3.873133965831174, 50.67949196135165], [-3.880790975140955, 50.67159145375657], [-3.8883204008387655, 50.67849386598078], [-3.8843400505996586, 50.68308607954243]]]}}, {"type": "Feature", "properties": {"type": "postcode-cell", "postcode": "TQ13 8HT", "postcodes": ["TQ13 8HT"]}, "geometry": {"type": "Polygon", "coordinates": [[[-3.8883204008387655, 50.67849386598078], [-3.902179792454074, 50.68057436326514], [-3.8879153361146415, 50.68749530855041], [-3.886917189747131, 50.68719884942389], [-3.8843400505996586, 50.68308607954243], [-3.8883204008387655, 50.67849386598078]]]}}, {"type": "Feature", "properties": {"type": "postcode-cell", "postcode": "TQ13 8HS", "postcodes": ["TQ13 8HS"]}, "geometry": {"type": "Polygon", "coordinates": [[[-3.902179792454074, 50.68057436326514], [-3.8883204008387655, 50.67849386598078], [-3.880790975140955, 50.67159145375657], [-3.8808104629534927, 50.67128232175741], [-3.8847899900011016, 50.67071999469645], [-3.884519990001304, 50.66988999469578], [-3.8880399900039437, 50.669159994695136], [-3.888852353995646, 50.66876464938908], [-3.9436020949204718, 50.67560457438257], [-3.9435273731872313, 50.6761841888908], [-3.902179792454074, 50.68057436326514]]]}}, {"type": "Feature", "properties": {"type": "postcode-cell", "postcode": "EX20 2HS", "postcodes": ["EX20 2HS"]}, "geometry": {"type": "Polygon", "coordinates": [[[-3.8885858703242193, 50.700805113927565], [-3.882787129379561, 50.70133738024629], [-3.882958330029466, 50.698206583565096], [-3.885097993177386, 50.69711450547334], [-3.8901946632300755, 50.700099612499315], [-3.8885858703242193, 50.700805113927565]]]}}, {"type": "Feature", "properties": {"type": "postcode-cell", "postcode": "EX20 2HY", "postcodes": ["EX20 2HY"]}, "geometry": {"type": "Polygon", "coordinates": [[[-3.891755130500035, 50.692419759867235], [-3.886291175561831, 50.69504408939146], [-3.881173269710072, 50.69329709343343], [-3.8810164486205774, 50.68935285565575], [-3.8824512905823463, 50.688158272519786], [-3.886917189747131, 50.68719884942389], [-3.8879153361146415, 50.68749530855041], [-3.891755130500035, 50.692419759867235]]]}}, {"type": "Feature", "properties": {"type": "postcode-cell", "postcode": "EX20 2QL", "postcodes": ["EX20 2QL"]}, "geometry": {"type": "Polygon", "coordinates": [[[-3.860811557686224, 50.719804884918304], [-3.8604115717342884, 50.71753738102647], [-3.860916411218866, 50.71646492005001], [-3.8637299899658974, 50.71710999473355], [-3.8729699899714305, 50.71821999473431], [-3.8758599899729025, 50.71912999473499], [-3.8812899899760613, 50.71999999473561], [-3.8799099899741467, 50.72218999473736], [-3.876609989972017, 50.72211999473735], [-3.874299989970689, 50.72171999473708], [-3.8743199899699055, 50.72343999473843], [-3.8726299899681833, 50.72477999473954], [-3.8695499899661487, 50.7248199947396], [-3.866247458129042, 50.72439758604575], [-3.860811557686224, 50.719804884918304]]]}}, {"type": "Feature", "properties": {"type": "postcode-cell", "postcode": "EX20 2JF", "postcodes": ["EX20 2JF"]}, "geometry": {"type": "Polygon", "coordinates": [[[-3.882958330029466, 50.698206583565096], [-3.882787129379561, 50.70133738024629], [-3.8818103834492605, 50.70499355176168], [-3.879129989981962, 50.704139994723015], [-3.877339989981357, 50.70290999472207], [-3.876639989980895, 50.70291999472209], [-3.875949989980689, 50.70238999472169], [-3.8757299899809006, 50.701619994721064], [-3.874659989980435, 50.70110999472065], [-3.873519989980313, 50.69975999471963], [-3.87242998997942, 50.70014999471997], [-3.8705199899790137, 50.69832999471855], [-3.87059998997931, 50.697799994718125], [-3.8701680108323018, 50.69710840629751], [-3.882958330029466, 50.698206583565096]]]}}, {"type": "Feature", "properties": {"type": "postcode-cell", "postcode": "EX20 2HT", "postcodes": ["EX20 2HT"]}, "geometry": {"type": "Polygon", "coordinates": [[[-3.882859478748168, 50.70532760513675], [-3.8818103834492605, 50.70499355176168], [-3.882787129379561, 50.70133738024629], [-3.8885858703242193, 50.700805113927565], [-3.882859478748168, 50.70532760513675]]]}}, {"type": "Feature", "properties": {"type": "postcode-cell", "postcode": "EX20 2JB", "postcodes": ["EX20 2JB"]}, "geometry": {"type": "Polygon", "coordinates": [[[-3.882958330029466, 50.698206583565096], [-3.8701680108323018, 50.69710840629751], [-3.868754850867429, 50.69484581310645], [-3.8687664585789663, 50.69475012249908], [-3.881173269710072, 50.69329709343343], [-3.886291175561831, 50.69504408939146], [-3.885097993177386, 50.69711450547334], [-3.882958330029466, 50.698206583565096]]]}}, {"type": "Feature", "properties": {"type": "postcode-cell", "postcode": "TQ13 8HH", "postcodes": ["TQ13 8HH"]}, "geometry": {"type": "Polygon", "coordinates": [[[-3.873133965831174, 50.67949196135165], [-3.8697434757614855, 50.68013367211876], [-3.859238794010782, 50.67465618677855], [-3.8591778047799705, 50.67454142221867], [-3.8598099899832827, 50.67397999469939], [-3.8604299899836847, 50.67397999469937], [-3.86148998998411, 50.67455999469982], [-3.8638299899858386, 50.67411999469944], [-3.865279989987146, 50.673339994698814], [-3.8653099899876944, 50.67219999469789], [-3.865899989988359, 50.67158999469741], [-3.8671599899894744, 50.670959994696894], [-3.868139989990152, 50.67087999469681], [-3.868559989990654, 50.67038999469641], [-3.8699799899914544, 50.67065999469659], [-3.871109989991919, 50.67124999469705], [-3.873629989992571, 50.6733899946987], [-3.8774999899958598, 50.671749994697365], [-3.8808104629534927, 50.67128232175741], [-3.880790975140955, 50.67159145375657], [-3.873133965831174, 50.67949196135165]]]}}, {"type": "Feature", "properties": {"type": "postcode-cell", "postcode": "TQ13 8HP", "postcodes": ["TQ13 8HP"]}, "geometry": {"type": "Polygon", "coordinates": [[[-3.886917189747131, 50.68719884942389], [-3.8824512905823463, 50.688158272519786], [-3.876679813329811, 50.68627291131665], [-3.8766745668321247, 50.68180309647408], [-3.8843400505996586, 50.68308607954243], [-3.886917189747131, 50.68719884942389]]]}}, {"type": "Feature", "properties": {"type": "postcode-cell", "postcode": "TQ13 8HW", "postcodes": ["TQ13 8HW"]}, "geometry": {"type": "Polygon", "coordinates": [[[-3.876679813329811, 50.68627291131665], [-3.8693434518012872, 50.6893626027953], [-3.8665181164068434, 50.68362255383109], [-3.8697434757614855, 50.68013367211876], [-3.873133965831174, 50.67949196135165], [-3.8766745668321247, 50.68180309647408], [-3.876679813329811, 50.68627291131665]]]}}, {"type": "Feature", "properties": {"type": "postcode-cell", "postcode": "EX20 2JA", "postcodes": ["EX20 2JA"]}, "geometry": {"type": "Polygon", "coordinates": [[[-3.868736707254111, 50.694652078572915], [-3.8687999899798293, 50.694129994715226], [-3.868474666375518, 50.69378851777579], [-3.8682833165625143, 50.6931578993509], [-3.868765373682098, 50.69238241502844], [-3.8810164486205774, 50.68935285565575], [-3.881173269710072, 50.69329709343343], [-3.8687664585789663, 50.69475012249908], [-3.868736707254111, 50.694652078572915]]]}}, {"type": "Feature", "properties": {"type": "postcode-cell", "postcode": "TQ13 8HN", "postcodes": ["TQ13 8HN"]}, "geometry": {"type": "MultiPolygon", "coordinates": [[[[-3.868474666375518, 50.69378851777579], [-3.867729027082899, 50.69300583258746], [-3.8682833165625143, 50.6931578993509], [-3.868474666375518, 50.69378851777579]]], [[[-3.8687664585789663, 50.69475012249908], [-3.868754850867429, 50.69484581310645], [-3.868719989979471, 50.69478999471575], [-3.868736707254111, 50.694652078572915], [-3.8687664585789663, 50.69475012249908]]], [[[-3.849089735875676, 50.698674012096085], [-3.847123143639088, 50.69665241906994], [-3.8469317491437383, 50.69613181021008], [-3.8468815751749545, 50.695912678062065], [-3.8518635589449874, 50.692027465913675], [-3.858277824683013, 50.69041237749569], [-3.8667346034512375, 50.69273300790781], [-3.864609989977105, 50.69409999471526], [-3.861159989974115, 50.69568999471659], [-3.8574799899711203, 50.69696999471764], [-3.855649989969827, 50.69717999471784], [-3.8562299899698194, 50.6980199947185], [-3.855989989969071, 50.69929999471953], [-3.8566279317102343, 50.70031464154576], [-3.849089735875676, 50.698674012096085]]]]}}, {"type": "Feature", "properties": {"type": "postcode-cell", "postcode": "TQ13 8HL", "postcodes": ["TQ13 8HL"]}, "geometry": {"type": "Polygon", "coordinates": [[[-3.8682833165625143, 50.6931578993509], [-3.867729027082899, 50.69300583258746], [-3.867189989979558, 50.69243999471392], [-3.8667346034512375, 50.69273300790781], [-3.858277824683013, 50.69041237749569], [-3.8572942094553233, 50.68422685663624], [-3.8665181164068434, 50.68362255383109], [-3.8693434518012872, 50.6893626027953], [-3.868765373682098, 50.69238241502844], [-3.8682833165625143, 50.6931578993509]]]}}, {"type": "Feature", "properties": {"type": "postcode-cell", "postcode": "EX20 2HZ", "postcodes": ["EX20 2HZ"]}, "geometry": {"type": "Polygon", "coordinates": [[[-3.8810164486205774, 50.68935285565575], [-3.868765373682098, 50.69238241502844], [-3.8693434518012872, 50.6893626027953], [-3.876679813329811, 50.68627291131665], [-3.8824512905823463, 50.688158272519786], [-3.8810164486205774, 50.68935285565575]]]}}, {"type": "Feature", "properties": {"type": "postcode-cell", "postcode": "EX17 5AY", "postcodes": ["EX17 5AY"]}, "geometry": {"type": "Polygon", "coordinates": [[[-3.8632442744149897, 50.75490273362207], [-3.8731266003072915, 50.74930527099576], [-3.880069989958159, 50.75711999476519], [-3.877089989955296, 50.759089994766796], [-3.876279989954894, 50.758809994766594], [-3.8752099899541457, 50.75890999476668], [-3.8749470428265833, 50.75903243823139], [-3.8632442744149897, 50.75490273362207]]]}}, {"type": "Feature", "properties": {"type": "postcode-cell", "postcode": "EX17 5EA", "postcodes": ["EX17 5EA"]}, "geometry": {"type": "Polygon", "coordinates": [[[-3.8632442744149897, 50.75490273362207], [-3.860344474979121, 50.75518470511932], [-3.8577251089520135, 50.752646188831996], [-3.85926843881565, 50.7496362879642], [-3.859669989947877, 50.7503999947601], [-3.860269989947281, 50.75253999476181], [-3.861399989948035, 50.75250999476175], [-3.8611899899484006, 50.75141999476091], [-3.8606999899481167, 50.75133999476084], [-3.8611299899485956, 50.750909994760484], [-3.8609699899488703, 50.75008999475983], [-3.8617799899497918, 50.749239994759165], [-3.862639989950453, 50.749029994758985], [-3.8627099899508135, 50.74834999475845], [-3.8637499899518524, 50.7475699947578], [-3.865379989953113, 50.74715999475745], [-3.8694799899559453, 50.74683999475714], [-3.872659989957139, 50.74877999475864], [-3.8731266003072915, 50.74930527099576], [-3.8632442744149897, 50.75490273362207]]]}}, {"type": "Feature", "properties": {"type": "postcode-cell", "postcode": "EX20 2QZ", "postcodes": ["EX20 2QZ"]}, "geometry": {"type": "Polygon", "coordinates": [[[-3.8505613235898943, 50.739940423325855], [-3.8510060961222443, 50.73489437778425], [-3.8616249752294225, 50.730939338447094], [-3.862399989958037, 50.732249994745594], [-3.8618099899557166, 50.736439994748956], [-3.8584499899519344, 50.73986999475175], [-3.857867990834089, 50.74167644537812], [-3.8505613235898943, 50.739940423325855]]]}}, {"type": "Feature", "properties": {"type": "postcode-cell", "postcode": "TQ13 8JZ", "postcodes": ["TQ13 8JZ"]}, "geometry": {"type": "MultiPolygon", "coordinates": [[[[-3.859238794010782, 50.67465618677855], [-3.858691353788153, 50.6755616431739], [-3.858469989981857, 50.67516999470036], [-3.8591778047799705, 50.67454142221867], [-3.859238794010782, 50.67465618677855]]], [[[-3.8542041969960876, 50.68298193833759], [-3.8494426970676736, 50.68333171877615], [-3.8501199899731198, 50.682279994706114], [-3.8501899899738006, 50.68090999470501], [-3.8491299899738936, 50.67921999470372], [-3.849449989974531, 50.67828999470296], [-3.850799989975609, 50.67785999470261], [-3.8501999899758403, 50.676519994701536], [-3.8522399899775266, 50.67574999470093], [-3.8533499899787125, 50.6747499947001], [-3.855109989979553, 50.675409994700594], [-3.855899989980188, 50.67514999470039], [-3.8565399899797645, 50.67696999470182], [-3.857815412701735, 50.677010357857064], [-3.8542041969960876, 50.68298193833759]]]]}}, {"type": "Feature", "properties": {"type": "postcode-cell", "postcode": "EX17 5AX", "postcodes": ["EX17 5AX"]}, "geometry": {"type": "Polygon", "coordinates": [[[-3.857817094964399, 50.763665943261834], [-3.857330059410756, 50.75961842914011], [-3.860344474979121, 50.75518470511932], [-3.8632442744149897, 50.75490273362207], [-3.8749470428265833, 50.75903243823139], [-3.873899989953006, 50.75951999476721], [-3.869249989948147, 50.763439994770394], [-3.868209989947314, 50.76376999477066], [-3.8635699899429468, 50.76663999477301], [-3.862009989941901, 50.76668999477307], [-3.861813005334127, 50.7667467045787], [-3.857817094964399, 50.763665943261834]]]}}, {"type": "Feature", "properties": {"type": "postcode-cell", "postcode": "EX17 5BD", "postcodes": ["EX17 5BD"]}, "geometry": {"type": "Polygon", "coordinates": [[[-3.8431507690411526, 50.77384349941906], [-3.8548578210540434, 50.7733301761982], [-3.8561799899343026, 50.77487999477971], [-3.8538699899313635, 50.7779699947822], [-3.853499989929359, 50.781789994785235], [-3.846229989924768, 50.78140999478503], [-3.845389989924136, 50.781579994785176], [-3.8452499899241865, 50.781279994784946], [-3.8420181273393967, 50.78116986413218], [-3.8431507690411526, 50.77384349941906]]]}}, {"type": "Feature", "properties": {"type": "postcode-cell", "postcode": "EX17 5DZ", "postcodes": ["EX17 5DZ"]}, "geometry": {"type": "Polygon", "coordinates": [[[-3.8577251089520135, 50.752646188831996], [-3.848193373026481, 50.74982537035788], [-3.8460376757528363, 50.74824761036419], [-3.846549990668068, 50.74221690190137], [-3.8505613235898943, 50.739940423325855], [-3.857867990834089, 50.74167644537812], [-3.8568099899485113, 50.744959994755796], [-3.85926843881565, 50.7496362879642], [-3.8577251089520135, 50.752646188831996]]]}}, {"type": "Feature", "properties": {"type": "postcode-cell", "postcode": "EX6 6PG", "postcodes": ["EX6 6PG"]}, "geometry": {"type": "Polygon", "coordinates": [[[-3.8533866115376827, 50.71048371201279], [-3.8418153703729194, 50.70779209787487], [-3.849089735875676, 50.698674012096085], [-3.8566279317102343, 50.70031464154576], [-3.8570399899689853, 50.70096999472083], [-3.8569599899684612, 50.701989994721636], [-3.8578699899683286, 50.703559994722866], [-3.857949989967691, 50.70504999472406], [-3.8577499899672505, 50.70571999472458], [-3.8563599899657732, 50.706949994725576], [-3.856349989964446, 50.709809994727856], [-3.856289265869055, 50.71004938304551], [-3.8533866115376827, 50.71048371201279]]]}}, {"type": "Feature", "properties": {"type": "postcode-cell", "postcode": "TQ13 8HJ", "postcodes": ["TQ13 8HJ"]}, "geometry": {"type": "Polygon", "coordinates": [[[-3.8665181164068434, 50.68362255383109], [-3.8572942094553233, 50.68422685663624], [-3.8542041969960876, 50.68298193833759], [-3.857815412701735, 50.677010357857064], [-3.858119989980772, 50.67701999470182], [-3.85898998998177, 50.67608999470108], [-3.858691353788153, 50.6755616431739], [-3.859238794010782, 50.67465618677855], [-3.8697434757614855, 50.68013367211876], [-3.8665181164068434, 50.68362255383109]]]}}, {"type": "Feature", "properties": {"type": "postcode-cell", "postcode": "EX20 2QY", "postcodes": ["EX20 2QY"]}, "geometry": {"type": "Polygon", "coordinates": [[[-3.8510060961222443, 50.73489437778425], [-3.8421426449983143, 50.729033672893934], [-3.844268414131181, 50.72296115673708], [-3.8453668238661622, 50.72298913286435], [-3.856686457547474, 50.72483999720114], [-3.856199989957321, 50.725009994739935], [-3.856109989956888, 50.72581999474059], [-3.861039989958207, 50.729949994743805], [-3.8616249752294225, 50.730939338447094], [-3.8510060961222443, 50.73489437778425]]]}}, {"type": "Feature", "properties": {"type": "postcode-cell", "postcode": "EX20 2QN", "postcodes": ["EX20 2QN"]}, "geometry": {"type": "Polygon", "coordinates": [[[-3.8604115717342884, 50.71753738102647], [-3.8585803558920384, 50.71722665004963], [-3.856706281223802, 50.716432524176376], [-3.856484524676624, 50.716007772100305], [-3.8568122752651925, 50.71552380226366], [-3.860916411218866, 50.71646492005001], [-3.8604115717342884, 50.71753738102647]]]}}, {"type": "Feature", "properties": {"type": "postcode-cell", "postcode": "TQ13 8HX", "postcodes": ["TQ13 8HX"]}, "geometry": {"type": "Polygon", "coordinates": [[[-3.858277824683013, 50.69041237749569], [-3.8518635589449874, 50.692027465913675], [-3.8487633185420203, 50.684386631211915], [-3.8494426970676736, 50.68333171877615], [-3.8542041969960876, 50.68298193833759], [-3.8572942094553233, 50.68422685663624], [-3.858277824683013, 50.69041237749569]]]}}, {"type": "Feature", "properties": {"type": "postcode-cell", "postcode": "EX20 2QR", "postcodes": ["EX20 2QR"]}, "geometry": {"type": "Polygon", "coordinates": [[[-3.8585803558920384, 50.71722665004963], [-3.8570232055980065, 50.71751361757873], [-3.8563925854437673, 50.717107132569524], [-3.856410772674279, 50.71680685954955], [-3.856706281223802, 50.716432524176376], [-3.8585803558920384, 50.71722665004963]]]}}, {"type": "Feature", "properties": {"type": "postcode-cell", "postcode": "EX20 2QS", "postcodes": ["EX20 2QS"]}, "geometry": {"type": "Polygon", "coordinates": [[[-3.860811557686224, 50.719804884918304], [-3.8577501571215365, 50.71944126064912], [-3.856280862888939, 50.71811608446906], [-3.8570232055980065, 50.71751361757873], [-3.8585803558920384, 50.71722665004963], [-3.8604115717342884, 50.71753738102647], [-3.860811557686224, 50.719804884918304]]]}}, {"type": "Feature", "properties": {"type": "postcode-cell", "postcode": "EX20 2PX", "postcodes": ["EX20 2PX"]}, "geometry": {"type": "Polygon", "coordinates": [[[-3.856280862888939, 50.71811608446906], [-3.8555382694854727, 50.71785807583006], [-3.8563925854437673, 50.717107132569524], [-3.8570232055980065, 50.71751361757873], [-3.856280862888939, 50.71811608446906]]]}}, {"type": "Feature", "properties": {"type": "postcode-cell", "postcode": "EX20 2QX", "postcodes": ["EX20 2QX"]}, "geometry": {"type": "Polygon", "coordinates": [[[-3.866247458129042, 50.72439758604575], [-3.862279989961816, 50.723889994738975], [-3.8580599899588393, 50.72435999473938], [-3.856686457547474, 50.72483999720114], [-3.8453668238661622, 50.72298913286435], [-3.8535748244431143, 50.72005987858273], [-3.8577501571215365, 50.71944126064912], [-3.860811557686224, 50.719804884918304], [-3.866247458129042, 50.72439758604575]]]}}, {"type": "Feature", "properties": {"type": "postcode-cell", "postcode": "EX20 2RN", "postcodes": ["EX20 2RN"]}, "geometry": {"type": "Polygon", "coordinates": [[[-3.856410772674279, 50.71680685954955], [-3.8543729158066586, 50.71725410619195], [-3.852822164851833, 50.71651651567846], [-3.856484524676624, 50.716007772100305], [-3.856706281223802, 50.716432524176376], [-3.856410772674279, 50.71680685954955]]]}}, {"type": "Feature", "properties": {"type": "postcode-cell", "postcode": "EX20 2QP", "postcodes": ["EX20 2QP"]}, "geometry": {"type": "Polygon", "coordinates": [[[-3.8563925854437673, 50.717107132569524], [-3.8555382694854727, 50.71785807583006], [-3.855132286856402, 50.71782249896985], [-3.8543729158066586, 50.71725410619195], [-3.856410772674279, 50.71680685954955], [-3.8563925854437673, 50.717107132569524]]]}}, {"type": "Feature", "properties": {"type": "postcode-cell", "postcode": "EX20 2QU", "postcodes": ["EX20 2QU"]}, "geometry": {"type": "Polygon", "coordinates": [[[-3.8577501571215365, 50.71944126064912], [-3.8535748244431143, 50.72005987858273], [-3.855132286856402, 50.71782249896985], [-3.8555382694854727, 50.71785807583006], [-3.856280862888939, 50.71811608446906], [-3.8577501571215365, 50.71944126064912]]]}}, {"type": "Feature", "properties": {"type": "postcode-cell", "postcode": "EX20 2QT", "postcodes": ["EX20 2QT"]}, "geometry": {"type": "Polygon", "coordinates": [[[-3.8543729158066586, 50.71725410619195], [-3.855132286856402, 50.71782249896985], [-3.8535748244431143, 50.72005987858273], [-3.8453668238661622, 50.72298913286435], [-3.844268414131181, 50.72296115673708], [-3.84350101048247, 50.722034123382294], [-3.843445034429777, 50.72021738116073], [-3.8501293025566174, 50.716003584435974], [-3.852822164851833, 50.71651651567846], [-3.8543729158066586, 50.71725410619195]]]}}, {"type": "Feature", "properties": {"type": "postcode-cell", "postcode": "EX20 2QW", "postcodes": ["EX20 2QW"]}, "geometry": {"type": "Polygon", "coordinates": [[[-3.856484524676624, 50.716007772100305], [-3.852822164851833, 50.71651651567846], [-3.8501293025566174, 50.716003584435974], [-3.8533866115376827, 50.71048371201279], [-3.856289265869055, 50.71004938304551], [-3.855659989962736, 50.712529994730026], [-3.8563299899622954, 50.71442999473152], [-3.8558799899615965, 50.71530999473225], [-3.8568122752651925, 50.71552380226366], [-3.856484524676624, 50.716007772100305]]]}}, {"type": "Feature", "properties": {"type": "postcode-cell", "postcode": "TQ13 8JY", "postcodes": ["TQ13 8JY"]}, "geometry": {"type": "Polygon", "coordinates": [[[-3.8468815751749545, 50.695912678062065], [-3.845208483131213, 50.694860628235844], [-3.8452899899644333, 50.69422999471565], [-3.844659989965392, 50.691279994713334], [-3.8471499899680603, 50.689019994711494], [-3.847749989969868, 50.68595999470906], [-3.8487633185420203, 50.684386631211915], [-3.8518635589449874, 50.692027465913675], [-3.8468815751749545, 50.695912678062065]]]}}, {"type": "Feature", "properties": {"type": "postcode-cell", "postcode": "EX17 5DU", "postcodes": ["EX17 5DU"]}, "geometry": {"type": "Polygon", "coordinates": [[[-3.857330059410756, 50.75961842914011], [-3.8494679945881702, 50.75857285422087], [-3.8493495896053433, 50.758486693264786], [-3.8489575898892956, 50.75812301914201], [-3.8466891874503597, 50.752786660659616], [-3.848193373026481, 50.74982537035788], [-3.8577251089520135, 50.752646188831996], [-3.860344474979121, 50.75518470511932], [-3.857330059410756, 50.75961842914011]]]}}, {"type": "Feature", "properties": {"type": "postcode-cell", "postcode": "EX6 6PF", "postcodes": ["EX6 6PF"]}, "geometry": {"type": "Polygon", "coordinates": [[[-3.8501293025566174, 50.716003584435974], [-3.843445034429777, 50.72021738116073], [-3.8378830459018443, 50.71378578102008], [-3.8396967792466663, 50.70833323946052], [-3.8418153703729194, 50.70779209787487], [-3.8533866115376827, 50.71048371201279], [-3.8501293025566174, 50.716003584435974]]]}}, {"type": "Feature", "properties": {"type": "postcode-cell", "postcode": "EX6 6QA", "postcodes": ["EX6 6QA"]}, "geometry": {"type": "Polygon", "coordinates": [[[-3.7393650356156174, 50.705014438305895], [-3.7390799898905818, 50.70474999472556], [-3.737719989889838, 50.70445999472535], [-3.737519989889898, 50.704059994725036], [-3.736459989889306, 50.7038599947249], [-3.73627998988945, 50.70329999472444], [-3.735589989889061, 50.703179994724366], [-3.7356799898894257, 50.702519994723836], [-3.735009989889239, 50.70199999472343], [-3.7352499898895233, 50.70171999472323], [-3.7348799898892975, 50.70168999472318], [-3.7351299898896624, 50.70124999472282], [-3.7336999898892156, 50.70023999472209], [-3.734029989889473, 50.70013999472198], [-3.733469989889432, 50.69945999472146], [-3.7336899898899745, 50.69859999472079], [-3.732249989889792, 50.69699999471953], [-3.7350799898921343, 50.695899994718616], [-3.741789989896644, 50.69551999471822], [-3.7455999898985746, 50.69665999471906], [-3.7456016889579957, 50.696660210366844], [-3.7393650356156174, 50.705014438305895]]]}}, {"type": "Feature", "properties": {"type": "postcode-cell", "postcode": "EX6 6PW", "postcodes": ["EX6 6PW"]}, "geometry": {"type": "Polygon", "coordinates": [[[-3.7909931748534222, 50.69648318216907], [-3.7906757574884553, 50.69664373369571], [-3.7796933204992107, 50.70080187038401], [-3.7719064411704535, 50.69382080949034], [-3.7738299899184753, 50.69316999471587], [-3.7757499899197704, 50.693059994715775], [-3.777099989920453, 50.693469994716054], [-3.77999998992147, 50.695319994717494], [-3.78256998992304, 50.69552999471761], [-3.7837799899241236, 50.6948899947171], [-3.784279989925129, 50.69341999471591], [-3.784939989925845, 50.69280999471541], [-3.7867799899273384, 50.69215999471488], [-3.789369989928721, 50.692799994715344], [-3.791879989929868, 50.69383999471614], [-3.7959470949342085, 50.69329187342007], [-3.7909931748534222, 50.69648318216907]]]}}, {"type": "Feature", "properties": {"type": "postcode-cell", "postcode": "EX17 5ED", "postcodes": ["EX17 5ED"]}, "geometry": {"type": "Polygon", "coordinates": [[[-3.8505613235898943, 50.739940423325855], [-3.846549990668068, 50.74221690190137], [-3.844168309123902, 50.74188124979411], [-3.838116348973499, 50.73967358515238], [-3.83798625270649, 50.73950248019783], [-3.8368701894976436, 50.73059214278264], [-3.8421426449983143, 50.729033672893934], [-3.8510060961222443, 50.73489437778425], [-3.8505613235898943, 50.739940423325855]]]}}, {"type": "Feature", "properties": {"type": "postcode-cell", "postcode": "EX17 5AJ", "postcodes": ["EX17 5AJ"]}, "geometry": {"type": "Polygon", "coordinates": [[[-3.845375989877382, 50.75401306878592], [-3.8452533868271535, 50.75627290955972], [-3.844916951880695, 50.75634576235075], [-3.844425946619538, 50.75633285266923], [-3.8430972771527956, 50.75554892135848], [-3.84335599659594, 50.75524793878313], [-3.845260404187242, 50.75405565483422], [-3.845375989877382, 50.75401306878592]]]}}, {"type": "Feature", "properties": {"type": "postcode-cell", "postcode": "EX17 5DP", "postcodes": ["EX17 5DP"]}, "geometry": {"type": "Polygon", "coordinates": [[[-3.845260404187242, 50.75405565483422], [-3.841038187637427, 50.75457629066681], [-3.839298691792223, 50.754603752419996], [-3.8382596799308164, 50.75041706138621], [-3.8460376757528363, 50.74824761036419], [-3.848193373026481, 50.74982537035788], [-3.8466891874503597, 50.752786660659616], [-3.845375989877382, 50.75401306878592], [-3.845260404187242, 50.75405565483422]]]}}, {"type": "Feature", "properties": {"type": "postcode-cell", "postcode": "EX17 5AW", "postcodes": ["EX17 5AW"]}, "geometry": {"type": "Polygon", "coordinates": [[[-3.861813005334127, 50.7667467045787], [-3.8600299899403376, 50.767259994773546], [-3.8577199899378942, 50.7692799947752], [-3.8550099899348385, 50.77204999477743], [-3.85466998993413, 50.773109994778295], [-3.8548578210540434, 50.7733301761982], [-3.8431507690411526, 50.77384349941906], [-3.84069382472443, 50.77145809416295], [-3.8523684812211445, 50.76472725254288], [-3.857817094964399, 50.763665943261834], [-3.861813005334127, 50.7667467045787]]]}}, {"type": "Feature", "properties": {"type": "postcode-cell", "postcode": "EX17 5AP", "postcodes": ["EX17 5AP"]}, "geometry": {"type": "Polygon", "coordinates": [[[-3.8367760556049357, 50.769846292917265], [-3.8344916238871867, 50.766254622600854], [-3.845640151859321, 50.763240207800344], [-3.8523684812211445, 50.76472725254288], [-3.84069382472443, 50.77145809416295], [-3.8367760556049357, 50.769846292917265]]]}}, {"type": "Feature", "properties": {"type": "postcode-cell", "postcode": "EX17 5AR", "postcodes": ["EX17 5AR"]}, "geometry": {"type": "Polygon", "coordinates": [[[-3.8367760556049357, 50.769846292917265], [-3.84069382472443, 50.77145809416295], [-3.8431507690411526, 50.77384349941906], [-3.8420181273393967, 50.78116986413218], [-3.827089989912574, 50.78065999478468], [-3.8220399899091135, 50.78099999478502], [-3.8225799899097472, 50.78038999478451], [-3.8220999899097166, 50.779779994784036], [-3.822359989910118, 50.77927999478363], [-3.8242899899118874, 50.77817999478271], [-3.8251299899130182, 50.77691999478169], [-3.823993570369612, 50.776075518867486], [-3.8367760556049357, 50.769846292917265]]]}}, {"type": "Feature", "properties": {"type": "postcode-cell", "postcode": "EX17 5AN", "postcodes": ["EX17 5AN"]}, "geometry": {"type": "Polygon", "coordinates": [[[-3.8523684812211445, 50.76472725254288], [-3.845640151859321, 50.763240207800344], [-3.844431478140967, 50.76031438420857], [-3.845642093405581, 50.75973180206648], [-3.8494679945881702, 50.75857285422087], [-3.857330059410756, 50.75961842914011], [-3.857817094964399, 50.763665943261834], [-3.8523684812211445, 50.76472725254288]]]}}, {"type": "Feature", "properties": {"type": "postcode-cell", "postcode": "EX6 6RG", "postcodes": ["EX6 6RG"]}, "geometry": {"type": "Polygon", "coordinates": [[[-3.84350101048247, 50.722034123382294], [-3.828407349996171, 50.721796309059705], [-3.827308197022198, 50.71551018572603], [-3.8378830459018443, 50.71378578102008], [-3.843445034429777, 50.72021738116073], [-3.84350101048247, 50.722034123382294]]]}}, {"type": "Feature", "properties": {"type": "postcode-cell", "postcode": "TQ13 8JP", "postcodes": ["TQ13 8JP"]}, "geometry": {"type": "MultiPolygon", "coordinates": [[[[-3.8469317491437383, 50.69613181021008], [-3.8450283660784543, 50.696254173077385], [-3.845208483131213, 50.694860628235844], [-3.8468815751749545, 50.695912678062065], [-3.8469317491437383, 50.69613181021008]]], [[[-3.8304274555364715, 50.69719176900132], [-3.829034891228821, 50.6962276020111], [-3.8344040150660086, 50.69212991931934], [-3.835549989958681, 50.69293999471478], [-3.8369199899586888, 50.694849994716265], [-3.8386799899595516, 50.69546999471673], [-3.839399989959732, 50.69608999471721], [-3.84142034489741, 50.69648603515753], [-3.8304274555364715, 50.69719176900132]]]]}}, {"type": "Feature", "properties": {"type": "postcode-cell", "postcode": "TQ13 8JX", "postcodes": ["TQ13 8JX"]}, "geometry": {"type": "Polygon", "coordinates": [[[-3.849089735875676, 50.698674012096085], [-3.8418153703729194, 50.70779209787487], [-3.8396967792466663, 50.70833323946052], [-3.837356439883602, 50.70744895740379], [-3.8332696429361843, 50.70368924367038], [-3.833884596178265, 50.70054357875419], [-3.847123143639088, 50.69665241906994], [-3.849089735875676, 50.698674012096085]]]}}, {"type": "Feature", "properties": {"type": "postcode-cell", "postcode": "EX17 5AL", "postcodes": ["EX17 5AL"]}, "geometry": {"type": "Polygon", "coordinates": [[[-3.8489575898892956, 50.75812301914201], [-3.8452533868271535, 50.75627290955972], [-3.845375989877382, 50.75401306878592], [-3.8466891874503597, 50.752786660659616], [-3.8489575898892956, 50.75812301914201]]]}}, {"type": "Feature", "properties": {"type": "postcode-cell", "postcode": "EX17 5AB", "postcodes": ["EX17 5AB"]}, "geometry": {"type": "Polygon", "coordinates": [[[-3.8452533868271535, 50.75627290955972], [-3.8489575898892956, 50.75812301914201], [-3.8493495896053433, 50.758486693264786], [-3.844040174443701, 50.7574564588528], [-3.844916951880695, 50.75634576235075], [-3.8452533868271535, 50.75627290955972]]]}}, {"type": "Feature", "properties": {"type": "postcode-cell", "postcode": "EX17 5DX", "postcodes": ["EX17 5DX"]}, "geometry": {"type": "Polygon", "coordinates": [[[-3.84335599659594, 50.75524793878313], [-3.841038187637427, 50.75457629066681], [-3.845260404187242, 50.75405565483422], [-3.84335599659594, 50.75524793878313]]]}}, {"type": "Feature", "properties": {"type": "postcode-cell", "postcode": "EX17 5DR", "postcodes": ["EX17 5DR"]}, "geometry": {"type": "Polygon", "coordinates": [[[-3.8494679945881702, 50.75857285422087], [-3.845642093405581, 50.75973180206648], [-3.843352792952971, 50.757610104449036], [-3.844040174443701, 50.7574564588528], [-3.8493495896053433, 50.758486693264786], [-3.8494679945881702, 50.75857285422087]]]}}, {"type": "Feature", "properties": {"type": "postcode-cell", "postcode": "EX17 5AE", "postcodes": ["EX17 5AE"]}, "geometry": {"type": "Polygon", "coordinates": [[[-3.829588685134258, 50.76200993998031], [-3.8344916238871867, 50.766254622600854], [-3.8367760556049357, 50.769846292917265], [-3.823993570369612, 50.776075518867486], [-3.822949989912342, 50.775299994780454], [-3.822589989912841, 50.773709994779196], [-3.8216799899124925, 50.77317999477877], [-3.8206099899124863, 50.7716799947776], [-3.819719989912996, 50.769319994775735], [-3.8160899899131744, 50.763799994771375], [-3.815019989912617, 50.763489994771135], [-3.813039989911892, 50.76225999477017], [-3.813859989912901, 50.76123999476936], [-3.8144999899133234, 50.76122999476932], [-3.814729989913637, 50.760879994769056], [-3.8113199899118166, 50.759999994768386], [-3.8073799899092564, 50.759979994768436], [-3.807369989909042, 50.76042999476879], [-3.8062299899086254, 50.759719994768254], [-3.8058399899087, 50.75900999476767], [-3.8067299899093094, 50.75894999476762], [-3.806869989909243, 50.7592899947679], [-3.807659989909795, 50.75920999476782], [-3.807689989909916, 50.758989994767624], [-3.8082999899102137, 50.75920999476781], [-3.8090299899109015, 50.75874999476744], [-3.810029989911503, 50.75885999476749], [-3.810729989912102, 50.75854999476724], [-3.810959989912074, 50.75893999476755], [-3.8119599899127534, 50.7588799947675], [-3.811999989912922, 50.75856999476725], [-3.8124499899132034, 50.758599994767266], [-3.812039989913003, 50.75844999476715], [-3.8122999899132655, 50.75824999476698], [-3.8130799899137293, 50.758349994767045], [-3.812759989913601, 50.75817999476692], [-3.8130899899139727, 50.75783999476665], [-3.8140699899145805, 50.757909994766685], [-3.814025806282041, 50.75786428786046], [-3.829588685134258, 50.76200993998031]]]}}, {"type": "Feature", "properties": {"type": "postcode-cell", "postcode": "EX17 5AG", "postcodes": ["EX17 5AG"]}, "geometry": {"type": "Polygon", "coordinates": [[[-3.843352792952971, 50.757610104449036], [-3.8425189754604587, 50.75749764877298], [-3.8426486571335055, 50.75674758678094], [-3.844425946619538, 50.75633285266923], [-3.844916951880695, 50.75634576235075], [-3.844040174443701, 50.7574564588528], [-3.843352792952971, 50.757610104449036]]]}}, {"type": "Feature", "properties": {"type": "postcode-cell", "postcode": "EX17 5BH", "postcodes": ["EX17 5BH"]}, "geometry": {"type": "Polygon", "coordinates": [[[-3.844431478140967, 50.76031438420857], [-3.8376174862508408, 50.759999825352985], [-3.8425189754604587, 50.75749764877298], [-3.843352792952971, 50.757610104449036], [-3.845642093405581, 50.75973180206648], [-3.844431478140967, 50.76031438420857]]]}}, {"type": "Feature", "properties": {"type": "postcode-cell", "postcode": "EX17 5AQ", "postcodes": ["EX17 5AQ"]}, "geometry": {"type": "Polygon", "coordinates": [[[-3.8420497796313167, 50.756003565615565], [-3.8430972771527956, 50.75554892135848], [-3.844425946619538, 50.75633285266923], [-3.8426486571335055, 50.75674758678094], [-3.8420497796313167, 50.756003565615565]]]}}, {"type": "Feature", "properties": {"type": "postcode-cell", "postcode": "EX17 5AH", "postcodes": ["EX17 5AH"]}, "geometry": {"type": "Polygon", "coordinates": [[[-3.8426486571335055, 50.75674758678094], [-3.8425189754604587, 50.75749764877298], [-3.8376174862508408, 50.759999825352985], [-3.8338102460072196, 50.760458630224015], [-3.839151296037279, 50.75523847184641], [-3.8420497796313167, 50.756003565615565], [-3.8426486571335055, 50.75674758678094]]]}}, {"type": "Feature", "properties": {"type": "postcode-cell", "postcode": "EX17 5DY", "postcodes": ["EX17 5DY"]}, "geometry": {"type": "Polygon", "coordinates": [[[-3.8420497796313167, 50.756003565615565], [-3.839151296037279, 50.75523847184641], [-3.839298691792223, 50.754603752419996], [-3.841038187637427, 50.75457629066681], [-3.84335599659594, 50.75524793878313], [-3.8430972771527956, 50.75554892135848], [-3.8420497796313167, 50.756003565615565]]]}}, {"type": "Feature", "properties": {"type": "postcode-cell", "postcode": "EX17 5AF", "postcodes": ["EX17 5AF"]}, "geometry": {"type": "Polygon", "coordinates": [[[-3.845640151859321, 50.763240207800344], [-3.8344916238871867, 50.766254622600854], [-3.829588685134258, 50.76200993998031], [-3.8338102460072196, 50.760458630224015], [-3.8376174862508408, 50.759999825352985], [-3.844431478140967, 50.76031438420857], [-3.845640151859321, 50.763240207800344]]]}}, {"type": "Feature", "properties": {"type": "postcode-cell", "postcode": "EX17 5AU", "postcodes": ["EX17 5AU"]}, "geometry": {"type": "Polygon", "coordinates": [[[-3.839151296037279, 50.75523847184641], [-3.8338102460072196, 50.760458630224015], [-3.829588685134258, 50.76200993998031], [-3.814025806282041, 50.75786428786046], [-3.813779989914531, 50.75760999476646], [-3.8144599899150426, 50.757459994766336], [-3.8148399899155767, 50.75683999476583], [-3.8168999899171494, 50.75634999476541], [-3.816849989917349, 50.755849994765015], [-3.8180699899185027, 50.755079994764394], [-3.8178199899184406, 50.75485999476421], [-3.818309989918755, 50.7548699947642], [-3.818079989918818, 50.75440999476386], [-3.8185699899191423, 50.75439999476384], [-3.8183399899191697, 50.75401999476353], [-3.8188699899195564, 50.75392999476347], [-3.8187099899198174, 50.75313999476286], [-3.8191499899201435, 50.75305999476277], [-3.8197499899211667, 50.75168999476167], [-3.8207099899220887, 50.75104999476114], [-3.8206099899222843, 50.750489994760706], [-3.821199989922767, 50.75027999476053], [-3.820989989922741, 50.75003999476033], [-3.821409989922962, 50.750159994760416], [-3.821685970394122, 50.74972762572419], [-3.8382596799308164, 50.75041706138621], [-3.839298691792223, 50.754603752419996], [-3.839151296037279, 50.75523847184641]]]}}, {"type": "Feature", "properties": {"type": "postcode-cell", "postcode": "EX6 6RQ", "postcodes": ["EX6 6RQ"]}, "geometry": {"type": "Polygon", "coordinates": [[[-3.8421426449983143, 50.729033672893934], [-3.8368701894976436, 50.73059214278264], [-3.8342314520090235, 50.730802237689886], [-3.8338499899401555, 50.73054999474464], [-3.8318399899400974, 50.72783999474253], [-3.8275299899367026, 50.72909999474359], [-3.825449989934797, 50.73027999474456], [-3.822489989934674, 50.72637999474149], [-3.8221315476780258, 50.72569694666932], [-3.828407349996171, 50.721796309059705], [-3.84350101048247, 50.722034123382294], [-3.844268414131181, 50.72296115673708], [-3.8421426449983143, 50.729033672893934]]]}}, {"type": "Feature", "properties": {"type": "postcode-cell", "postcode": "EX17 5EB", "postcodes": ["EX17 5EB"]}, "geometry": {"type": "Polygon", "coordinates": [[[-3.8460376757528363, 50.74824761036419], [-3.8382596799308164, 50.75041706138621], [-3.821685970394122, 50.74972762572419], [-3.821709989923373, 50.74968999476004], [-3.8221999899236967, 50.74967999476003], [-3.8226799899243153, 50.7490199947595], [-3.8225528343547452, 50.74837150689235], [-3.844168309123902, 50.74188124979411], [-3.846549990668068, 50.74221690190137], [-3.8460376757528363, 50.74824761036419]]]}}, {"type": "Feature", "properties": {"type": "postcode-cell", "postcode": "TQ13 8JT", "postcodes": ["TQ13 8JT"]}, "geometry": {"type": "Polygon", "coordinates": [[[-3.847123143639088, 50.69665241906994], [-3.833884596178265, 50.70054357875419], [-3.8304274555364715, 50.69719176900132], [-3.84142034489741, 50.69648603515753], [-3.8449099899628245, 50.69716999471799], [-3.8450283660784543, 50.696254173077385], [-3.8469317491437383, 50.69613181021008], [-3.847123143639088, 50.69665241906994]]]}}, {"type": "Feature", "properties": {"type": "postcode-cell", "postcode": "EX17 5EG", "postcodes": ["EX17 5EG"]}, "geometry": {"type": "Polygon", "coordinates": [[[-3.83798625270649, 50.73950248019783], [-3.829490372474588, 50.73571829056171], [-3.830629989935981, 50.73502999474826], [-3.831189989936356, 50.73500999474823], [-3.832149989937436, 50.734029994747445], [-3.8338099899387545, 50.733519994747006], [-3.8362999899410086, 50.73216999474591], [-3.8342314520090235, 50.730802237689886], [-3.8368701894976436, 50.73059214278264], [-3.83798625270649, 50.73950248019783]]]}}, {"type": "Feature", "properties": {"type": "postcode-cell", "postcode": "TQ13 8JW", "postcodes": ["TQ13 8JW"]}, "geometry": {"type": "Polygon", "coordinates": [[[-3.829034891228821, 50.6962276020111], [-3.828659889990306, 50.696239873049464], [-3.820488219928755, 50.68960132310061], [-3.8204231965358253, 50.689121583049015], [-3.8207099899508212, 50.689059994711926], [-3.823949989952873, 50.689179994711964], [-3.8259699899538404, 50.68992999471253], [-3.8279499899551372, 50.68990999471249], [-3.8292299899556106, 50.69068999471307], [-3.8314299899570514, 50.69066999471304], [-3.833039989957666, 50.69160999471375], [-3.8338099899581195, 50.69170999471382], [-3.8344040150660086, 50.69212991931934], [-3.829034891228821, 50.6962276020111]]]}}, {"type": "Feature", "properties": {"type": "postcode-cell", "postcode": "EX17 5EF", "postcodes": ["EX17 5EF"]}, "geometry": {"type": "Polygon", "coordinates": [[[-3.844168309123902, 50.74188124979411], [-3.8225528343547452, 50.74837150689235], [-3.822479989924658, 50.74799999475869], [-3.822859989925024, 50.747739994758476], [-3.8230699899261578, 50.745589994756756], [-3.824569989927919, 50.743899994755395], [-3.824229989927991, 50.743259994754894], [-3.8247738033121146, 50.74247690882545], [-3.838116348973499, 50.73967358515238], [-3.844168309123902, 50.74188124979411]]]}}, {"type": "Feature", "properties": {"type": "postcode-cell", "postcode": "EX6 6RF", "postcodes": ["EX6 6RF"]}, "geometry": {"type": "Polygon", "coordinates": [[[-3.8378830459018443, 50.71378578102008], [-3.827308197022198, 50.71551018572603], [-3.821110051373988, 50.71329132521523], [-3.8206844615414024, 50.711012173525546], [-3.821576242347095, 50.710025082265425], [-3.837356439883602, 50.70744895740379], [-3.8396967792466663, 50.70833323946052], [-3.8378830459018443, 50.71378578102008]]]}}, {"type": "Feature", "properties": {"type": "postcode-cell", "postcode": "EX17 5EE", "postcodes": ["EX17 5EE"]}, "geometry": {"type": "Polygon", "coordinates": [[[-3.838116348973499, 50.73967358515238], [-3.8247738033121146, 50.74247690882545], [-3.8249799899289822, 50.74217999475402], [-3.824699989929105, 50.741519994753496], [-3.8250699899295073, 50.741169994753214], [-3.824709989929339, 50.74102999475311], [-3.8273199899321404, 50.73865999475121], [-3.828609989934098, 50.73624999474926], [-3.829490372474588, 50.73571829056171], [-3.83798625270649, 50.73950248019783], [-3.838116348973499, 50.73967358515238]]]}}, {"type": "Feature", "properties": {"type": "postcode-cell", "postcode": "EX6 6RE", "postcodes": ["EX6 6RE"]}, "geometry": {"type": "Polygon", "coordinates": [[[-3.828407349996171, 50.721796309059705], [-3.8221315476780258, 50.72569694666932], [-3.8214299899349187, 50.72435999473991], [-3.822129989935902, 50.72321999473898], [-3.819879989935461, 50.72100999473726], [-3.8196099899361613, 50.71911999473577], [-3.818599989936505, 50.71695999473405], [-3.8160213059138792, 50.71682818845522], [-3.821110051373988, 50.71329132521523], [-3.827308197022198, 50.71551018572603], [-3.828407349996171, 50.721796309059705]]]}}, {"type": "Feature", "properties": {"type": "postcode-cell", "postcode": "TQ13 8JU", "postcodes": ["TQ13 8JU"]}, "geometry": {"type": "Polygon", "coordinates": [[[-3.8332696429361843, 50.70368924367038], [-3.821953895595398, 50.70325960193019], [-3.8190651579261647, 50.700533140167735], [-3.819112018122388, 50.70024026154618], [-3.828659889990306, 50.696239873049464], [-3.829034891228821, 50.6962276020111], [-3.8304274555364715, 50.69719176900132], [-3.833884596178265, 50.70054357875419], [-3.8332696429361843, 50.70368924367038]]]}}, {"type": "Feature", "properties": {"type": "postcode-cell", "postcode": "EX6 6PE", "postcodes": ["EX6 6PE"]}, "geometry": {"type": "Polygon", "coordinates": [[[-3.821576242347095, 50.710025082265425], [-3.821953895595398, 50.70325960193019], [-3.8332696429361843, 50.70368924367038], [-3.837356439883602, 50.70744895740379], [-3.821576242347095, 50.710025082265425]]]}}, {"type": "Feature", "properties": {"type": "postcode-cell", "postcode": "TQ13 8JR", "postcodes": ["TQ13 8JR"]}, "geometry": {"type": "Polygon", "coordinates": [[[-3.819112018122388, 50.70024026154618], [-3.816065015452313, 50.697057170804854], [-3.820488219928755, 50.68960132310061], [-3.828659889990306, 50.696239873049464], [-3.819112018122388, 50.70024026154618]]]}}, {"type": "Feature", "properties": {"type": "postcode-cell", "postcode": "TQ13 8DF", "postcodes": ["TQ13 8DF"]}, "geometry": {"type": "Polygon", "coordinates": [[[-3.820488219928755, 50.68960132310061], [-3.816065015452313, 50.697057170804854], [-3.802252442092017, 50.69367215249529], [-3.803319989937388, 50.69363999471582], [-3.8072799899394516, 50.69473999471661], [-3.8089199899408626, 50.69399999471601], [-3.809739989942052, 50.69257999471487], [-3.8116199899439986, 50.691019994713606], [-3.812819989945207, 50.69009999471287], [-3.8158199899471543, 50.69010999471282], [-3.8204231965358253, 50.689121583049015], [-3.820488219928755, 50.68960132310061]]]}}, {"type": "Feature", "properties": {"type": "postcode-cell", "postcode": "EX6 6PD", "postcodes": ["EX6 6PD"]}, "geometry": {"type": "Polygon", "coordinates": [[[-3.821953895595398, 50.70325960193019], [-3.821576242347095, 50.710025082265425], [-3.8206844615414024, 50.711012173525546], [-3.8071238082545023, 50.70780751371441], [-3.8084834724158076, 50.70425724369823], [-3.8190651579261647, 50.700533140167735], [-3.821953895595398, 50.70325960193019]]]}}, {"type": "Feature", "properties": {"type": "postcode-cell", "postcode": "EX6 6NW", "postcodes": ["EX6 6NW"]}, "geometry": {"type": "Polygon", "coordinates": [[[-3.7762174662070707, 50.718704635488656], [-3.7786851904699583, 50.718430082843554], [-3.782448026661164, 50.71910892662858], [-3.788672090578918, 50.72088702928469], [-3.783529989910962, 50.72282999473923], [-3.7770233462357887, 50.7246124793699], [-3.7762174662070707, 50.718704635488656]]]}}, {"type": "Feature", "properties": {"type": "postcode-cell", "postcode": "EX6 6NR", "postcodes": ["EX6 6NR"]}, "geometry": {"type": "Polygon", "coordinates": [[[-3.7868532765237384, 50.71348620506771], [-3.782448026661164, 50.71910892662858], [-3.7786851904699583, 50.718430082843554], [-3.7865085355777475, 50.713313464417915], [-3.7868532765237384, 50.71348620506771]]]}}, {"type": "Feature", "properties": {"type": "postcode-cell", "postcode": "EX6 6NL", "postcodes": ["EX6 6NL"]}, "geometry": {"type": "Polygon", "coordinates": [[[-3.7865085355777475, 50.713313464417915], [-3.7855838558974115, 50.71244218295729], [-3.786965724762367, 50.70785022935529], [-3.7986830622740917, 50.708353454477034], [-3.8022398264762325, 50.710262332994], [-3.800273389529624, 50.7173532736699], [-3.7998899899241163, 50.71740999473471], [-3.7972760231596796, 50.71808699110519], [-3.7868532765237384, 50.71348620506771], [-3.7865085355777475, 50.713313464417915]]]}}, {"type": "Feature", "properties": {"type": "postcode-cell", "postcode": "EX6 6RD", "postcodes": ["EX6 6RD"]}, "geometry": {"type": "Polygon", "coordinates": [[[-3.8160213059138792, 50.71682818845522], [-3.809409989930735, 50.71648999473382], [-3.8038099899269326, 50.716829994734184], [-3.800273389529624, 50.7173532736699], [-3.8022398264762325, 50.710262332994], [-3.8071238082545023, 50.70780751371441], [-3.8206844615414024, 50.711012173525546], [-3.821110051373988, 50.71329132521523], [-3.8160213059138792, 50.71682818845522]]]}}, {"type": "Feature", "properties": {"type": "postcode-cell", "postcode": "EX6 6NS", "postcodes": ["EX6 6NS"]}, "geometry": {"type": "Polygon", "coordinates": [[[-3.782448026661164, 50.71910892662858], [-3.7868532765237384, 50.71348620506771], [-3.7972760231596796, 50.71808699110519], [-3.7934799899191773, 50.7190699947361], [-3.788672090578918, 50.72088702928469], [-3.782448026661164, 50.71910892662858]]]}}, {"type": "Feature", "properties": {"type": "postcode-cell", "postcode": "EX6 6PB", "postcodes": ["EX6 6PB"]}, "geometry": {"type": "Polygon", "coordinates": [[[-3.8084834724158076, 50.70425724369823], [-3.7981821978502035, 50.695663245228786], [-3.796854244219282, 50.6931695964149], [-3.7987799899347783, 50.69290999471529], [-3.8016599899362857, 50.69368999471587], [-3.802252442092017, 50.69367215249529], [-3.816065015452313, 50.697057170804854], [-3.819112018122388, 50.70024026154618], [-3.8190651579261647, 50.700533140167735], [-3.8084834724158076, 50.70425724369823]]]}}, {"type": "Feature", "properties": {"type": "postcode-cell", "postcode": "EX6 6PA", "postcodes": ["EX6 6PA"]}, "geometry": {"type": "Polygon", "coordinates": [[[-3.7975745013194304, 50.70642239636721], [-3.7965956346423657, 50.70412275518062], [-3.7966811130908216, 50.703305904168936], [-3.7981821978502035, 50.695663245228786], [-3.8084834724158076, 50.70425724369823], [-3.8071238082545023, 50.70780751371441], [-3.8022398264762325, 50.710262332994], [-3.7986830622740917, 50.708353454477034], [-3.7975745013194304, 50.70642239636721]]]}}, {"type": "Feature", "properties": {"type": "postcode-cell", "postcode": "EX6 6RB", "postcodes": ["EX6 6RB"]}, "geometry": {"type": "Polygon", "coordinates": [[[-3.7986830622740917, 50.708353454477034], [-3.786965724762367, 50.70785022935529], [-3.7867740932711507, 50.70758226993233], [-3.787697599312168, 50.70676365125223], [-3.78887530798508, 50.70598897686633], [-3.7905045471119854, 50.70508332849925], [-3.7906224282237146, 50.70506984169219], [-3.7975745013194304, 50.70642239636721], [-3.7986830622740917, 50.708353454477034]]]}}, {"type": "Feature", "properties": {"type": "postcode-cell", "postcode": "EX6 6QW", "postcodes": ["EX6 6QW"]}, "geometry": {"type": "Polygon", "coordinates": [[[-3.7981821978502035, 50.695663245228786], [-3.7966811130908216, 50.703305904168936], [-3.79235435619407, 50.703294573844026], [-3.7911943356985702, 50.70171869764314], [-3.791192813718554, 50.70171561748893], [-3.7909931748534222, 50.69648318216907], [-3.7959470949342085, 50.69329187342007], [-3.796854244219282, 50.6931695964149], [-3.7981821978502035, 50.695663245228786]]]}}, {"type": "Feature", "properties": {"type": "postcode-cell", "postcode": "EX6 6QR", "postcodes": ["EX6 6QR"]}, "geometry": {"type": "Polygon", "coordinates": [[[-3.792001465469651, 50.70366146646183], [-3.79235435619407, 50.703294573844026], [-3.7966811130908216, 50.703305904168936], [-3.7965956346423657, 50.70412275518062], [-3.793694514426469, 50.70426256248178], [-3.792001465469651, 50.70366146646183]]]}}, {"type": "Feature", "properties": {"type": "postcode-cell", "postcode": "EX6 6QS", "postcodes": ["EX6 6QS"]}, "geometry": {"type": "Polygon", "coordinates": [[[-3.793694514426469, 50.70426256248178], [-3.7906224282237146, 50.70506984169219], [-3.7905045471119854, 50.70508332849925], [-3.790843868866358, 50.70400227007741], [-3.7918404568066255, 50.70365442856843], [-3.792001465469651, 50.70366146646183], [-3.793694514426469, 50.70426256248178]]]}}, {"type": "Feature", "properties": {"type": "postcode-cell", "postcode": "EX6 6QZ", "postcodes": ["EX6 6QZ"]}, "geometry": {"type": "Polygon", "coordinates": [[[-3.7975745013194304, 50.70642239636721], [-3.7906224282237146, 50.70506984169219], [-3.793694514426469, 50.70426256248178], [-3.7965956346423657, 50.70412275518062], [-3.7975745013194304, 50.70642239636721]]]}}, {"type": "Feature", "properties": {"type": "postcode-cell", "postcode": "EX6 6QN", "postcodes": ["EX6 6QN"]}, "geometry": {"type": "Polygon", "coordinates": [[[-3.7911943356985702, 50.70171869764314], [-3.7918404568066255, 50.70365442856843], [-3.790843868866358, 50.70400227007741], [-3.790585714945784, 50.703581706011704], [-3.791192813718554, 50.70171561748893], [-3.7911943356985702, 50.70171869764314]]]}}, {"type": "Feature", "properties": {"type": "postcode-cell", "postcode": "EX6 6QP", "postcodes": ["EX6 6QP"]}, "geometry": {"type": "Polygon", "coordinates": [[[-3.792001465469651, 50.70366146646183], [-3.7918404568066255, 50.70365442856843], [-3.7911943356985702, 50.70171869764314], [-3.79235435619407, 50.703294573844026], [-3.792001465469651, 50.70366146646183]]]}}, {"type": "Feature", "properties": {"type": "postcode-cell", "postcode": "EX6 6QU", "postcodes": ["EX6 6QU"]}, "geometry": {"type": "Polygon", "coordinates": [[[-3.790843868866358, 50.70400227007741], [-3.7905045471119854, 50.70508332849925], [-3.78887530798508, 50.70598897686633], [-3.7895459356594667, 50.70342624362668], [-3.790585714945784, 50.703581706011704], [-3.790843868866358, 50.70400227007741]]]}}, {"type": "Feature", "properties": {"type": "postcode-cell", "postcode": "EX6 6QT", "postcodes": ["EX6 6QT"]}, "geometry": {"type": "Polygon", "coordinates": [[[-3.791192813718554, 50.70171561748893], [-3.790585714945784, 50.703581706011704], [-3.7895459356594667, 50.70342624362668], [-3.7887058056223646, 50.702900270280075], [-3.7887016111797736, 50.70275744221989], [-3.7906757574884553, 50.69664373369571], [-3.7909931748534222, 50.69648318216907], [-3.791192813718554, 50.70171561748893]]]}}, {"type": "Feature", "properties": {"type": "postcode-cell", "postcode": "EX6 6AT", "postcodes": ["EX6 6AT"]}, "geometry": {"type": "Polygon", "coordinates": [[[-3.7887058056223646, 50.702900270280075], [-3.7885712102497, 50.70308866472323], [-3.7818848502999947, 50.70511842457173], [-3.7811486488905053, 50.704783469919256], [-3.7809754142548533, 50.704258398582745], [-3.7887016111797736, 50.70275744221989], [-3.7887058056223646, 50.702900270280075]]]}}, {"type": "Feature", "properties": {"type": "postcode-cell", "postcode": "EX6 6QX", "postcodes": ["EX6 6QX"]}, "geometry": {"type": "Polygon", "coordinates": [[[-3.7895459356594667, 50.70342624362668], [-3.78887530798508, 50.70598897686633], [-3.787697599312168, 50.70676365125223], [-3.7885712102497, 50.70308866472323], [-3.7887058056223646, 50.702900270280075], [-3.7895459356594667, 50.70342624362668]]]}}, {"type": "Feature", "properties": {"type": "postcode-cell", "postcode": "EX6 6QY", "postcodes": ["EX6 6QY"]}, "geometry": {"type": "Polygon", "coordinates": [[[-3.7867740932711507, 50.70758226993233], [-3.7818848502999947, 50.70511842457173], [-3.7885712102497, 50.70308866472323], [-3.787697599312168, 50.70676365125223], [-3.7867740932711507, 50.70758226993233]]]}}, {"type": "Feature", "properties": {"type": "postcode-cell", "postcode": "EX6 6NJ", "postcodes": ["EX6 6NJ"]}, "geometry": {"type": "Polygon", "coordinates": [[[-3.786965724762367, 50.70785022935529], [-3.7855838558974115, 50.71244218295729], [-3.7780308187868776, 50.71216406663982], [-3.776421359486995, 50.710466523879155], [-3.776347159687242, 50.70780636823254], [-3.7811486488905053, 50.704783469919256], [-3.7818848502999947, 50.70511842457173], [-3.7867740932711507, 50.70758226993233], [-3.786965724762367, 50.70785022935529]]]}}, {"type": "Feature", "properties": {"type": "postcode-cell", "postcode": "EX6 6PN", "postcodes": ["EX6 6PN"]}, "geometry": {"type": "Polygon", "coordinates": [[[-3.7887016111797736, 50.70275744221989], [-3.7809754142548533, 50.704258398582745], [-3.779620344451501, 50.70094180019654], [-3.7796933204992107, 50.70080187038401], [-3.7906757574884553, 50.69664373369571], [-3.7887016111797736, 50.70275744221989]]]}}, {"type": "Feature", "properties": {"type": "postcode-cell", "postcode": "EX6 6NP", "postcodes": ["EX6 6NP"]}, "geometry": {"type": "Polygon", "coordinates": [[[-3.7865085355777475, 50.713313464417915], [-3.7786851904699583, 50.718430082843554], [-3.7762174662070707, 50.718704635488656], [-3.774734205545365, 50.717824851738], [-3.7739584305050564, 50.71624711172155], [-3.7780308187868776, 50.71216406663982], [-3.7855838558974115, 50.71244218295729], [-3.7865085355777475, 50.713313464417915]]]}}, {"type": "Feature", "properties": {"type": "postcode-cell", "postcode": "EX6 6PT", "postcodes": ["EX6 6PT"]}, "geometry": {"type": "Polygon", "coordinates": [[[-3.7811486488905053, 50.704783469919256], [-3.776347159687242, 50.70780636823254], [-3.767774800122295, 50.70580574464237], [-3.769910414260339, 50.70287966455628], [-3.779620344451501, 50.70094180019654], [-3.7809754142548533, 50.704258398582745], [-3.7811486488905053, 50.704783469919256]]]}}, {"type": "Feature", "properties": {"type": "postcode-cell", "postcode": "EX6 6NG", "postcodes": ["EX6 6NG"]}, "geometry": {"type": "Polygon", "coordinates": [[[-3.7770233462357887, 50.7246124793699], [-3.766259989897547, 50.72755999474322], [-3.7658899898981133, 50.725829994741865], [-3.764209989896955, 50.725979994742], [-3.7619699898961625, 50.72455999474091], [-3.761535147754599, 50.72446819992168], [-3.7686199286670434, 50.720063608942226], [-3.774734205545365, 50.717824851738], [-3.7762174662070707, 50.718704635488656], [-3.7770233462357887, 50.7246124793699]]]}}, {"type": "Feature", "properties": {"type": "postcode-cell", "postcode": "EX6 6NQ", "postcodes": ["EX6 6NQ"]}, "geometry": {"type": "Polygon", "coordinates": [[[-3.7739584305050564, 50.71624711172155], [-3.768696326101759, 50.71458221504705], [-3.7676364550995163, 50.714142824908215], [-3.7665877532742935, 50.713555090507185], [-3.767960133872304, 50.710999081004445], [-3.776421359486995, 50.710466523879155], [-3.7780308187868776, 50.71216406663982], [-3.7739584305050564, 50.71624711172155]]]}}, {"type": "Feature", "properties": {"type": "postcode-cell", "postcode": "EX6 6NH", "postcodes": ["EX6 6NH"]}, "geometry": {"type": "Polygon", "coordinates": [[[-3.776347159687242, 50.70780636823254], [-3.776421359486995, 50.710466523879155], [-3.767960133872304, 50.710999081004445], [-3.7664919646652497, 50.706343196198766], [-3.767774800122295, 50.70580574464237], [-3.776347159687242, 50.70780636823254]]]}}, {"type": "Feature", "properties": {"type": "postcode-cell", "postcode": "EX6 6PR", "postcodes": ["EX6 6PR"]}, "geometry": {"type": "Polygon", "coordinates": [[[-3.779620344451501, 50.70094180019654], [-3.769910414260339, 50.70287966455628], [-3.7616081569163793, 50.69322372258889], [-3.761649989910562, 50.69321999471609], [-3.768479989914163, 50.69497999471739], [-3.7719064411704535, 50.69382080949034], [-3.7796933204992107, 50.70080187038401], [-3.779620344451501, 50.70094180019654]]]}}, {"type": "Feature", "properties": {"type": "postcode-cell", "postcode": "EX6 6NA", "postcodes": ["EX6 6NA"]}, "geometry": {"type": "Polygon", "coordinates": [[[-3.7739584305050564, 50.71624711172155], [-3.774734205545365, 50.717824851738], [-3.7686199286670434, 50.720063608942226], [-3.7674342580235134, 50.718340405205275], [-3.7674655925963054, 50.71778333315807], [-3.768696326101759, 50.71458221504705], [-3.7739584305050564, 50.71624711172155]]]}}, {"type": "Feature", "properties": {"type": "postcode-cell", "postcode": "EX6 6PY", "postcodes": ["EX6 6PY"]}, "geometry": {"type": "Polygon", "coordinates": [[[-3.757176334611905, 50.70267479684731], [-3.7396447249666713, 50.70527390902263], [-3.7393650356156174, 50.705014438305895], [-3.7456016889579957, 50.696660210366844], [-3.7495399899008874, 50.6971599947194], [-3.7526699899033, 50.69632999471869], [-3.753439989904742, 50.694309994717074], [-3.7567399899066354, 50.69482999471745], [-3.758479989907946, 50.69442999471708], [-3.7606399899098673, 50.69330999471618], [-3.7610323487730892, 50.69327503312367], [-3.757176334611905, 50.70267479684731]]]}}, {"type": "Feature", "properties": {"type": "postcode-cell", "postcode": "EX6 6NB", "postcodes": ["EX6 6NB"]}, "geometry": {"type": "Polygon", "coordinates": [[[-3.768696326101759, 50.71458221504705], [-3.7674655925963054, 50.71778333315807], [-3.766343205461258, 50.71771577268809], [-3.766173200129428, 50.717642435770486], [-3.7661256502589886, 50.71750074419203], [-3.7676364550995163, 50.714142824908215], [-3.768696326101759, 50.71458221504705]]]}}, {"type": "Feature", "properties": {"type": "postcode-cell", "postcode": "EX6 6PS", "postcodes": ["EX6 6PS"]}, "geometry": {"type": "Polygon", "coordinates": [[[-3.767774800122295, 50.70580574464237], [-3.7664919646652497, 50.706343196198766], [-3.760863572694874, 50.70597194750594], [-3.757176334611905, 50.70267479684731], [-3.7610323487730892, 50.69327503312367], [-3.7616081569163793, 50.69322372258889], [-3.769910414260339, 50.70287966455628], [-3.767774800122295, 50.70580574464237]]]}}, {"type": "Feature", "properties": {"type": "postcode-cell", "postcode": "EX6 6NF", "postcodes": ["EX6 6NF"]}, "geometry": {"type": "Polygon", "coordinates": [[[-3.7670703005824495, 50.71821012369829], [-3.766343205461258, 50.71771577268809], [-3.7674655925963054, 50.71778333315807], [-3.7674342580235134, 50.718340405205275], [-3.7670703005824495, 50.71821012369829]]]}}, {"type": "Feature", "properties": {"type": "postcode-cell", "postcode": "EX6 6NT", "postcodes": ["EX6 6NT"]}, "geometry": {"type": "Polygon", "coordinates": [[[-3.7674342580235134, 50.718340405205275], [-3.7686199286670434, 50.720063608942226], [-3.761535147754599, 50.72446819992168], [-3.7592699898946753, 50.723989994740506], [-3.7590360813636754, 50.72380177596084], [-3.7659062447139657, 50.718146673547935], [-3.7670703005824495, 50.71821012369829], [-3.7674342580235134, 50.718340405205275]]]}}, {"type": "Feature", "properties": {"type": "postcode-cell", "postcode": "EX6 6NY", "postcodes": ["EX6 6NY"]}, "geometry": {"type": "Polygon", "coordinates": [[[-3.7661256502589886, 50.71750074419203], [-3.766173200129428, 50.717642435770486], [-3.7659062447139657, 50.718146673547935], [-3.7590360813636754, 50.72380177596084], [-3.757989989894327, 50.722959994739696], [-3.7569699898938005, 50.7226699947395], [-3.75686998989445, 50.721139994738266], [-3.755009989893798, 50.719949994737355], [-3.7554286939542916, 50.71937311416435], [-3.7661256502589886, 50.71750074419203]]]}}, {"type": "Feature", "properties": {"type": "postcode-cell", "postcode": "EX6 6ND", "postcodes": ["EX6 6ND"]}, "geometry": {"type": "Polygon", "coordinates": [[[-3.7661256502589886, 50.71750074419203], [-3.7554286939542916, 50.71937311416435], [-3.755459989894379, 50.719329994736846], [-3.755329989894971, 50.71787999473571], [-3.753669989894747, 50.71604999473428], [-3.7525250540753134, 50.71527211124038], [-3.7665877532742935, 50.713555090507185], [-3.7676364550995163, 50.714142824908215], [-3.7661256502589886, 50.71750074419203]]]}}, {"type": "Feature", "properties": {"type": "postcode-cell", "postcode": "EX6 6NE", "postcodes": ["EX6 6NE"]}, "geometry": {"type": "Polygon", "coordinates": [[[-3.766343205461258, 50.71771577268809], [-3.7670703005824495, 50.71821012369829], [-3.7659062447139657, 50.718146673547935], [-3.766173200129428, 50.717642435770486], [-3.766343205461258, 50.71771577268809]]]}}, {"type": "Feature", "properties": {"type": "postcode-cell", "postcode": "EX6 6PU", "postcodes": ["EX6 6PU"]}, "geometry": {"type": "Polygon", "coordinates": [[[-3.7665877532742935, 50.713555090507185], [-3.7525250540753134, 50.71527211124038], [-3.7524839389642173, 50.7152441764298], [-3.760863572694874, 50.70597194750594], [-3.7664919646652497, 50.706343196198766], [-3.767960133872304, 50.710999081004445], [-3.7665877532742935, 50.713555090507185]]]}}, {"type": "Feature", "properties": {"type": "postcode-cell", "postcode": "EX6 6PX", "postcodes": ["EX6 6PX"]}, "geometry": {"type": "Polygon", "coordinates": [[[-3.757176334611905, 50.70267479684731], [-3.760863572694874, 50.70597194750594], [-3.7524839389642173, 50.7152441764298], [-3.7515799898940583, 50.71462999473319], [-3.7514299898943837, 50.71371999473247], [-3.752259989895811, 50.71180999473094], [-3.750849989895511, 50.71049999472993], [-3.750749989896054, 50.70919999472892], [-3.7502799898960193, 50.70861999472845], [-3.748349989895041, 50.70803999472801], [-3.747719989894561, 50.70818999472815], [-3.747769989894751, 50.707859994727876], [-3.745799989893649, 50.707489994727624], [-3.7433199898927536, 50.70596999472645], [-3.7414899898918033, 50.70546999472611], [-3.7399099898907595, 50.70551999472615], [-3.7396447249666713, 50.70527390902263], [-3.757176334611905, 50.70267479684731]]]}}]}