{"type": "FeatureCollection", "features": [{"type": "Feature", "properties": {"type": "ward-outline", "name": "Exmouth Halsdon"}, "geometry": {"type": "Polygon", "coordinates": [[[-3.40153, 50.63359], [-3.40195, 50.63403], [-3.40264, 50.63217], [-3.40413, 50.63052], [-3.40354, 50.62966], [-3.40454, 50.62843], [-3.40365, 50.62762], [-3.40574, 50.62666], [-3.4072, 50.62572], [-3.40985, 50.62619], [-3.41272, 50.62739], [-3.41552, 50.62919], [-3.41552, 50.6292], [-3.41551, 50.62919], [-3.41553, 50.62921], [-3.41761, 50.63209], [-3.42163, 50.63507], [-3.42309, 50.63884], [-3.41956, 50.64048], [-3.40444, 50.64324], [-3.39997, 50.64479], [-3.39643, 50.64459], [-3.39278, 50.64286], [-3.39349, 50.64201], [-3.39485, 50.64146], [-3.39293, 50.63894], [-3.39409, 50.63762], [-3.39485, 50.63587], [-3.39903, 50.63574], [-3.40153, 50.63359]]]}}, {"type": "Feature", "properties": {"type": "postcode-cell", "postcode": "EX8 3NZ", "postcodes": ["EX8 3NZ"]}, "geometry": {"type": "Polygon", "coordinates": [[[-3.4143001530997004, 50.63951541690304], [-3.414259892366847, 50.63915550905727], [-3.4152811308851496, 50.63791671812546], [-3.420552395764677, 50.63561511209909], [-3.4216835987898158, 50.63520843490386], [-3.4230899897209617, 50.638839994679074], [-3.4195599897179663, 50.640479994680426], [-3.4156072161138975, 50.641201752748756], [-3.4143001530997004, 50.63951541690304]]]}}, {"type": "Feature", "properties": {"type": "postcode-cell", "postcode": "EX8 3DH", "postcodes": ["EX8 3DH"]}, "geometry": {"type": "Polygon", "coordinates": [[[-3.4129420513855733, 50.63090370328236], [-3.4126762291478263, 50.629653088271], [-3.4131319796050037, 50.62941922439091], [-3.4161800647170386, 50.630110141109704], [-3.417609989720789, 50.63208999467392], [-3.4177737200971454, 50.63221137714123], [-3.4129420513855733, 50.63090370328236]]]}}, {"type": "Feature", "properties": {"type": "postcode-cell", "postcode": "EX8 3EH", "postcodes": ["EX8 3EH"]}, "geometry": {"type": "Polygon", "coordinates": [[[-3.4177737200971454, 50.63221137714123], [-3.4207175532670333, 50.63439365722979], [-3.4148248670512835, 50.63371402824311], [-3.4118383376946286, 50.63147735455722], [-3.4129420513855733, 50.63090370328236], [-3.4177737200971454, 50.63221137714123]]]}}, {"type": "Feature", "properties": {"type": "postcode-cell", "postcode": "EX8 3EG", "postcodes": ["EX8 3EG"]}, "geometry": {"type": "Polygon", "coordinates": [[[-3.4131319796050037, 50.62941922439091], [-3.4131422753326053, 50.629402261085524], [-3.414483884545327, 50.62852395119676], [-3.4155199897208814, 50.62918999467172], [-3.4155199897208783, 50.62919999467174], [-3.4155099897208747, 50.62918999467172], [-3.4155299897208766, 50.629209994671726], [-3.4161800647170386, 50.630110141109704], [-3.4131319796050037, 50.62941922439091]]]}}, {"type": "Feature", "properties": {"type": "postcode-cell", "postcode": "EX8 3DP", "postcodes": ["EX8 3DP"]}, "geometry": {"type": "Polygon", "coordinates": [[[-3.4131319796050037, 50.62941922439091], [-3.4126762291478263, 50.629653088271], [-3.411342962058867, 50.629477896419836], [-3.4111798508838342, 50.62927639763173], [-3.4114205588705153, 50.62802289883088], [-3.4121783779674884, 50.62801359983372], [-3.4127256412226665, 50.62842142315264], [-3.4131422753326053, 50.629402261085524], [-3.4131319796050037, 50.62941922439091]]]}}, {"type": "Feature", "properties": {"type": "postcode-cell", "postcode": "EX8 3DW", "postcodes": ["EX8 3DW"]}, "geometry": {"type": "Polygon", "coordinates": [[[-3.4129420513855733, 50.63090370328236], [-3.4118383376946286, 50.63147735455722], [-3.41126972672503, 50.63159786863196], [-3.4108084118656956, 50.6315579940637], [-3.4103506894753006, 50.631420600236225], [-3.4102549753315503, 50.630061642009174], [-3.411342962058867, 50.629477896419836], [-3.4126762291478263, 50.629653088271], [-3.4129420513855733, 50.63090370328236]]]}}, {"type": "Feature", "properties": {"type": "postcode-cell", "postcode": "EX8 3EL", "postcodes": ["EX8 3EL"]}, "geometry": {"type": "Polygon", "coordinates": [[[-3.4131422753326053, 50.629402261085524], [-3.4127256412226665, 50.62842142315264], [-3.4135412881366323, 50.62791799368832], [-3.414483884545327, 50.62852395119676], [-3.4131422753326053, 50.629402261085524]]]}}, {"type": "Feature", "properties": {"type": "postcode-cell", "postcode": "EX8 3AS", "postcodes": ["EX8 3AS"]}, "geometry": {"type": "Polygon", "coordinates": [[[-3.4127256412226665, 50.62842142315264], [-3.4121783779674884, 50.62801359983372], [-3.4128491751195953, 50.62747304698444], [-3.4135412881366323, 50.62791799368832], [-3.4127256412226665, 50.62842142315264]]]}}, {"type": "Feature", "properties": {"type": "postcode-cell", "postcode": "EX8 3NU", "postcodes": ["EX8 3NU"]}, "geometry": {"type": "Polygon", "coordinates": [[[-3.412584004718689, 50.641191819582275], [-3.4143001530997004, 50.63951541690304], [-3.4156072161138975, 50.641201752748756], [-3.412711031466994, 50.641730483711584], [-3.412584004718689, 50.641191819582275]]]}}, {"type": "Feature", "properties": {"type": "postcode-cell", "postcode": "EX8 3NF", "postcodes": ["EX8 3NF"]}, "geometry": {"type": "Polygon", "coordinates": [[[-3.411582960943243, 50.6342685424421], [-3.412659655494955, 50.633899062087984], [-3.4139392703845552, 50.63377790596412], [-3.411399535582431, 50.63513608237117], [-3.4112814653001946, 50.635103071076124], [-3.411582960943243, 50.6342685424421]]]}}, {"type": "Feature", "properties": {"type": "postcode-cell", "postcode": "EX8 3PB", "postcodes": ["EX8 3PB"]}, "geometry": {"type": "Polygon", "coordinates": [[[-3.4112814653001946, 50.635103071076124], [-3.411275164768447, 50.635102658947346], [-3.410904011659082, 50.63423040054224], [-3.411582960943243, 50.6342685424421], [-3.4112814653001946, 50.635103071076124]]]}}, {"type": "Feature", "properties": {"type": "postcode-cell", "postcode": "EX8 3NG", "postcodes": ["EX8 3NG"]}, "geometry": {"type": "Polygon", "coordinates": [[[-3.4207175532670333, 50.63439365722979], [-3.4216299897218656, 50.63506999467615], [-3.4216835987898158, 50.63520843490386], [-3.420552395764677, 50.63561511209909], [-3.411803461051372, 50.63544965307289], [-3.411399535582431, 50.63513608237117], [-3.4139392703845552, 50.63377790596412], [-3.414258450537346, 50.633710953611576], [-3.4148248670512835, 50.63371402824311], [-3.4207175532670333, 50.63439365722979]]]}}, {"type": "Feature", "properties": {"type": "postcode-cell", "postcode": "EX8 3DR", "postcodes": ["EX8 3DR"]}, "geometry": {"type": "Polygon", "coordinates": [[[-3.4121783779674884, 50.62801359983372], [-3.4114205588705153, 50.62802289883088], [-3.410965204382189, 50.62773545390409], [-3.410653933898949, 50.626929359917675], [-3.4109371499666037, 50.62664457208274], [-3.4127199897200016, 50.62738999467036], [-3.4128491751195953, 50.62747304698444], [-3.4121783779674884, 50.62801359983372]]]}}, {"type": "Feature", "properties": {"type": "postcode-cell", "postcode": "EX8 3EJ", "postcodes": ["EX8 3EJ"]}, "geometry": {"type": "Polygon", "coordinates": [[[-3.4148248670512835, 50.63371402824311], [-3.414258450537346, 50.633710953611576], [-3.411779490587513, 50.63285547036438], [-3.41126972672503, 50.63159786863196], [-3.4118383376946286, 50.63147735455722], [-3.4148248670512835, 50.63371402824311]]]}}, {"type": "Feature", "properties": {"type": "postcode-cell", "postcode": "EX8 3LP", "postcodes": ["EX8 3LP"]}, "geometry": {"type": "Polygon", "coordinates": [[[-3.4139392703845552, 50.63377790596412], [-3.412659655494955, 50.633899062087984], [-3.411142117633604, 50.63366627379585], [-3.4106224279116932, 50.63319426669265], [-3.411779490587513, 50.63285547036438], [-3.414258450537346, 50.633710953611576], [-3.4139392703845552, 50.63377790596412]]]}}, {"type": "Feature", "properties": {"type": "postcode-cell", "postcode": "EX8 3NJ", "postcodes": ["EX8 3NJ"]}, "geometry": {"type": "Polygon", "coordinates": [[[-3.4152811308851496, 50.63791671812546], [-3.4123174318488365, 50.63728938384811], [-3.4113158187395904, 50.63650766108035], [-3.411803461051372, 50.63544965307289], [-3.420552395764677, 50.63561511209909], [-3.4152811308851496, 50.63791671812546]]]}}, {"type": "Feature", "properties": {"type": "postcode-cell", "postcode": "EX8 3NP", "postcodes": ["EX8 3NP"]}, "geometry": {"type": "Polygon", "coordinates": [[[-3.414259892366847, 50.63915550905727], [-3.413462106996537, 50.63925467511045], [-3.4118999897748963, 50.639171879282415], [-3.410528120137994, 50.63857145958623], [-3.410800875292805, 50.63797824309479], [-3.411306145785513, 50.63767722678366], [-3.412080511531256, 50.637343141549096], [-3.4123174318488365, 50.63728938384811], [-3.4152811308851496, 50.63791671812546], [-3.414259892366847, 50.63915550905727]]]}}, {"type": "Feature", "properties": {"type": "postcode-cell", "postcode": "EX8 3NS", "postcodes": ["EX8 3NS"]}, "geometry": {"type": "Polygon", "coordinates": [[[-3.4143001530997004, 50.63951541690304], [-3.412584004718689, 50.641191819582275], [-3.410192715057782, 50.64115407925326], [-3.4106643041049645, 50.64053051121402], [-3.413462106996537, 50.63925467511045], [-3.414259892366847, 50.63915550905727], [-3.4143001530997004, 50.63951541690304]]]}}, {"type": "Feature", "properties": {"type": "postcode-cell", "postcode": "EX8 3DS", "postcodes": ["EX8 3DS"]}, "geometry": {"type": "Polygon", "coordinates": [[[-3.410653933898949, 50.626929359917675], [-3.4101981208981087, 50.62701222093764], [-3.4099219576490434, 50.626947182136284], [-3.4082682005556157, 50.62609609031775], [-3.408246572634276, 50.62590562339025], [-3.4098499897187917, 50.62618999466948], [-3.4109371499666037, 50.62664457208274], [-3.410653933898949, 50.626929359917675]]]}}, {"type": "Feature", "properties": {"type": "postcode-cell", "postcode": "EX8 3LZ", "postcodes": ["EX8 3LZ"]}, "geometry": {"type": "Polygon", "coordinates": [[[-3.411582960943243, 50.6342685424421], [-3.410904011659082, 50.63423040054224], [-3.410721866301796, 50.63417704514702], [-3.411142117633604, 50.63366627379585], [-3.412659655494955, 50.633899062087984], [-3.411582960943243, 50.6342685424421]]]}}, {"type": "Feature", "properties": {"type": "postcode-cell", "postcode": "EX8 3NQ", "postcodes": ["EX8 3NQ"]}, "geometry": {"type": "Polygon", "coordinates": [[[-3.411399535582431, 50.63513608237117], [-3.411803461051372, 50.63544965307289], [-3.4113158187395904, 50.63650766108035], [-3.4110846526217196, 50.63645066284667], [-3.4106403637017424, 50.63599889557818], [-3.410688892972715, 50.635282990395645], [-3.4110460980124486, 50.635114704678195], [-3.411275164768447, 50.635102658947346], [-3.4112814653001946, 50.635103071076124], [-3.411399535582431, 50.63513608237117]]]}}, {"type": "Feature", "properties": {"type": "postcode-cell", "postcode": "EX8 3NT", "postcodes": ["EX8 3NT"]}, "geometry": {"type": "Polygon", "coordinates": [[[-3.4090447577864262, 50.6419052088423], [-3.409291351200542, 50.64156743233685], [-3.410192715057782, 50.64115407925326], [-3.412584004718689, 50.641191819582275], [-3.412711031466994, 50.641730483711584], [-3.4089275989788503, 50.642421065740784], [-3.4090447577864262, 50.6419052088423]]]}}, {"type": "Feature", "properties": {"type": "postcode-cell", "postcode": "EX8 3DL", "postcodes": ["EX8 3DL"]}, "geometry": {"type": "Polygon", "coordinates": [[[-3.4096160915250415, 50.628599641135196], [-3.4097806657247784, 50.62839311204947], [-3.410965204382189, 50.62773545390409], [-3.4114205588705153, 50.62802289883088], [-3.4111798508838342, 50.62927639763173], [-3.4096160915250415, 50.628599641135196]]]}}, {"type": "Feature", "properties": {"type": "postcode-cell", "postcode": "EX8 3DN", "postcodes": ["EX8 3DN"]}, "geometry": {"type": "Polygon", "coordinates": [[[-3.4111798508838342, 50.62927639763173], [-3.411342962058867, 50.629477896419836], [-3.4102549753315503, 50.630061642009174], [-3.4094864113812178, 50.629945281691704], [-3.408740188229956, 50.62954364102082], [-3.408775980117131, 50.62898748222803], [-3.4094346456715225, 50.628623887938915], [-3.4096160915250415, 50.628599641135196], [-3.4111798508838342, 50.62927639763173]]]}}, {"type": "Feature", "properties": {"type": "postcode-cell", "postcode": "EX8 3ED", "postcodes": ["EX8 3ED"]}, "geometry": {"type": "Polygon", "coordinates": [[[-3.411779490587513, 50.63285547036438], [-3.4106224279116932, 50.63319426669265], [-3.410568237788068, 50.633188758145444], [-3.4102439748351174, 50.633071013815474], [-3.4108084118656956, 50.6315579940637], [-3.41126972672503, 50.63159786863196], [-3.411779490587513, 50.63285547036438]]]}}, {"type": "Feature", "properties": {"type": "postcode-cell", "postcode": "EX8 5BD", "postcodes": ["EX8 5BD"]}, "geometry": {"type": "Polygon", "coordinates": [[[-3.403390540308728, 50.64330029905041], [-3.4034986357478654, 50.6422745677814], [-3.4038592106836187, 50.641967642578535], [-3.4041825879928753, 50.641912971169575], [-3.4054015477244985, 50.64180796047312], [-3.408039426105639, 50.64258316139881], [-3.4044399897071957, 50.64323999468285], [-3.4035541196009964, 50.64354719723174], [-3.403390540308728, 50.64330029905041]]]}}, {"type": "Feature", "properties": {"type": "postcode-cell", "postcode": "EX8 3BU", "postcodes": ["EX8 3BU"]}, "geometry": {"type": "Polygon", "coordinates": [[[-3.409291351200542, 50.64156743233685], [-3.4088502028210623, 50.640559744341324], [-3.4090309675265833, 50.63973948005537], [-3.4094095485869946, 50.6396242774646], [-3.410190295794957, 50.63976704475629], [-3.4106643041049645, 50.64053051121402], [-3.410192715057782, 50.64115407925326], [-3.409291351200542, 50.64156743233685]]]}}, {"type": "Feature", "properties": {"type": "postcode-cell", "postcode": "EX8 3LS", "postcodes": ["EX8 3LS"]}, "geometry": {"type": "Polygon", "coordinates": [[[-3.411142117633604, 50.63366627379585], [-3.410721866301796, 50.63417704514702], [-3.410232621601379, 50.63423376747734], [-3.4101279653348815, 50.63415464949263], [-3.410568237788068, 50.633188758145444], [-3.4106224279116932, 50.63319426669265], [-3.411142117633604, 50.63366627379585]]]}}, {"type": "Feature", "properties": {"type": "postcode-cell", "postcode": "EX8 3NA", "postcodes": ["EX8 3NA"]}, "geometry": {"type": "Polygon", "coordinates": [[[-3.410904011659082, 50.63423040054224], [-3.411275164768447, 50.635102658947346], [-3.4110460980124486, 50.635114704678195], [-3.410158201086728, 50.63452253436452], [-3.410232621601379, 50.63423376747734], [-3.410721866301796, 50.63417704514702], [-3.410904011659082, 50.63423040054224]]]}}, {"type": "Feature", "properties": {"type": "postcode-cell", "postcode": "EX8 3NL", "postcodes": ["EX8 3NL"]}, "geometry": {"type": "Polygon", "coordinates": [[[-3.4123174318488365, 50.63728938384811], [-3.412080511531256, 50.637343141549096], [-3.410171430012275, 50.63729591163521], [-3.4094689449747793, 50.63675333622235], [-3.4096269706905655, 50.63656857526724], [-3.4110846526217196, 50.63645066284667], [-3.4113158187395904, 50.63650766108035], [-3.4123174318488365, 50.63728938384811]]]}}, {"type": "Feature", "properties": {"type": "postcode-cell", "postcode": "EX8 3AU", "postcodes": ["EX8 3AU"]}, "geometry": {"type": "Polygon", "coordinates": [[[-3.4106643041049645, 50.64053051121402], [-3.410190295794957, 50.63976704475629], [-3.411125444163267, 50.639302724948394], [-3.4118999897748963, 50.639171879282415], [-3.413462106996537, 50.63925467511045], [-3.4106643041049645, 50.64053051121402]]]}}, {"type": "Feature", "properties": {"type": "postcode-cell", "postcode": "EX8 3NH", "postcodes": ["EX8 3NH"]}, "geometry": {"type": "Polygon", "coordinates": [[[-3.4106403637017424, 50.63599889557818], [-3.409736177011336, 50.63574344285959], [-3.4098752031463713, 50.635346811667965], [-3.410688892972715, 50.635282990395645], [-3.4106403637017424, 50.63599889557818]]]}}, {"type": "Feature", "properties": {"type": "postcode-cell", "postcode": "EX8 3NB", "postcodes": ["EX8 3NB"]}, "geometry": {"type": "Polygon", "coordinates": [[[-3.410688892972715, 50.635282990395645], [-3.4098752031463713, 50.635346811667965], [-3.409309185313212, 50.63495948076191], [-3.410158201086728, 50.63452253436452], [-3.4110460980124486, 50.635114704678195], [-3.410688892972715, 50.635282990395645]]]}}, {"type": "Feature", "properties": {"type": "postcode-cell", "postcode": "EX8 3LT", "postcodes": ["EX8 3LT"]}, "geometry": {"type": "Polygon", "coordinates": [[[-3.4101279653348815, 50.63415464949263], [-3.4097612681136837, 50.6340489899704], [-3.409471689765334, 50.63369840549526], [-3.4095069107913965, 50.633399795606515], [-3.4101536655569697, 50.633072985269436], [-3.4102439748351174, 50.633071013815474], [-3.410568237788068, 50.633188758145444], [-3.4101279653348815, 50.63415464949263]]]}}, {"type": "Feature", "properties": {"type": "postcode-cell", "postcode": "EX8 3JQ", "postcodes": ["EX8 3JQ"]}, "geometry": {"type": "Polygon", "coordinates": [[[-3.410232621601379, 50.63423376747734], [-3.410158201086728, 50.63452253436452], [-3.409309185313212, 50.63495948076191], [-3.4092427354070907, 50.63495442296398], [-3.4084584399974087, 50.63444891584138], [-3.4084754923569482, 50.63443617806126], [-3.4097612681136837, 50.6340489899704], [-3.4101279653348815, 50.63415464949263], [-3.410232621601379, 50.63423376747734]]]}}, {"type": "Feature", "properties": {"type": "postcode-cell", "postcode": "EX8 3EA", "postcodes": ["EX8 3EA"]}, "geometry": {"type": "Polygon", "coordinates": [[[-3.4102439748351174, 50.633071013815474], [-3.4101536655569697, 50.633072985269436], [-3.4094389218443553, 50.63268626611237], [-3.409305830832919, 50.631699244052236], [-3.409422631755584, 50.63156737829418], [-3.4103506894753006, 50.631420600236225], [-3.4108084118656956, 50.6315579940637], [-3.4102439748351174, 50.633071013815474]]]}}, {"type": "Feature", "properties": {"type": "postcode-cell", "postcode": "EX8 3PA", "postcodes": ["EX8 3PA"]}, "geometry": {"type": "Polygon", "coordinates": [[[-3.4110846526217196, 50.63645066284667], [-3.4096269706905655, 50.63656857526724], [-3.409204630608224, 50.636039095078665], [-3.409736177011336, 50.63574344285959], [-3.4106403637017424, 50.63599889557818], [-3.4110846526217196, 50.63645066284667]]]}}, {"type": "Feature", "properties": {"type": "postcode-cell", "postcode": "EX8 3NR", "postcodes": ["EX8 3NR"]}, "geometry": {"type": "Polygon", "coordinates": [[[-3.4118999897748963, 50.639171879282415], [-3.411125444163267, 50.639302724948394], [-3.409762881535544, 50.63904306723086], [-3.409671713523355, 50.63878637615559], [-3.4098518165608755, 50.63860838534529], [-3.410528120137994, 50.63857145958623], [-3.4118999897748963, 50.639171879282415]]]}}, {"type": "Feature", "properties": {"type": "postcode-cell", "postcode": "EX8 3NW", "postcodes": ["EX8 3NW"]}, "geometry": {"type": "Polygon", "coordinates": [[[-3.409704420373728, 50.63773768984034], [-3.411306145785513, 50.63767722678366], [-3.410800875292805, 50.63797824309479], [-3.4096564584691813, 50.63810293457862], [-3.4095586178726567, 50.63803463227656], [-3.409704420373728, 50.63773768984034]]]}}, {"type": "Feature", "properties": {"type": "postcode-cell", "postcode": "EX8 3BJ", "postcodes": ["EX8 3BJ"]}, "geometry": {"type": "Polygon", "coordinates": [[[-3.4095586178726567, 50.63803463227656], [-3.4086472703713215, 50.638019098217384], [-3.40855561121634, 50.63742884783497], [-3.408954112349467, 50.63719796962306], [-3.4096916953354945, 50.63757283719475], [-3.409704420373728, 50.63773768984034], [-3.4095586178726567, 50.63803463227656]]]}}, {"type": "Feature", "properties": {"type": "postcode-cell", "postcode": "EX8 3BG", "postcodes": ["EX8 3BG"]}, "geometry": {"type": "Polygon", "coordinates": [[[-3.410528120137994, 50.63857145958623], [-3.4098518165608755, 50.63860838534529], [-3.4096564584691813, 50.63810293457862], [-3.410800875292805, 50.63797824309479], [-3.410528120137994, 50.63857145958623]]]}}, {"type": "Feature", "properties": {"type": "postcode-cell", "postcode": "EX8 3BH", "postcodes": ["EX8 3BH"]}, "geometry": {"type": "Polygon", "coordinates": [[[-3.4098518165608755, 50.63860838534529], [-3.409671713523355, 50.63878637615559], [-3.4086817917915995, 50.638740725101975], [-3.408445665593857, 50.63815891668999], [-3.4086472703713215, 50.638019098217384], [-3.4095586178726567, 50.63803463227656], [-3.4096564584691813, 50.63810293457862], [-3.4098518165608755, 50.63860838534529]]]}}, {"type": "Feature", "properties": {"type": "postcode-cell", "postcode": "EX8 3NN", "postcodes": ["EX8 3NN"]}, "geometry": {"type": "Polygon", "coordinates": [[[-3.412080511531256, 50.637343141549096], [-3.411306145785513, 50.63767722678366], [-3.409704420373728, 50.63773768984034], [-3.4096916953354945, 50.63757283719475], [-3.410171430012275, 50.63729591163521], [-3.412080511531256, 50.637343141549096]]]}}, {"type": "Feature", "properties": {"type": "postcode-cell", "postcode": "EX8 3ND", "postcodes": ["EX8 3ND"]}, "geometry": {"type": "Polygon", "coordinates": [[[-3.409736177011336, 50.63574344285959], [-3.409204630608224, 50.636039095078665], [-3.408204859634785, 50.63582688742308], [-3.4092427354070907, 50.63495442296398], [-3.409309185313212, 50.63495948076191], [-3.4098752031463713, 50.635346811667965], [-3.409736177011336, 50.63574344285959]]]}}, {"type": "Feature", "properties": {"type": "postcode-cell", "postcode": "EX8 3DX", "postcodes": ["EX8 3DX"]}, "geometry": {"type": "Polygon", "coordinates": [[[-3.409431316223903, 50.62756772180093], [-3.410145621866341, 50.627040606808585], [-3.4101981208981087, 50.62701222093764], [-3.410653933898949, 50.626929359917675], [-3.410965204382189, 50.62773545390409], [-3.4097806657247784, 50.62839311204947], [-3.409431316223903, 50.62756772180093]]]}}, {"type": "Feature", "properties": {"type": "postcode-cell", "postcode": "EX8 3DY", "postcodes": ["EX8 3DY"]}, "geometry": {"type": "Polygon", "coordinates": [[[-3.4097806657247784, 50.62839311204947], [-3.4096160915250415, 50.628599641135196], [-3.4094346456715225, 50.628623887938915], [-3.408774259494336, 50.62809215981788], [-3.409154323141557, 50.62762853013195], [-3.409431316223903, 50.62756772180093], [-3.4097806657247784, 50.62839311204947]]]}}, {"type": "Feature", "properties": {"type": "postcode-cell", "postcode": "EX8 3BQ", "postcodes": ["EX8 3BQ"]}, "geometry": {"type": "Polygon", "coordinates": [[[-3.4096916953354945, 50.63757283719475], [-3.408954112349467, 50.63719796962306], [-3.4090773935487015, 50.63694149995889], [-3.4094689449747793, 50.63675333622235], [-3.410171430012275, 50.63729591163521], [-3.4096916953354945, 50.63757283719475]]]}}, {"type": "Feature", "properties": {"type": "postcode-cell", "postcode": "EX8 3AX", "postcodes": ["EX8 3AX"]}, "geometry": {"type": "Polygon", "coordinates": [[[-3.410190295794957, 50.63976704475629], [-3.4094095485869946, 50.6396242774646], [-3.409762881535544, 50.63904306723086], [-3.411125444163267, 50.639302724948394], [-3.410190295794957, 50.63976704475629]]]}}, {"type": "Feature", "properties": {"type": "postcode-cell", "postcode": "EX8 3BL", "postcodes": ["EX8 3BL"]}, "geometry": {"type": "Polygon", "coordinates": [[[-3.4094689449747793, 50.63675333622235], [-3.4090773935487015, 50.63694149995889], [-3.407896587797378, 50.636505138221914], [-3.4078167352664535, 50.63604545779164], [-3.4080376601575257, 50.63584475442035], [-3.408204859634785, 50.63582688742308], [-3.409204630608224, 50.636039095078665], [-3.4096269706905655, 50.63656857526724], [-3.4094689449747793, 50.63675333622235]]]}}, {"type": "Feature", "properties": {"type": "postcode-cell", "postcode": "EX8 3DZ", "postcodes": ["EX8 3DZ"]}, "geometry": {"type": "Polygon", "coordinates": [[[-3.409422631755584, 50.63156737829418], [-3.408140064975196, 50.63099387916944], [-3.408190478728608, 50.630855782853985], [-3.4094864113812178, 50.629945281691704], [-3.4102549753315503, 50.630061642009174], [-3.4103506894753006, 50.631420600236225], [-3.409422631755584, 50.63156737829418]]]}}, {"type": "Feature", "properties": {"type": "postcode-cell", "postcode": "EX8 4QF", "postcodes": ["EX8 4QF"]}, "geometry": {"type": "Polygon", "coordinates": [[[-3.409291351200542, 50.64156743233685], [-3.4090447577864262, 50.6419052088423], [-3.406992622432717, 50.64079050353561], [-3.407471711282647, 50.640092876442246], [-3.4088502028210623, 50.640559744341324], [-3.409291351200542, 50.64156743233685]]]}}, {"type": "Feature", "properties": {"type": "postcode-cell", "postcode": "EX8 4QE", "postcodes": ["EX8 4QE"]}, "geometry": {"type": "Polygon", "coordinates": [[[-3.4088502028210623, 50.640559744341324], [-3.407471711282647, 50.640092876442246], [-3.4073675051593955, 50.63995355732838], [-3.4081970187420945, 50.63932917139502], [-3.4090309675265833, 50.63973948005537], [-3.4088502028210623, 50.640559744341324]]]}}, {"type": "Feature", "properties": {"type": "postcode-cell", "postcode": "EX8 3LR", "postcodes": ["EX8 3LR"]}, "geometry": {"type": "Polygon", "coordinates": [[[-3.4095069107913965, 50.633399795606515], [-3.408675232022911, 50.633256191478026], [-3.4085651017477465, 50.63291087113072], [-3.4094389218443553, 50.63268626611237], [-3.4101536655569697, 50.633072985269436], [-3.4095069107913965, 50.633399795606515]]]}}, {"type": "Feature", "properties": {"type": "postcode-cell", "postcode": "EX8 3HL", "postcodes": ["EX8 3HL"]}, "geometry": {"type": "Polygon", "coordinates": [[[-3.409431316223903, 50.62756772180093], [-3.409154323141557, 50.62762853013195], [-3.4078810257647496, 50.62732534441651], [-3.410145621866341, 50.627040606808585], [-3.409431316223903, 50.62756772180093]]]}}, {"type": "Feature", "properties": {"type": "postcode-cell", "postcode": "EX8 3HJ", "postcodes": ["EX8 3HJ"]}, "geometry": {"type": "Polygon", "coordinates": [[[-3.410145621866341, 50.627040606808585], [-3.4078810257647496, 50.62732534441651], [-3.407603285013204, 50.62729618368376], [-3.408112900816775, 50.6267815822265], [-3.4099219576490434, 50.626947182136284], [-3.4101981208981087, 50.62701222093764], [-3.410145621866341, 50.627040606808585]]]}}, {"type": "Feature", "properties": {"type": "postcode-cell", "postcode": "EX8 3LY", "postcodes": ["EX8 3LY"]}, "geometry": {"type": "Polygon", "coordinates": [[[-3.4095069107913965, 50.633399795606515], [-3.409471689765334, 50.63369840549526], [-3.4087580813572522, 50.63385121896568], [-3.40844738780963, 50.63344597429999], [-3.408675232022911, 50.633256191478026], [-3.4095069107913965, 50.633399795606515]]]}}, {"type": "Feature", "properties": {"type": "postcode-cell", "postcode": "EX8 3HP", "postcodes": ["EX8 3HP"]}, "geometry": {"type": "Polygon", "coordinates": [[[-3.4094346456715225, 50.628623887938915], [-3.408775980117131, 50.62898748222803], [-3.408536204791797, 50.628915572431026], [-3.4075281635878336, 50.6282243004622], [-3.40737031428327, 50.627896867350884], [-3.408774259494336, 50.62809215981788], [-3.4094346456715225, 50.628623887938915]]]}}, {"type": "Feature", "properties": {"type": "postcode-cell", "postcode": "EX8 3LU", "postcodes": ["EX8 3LU"]}, "geometry": {"type": "Polygon", "coordinates": [[[-3.4097612681136837, 50.6340489899704], [-3.4084754923569482, 50.63443617806126], [-3.4087580813572522, 50.63385121896568], [-3.409471689765334, 50.63369840549526], [-3.4097612681136837, 50.6340489899704]]]}}, {"type": "Feature", "properties": {"type": "postcode-cell", "postcode": "EX8 3JB", "postcodes": ["EX8 3JB"]}, "geometry": {"type": "Polygon", "coordinates": [[[-3.4094389218443553, 50.63268626611237], [-3.4085651017477465, 50.63291087113072], [-3.4080524246487367, 50.6326377104889], [-3.407970132619707, 50.63237204014612], [-3.409305830832919, 50.631699244052236], [-3.4094389218443553, 50.63268626611237]]]}}, {"type": "Feature", "properties": {"type": "postcode-cell", "postcode": "EX8 3JH", "postcodes": ["EX8 3JH"]}, "geometry": {"type": "Polygon", "coordinates": [[[-3.408204859634785, 50.63582688742308], [-3.4080376601575257, 50.63584475442035], [-3.407474762928161, 50.635195477389075], [-3.407989726821668, 50.6344546646864], [-3.4084584399974087, 50.63444891584138], [-3.4092427354070907, 50.63495442296398], [-3.408204859634785, 50.63582688742308]]]}}, {"type": "Feature", "properties": {"type": "postcode-cell", "postcode": "EX8 3HN", "postcodes": ["EX8 3HN"]}, "geometry": {"type": "Polygon", "coordinates": [[[-3.4082682005556157, 50.62609609031775], [-3.408112900816775, 50.6267815822265], [-3.407603285013204, 50.62729618368376], [-3.4075236886037548, 50.62732866687706], [-3.4061864943516023, 50.62637252496933], [-3.4071999897173644, 50.62571999466921], [-3.408246572634276, 50.62590562339025], [-3.4082682005556157, 50.62609609031775]]]}}, {"type": "Feature", "properties": {"type": "postcode-cell", "postcode": "EX8 3DT", "postcodes": ["EX8 3DT"]}, "geometry": {"type": "Polygon", "coordinates": [[[-3.4099219576490434, 50.626947182136284], [-3.408112900816775, 50.6267815822265], [-3.4082682005556157, 50.62609609031775], [-3.4099219576490434, 50.626947182136284]]]}}, {"type": "Feature", "properties": {"type": "postcode-cell", "postcode": "EX8 3HW", "postcodes": ["EX8 3HW"]}, "geometry": {"type": "Polygon", "coordinates": [[[-3.408774259494336, 50.62809215981788], [-3.40737031428327, 50.627896867350884], [-3.4072346556530517, 50.62778962171584], [-3.4075236886037548, 50.62732866687706], [-3.407603285013204, 50.62729618368376], [-3.4078810257647496, 50.62732534441651], [-3.409154323141557, 50.62762853013195], [-3.408774259494336, 50.62809215981788]]]}}, {"type": "Feature", "properties": {"type": "postcode-cell", "postcode": "EX8 3BT", "postcodes": ["EX8 3BT"]}, "geometry": {"type": "Polygon", "coordinates": [[[-3.409762881535544, 50.63904306723086], [-3.4094095485869946, 50.6396242774646], [-3.4090309675265833, 50.63973948005537], [-3.4081970187420945, 50.63932917139502], [-3.40818909612168, 50.63931442566001], [-3.4084275840088125, 50.638972344162234], [-3.4086817917915995, 50.638740725101975], [-3.409671713523355, 50.63878637615559], [-3.409762881535544, 50.63904306723086]]]}}, {"type": "Feature", "properties": {"type": "postcode-cell", "postcode": "EX8 3HX", "postcodes": ["EX8 3HX"]}, "geometry": {"type": "Polygon", "coordinates": [[[-3.408536204791797, 50.628915572431026], [-3.4071078164363073, 50.629114893539295], [-3.4075281635878336, 50.6282243004622], [-3.408536204791797, 50.628915572431026]]]}}, {"type": "Feature", "properties": {"type": "postcode-cell", "postcode": "EX8 3BN", "postcodes": ["EX8 3BN"]}, "geometry": {"type": "Polygon", "coordinates": [[[-3.408954112349467, 50.63719796962306], [-3.40855561121634, 50.63742884783497], [-3.4074706469635005, 50.637235852184766], [-3.407384862829582, 50.63716422642977], [-3.407896587797378, 50.636505138221914], [-3.4090773935487015, 50.63694149995889], [-3.408954112349467, 50.63719796962306]]]}}, {"type": "Feature", "properties": {"type": "postcode-cell", "postcode": "EX8 3LX", "postcodes": ["EX8 3LX"]}, "geometry": {"type": "Polygon", "coordinates": [[[-3.4084584399974087, 50.63444891584138], [-3.407989726821668, 50.6344546646864], [-3.4077341517289375, 50.63429500994419], [-3.4077964927420115, 50.63357256839344], [-3.40844738780963, 50.63344597429999], [-3.4087580813572522, 50.63385121896568], [-3.4084754923569482, 50.63443617806126], [-3.4084584399974087, 50.63444891584138]]]}}, {"type": "Feature", "properties": {"type": "postcode-cell", "postcode": "EX8 3HZ", "postcodes": ["EX8 3HZ"]}, "geometry": {"type": "Polygon", "coordinates": [[[-3.409305830832919, 50.631699244052236], [-3.407970132619707, 50.63237204014612], [-3.4070946437500362, 50.63211922982509], [-3.407016052851173, 50.63114843527321], [-3.4070266301736996, 50.63114242915324], [-3.408140064975196, 50.63099387916944], [-3.409422631755584, 50.63156737829418], [-3.409305830832919, 50.631699244052236]]]}}, {"type": "Feature", "properties": {"type": "postcode-cell", "postcode": "EX8 3BR", "postcodes": ["EX8 3BR"]}, "geometry": {"type": "Polygon", "coordinates": [[[-3.4086817917915995, 50.638740725101975], [-3.4084275840088125, 50.638972344162234], [-3.407439760116542, 50.63841057561415], [-3.407575840224495, 50.6381694816753], [-3.408445665593857, 50.63815891668999], [-3.4086817917915995, 50.638740725101975]]]}}, {"type": "Feature", "properties": {"type": "postcode-cell", "postcode": "EX8 3JD", "postcodes": ["EX8 3JD"]}, "geometry": {"type": "Polygon", "coordinates": [[[-3.40844738780963, 50.63344597429999], [-3.4077964927420115, 50.63357256839344], [-3.4072592794787866, 50.63325922539234], [-3.4080524246487367, 50.6326377104889], [-3.4085651017477465, 50.63291087113072], [-3.408675232022911, 50.633256191478026], [-3.40844738780963, 50.63344597429999]]]}}, {"type": "Feature", "properties": {"type": "postcode-cell", "postcode": "EX8 3HU", "postcodes": ["EX8 3HU"]}, "geometry": {"type": "Polygon", "coordinates": [[[-3.4075281635878336, 50.6282243004622], [-3.4071078164363073, 50.629114893539295], [-3.406995497119775, 50.62919144689396], [-3.404283800718501, 50.628745113999145], [-3.4045399897143986, 50.628429994671315], [-3.4043789878945057, 50.62828346752766], [-3.4072346556530517, 50.62778962171584], [-3.40737031428327, 50.627896867350884], [-3.4075281635878336, 50.6282243004622]]]}}, {"type": "Feature", "properties": {"type": "postcode-cell", "postcode": "EX8 3JA", "postcodes": ["EX8 3JA"]}, "geometry": {"type": "Polygon", "coordinates": [[[-3.4094864113812178, 50.629945281691704], [-3.408190478728608, 50.630855782853985], [-3.4077972433745694, 50.62980746775905], [-3.408740188229956, 50.62954364102082], [-3.4094864113812178, 50.629945281691704]]]}}, {"type": "Feature", "properties": {"type": "postcode-cell", "postcode": "EX8 3BP", "postcodes": ["EX8 3BP"]}, "geometry": {"type": "Polygon", "coordinates": [[[-3.408445665593857, 50.63815891668999], [-3.407575840224495, 50.6381694816753], [-3.4073964145233417, 50.63803397808265], [-3.4074706469635005, 50.637235852184766], [-3.40855561121634, 50.63742884783497], [-3.4086472703713215, 50.638019098217384], [-3.408445665593857, 50.63815891668999]]]}}, {"type": "Feature", "properties": {"type": "postcode-cell", "postcode": "EX8 3HR", "postcodes": ["EX8 3HR"]}, "geometry": {"type": "Polygon", "coordinates": [[[-3.408740188229956, 50.62954364102082], [-3.4077972433745694, 50.62980746775905], [-3.4074022065170007, 50.62975576684618], [-3.406995497119775, 50.62919144689396], [-3.4071078164363073, 50.629114893539295], [-3.408536204791797, 50.628915572431026], [-3.408775980117131, 50.62898748222803], [-3.408740188229956, 50.62954364102082]]]}}, {"type": "Feature", "properties": {"type": "postcode-cell", "postcode": "EX8 3JF", "postcodes": ["EX8 3JF"]}, "geometry": {"type": "Polygon", "coordinates": [[[-3.4077964927420115, 50.63357256839344], [-3.4077341517289375, 50.63429500994419], [-3.4070530140124027, 50.63422769190098], [-3.4062010151990947, 50.63354759497353], [-3.4065953827771955, 50.633256051984915], [-3.4072592794787866, 50.63325922539234], [-3.4077964927420115, 50.63357256839344]]]}}, {"type": "Feature", "properties": {"type": "postcode-cell", "postcode": "EX8 3NE", "postcodes": ["EX8 3NE"]}, "geometry": {"type": "Polygon", "coordinates": [[[-3.4078167352664535, 50.63604545779164], [-3.406016887405201, 50.63619495287932], [-3.405571618331103, 50.63602996234054], [-3.4057595166184087, 50.635167065540585], [-3.4059003144543967, 50.635108482166075], [-3.407474762928161, 50.635195477389075], [-3.4080376601575257, 50.63584475442035], [-3.4078167352664535, 50.63604545779164]]]}}, {"type": "Feature", "properties": {"type": "postcode-cell", "postcode": "EX8 3BW", "postcodes": ["EX8 3BW"]}, "geometry": {"type": "Polygon", "coordinates": [[[-3.407896587797378, 50.636505138221914], [-3.407384862829582, 50.63716422642977], [-3.4065570607945523, 50.63711238417625], [-3.406016887405201, 50.63619495287932], [-3.4078167352664535, 50.63604545779164], [-3.407896587797378, 50.636505138221914]]]}}, {"type": "Feature", "properties": {"type": "postcode-cell", "postcode": "EX8 3HY", "postcodes": ["EX8 3HY"]}, "geometry": {"type": "Polygon", "coordinates": [[[-3.408140064975196, 50.63099387916944], [-3.4070266301736996, 50.63114242915324], [-3.4067138734602707, 50.630117587517475], [-3.4074022065170007, 50.62975576684618], [-3.4077972433745694, 50.62980746775905], [-3.408190478728608, 50.630855782853985], [-3.408140064975196, 50.63099387916944]]]}}, {"type": "Feature", "properties": {"type": "postcode-cell", "postcode": "EX8 3JE", "postcodes": ["EX8 3JE"]}, "geometry": {"type": "Polygon", "coordinates": [[[-3.4080524246487367, 50.6326377104889], [-3.4072592794787866, 50.63325922539234], [-3.4065953827771955, 50.633256051984915], [-3.4063337189294005, 50.63245045882833], [-3.4070946437500362, 50.63211922982509], [-3.407970132619707, 50.63237204014612], [-3.4080524246487367, 50.6326377104889]]]}}, {"type": "Feature", "properties": {"type": "postcode-cell", "postcode": "EX8 4QD", "postcodes": ["EX8 4QD"]}, "geometry": {"type": "Polygon", "coordinates": [[[-3.4073675051593955, 50.63995355732838], [-3.406501249580262, 50.63979600943193], [-3.4063205765011175, 50.639597698735194], [-3.4065175194520605, 50.639160323822686], [-3.406993641839954, 50.6389610474331], [-3.40818909612168, 50.63931442566001], [-3.4081970187420945, 50.63932917139502], [-3.4073675051593955, 50.63995355732838]]]}}, {"type": "Feature", "properties": {"type": "postcode-cell", "postcode": "EX8 3BX", "postcodes": ["EX8 3BX"]}, "geometry": {"type": "Polygon", "coordinates": [[[-3.407575840224495, 50.6381694816753], [-3.407439760116542, 50.63841057561415], [-3.407025284590909, 50.638835258494666], [-3.4061047988578443, 50.63810276321861], [-3.4062660804648415, 50.637979835712784], [-3.4073964145233417, 50.63803397808265], [-3.407575840224495, 50.6381694816753]]]}}, {"type": "Feature", "properties": {"type": "postcode-cell", "postcode": "EX8 3BS", "postcodes": ["EX8 3BS"]}, "geometry": {"type": "Polygon", "coordinates": [[[-3.40818909612168, 50.63931442566001], [-3.406993641839954, 50.6389610474331], [-3.407025284590909, 50.638835258494666], [-3.407439760116542, 50.63841057561415], [-3.4084275840088125, 50.638972344162234], [-3.40818909612168, 50.63931442566001]]]}}, {"type": "Feature", "properties": {"type": "postcode-cell", "postcode": "EX8 3HS", "postcodes": ["EX8 3HS"]}, "geometry": {"type": "Polygon", "coordinates": [[[-3.4074022065170007, 50.62975576684618], [-3.4067138734602707, 50.630117587517475], [-3.405236775206121, 50.629889906794475], [-3.403906870284725, 50.62920873993513], [-3.404283800718501, 50.628745113999145], [-3.406995497119775, 50.62919144689396], [-3.4074022065170007, 50.62975576684618]]]}}, {"type": "Feature", "properties": {"type": "postcode-cell", "postcode": "EX8 3JG", "postcodes": ["EX8 3JG"]}, "geometry": {"type": "Polygon", "coordinates": [[[-3.407989726821668, 50.6344546646864], [-3.407474762928161, 50.635195477389075], [-3.4059003144543967, 50.635108482166075], [-3.4061081511654914, 50.63476049301366], [-3.4070530140124027, 50.63422769190098], [-3.4077341517289375, 50.63429500994419], [-3.407989726821668, 50.6344546646864]]]}}, {"type": "Feature", "properties": {"type": "postcode-cell", "postcode": "EX8 4QQ", "postcodes": ["EX8 4QQ"]}, "geometry": {"type": "Polygon", "coordinates": [[[-3.4090447577864262, 50.6419052088423], [-3.4089275989788503, 50.642421065740784], [-3.408039426105639, 50.64258316139881], [-3.4054015477244985, 50.64180796047312], [-3.406082490667387, 50.64068393579143], [-3.406992622432717, 50.64079050353561], [-3.4090447577864262, 50.6419052088423]]]}}, {"type": "Feature", "properties": {"type": "postcode-cell", "postcode": "EX8 4QG", "postcodes": ["EX8 4QG"]}, "geometry": {"type": "Polygon", "coordinates": [[[-3.4073675051593955, 50.63995355732838], [-3.407471711282647, 50.640092876442246], [-3.406992622432717, 50.64079050353561], [-3.406082490667387, 50.64068393579143], [-3.406078202361685, 50.64067825611774], [-3.406501249580262, 50.63979600943193], [-3.4073675051593955, 50.63995355732838]]]}}, {"type": "Feature", "properties": {"type": "postcode-cell", "postcode": "EX8 3JJ", "postcodes": ["EX8 3JJ"]}, "geometry": {"type": "Polygon", "coordinates": [[[-3.4070530140124027, 50.63422769190098], [-3.4061081511654914, 50.63476049301366], [-3.405669059234325, 50.63364975898442], [-3.4062010151990947, 50.63354759497353], [-3.4070530140124027, 50.63422769190098]]]}}, {"type": "Feature", "properties": {"type": "postcode-cell", "postcode": "EX8 3BY", "postcodes": ["EX8 3BY"]}, "geometry": {"type": "Polygon", "coordinates": [[[-3.4073964145233417, 50.63803397808265], [-3.4062660804648415, 50.637979835712784], [-3.4062234766462085, 50.63733523387022], [-3.4065570607945523, 50.63711238417625], [-3.407384862829582, 50.63716422642977], [-3.4074706469635005, 50.637235852184766], [-3.4073964145233417, 50.63803397808265]]]}}, {"type": "Feature", "properties": {"type": "postcode-cell", "postcode": "EX8 3JZ", "postcodes": ["EX8 3JZ"]}, "geometry": {"type": "Polygon", "coordinates": [[[-3.4070946437500362, 50.63211922982509], [-3.4063337189294005, 50.63245045882833], [-3.405781763038976, 50.63235116091037], [-3.405463633155557, 50.631353592247784], [-3.4059046994860047, 50.631166599300336], [-3.407016052851173, 50.63114843527321], [-3.4070946437500362, 50.63211922982509]]]}}, {"type": "Feature", "properties": {"type": "postcode-cell", "postcode": "EX8 4QY", "postcodes": ["EX8 4QY"]}, "geometry": {"type": "Polygon", "coordinates": [[[-3.406993641839954, 50.6389610474331], [-3.4065175194520605, 50.639160323822686], [-3.4054526667787677, 50.63865581527213], [-3.4056663500445117, 50.63824465471074], [-3.4061047988578443, 50.63810276321861], [-3.407025284590909, 50.638835258494666], [-3.406993641839954, 50.6389610474331]]]}}, {"type": "Feature", "properties": {"type": "postcode-cell", "postcode": "EX8 3AF", "postcodes": ["EX8 3AF"]}, "geometry": {"type": "Polygon", "coordinates": [[[-3.4075236886037548, 50.62732866687706], [-3.4072346556530517, 50.62778962171584], [-3.4043789878945057, 50.62828346752766], [-3.403649989714235, 50.62761999467071], [-3.4057399897160012, 50.626659994669936], [-3.4061864943516023, 50.62637252496933], [-3.4075236886037548, 50.62732866687706]]]}}, {"type": "Feature", "properties": {"type": "postcode-cell", "postcode": "EX8 3LA", "postcodes": ["EX8 3LA"]}, "geometry": {"type": "Polygon", "coordinates": [[[-3.4062010151990947, 50.63354759497353], [-3.405669059234325, 50.63364975898442], [-3.4052565546776368, 50.63362764661795], [-3.4048428525464667, 50.632603329090216], [-3.405781763038976, 50.63235116091037], [-3.4063337189294005, 50.63245045882833], [-3.4065953827771955, 50.633256051984915], [-3.4062010151990947, 50.63354759497353]]]}}, {"type": "Feature", "properties": {"type": "postcode-cell", "postcode": "EX8 3HT", "postcodes": ["EX8 3HT"]}, "geometry": {"type": "Polygon", "coordinates": [[[-3.407016052851173, 50.63114843527321], [-3.4059046994860047, 50.631166599300336], [-3.405236775206121, 50.629889906794475], [-3.4067138734602707, 50.630117587517475], [-3.4070266301736996, 50.63114242915324], [-3.407016052851173, 50.63114843527321]]]}}, {"type": "Feature", "properties": {"type": "postcode-cell", "postcode": "EX8 3LB", "postcodes": ["EX8 3LB"]}, "geometry": {"type": "Polygon", "coordinates": [[[-3.4059003144543967, 50.635108482166075], [-3.4057595166184087, 50.635167065540585], [-3.4046077740998646, 50.634730499944645], [-3.4048394835265596, 50.633797354959235], [-3.4052565546776368, 50.63362764661795], [-3.405669059234325, 50.63364975898442], [-3.4061081511654914, 50.63476049301366], [-3.4059003144543967, 50.635108482166075]]]}}, {"type": "Feature", "properties": {"type": "postcode-cell", "postcode": "EX8 3BZ", "postcodes": ["EX8 3BZ"]}, "geometry": {"type": "Polygon", "coordinates": [[[-3.4062234766462085, 50.63733523387022], [-3.4052324381110357, 50.6373104107036], [-3.4049023877702327, 50.636400677410315], [-3.4050589554948196, 50.63618801980446], [-3.405571618331103, 50.63602996234054], [-3.406016887405201, 50.63619495287932], [-3.4065570607945523, 50.63711238417625], [-3.4062234766462085, 50.63733523387022]]]}}, {"type": "Feature", "properties": {"type": "postcode-cell", "postcode": "EX8 4QH", "postcodes": ["EX8 4QH"]}, "geometry": {"type": "Polygon", "coordinates": [[[-3.406501249580262, 50.63979600943193], [-3.406078202361685, 50.64067825611774], [-3.4051388125682625, 50.6403732970944], [-3.404837557200587, 50.64017892901133], [-3.4052438012778365, 50.639660262322636], [-3.4063205765011175, 50.639597698735194], [-3.406501249580262, 50.63979600943193]]]}}, {"type": "Feature", "properties": {"type": "postcode-cell", "postcode": "EX8 4RF", "postcodes": ["EX8 4RF"]}, "geometry": {"type": "Polygon", "coordinates": [[[-3.4061047988578443, 50.63810276321861], [-3.4056663500445117, 50.63824465471074], [-3.4052320348380873, 50.638000242158625], [-3.404935782649041, 50.637508816345786], [-3.4052324381110357, 50.6373104107036], [-3.4062234766462085, 50.63733523387022], [-3.4062660804648415, 50.637979835712784], [-3.4061047988578443, 50.63810276321861]]]}}, {"type": "Feature", "properties": {"type": "postcode-cell", "postcode": "EX8 3JX", "postcodes": ["EX8 3JX"]}, "geometry": {"type": "Polygon", "coordinates": [[[-3.4059046994860047, 50.631166599300336], [-3.405463633155557, 50.631353592247784], [-3.4047268963128614, 50.63134875422304], [-3.4037899803504783, 50.630896526850265], [-3.4041299897131356, 50.63051999467297], [-3.4035399897131833, 50.62965999467231], [-3.403906870284725, 50.62920873993513], [-3.405236775206121, 50.629889906794475], [-3.4059046994860047, 50.631166599300336]]]}}, {"type": "Feature", "properties": {"type": "postcode-cell", "postcode": "EX8 4QS", "postcodes": ["EX8 4QS"]}, "geometry": {"type": "Polygon", "coordinates": [[[-3.4063205765011175, 50.639597698735194], [-3.4052438012778365, 50.639660262322636], [-3.4045941061834815, 50.6390020127234], [-3.4046209663193596, 50.63893803582814], [-3.4054526667787677, 50.63865581527213], [-3.4065175194520605, 50.639160323822686], [-3.4063205765011175, 50.639597698735194]]]}}, {"type": "Feature", "properties": {"type": "postcode-cell", "postcode": "EX8 3JU", "postcodes": ["EX8 3JU"]}, "geometry": {"type": "Polygon", "coordinates": [[[-3.405781763038976, 50.63235116091037], [-3.4048428525464667, 50.632603329090216], [-3.4041745648253845, 50.632443373620795], [-3.4047268963128614, 50.63134875422304], [-3.405463633155557, 50.631353592247784], [-3.405781763038976, 50.63235116091037]]]}}, {"type": "Feature", "properties": {"type": "postcode-cell", "postcode": "EX8 4QL", "postcodes": ["EX8 4QL"]}, "geometry": {"type": "Polygon", "coordinates": [[[-3.406078202361685, 50.64067825611774], [-3.406082490667387, 50.64068393579143], [-3.4054015477244985, 50.64180796047312], [-3.4041825879928753, 50.641912971169575], [-3.4051388125682625, 50.6403732970944], [-3.406078202361685, 50.64067825611774]]]}}, {"type": "Feature", "properties": {"type": "postcode-cell", "postcode": "EX8 4QU", "postcodes": ["EX8 4QU"]}, "geometry": {"type": "Polygon", "coordinates": [[[-3.4046209663193596, 50.63893803582814], [-3.4041505381758936, 50.63852709925374], [-3.4047665644054326, 50.638102042461796], [-3.4052320348380873, 50.638000242158625], [-3.4056663500445117, 50.63824465471074], [-3.4054526667787677, 50.63865581527213], [-3.4046209663193596, 50.63893803582814]]]}}, {"type": "Feature", "properties": {"type": "postcode-cell", "postcode": "EX8 3LD", "postcodes": ["EX8 3LD"]}, "geometry": {"type": "Polygon", "coordinates": [[[-3.4050589554948196, 50.63618801980446], [-3.4035530862948895, 50.635713671062284], [-3.4034674498924193, 50.6354345022659], [-3.4041186332391824, 50.63482424949386], [-3.4046077740998646, 50.634730499944645], [-3.4057595166184087, 50.635167065540585], [-3.405571618331103, 50.63602996234054], [-3.4050589554948196, 50.63618801980446]]]}}, {"type": "Feature", "properties": {"type": "postcode-cell", "postcode": "EX8 3JS", "postcodes": ["EX8 3JS"]}, "geometry": {"type": "Polygon", "coordinates": [[[-3.4052565546776368, 50.63362764661795], [-3.4048394835265596, 50.633797354959235], [-3.403863606531868, 50.63363236478109], [-3.403551977432708, 50.63321135582913], [-3.4041081139865628, 50.632451812106694], [-3.4041745648253845, 50.632443373620795], [-3.4048428525464667, 50.632603329090216], [-3.4052565546776368, 50.63362764661795]]]}}, {"type": "Feature", "properties": {"type": "postcode-cell", "postcode": "EX8 4QX", "postcodes": ["EX8 4QX"]}, "geometry": {"type": "Polygon", "coordinates": [[[-3.4052320348380873, 50.638000242158625], [-3.4047665644054326, 50.638102042461796], [-3.403754842735477, 50.637648082733044], [-3.403844468839498, 50.63753672184917], [-3.404935782649041, 50.637508816345786], [-3.4052320348380873, 50.638000242158625]]]}}, {"type": "Feature", "properties": {"type": "postcode-cell", "postcode": "EX8 4RE", "postcodes": ["EX8 4RE"]}, "geometry": {"type": "Polygon", "coordinates": [[[-3.404935782649041, 50.637508816345786], [-3.403844468839498, 50.63753672184917], [-3.403629118791123, 50.63698448998362], [-3.4049023877702327, 50.636400677410315], [-3.4052324381110357, 50.6373104107036], [-3.404935782649041, 50.637508816345786]]]}}, {"type": "Feature", "properties": {"type": "postcode-cell", "postcode": "EX8 5SL", "postcodes": ["EX8 5SL"]}, "geometry": {"type": "Polygon", "coordinates": [[[-3.400629135191644, 50.6441550629426], [-3.40114519063045, 50.64337673925933], [-3.402113443805785, 50.6432708078997], [-3.403390540308728, 50.64330029905041], [-3.4035541196009964, 50.64354719723174], [-3.4006011150553284, 50.644571164597856], [-3.400629135191644, 50.6441550629426]]]}}, {"type": "Feature", "properties": {"type": "postcode-cell", "postcode": "EX8 4QN", "postcodes": ["EX8 4QN"]}, "geometry": {"type": "Polygon", "coordinates": [[[-3.403454878026391, 50.64019671258714], [-3.4039895162492266, 50.6400434406518], [-3.404607095786111, 50.64019761998898], [-3.4036422195100866, 50.64148429309792], [-3.403332203452388, 50.641160623516704], [-3.403454878026391, 50.64019671258714]]]}}, {"type": "Feature", "properties": {"type": "postcode-cell", "postcode": "EX8 4RA", "postcodes": ["EX8 4RA"]}, "geometry": {"type": "Polygon", "coordinates": [[[-3.403332203452388, 50.641160623516704], [-3.401737364978076, 50.64049003340148], [-3.401713569860223, 50.64039095957226], [-3.4017201077509287, 50.639991255879806], [-3.40217565160187, 50.639855798240504], [-3.403454878026391, 50.64019671258714], [-3.403332203452388, 50.641160623516704]]]}}, {"type": "Feature", "properties": {"type": "postcode-cell", "postcode": "EX8 3JY", "postcodes": ["EX8 3JY"]}, "geometry": {"type": "Polygon", "coordinates": [[[-3.4047268963128614, 50.63134875422304], [-3.4041745648253845, 50.632443373620795], [-3.4041081139865628, 50.632451812106694], [-3.4027558624555883, 50.632041684000896], [-3.4037899803504783, 50.630896526850265], [-3.4047268963128614, 50.63134875422304]]]}}, {"type": "Feature", "properties": {"type": "postcode-cell", "postcode": "EX8 4QJ", "postcodes": ["EX8 4QJ"]}, "geometry": {"type": "Polygon", "coordinates": [[[-3.4051388125682625, 50.6403732970944], [-3.4041825879928753, 50.641912971169575], [-3.4038592106836187, 50.641967642578535], [-3.4036422195100866, 50.64148429309792], [-3.404607095786111, 50.64019761998898], [-3.404837557200587, 50.64017892901133], [-3.4051388125682625, 50.6403732970944]]]}}, {"type": "Feature", "properties": {"type": "postcode-cell", "postcode": "EX8 4QT", "postcodes": ["EX8 4QT"]}, "geometry": {"type": "Polygon", "coordinates": [[[-3.4041505381758936, 50.63852709925374], [-3.4038828701868438, 50.63839804076649], [-3.4035233832947758, 50.637860979679346], [-3.403754842735477, 50.637648082733044], [-3.4047665644054326, 50.638102042461796], [-3.4041505381758936, 50.63852709925374]]]}}, {"type": "Feature", "properties": {"type": "postcode-cell", "postcode": "EX8 4QW", "postcodes": ["EX8 4QW"]}, "geometry": {"type": "Polygon", "coordinates": [[[-3.4052438012778365, 50.639660262322636], [-3.404837557200587, 50.64017892901133], [-3.404607095786111, 50.64019761998898], [-3.4039895162492266, 50.6400434406518], [-3.403819974946787, 50.63933986592346], [-3.4045941061834815, 50.6390020127234], [-3.4052438012778365, 50.639660262322636]]]}}, {"type": "Feature", "properties": {"type": "postcode-cell", "postcode": "EX8 4RD", "postcodes": ["EX8 4RD"]}, "geometry": {"type": "Polygon", "coordinates": [[[-3.4050589554948196, 50.63618801980446], [-3.4049023877702327, 50.636400677410315], [-3.403629118791123, 50.63698448998362], [-3.4033979993335852, 50.63689799752358], [-3.4027560410566835, 50.63630691612903], [-3.4035530862948895, 50.635713671062284], [-3.4050589554948196, 50.63618801980446]]]}}, {"type": "Feature", "properties": {"type": "postcode-cell", "postcode": "EX8 4PT", "postcodes": ["EX8 4PT"]}, "geometry": {"type": "Polygon", "coordinates": [[[-3.403754842735477, 50.637648082733044], [-3.4035233832947758, 50.637860979679346], [-3.4029073208902116, 50.63791654928937], [-3.4023841005491895, 50.63725043383966], [-3.4033979993335852, 50.63689799752358], [-3.403629118791123, 50.63698448998362], [-3.403844468839498, 50.63753672184917], [-3.403754842735477, 50.637648082733044]]]}}, {"type": "Feature", "properties": {"type": "postcode-cell", "postcode": "EX8 3LQ", "postcodes": ["EX8 3LQ"]}, "geometry": {"type": "Polygon", "coordinates": [[[-3.4046077740998646, 50.634730499944645], [-3.4041186332391824, 50.63482424949386], [-3.402940562078109, 50.6341982273106], [-3.403863606531868, 50.63363236478109], [-3.4048394835265596, 50.633797354959235], [-3.4046077740998646, 50.634730499944645]]]}}, {"type": "Feature", "properties": {"type": "postcode-cell", "postcode": "EX8 4QR", "postcodes": ["EX8 4QR"]}, "geometry": {"type": "Polygon", "coordinates": [[[-3.4045941061834815, 50.6390020127234], [-3.403819974946787, 50.63933986592346], [-3.402846447906811, 50.63925991711338], [-3.402729445230342, 50.63894164783995], [-3.4038828701868438, 50.63839804076649], [-3.4041505381758936, 50.63852709925374], [-3.4046209663193596, 50.63893803582814], [-3.4045941061834815, 50.6390020127234]]]}}, {"type": "Feature", "properties": {"type": "postcode-cell", "postcode": "EX8 4NE", "postcodes": ["EX8 4NE"]}, "geometry": {"type": "Polygon", "coordinates": [[[-3.402191514870416, 50.63422119174876], [-3.401982590126226, 50.63501855973589], [-3.4005225313459877, 50.635816871207105], [-3.4002681523068943, 50.635821720321196], [-3.399529713985319, 50.63531025162982], [-3.4014583648108956, 50.633651595539526], [-3.402191514870416, 50.63422119174876]]]}}, {"type": "Feature", "properties": {"type": "postcode-cell", "postcode": "EX8 4JG", "postcodes": ["EX8 4JG"]}, "geometry": {"type": "Polygon", "coordinates": [[[-3.395898776207726, 50.63658011774518], [-3.394666360594524, 50.63772110917641], [-3.3941353011717457, 50.63769358809355], [-3.394035858771885, 50.63768159382972], [-3.3940899897034527, 50.63761999467868], [-3.39484998970477, 50.63586999467728], [-3.395719913449059, 50.63584295204238], [-3.395898776207726, 50.63658011774518]]]}}, {"type": "Feature", "properties": {"type": "postcode-cell", "postcode": "EX8 3LE", "postcodes": ["EX8 3LE"]}, "geometry": {"type": "Polygon", "coordinates": [[[-3.4034674498924193, 50.6354345022659], [-3.401982590126226, 50.63501855973589], [-3.402191514870416, 50.63422119174876], [-3.402940562078109, 50.6341982273106], [-3.4041186332391824, 50.63482424949386], [-3.4034674498924193, 50.6354345022659]]]}}, {"type": "Feature", "properties": {"type": "postcode-cell", "postcode": "EX8 3JT", "postcodes": ["EX8 3JT"]}, "geometry": {"type": "Polygon", "coordinates": [[[-3.403551977432708, 50.63321135582913], [-3.4022759220477283, 50.63315141281855], [-3.4026399897114104, 50.63216999467427], [-3.4027558624555883, 50.632041684000896], [-3.4041081139865628, 50.632451812106694], [-3.403551977432708, 50.63321135582913]]]}}, {"type": "Feature", "properties": {"type": "postcode-cell", "postcode": "EX8 5BB", "postcodes": ["EX8 5BB"]}, "geometry": {"type": "Polygon", "coordinates": [[[-3.4038592106836187, 50.641967642578535], [-3.4034986357478654, 50.6422745677814], [-3.4018098845477267, 50.64190537405086], [-3.401542243600474, 50.640736797080926], [-3.401737364978076, 50.64049003340148], [-3.403332203452388, 50.641160623516704], [-3.4036422195100866, 50.64148429309792], [-3.4038592106836187, 50.641967642578535]]]}}, {"type": "Feature", "properties": {"type": "postcode-cell", "postcode": "EX8 3LG", "postcodes": ["EX8 3LG"]}, "geometry": {"type": "Polygon", "coordinates": [[[-3.403863606531868, 50.63363236478109], [-3.402940562078109, 50.6341982273106], [-3.402191514870416, 50.63422119174876], [-3.4014583648108956, 50.633651595539526], [-3.4015299897100353, 50.63358999467539], [-3.4019499897100838, 50.63402999467572], [-3.4022759220477283, 50.63315141281855], [-3.403551977432708, 50.63321135582913], [-3.403863606531868, 50.63363236478109]]]}}, {"type": "Feature", "properties": {"type": "postcode-cell", "postcode": "EX8 3LF", "postcodes": ["EX8 3LF"]}, "geometry": {"type": "Polygon", "coordinates": [[[-3.4035530862948895, 50.635713671062284], [-3.4027560410566835, 50.63630691612903], [-3.4017228619370847, 50.63630525436652], [-3.4005225313459877, 50.635816871207105], [-3.401982590126226, 50.63501855973589], [-3.4034674498924193, 50.6354345022659], [-3.4035530862948895, 50.635713671062284]]]}}, {"type": "Feature", "properties": {"type": "postcode-cell", "postcode": "EX8 4QP", "postcodes": ["EX8 4QP"]}, "geometry": {"type": "Polygon", "coordinates": [[[-3.4039895162492266, 50.6400434406518], [-3.403454878026391, 50.64019671258714], [-3.40217565160187, 50.639855798240504], [-3.402846447906811, 50.63925991711338], [-3.403819974946787, 50.63933986592346], [-3.4039895162492266, 50.6400434406518]]]}}, {"type": "Feature", "properties": {"type": "postcode-cell", "postcode": "EX8 4QZ", "postcodes": ["EX8 4QZ"]}, "geometry": {"type": "Polygon", "coordinates": [[[-3.4038828701868438, 50.63839804076649], [-3.402729445230342, 50.63894164783995], [-3.4023038403287407, 50.63862547885008], [-3.402600014024479, 50.63803570878737], [-3.4029073208902116, 50.63791654928937], [-3.4035233832947758, 50.637860979679346], [-3.4038828701868438, 50.63839804076649]]]}}, {"type": "Feature", "properties": {"type": "postcode-cell", "postcode": "EX8 4PR", "postcodes": ["EX8 4PR"]}, "geometry": {"type": "Polygon", "coordinates": [[[-3.4029073208902116, 50.63791654928937], [-3.402600014024479, 50.63803570878737], [-3.401431534617764, 50.63771273455116], [-3.4015301367734816, 50.637421108568155], [-3.4018478619580126, 50.63716340586288], [-3.4023841005491895, 50.63725043383966], [-3.4029073208902116, 50.63791654928937]]]}}, {"type": "Feature", "properties": {"type": "postcode-cell", "postcode": "EX8 4PF", "postcodes": ["EX8 4PF"]}, "geometry": {"type": "Polygon", "coordinates": [[[-3.3975724189677234, 50.636520527851076], [-3.3974405809077286, 50.63665032862644], [-3.39636424963118, 50.63666316717008], [-3.395898776207726, 50.63658011774518], [-3.395719913449059, 50.63584295204238], [-3.397474471431463, 50.635788389633795], [-3.3975724189677234, 50.636520527851076]]]}}, {"type": "Feature", "properties": {"type": "postcode-cell", "postcode": "EX8 4RB", "postcodes": ["EX8 4RB"]}, "geometry": {"type": "Polygon", "coordinates": [[[-3.40217565160187, 50.639855798240504], [-3.4017201077509287, 50.639991255879806], [-3.401331836115183, 50.639826326078925], [-3.400423141642055, 50.63916840483996], [-3.401044201928139, 50.63868838001568], [-3.4023038403287407, 50.63862547885008], [-3.402729445230342, 50.63894164783995], [-3.402846447906811, 50.63925991711338], [-3.40217565160187, 50.639855798240504]]]}}, {"type": "Feature", "properties": {"type": "postcode-cell", "postcode": "EX8 4PS", "postcodes": ["EX8 4PS"]}, "geometry": {"type": "Polygon", "coordinates": [[[-3.4023841005491895, 50.63725043383966], [-3.4018478619580126, 50.63716340586288], [-3.4017228619370847, 50.63630525436652], [-3.4027560410566835, 50.63630691612903], [-3.4033979993335852, 50.63689799752358], [-3.4023841005491895, 50.63725043383966]]]}}, {"type": "Feature", "properties": {"type": "postcode-cell", "postcode": "EX8 4QB", "postcodes": ["EX8 4QB"]}, "geometry": {"type": "Polygon", "coordinates": [[[-3.4017228619370847, 50.63630525436652], [-3.4018478619580126, 50.63716340586288], [-3.4015301367734816, 50.637421108568155], [-3.4000488279722814, 50.63680297230352], [-3.399732106361125, 50.636594654748805], [-3.3997330413179867, 50.636586544334065], [-3.4002681523068943, 50.635821720321196], [-3.4005225313459877, 50.635816871207105], [-3.4017228619370847, 50.63630525436652]]]}}, {"type": "Feature", "properties": {"type": "postcode-cell", "postcode": "EX8 4SJ", "postcodes": ["EX8 4SJ"]}, "geometry": {"type": "Polygon", "coordinates": [[[-3.402600014024479, 50.63803570878737], [-3.4023038403287407, 50.63862547885008], [-3.401044201928139, 50.63868838001568], [-3.4010102784777447, 50.63792011623008], [-3.401431534617764, 50.63771273455116], [-3.402600014024479, 50.63803570878737]]]}}, {"type": "Feature", "properties": {"type": "postcode-cell", "postcode": "EX8 5SY", "postcodes": ["EX8 5SY"]}, "geometry": {"type": "Polygon", "coordinates": [[[-3.403390540308728, 50.64330029905041], [-3.402113443805785, 50.6432708078997], [-3.4007223970400813, 50.6424200531548], [-3.4011895821090206, 50.64195310483953], [-3.4018098845477267, 50.64190537405086], [-3.4034986357478654, 50.6422745677814], [-3.403390540308728, 50.64330029905041]]]}}, {"type": "Feature", "properties": {"type": "postcode-cell", "postcode": "EX8 4PP", "postcodes": ["EX8 4PP"]}, "geometry": {"type": "Polygon", "coordinates": [[[-3.4010102784777447, 50.63792011623008], [-3.4009558973822323, 50.63790596553339], [-3.4000488279722814, 50.63680297230352], [-3.4015301367734816, 50.637421108568155], [-3.401431534617764, 50.63771273455116], [-3.4010102784777447, 50.63792011623008]]]}}, {"type": "Feature", "properties": {"type": "postcode-cell", "postcode": "EX8 5ST", "postcodes": ["EX8 5ST"]}, "geometry": {"type": "Polygon", "coordinates": [[[-3.4018098845477267, 50.64190537405086], [-3.4011895821090206, 50.64195310483953], [-3.400486851573479, 50.64161392626388], [-3.4008019086537025, 50.64101557143678], [-3.401542243600474, 50.640736797080926], [-3.4018098845477267, 50.64190537405086]]]}}, {"type": "Feature", "properties": {"type": "postcode-cell", "postcode": "EX8 5DP", "postcodes": ["EX8 5DP"]}, "geometry": {"type": "Polygon", "coordinates": [[[-3.401542243600474, 50.640736797080926], [-3.4008019086537025, 50.64101557143678], [-3.399790104479586, 50.64068665385327], [-3.401713569860223, 50.64039095957226], [-3.401737364978076, 50.64049003340148], [-3.401542243600474, 50.640736797080926]]]}}, {"type": "Feature", "properties": {"type": "postcode-cell", "postcode": "EX8 5DR", "postcodes": ["EX8 5DR"]}, "geometry": {"type": "Polygon", "coordinates": [[[-3.4010102784777447, 50.63792011623008], [-3.401044201928139, 50.63868838001568], [-3.400423141642055, 50.63916840483996], [-3.4002505567929457, 50.639164175215086], [-3.399507149331871, 50.63886466777913], [-3.399681576239485, 50.637829241058036], [-3.4009558973822323, 50.63790596553339], [-3.4010102784777447, 50.63792011623008]]]}}, {"type": "Feature", "properties": {"type": "postcode-cell", "postcode": "EX8 5SH", "postcodes": ["EX8 5SH"]}, "geometry": {"type": "Polygon", "coordinates": [[[-3.40114519063045, 50.64337673925933], [-3.400629135191644, 50.6441550629426], [-3.3998917360727643, 50.64348278285659], [-3.4006377732089406, 50.64322261761427], [-3.40114519063045, 50.64337673925933]]]}}, {"type": "Feature", "properties": {"type": "postcode-cell", "postcode": "EX8 5SX", "postcodes": ["EX8 5SX"]}, "geometry": {"type": "Polygon", "coordinates": [[[-3.4006377732089406, 50.64322261761427], [-3.4005553133330357, 50.64307987763385], [-3.400513923859258, 50.64251980844436], [-3.4007223970400813, 50.6424200531548], [-3.402113443805785, 50.6432708078997], [-3.40114519063045, 50.64337673925933], [-3.4006377732089406, 50.64322261761427]]]}}, {"type": "Feature", "properties": {"type": "postcode-cell", "postcode": "EX8 5BL", "postcodes": ["EX8 5BL"]}, "geometry": {"type": "Polygon", "coordinates": [[[-3.401713569860223, 50.64039095957226], [-3.399790104479586, 50.64068665385327], [-3.3997359557502014, 50.64067870359448], [-3.399775875751401, 50.64051371774517], [-3.401331836115183, 50.639826326078925], [-3.4017201077509287, 50.639991255879806], [-3.401713569860223, 50.64039095957226]]]}}, {"type": "Feature", "properties": {"type": "postcode-cell", "postcode": "EX8 5DJ", "postcodes": ["EX8 5DJ"]}, "geometry": {"type": "Polygon", "coordinates": [[[-3.4008019086537025, 50.64101557143678], [-3.400486851573479, 50.64161392626388], [-3.3994760349773423, 50.6415746312672], [-3.398964450414719, 50.64120839946146], [-3.3989605784820767, 50.64113903282907], [-3.3997359557502014, 50.64067870359448], [-3.399790104479586, 50.64068665385327], [-3.4008019086537025, 50.64101557143678]]]}}, {"type": "Feature", "properties": {"type": "postcode-cell", "postcode": "EX8 5SZ", "postcodes": ["EX8 5SZ"]}, "geometry": {"type": "Polygon", "coordinates": [[[-3.4011895821090206, 50.64195310483953], [-3.4007223970400813, 50.6424200531548], [-3.400513923859258, 50.64251980844436], [-3.399350416000714, 50.642438122668814], [-3.3994760349773423, 50.6415746312672], [-3.400486851573479, 50.64161392626388], [-3.4011895821090206, 50.64195310483953]]]}}, {"type": "Feature", "properties": {"type": "postcode-cell", "postcode": "EX8 4PG", "postcodes": ["EX8 4PG"]}, "geometry": {"type": "Polygon", "coordinates": [[[-3.3997330413179867, 50.636586544334065], [-3.3975724189677234, 50.636520527851076], [-3.397474471431463, 50.635788389633795], [-3.3990299897074383, 50.6357399946771], [-3.399529713985319, 50.63531025162982], [-3.4002681523068943, 50.635821720321196], [-3.3997330413179867, 50.636586544334065]]]}}, {"type": "Feature", "properties": {"type": "postcode-cell", "postcode": "EX8 4FD", "postcodes": ["EX8 4FD"]}, "geometry": {"type": "Polygon", "coordinates": [[[-3.4000488279722814, 50.63680297230352], [-3.4009558973822323, 50.63790596553339], [-3.399681576239485, 50.637829241058036], [-3.399155311444524, 50.63737544350021], [-3.399732106361125, 50.636594654748805], [-3.4000488279722814, 50.63680297230352]]]}}, {"type": "Feature", "properties": {"type": "postcode-cell", "postcode": "EX8 5PX", "postcodes": ["EX8 5PX"]}, "geometry": {"type": "Polygon", "coordinates": [[[-3.401331836115183, 50.639826326078925], [-3.399775875751401, 50.64051371774517], [-3.399454294534311, 50.639887047058295], [-3.4002505567929457, 50.639164175215086], [-3.400423141642055, 50.63916840483996], [-3.401331836115183, 50.639826326078925]]]}}, {"type": "Feature", "properties": {"type": "postcode-cell", "postcode": "EX8 4PH", "postcodes": ["EX8 4PH"]}, "geometry": {"type": "Polygon", "coordinates": [[[-3.399681576239485, 50.637829241058036], [-3.399507149331871, 50.63886466777913], [-3.399351479828341, 50.63886024134297], [-3.398350650084685, 50.63840457178471], [-3.398692292700642, 50.63749041647638], [-3.399155311444524, 50.63737544350021], [-3.399681576239485, 50.637829241058036]]]}}, {"type": "Feature", "properties": {"type": "postcode-cell", "postcode": "EX8 5SJ", "postcodes": ["EX8 5SJ"]}, "geometry": {"type": "Polygon", "coordinates": [[[-3.4006011150553284, 50.644571164597856], [-3.3999699897036604, 50.644789994684125], [-3.399606339389609, 50.64476945450987], [-3.3988690322803934, 50.64375999766099], [-3.398880386755128, 50.643658540801226], [-3.3991350917399616, 50.64349198983186], [-3.3998917360727643, 50.64348278285659], [-3.400629135191644, 50.6441550629426], [-3.4006011150553284, 50.644571164597856]]]}}, {"type": "Feature", "properties": {"type": "postcode-cell", "postcode": "EX8 5SS", "postcodes": ["EX8 5SS"]}, "geometry": {"type": "Polygon", "coordinates": [[[-3.3998917360727643, 50.64348278285659], [-3.3991350917399616, 50.64349198983186], [-3.3992731271650465, 50.64286883599585], [-3.4005553133330357, 50.64307987763385], [-3.4006377732089406, 50.64322261761427], [-3.3998917360727643, 50.64348278285659]]]}}, {"type": "Feature", "properties": {"type": "postcode-cell", "postcode": "EX8 5PA", "postcodes": ["EX8 5PA"]}, "geometry": {"type": "Polygon", "coordinates": [[[-3.4002505567929457, 50.639164175215086], [-3.399454294534311, 50.639887047058295], [-3.3983783575171507, 50.640006652597016], [-3.397874639957158, 50.63951586523711], [-3.399351479828341, 50.63886024134297], [-3.399507149331871, 50.63886466777913], [-3.4002505567929457, 50.639164175215086]]]}}, {"type": "Feature", "properties": {"type": "postcode-cell", "postcode": "EX8 5PG", "postcodes": ["EX8 5PG"]}, "geometry": {"type": "Polygon", "coordinates": [[[-3.3997359557502014, 50.64067870359448], [-3.3989605784820767, 50.64113903282907], [-3.398209243614714, 50.640614100279], [-3.3983783575171507, 50.640006652597016], [-3.399454294534311, 50.639887047058295], [-3.399775875751401, 50.64051371774517], [-3.3997359557502014, 50.64067870359448]]]}}, {"type": "Feature", "properties": {"type": "postcode-cell", "postcode": "EX8 5SE", "postcodes": ["EX8 5SE"]}, "geometry": {"type": "Polygon", "coordinates": [[[-3.399350416000714, 50.642438122668814], [-3.3992175081636367, 50.642525826388756], [-3.3983055418532078, 50.642482196444966], [-3.397468911962716, 50.64204952520425], [-3.3975197213223534, 50.64187885254176], [-3.398964450414719, 50.64120839946146], [-3.3994760349773423, 50.6415746312672], [-3.399350416000714, 50.642438122668814]]]}}, {"type": "Feature", "properties": {"type": "postcode-cell", "postcode": "EX8 5SU", "postcodes": ["EX8 5SU"]}, "geometry": {"type": "Polygon", "coordinates": [[[-3.4005553133330357, 50.64307987763385], [-3.3992731271650465, 50.64286883599585], [-3.3992175081636367, 50.642525826388756], [-3.399350416000714, 50.642438122668814], [-3.400513923859258, 50.64251980844436], [-3.4005553133330357, 50.64307987763385]]]}}, {"type": "Feature", "properties": {"type": "postcode-cell", "postcode": "EX8 5SR", "postcodes": ["EX8 5SR"]}, "geometry": {"type": "Polygon", "coordinates": [[[-3.398103501773143, 50.64403322388037], [-3.3988690322803934, 50.64375999766099], [-3.399606339389609, 50.64476945450987], [-3.397704257027668, 50.64466199978902], [-3.398103501773143, 50.64403322388037]]]}}, {"type": "Feature", "properties": {"type": "postcode-cell", "postcode": "EX8 5SQ", "postcodes": ["EX8 5SQ"]}, "geometry": {"type": "Polygon", "coordinates": [[[-3.398880386755128, 50.643658540801226], [-3.3978849943742206, 50.64326727785322], [-3.3983055418532078, 50.642482196444966], [-3.3992175081636367, 50.642525826388756], [-3.3992731271650465, 50.64286883599585], [-3.3991350917399616, 50.64349198983186], [-3.398880386755128, 50.643658540801226]]]}}, {"type": "Feature", "properties": {"type": "postcode-cell", "postcode": "EX8 5PQ", "postcodes": ["EX8 5PQ"]}, "geometry": {"type": "Polygon", "coordinates": [[[-3.398964450414719, 50.64120839946146], [-3.3975197213223534, 50.64187885254176], [-3.396578471195383, 50.64106862615353], [-3.3970833740665065, 50.64067189856386], [-3.398209243614714, 50.640614100279], [-3.3989605784820767, 50.64113903282907], [-3.398964450414719, 50.64120839946146]]]}}, {"type": "Feature", "properties": {"type": "postcode-cell", "postcode": "EX8 4PL", "postcodes": ["EX8 4PL"]}, "geometry": {"type": "Polygon", "coordinates": [[[-3.397874639957158, 50.63951586523711], [-3.397743324767642, 50.639488569889075], [-3.3976369456035838, 50.639417772623965], [-3.3973940094219417, 50.63903104189237], [-3.3975846527867555, 50.638665417932806], [-3.3982826589350386, 50.638410975582154], [-3.398350650084685, 50.63840457178471], [-3.399351479828341, 50.63886024134297], [-3.397874639957158, 50.63951586523711]]]}}, {"type": "Feature", "properties": {"type": "postcode-cell", "postcode": "EX8 4PQ", "postcodes": ["EX8 4PQ"]}, "geometry": {"type": "Polygon", "coordinates": [[[-3.399732106361125, 50.636594654748805], [-3.399155311444524, 50.63737544350021], [-3.398692292700642, 50.63749041647638], [-3.39763364369799, 50.63738182397852], [-3.3974405809077286, 50.63665032862644], [-3.3975724189677234, 50.636520527851076], [-3.3997330413179867, 50.636586544334065], [-3.399732106361125, 50.636594654748805]]]}}, {"type": "Feature", "properties": {"type": "postcode-cell", "postcode": "EX8 5PE", "postcodes": ["EX8 5PE"]}, "geometry": {"type": "Polygon", "coordinates": [[[-3.398209243614714, 50.640614100279], [-3.3970833740665065, 50.64067189856386], [-3.396817455160869, 50.640179144041646], [-3.397743324767642, 50.639488569889075], [-3.397874639957158, 50.63951586523711], [-3.3983783575171507, 50.640006652597016], [-3.398209243614714, 50.640614100279]]]}}, {"type": "Feature", "properties": {"type": "postcode-cell", "postcode": "EX8 5SN", "postcodes": ["EX8 5SN"]}, "geometry": {"type": "Polygon", "coordinates": [[[-3.398880386755128, 50.643658540801226], [-3.3988690322803934, 50.64375999766099], [-3.398103501773143, 50.64403322388037], [-3.397193394844062, 50.64390941323852], [-3.3969687155550203, 50.64348743838396], [-3.397153748144815, 50.64329717495721], [-3.3978849943742206, 50.64326727785322], [-3.398880386755128, 50.643658540801226]]]}}, {"type": "Feature", "properties": {"type": "postcode-cell", "postcode": "EX8 4NZ", "postcodes": ["EX8 4NZ"]}, "geometry": {"type": "Polygon", "coordinates": [[[-3.39763364369799, 50.63738182397852], [-3.3970327221447763, 50.637675353436386], [-3.3969777426337675, 50.63768957999184], [-3.39636424963118, 50.63666316717008], [-3.3974405809077286, 50.63665032862644], [-3.39763364369799, 50.63738182397852]]]}}, {"type": "Feature", "properties": {"type": "postcode-cell", "postcode": "EX8 5SA", "postcodes": ["EX8 5SA"]}, "geometry": {"type": "Polygon", "coordinates": [[[-3.3983055418532078, 50.642482196444966], [-3.3978849943742206, 50.64326727785322], [-3.397153748144815, 50.64329717495721], [-3.396716973435238, 50.64262637143206], [-3.3967757357163726, 50.6423906198616], [-3.397468911962716, 50.64204952520425], [-3.3983055418532078, 50.642482196444966]]]}}, {"type": "Feature", "properties": {"type": "postcode-cell", "postcode": "EX8 4PJ", "postcodes": ["EX8 4PJ"]}, "geometry": {"type": "Polygon", "coordinates": [[[-3.398350650084685, 50.63840457178471], [-3.3982826589350386, 50.638410975582154], [-3.3970327221447763, 50.637675353436386], [-3.39763364369799, 50.63738182397852], [-3.398692292700642, 50.63749041647638], [-3.398350650084685, 50.63840457178471]]]}}, {"type": "Feature", "properties": {"type": "postcode-cell", "postcode": "EX8 5SW", "postcodes": ["EX8 5SW"]}, "geometry": {"type": "Polygon", "coordinates": [[[-3.397704257027668, 50.64466199978902], [-3.39688690087868, 50.644615815022966], [-3.397193394844062, 50.64390941323852], [-3.398103501773143, 50.64403322388037], [-3.397704257027668, 50.64466199978902]]]}}, {"type": "Feature", "properties": {"type": "postcode-cell", "postcode": "EX8 5SP", "postcodes": ["EX8 5SP"]}, "geometry": {"type": "Polygon", "coordinates": [[[-3.395811314428666, 50.643977615389105], [-3.396397444610305, 50.643590427977564], [-3.3969687155550203, 50.64348743838396], [-3.397193394844062, 50.64390941323852], [-3.39688690087868, 50.644615815022966], [-3.396429989701548, 50.64458999468404], [-3.3956976698883654, 50.644242914690324], [-3.395811314428666, 50.643977615389105]]]}}, {"type": "Feature", "properties": {"type": "postcode-cell", "postcode": "EX8 4PW", "postcodes": ["EX8 4PW"]}, "geometry": {"type": "Polygon", "coordinates": [[[-3.3975846527867555, 50.638665417932806], [-3.3964881839662877, 50.63789719782583], [-3.3969777426337675, 50.63768957999184], [-3.3970327221447763, 50.637675353436386], [-3.3982826589350386, 50.638410975582154], [-3.3975846527867555, 50.638665417932806]]]}}, {"type": "Feature", "properties": {"type": "postcode-cell", "postcode": "EX8 5PF", "postcodes": ["EX8 5PF"]}, "geometry": {"type": "Polygon", "coordinates": [[[-3.396578471195383, 50.64106862615353], [-3.396126875299546, 50.641093358864936], [-3.3953015609447217, 50.64017603083654], [-3.39603695932896, 50.63992344779851], [-3.396817455160869, 50.640179144041646], [-3.3970833740665065, 50.64067189856386], [-3.396578471195383, 50.64106862615353]]]}}, {"type": "Feature", "properties": {"type": "postcode-cell", "postcode": "EX8 5PH", "postcodes": ["EX8 5PH"]}, "geometry": {"type": "Polygon", "coordinates": [[[-3.397468911962716, 50.64204952520425], [-3.3967757357163726, 50.6423906198616], [-3.39594518717137, 50.642130794540485], [-3.3958056250399276, 50.641262079893444], [-3.396126875299546, 50.641093358864936], [-3.396578471195383, 50.64106862615353], [-3.3975197213223534, 50.64187885254176], [-3.397468911962716, 50.64204952520425]]]}}, {"type": "Feature", "properties": {"type": "postcode-cell", "postcode": "EX8 5PD", "postcodes": ["EX8 5PD"]}, "geometry": {"type": "Polygon", "coordinates": [[[-3.396817455160869, 50.640179144041646], [-3.39603695932896, 50.63992344779851], [-3.396162453564263, 50.63954445029039], [-3.3976369456035838, 50.639417772623965], [-3.397743324767642, 50.639488569889075], [-3.396817455160869, 50.640179144041646]]]}}, {"type": "Feature", "properties": {"type": "postcode-cell", "postcode": "EX8 4PN", "postcodes": ["EX8 4PN"]}, "geometry": {"type": "Polygon", "coordinates": [[[-3.3973940094219417, 50.63903104189237], [-3.396962038999203, 50.63896682768017], [-3.3962020985204817, 50.638195755272086], [-3.396118176256414, 50.63794694240892], [-3.3964881839662877, 50.63789719782583], [-3.3975846527867555, 50.638665417932806], [-3.3973940094219417, 50.63903104189237]]]}}, {"type": "Feature", "properties": {"type": "postcode-cell", "postcode": "EX8 5NN", "postcodes": ["EX8 5NN"]}, "geometry": {"type": "Polygon", "coordinates": [[[-3.3973940094219417, 50.63903104189237], [-3.3976369456035838, 50.639417772623965], [-3.396162453564263, 50.63954445029039], [-3.3959634915755124, 50.639216848931355], [-3.396138653919666, 50.63909511060198], [-3.396962038999203, 50.63896682768017], [-3.3973940094219417, 50.63903104189237]]]}}, {"type": "Feature", "properties": {"type": "postcode-cell", "postcode": "EX8 5NE", "postcodes": ["EX8 5NE"]}, "geometry": {"type": "Polygon", "coordinates": [[[-3.396962038999203, 50.63896682768017], [-3.396138653919666, 50.63909511060198], [-3.3962020985204817, 50.638195755272086], [-3.396962038999203, 50.63896682768017]]]}}, {"type": "Feature", "properties": {"type": "postcode-cell", "postcode": "EX8 4NY", "postcodes": ["EX8 4NY"]}, "geometry": {"type": "Polygon", "coordinates": [[[-3.3964881839662877, 50.63789719782583], [-3.396118176256414, 50.63794694240892], [-3.3947283680298543, 50.637745781354745], [-3.394666360594524, 50.63772110917641], [-3.395898776207726, 50.63658011774518], [-3.39636424963118, 50.63666316717008], [-3.3969777426337675, 50.63768957999184], [-3.3964881839662877, 50.63789719782583]]]}}, {"type": "Feature", "properties": {"type": "postcode-cell", "postcode": "EX8 5NW", "postcodes": ["EX8 5NW"]}, "geometry": {"type": "Polygon", "coordinates": [[[-3.396162453564263, 50.63954445029039], [-3.39603695932896, 50.63992344779851], [-3.3953015609447217, 50.64017603083654], [-3.395241211144814, 50.640169817059075], [-3.394892842007748, 50.639359783609166], [-3.3953046741807418, 50.639100394487116], [-3.3959634915755124, 50.639216848931355], [-3.396162453564263, 50.63954445029039]]]}}, {"type": "Feature", "properties": {"type": "postcode-cell", "postcode": "EX8 5SG", "postcodes": ["EX8 5SG"]}, "geometry": {"type": "Polygon", "coordinates": [[[-3.3969687155550203, 50.64348743838396], [-3.396397444610305, 50.643590427977564], [-3.3955347341009747, 50.64303142999923], [-3.396716973435238, 50.64262637143206], [-3.397153748144815, 50.64329717495721], [-3.3969687155550203, 50.64348743838396]]]}}, {"type": "Feature", "properties": {"type": "postcode-cell", "postcode": "EX8 5NF", "postcodes": ["EX8 5NF"]}, "geometry": {"type": "Polygon", "coordinates": [[[-3.3962020985204817, 50.638195755272086], [-3.396138653919666, 50.63909511060198], [-3.3959634915755124, 50.639216848931355], [-3.3953046741807418, 50.639100394487116], [-3.3947283680298543, 50.637745781354745], [-3.396118176256414, 50.63794694240892], [-3.3962020985204817, 50.638195755272086]]]}}, {"type": "Feature", "properties": {"type": "postcode-cell", "postcode": "EX8 5SB", "postcodes": ["EX8 5SB"]}, "geometry": {"type": "Polygon", "coordinates": [[[-3.3952818029161738, 50.643492241386106], [-3.395811314428666, 50.643977615389105], [-3.3956976698883654, 50.644242914690324], [-3.3946883395713705, 50.6437645306251], [-3.3952818029161738, 50.643492241386106]]]}}, {"type": "Feature", "properties": {"type": "postcode-cell", "postcode": "EX8 5SD", "postcodes": ["EX8 5SD"]}, "geometry": {"type": "Polygon", "coordinates": [[[-3.395811314428666, 50.643977615389105], [-3.3952818029161738, 50.643492241386106], [-3.395221228981111, 50.64302898583231], [-3.3955347341009747, 50.64303142999923], [-3.396397444610305, 50.643590427977564], [-3.395811314428666, 50.643977615389105]]]}}, {"type": "Feature", "properties": {"type": "postcode-cell", "postcode": "EX8 5PL", "postcodes": ["EX8 5PL"]}, "geometry": {"type": "Polygon", "coordinates": [[[-3.396716973435238, 50.64262637143206], [-3.3955347341009747, 50.64303142999923], [-3.395221228981111, 50.64302898583231], [-3.395004173716597, 50.64294339638625], [-3.3951137367016857, 50.642287654792916], [-3.39594518717137, 50.642130794540485], [-3.3967757357163726, 50.6423906198616], [-3.396716973435238, 50.64262637143206]]]}}, {"type": "Feature", "properties": {"type": "postcode-cell", "postcode": "EX8 5PJ", "postcodes": ["EX8 5PJ"]}, "geometry": {"type": "Polygon", "coordinates": [[[-3.39594518717137, 50.642130794540485], [-3.3951137367016857, 50.642287654792916], [-3.3941638060584074, 50.64173749899316], [-3.394849989702073, 50.64145999468164], [-3.394766803056016, 50.641350818563645], [-3.3958056250399276, 50.641262079893444], [-3.39594518717137, 50.642130794540485]]]}}, {"type": "Feature", "properties": {"type": "postcode-cell", "postcode": "EX8 5NG", "postcodes": ["EX8 5NG"]}, "geometry": {"type": "Polygon", "coordinates": [[[-3.3947283680298543, 50.637745781354745], [-3.3953046741807418, 50.639100394487116], [-3.394892842007748, 50.639359783609166], [-3.3944347742220846, 50.639347484914346], [-3.3941353011717457, 50.63769358809355], [-3.394666360594524, 50.63772110917641], [-3.3947283680298543, 50.637745781354745]]]}}, {"type": "Feature", "properties": {"type": "postcode-cell", "postcode": "EX8 5SF", "postcodes": ["EX8 5SF"]}, "geometry": {"type": "Polygon", "coordinates": [[[-3.395221228981111, 50.64302898583231], [-3.3952818029161738, 50.643492241386106], [-3.3946883395713705, 50.6437645306251], [-3.394027444427278, 50.64345128144755], [-3.3941347657374035, 50.64335589936569], [-3.394797582672875, 50.64297951175826], [-3.395004173716597, 50.64294339638625], [-3.395221228981111, 50.64302898583231]]]}}, {"type": "Feature", "properties": {"type": "postcode-cell", "postcode": "EX8 5PR", "postcodes": ["EX8 5PR"]}, "geometry": {"type": "Polygon", "coordinates": [[[-3.3958056250399276, 50.641262079893444], [-3.394766803056016, 50.641350818563645], [-3.3940750329673337, 50.640442900873325], [-3.395241211144814, 50.640169817059075], [-3.3953015609447217, 50.64017603083654], [-3.396126875299546, 50.641093358864936], [-3.3958056250399276, 50.641262079893444]]]}}, {"type": "Feature", "properties": {"type": "postcode-cell", "postcode": "EX8 5PN", "postcodes": ["EX8 5PN"]}, "geometry": {"type": "Polygon", "coordinates": [[[-3.395004173716597, 50.64294339638625], [-3.394797582672875, 50.64297951175826], [-3.3941387961079443, 50.64267984852526], [-3.393923425748892, 50.64183471114879], [-3.3941638060584074, 50.64173749899316], [-3.3951137367016857, 50.642287654792916], [-3.395004173716597, 50.64294339638625]]]}}, {"type": "Feature", "properties": {"type": "postcode-cell", "postcode": "EX8 5PZ", "postcodes": ["EX8 5PZ"]}, "geometry": {"type": "Polygon", "coordinates": [[[-3.393673065575273, 50.64276575477888], [-3.3941347657374035, 50.64335589936569], [-3.394027444427278, 50.64345128144755], [-3.3927799897001085, 50.642859994682745], [-3.3929419874280566, 50.642666056792145], [-3.393673065575273, 50.64276575477888]]]}}, {"type": "Feature", "properties": {"type": "postcode-cell", "postcode": "EX8 5NP", "postcodes": ["EX8 5NP"]}, "geometry": {"type": "Polygon", "coordinates": [[[-3.395241211144814, 50.640169817059075], [-3.3940750329673337, 50.640442900873325], [-3.393487690267924, 50.63967200827286], [-3.3936931302251243, 50.639512308586696], [-3.3944347742220846, 50.639347484914346], [-3.394892842007748, 50.639359783609166], [-3.395241211144814, 50.640169817059075]]]}}, {"type": "Feature", "properties": {"type": "postcode-cell", "postcode": "EX8 5NQ", "postcodes": ["EX8 5NQ"]}, "geometry": {"type": "Polygon", "coordinates": [[[-3.3941353011717457, 50.63769358809355], [-3.3944347742220846, 50.639347484914346], [-3.3936931302251243, 50.639512308586696], [-3.3936530996593888, 50.63811715536156], [-3.394035858771885, 50.63768159382972], [-3.3941353011717457, 50.63769358809355]]]}}, {"type": "Feature", "properties": {"type": "postcode-cell", "postcode": "EX8 5PW", "postcodes": ["EX8 5PW"]}, "geometry": {"type": "Polygon", "coordinates": [[[-3.3941387961079443, 50.64267984852526], [-3.393673065575273, 50.64276575477888], [-3.3929419874280566, 50.642666056792145], [-3.3934899897009596, 50.64200999468209], [-3.393923425748892, 50.64183471114879], [-3.3941387961079443, 50.64267984852526]]]}}, {"type": "Feature", "properties": {"type": "postcode-cell", "postcode": "EX8 5NL", "postcodes": ["EX8 5NL"]}, "geometry": {"type": "Polygon", "coordinates": [[[-3.3936931302251243, 50.639512308586696], [-3.393487690267924, 50.63967200827286], [-3.392929989702092, 50.63893999467972], [-3.3936530996593888, 50.63811715536156], [-3.3936931302251243, 50.639512308586696]]]}}, {"type": "Feature", "properties": {"type": "postcode-cell", "postcode": "EX8 5DE", "postcodes": ["EX8 5DE"]}, "geometry": {"type": "Polygon", "coordinates": [[[-3.3941347657374035, 50.64335589936569], [-3.393673065575273, 50.64276575477888], [-3.3941387961079443, 50.64267984852526], [-3.394797582672875, 50.64297951175826], [-3.3941347657374035, 50.64335589936569]]]}}]}