{"type": "FeatureCollection", "features": [{"type": "Feature", "properties": {"type": "ward-outline", "name": "Exmouth Withycombe Raleigh"}, "geometry": {"type": "Polygon", "coordinates": [[[-3.35676, 50.63291], [-3.36212, 50.63313], [-3.37136, 50.63182], [-3.37627, 50.62987], [-3.38206, 50.62826], [-3.39016, 50.6241], [-3.39227, 50.62508], [-3.39389, 50.62534], [-3.39381, 50.62491], [-3.39822, 50.62292], [-3.40021, 50.6225], [-3.40125, 50.62379], [-3.39914, 50.6245], [-3.39996, 50.62518], [-3.40067, 50.62485], [-3.40127, 50.62505], [-3.40259, 50.62627], [-3.40395, 50.62686], [-3.40574, 50.62666], [-3.40365, 50.62762], [-3.40454, 50.62843], [-3.40354, 50.62966], [-3.40413, 50.63052], [-3.40264, 50.63217], [-3.40195, 50.63403], [-3.40153, 50.63359], [-3.3959, 50.63066], [-3.39431, 50.63176], [-3.39339, 50.63108], [-3.3905, 50.63137], [-3.38999, 50.63111], [-3.39002, 50.63071], [-3.39146, 50.63058], [-3.39107, 50.63005], [-3.38876, 50.6305], [-3.38874, 50.63091], [-3.38557, 50.63179], [-3.38353, 50.63202], [-3.38299, 50.63261], [-3.38169, 50.63259], [-3.3808, 50.63301], [-3.37947, 50.63306], [-3.37923, 50.63398], [-3.38001, 50.63663], [-3.37926, 50.63757], [-3.37963, 50.63825], [-3.37745, 50.64023], [-3.3744, 50.64185], [-3.37478, 50.64209], [-3.37471, 50.64301], [-3.37278, 50.64611], [-3.37346, 50.6476], [-3.37045, 50.64854], [-3.36807, 50.6499], [-3.3632, 50.65041], [-3.36274, 50.65012], [-3.36309, 50.64576], [-3.36351, 50.64457], [-3.3653, 50.6429], [-3.36327, 50.64158], [-3.36064, 50.63919], [-3.35772, 50.63808], [-3.35904, 50.63748], [-3.35676, 50.63291]]]}}, {"type": "Feature", "properties": {"type": "postcode-cell", "postcode": "EX8 3AR", "postcodes": ["EX8 3AR"]}, "geometry": {"type": "Polygon", "coordinates": [[[-3.403248788890668, 50.62935103287649], [-3.4030932196430292, 50.628374623617184], [-3.4042870671500833, 50.628199810292394], [-3.4045399897143986, 50.628429994671315], [-3.4037104085376204, 50.62945038461005], [-3.403248788890668, 50.62935103287649]]]}}, {"type": "Feature", "properties": {"type": "postcode-cell", "postcode": "EX8 3AB", "postcodes": ["EX8 3AB"]}, "geometry": {"type": "Polygon", "coordinates": [[[-3.403929173973971, 50.62685096454487], [-3.40394998971479, 50.62685999467013], [-3.4057399897160012, 50.626659994669936], [-3.404063222585298, 50.62743019040263], [-3.403929173973971, 50.62685096454487]]]}}, {"type": "Feature", "properties": {"type": "postcode-cell", "postcode": "EX8 2JD", "postcodes": ["EX8 2JD"]}, "geometry": {"type": "Polygon", "coordinates": [[[-3.4002612810696995, 50.62398960046164], [-3.39911762831652, 50.62313582231257], [-3.3990118980395834, 50.62275286318966], [-3.400209989714562, 50.62249999466681], [-3.4012499897145867, 50.62378999466777], [-3.4005085011973972, 50.62403950704734], [-3.4002612810696995, 50.62398960046164]]]}}, {"type": "Feature", "properties": {"type": "postcode-cell", "postcode": "EX8 3PZ", "postcodes": ["EX8 3PZ"]}, "geometry": {"type": "Polygon", "coordinates": [[[-3.4020318621409995, 50.627523910749275], [-3.401700432123831, 50.62743317791455], [-3.401245290653507, 50.62625581432467], [-3.4012537176086357, 50.626240435506766], [-3.401968221676496, 50.6256953401404], [-3.402589989714226, 50.626269994669684], [-3.403532342630388, 50.626678812826334], [-3.4020318621409995, 50.627523910749275]]]}}, {"type": "Feature", "properties": {"type": "postcode-cell", "postcode": "EX8 3AY", "postcodes": ["EX8 3AY"]}, "geometry": {"type": "Polygon", "coordinates": [[[-3.402527528444159, 50.62803821643606], [-3.401510554843688, 50.628899814525994], [-3.4014611509190984, 50.628899298997766], [-3.400821728429246, 50.62860227914746], [-3.4007132290754405, 50.62825837721031], [-3.401383573344294, 50.627538155399485], [-3.401700432123831, 50.62743317791455], [-3.4020318621409995, 50.627523910749275], [-3.4023548028802817, 50.62775517678419], [-3.402527528444159, 50.62803821643606]]]}}, {"type": "Feature", "properties": {"type": "postcode-cell", "postcode": "EX8 3AE", "postcodes": ["EX8 3AE"]}, "geometry": {"type": "Polygon", "coordinates": [[[-3.4023548028802817, 50.62775517678419], [-3.4039433061947926, 50.62748527016793], [-3.403649989714235, 50.62761999467071], [-3.4042870671500833, 50.628199810292394], [-3.4030932196430292, 50.628374623617184], [-3.402527528444159, 50.62803821643606], [-3.4023548028802817, 50.62775517678419]]]}}, {"type": "Feature", "properties": {"type": "postcode-cell", "postcode": "EX8 3AG", "postcodes": ["EX8 3AG"]}, "geometry": {"type": "Polygon", "coordinates": [[[-3.403248788890668, 50.62935103287649], [-3.402591777225004, 50.62953133125857], [-3.401510554843688, 50.628899814525994], [-3.402527528444159, 50.62803821643606], [-3.4030932196430292, 50.628374623617184], [-3.403248788890668, 50.62935103287649]]]}}, {"type": "Feature", "properties": {"type": "postcode-cell", "postcode": "EX8 3AD", "postcodes": ["EX8 3AD"]}, "geometry": {"type": "Polygon", "coordinates": [[[-3.4023548028802817, 50.62775517678419], [-3.4020318621409995, 50.627523910749275], [-3.403532342630388, 50.626678812826334], [-3.403929173973971, 50.62685096454487], [-3.404063222585298, 50.62743019040263], [-3.4039433061947926, 50.62748527016793], [-3.4023548028802817, 50.62775517678419]]]}}, {"type": "Feature", "properties": {"type": "postcode-cell", "postcode": "EX8 3AH", "postcodes": ["EX8 3AH"]}, "geometry": {"type": "Polygon", "coordinates": [[[-3.4028373121551656, 50.63093915032464], [-3.4024465015370176, 50.62966902806947], [-3.402591777225004, 50.62953133125857], [-3.403248788890668, 50.62935103287649], [-3.4037104085376204, 50.62945038461005], [-3.4035399897131833, 50.62965999467231], [-3.4041299897131356, 50.63051999467297], [-3.4035246920290607, 50.63119030684751], [-3.4028373121551656, 50.63093915032464]]]}}, {"type": "Feature", "properties": {"type": "postcode-cell", "postcode": "EX8 3AL", "postcodes": ["EX8 3AL"]}, "geometry": {"type": "Polygon", "coordinates": [[[-3.4028373121551656, 50.63093915032464], [-3.4018452269974415, 50.630927592026886], [-3.4016251870111294, 50.62988849450981], [-3.4024465015370176, 50.62966902806947], [-3.4028373121551656, 50.63093915032464]]]}}, {"type": "Feature", "properties": {"type": "postcode-cell", "postcode": "EX8 3AJ", "postcodes": ["EX8 3AJ"]}, "geometry": {"type": "Polygon", "coordinates": [[[-3.4035246920290607, 50.63119030684751], [-3.402650746613911, 50.63215808314599], [-3.4010627294260463, 50.631656401933746], [-3.400586541585135, 50.63117801941714], [-3.4018452269974415, 50.630927592026886], [-3.4028373121551656, 50.63093915032464], [-3.4035246920290607, 50.63119030684751]]]}}, {"type": "Feature", "properties": {"type": "postcode-cell", "postcode": "EX8 3AQ", "postcodes": ["EX8 3AQ"]}, "geometry": {"type": "Polygon", "coordinates": [[[-3.4024465015370176, 50.62966902806947], [-3.4016251870111294, 50.62988849450981], [-3.401451425530158, 50.629888494687755], [-3.4008507746470102, 50.629391806516466], [-3.4014611509190984, 50.628899298997766], [-3.401510554843688, 50.628899814525994], [-3.402591777225004, 50.62953133125857], [-3.4024465015370176, 50.62966902806947]]]}}, {"type": "Feature", "properties": {"type": "postcode-cell", "postcode": "EX8 3LH", "postcodes": ["EX8 3LH"]}, "geometry": {"type": "Polygon", "coordinates": [[[-3.4010627294260463, 50.631656401933746], [-3.402650746613911, 50.63215808314599], [-3.4026399897114104, 50.63216999467427], [-3.4019499897100838, 50.63402999467572], [-3.4015299897100353, 50.63358999467539], [-3.4008251053097878, 50.633223189492966], [-3.4010627294260463, 50.631656401933746]]]}}, {"type": "Feature", "properties": {"type": "postcode-cell", "postcode": "EX8 3AP", "postcodes": ["EX8 3AP"]}, "geometry": {"type": "Polygon", "coordinates": [[[-3.4018452269974415, 50.630927592026886], [-3.400586541585135, 50.63117801941714], [-3.400074410208963, 50.63106967523908], [-3.39963881305462, 50.630791869633], [-3.3996663977699066, 50.63068741719358], [-3.401451425530158, 50.629888494687755], [-3.4016251870111294, 50.62988849450981], [-3.4018452269974415, 50.630927592026886]]]}}, {"type": "Feature", "properties": {"type": "postcode-cell", "postcode": "EX8 3QH", "postcodes": ["EX8 3QH"]}, "geometry": {"type": "Polygon", "coordinates": [[[-3.401700432123831, 50.62743317791455], [-3.401383573344294, 50.627538155399485], [-3.3998148199463465, 50.62743812751444], [-3.3999510102803447, 50.62653983646149], [-3.401245290653507, 50.62625581432467], [-3.401700432123831, 50.62743317791455]]]}}, {"type": "Feature", "properties": {"type": "postcode-cell", "postcode": "EX8 3AN", "postcodes": ["EX8 3AN"]}, "geometry": {"type": "Polygon", "coordinates": [[[-3.4008507746470102, 50.629391806516466], [-3.400166903066459, 50.62940009359997], [-3.400074350043567, 50.62896840706117], [-3.400821728429246, 50.62860227914746], [-3.4014611509190984, 50.628899298997766], [-3.4008507746470102, 50.629391806516466]]]}}, {"type": "Feature", "properties": {"type": "postcode-cell", "postcode": "EX8 4NP", "postcodes": ["EX8 4NP"]}, "geometry": {"type": "Polygon", "coordinates": [[[-3.400074410208963, 50.63106967523908], [-3.399550556520544, 50.632559918854454], [-3.3972975779714085, 50.63138739630508], [-3.3975631430557285, 50.63116505257663], [-3.3976939977545544, 50.6311263235129], [-3.39963881305462, 50.630791869633], [-3.400074410208963, 50.63106967523908]]]}}, {"type": "Feature", "properties": {"type": "postcode-cell", "postcode": "EX8 4QA", "postcodes": ["EX8 4QA"]}, "geometry": {"type": "Polygon", "coordinates": [[[-3.400586541585135, 50.63117801941714], [-3.4010627294260463, 50.631656401933746], [-3.4008251053097878, 50.633223189492966], [-3.399550556520544, 50.632559918854454], [-3.400074410208963, 50.63106967523908], [-3.400586541585135, 50.63117801941714]]]}}, {"type": "Feature", "properties": {"type": "postcode-cell", "postcode": "EX8 3QU", "postcodes": ["EX8 3QU"]}, "geometry": {"type": "Polygon", "coordinates": [[[-3.4007132290754405, 50.62825837721031], [-3.3992412759241777, 50.62821058560581], [-3.3996171712528787, 50.62749864844889], [-3.3998148199463465, 50.62743812751444], [-3.401383573344294, 50.627538155399485], [-3.4007132290754405, 50.62825837721031]]]}}, {"type": "Feature", "properties": {"type": "postcode-cell", "postcode": "EX8 3AW", "postcodes": ["EX8 3AW"]}, "geometry": {"type": "Polygon", "coordinates": [[[-3.3996663977699066, 50.63068741719358], [-3.3994916140723133, 50.63005004274423], [-3.39956281602617, 50.62989951536127], [-3.400166903066459, 50.62940009359997], [-3.4008507746470102, 50.629391806516466], [-3.401451425530158, 50.629888494687755], [-3.3996663977699066, 50.63068741719358]]]}}, {"type": "Feature", "properties": {"type": "postcode-cell", "postcode": "EX8 3RE", "postcodes": ["EX8 3RE"]}, "geometry": {"type": "Polygon", "coordinates": [[[-3.400821728429246, 50.62860227914746], [-3.400074350043567, 50.62896840706117], [-3.399290600768619, 50.62863174075551], [-3.3990424144817486, 50.62832480574499], [-3.3992412759241777, 50.62821058560581], [-3.4007132290754405, 50.62825837721031], [-3.400821728429246, 50.62860227914746]]]}}, {"type": "Feature", "properties": {"type": "postcode-cell", "postcode": "EX8 3QQ", "postcodes": ["EX8 3QQ"]}, "geometry": {"type": "Polygon", "coordinates": [[[-3.3999510102803447, 50.62653983646149], [-3.3991215325903985, 50.62642331628704], [-3.3987685969751067, 50.62616821456554], [-3.399183331214248, 50.625652740372345], [-3.399741118317233, 50.625600241042214], [-3.4012537176086357, 50.626240435506766], [-3.401245290653507, 50.62625581432467], [-3.3999510102803447, 50.62653983646149]]]}}, {"type": "Feature", "properties": {"type": "postcode-cell", "postcode": "EX8 3QG", "postcodes": ["EX8 3QG"]}, "geometry": {"type": "Polygon", "coordinates": [[[-3.4012537176086357, 50.626240435506766], [-3.399741118317233, 50.625600241042214], [-3.400185958944012, 50.62507496768248], [-3.400669989713715, 50.62484999466864], [-3.401269989713991, 50.62504999466874], [-3.401968221676496, 50.6256953401404], [-3.4012537176086357, 50.626240435506766]]]}}, {"type": "Feature", "properties": {"type": "postcode-cell", "postcode": "EX8 4SX", "postcodes": ["EX8 4SX"]}, "geometry": {"type": "Polygon", "coordinates": [[[-3.381329087965809, 50.63201190278026], [-3.382140642897975, 50.6311508108415], [-3.383019366943266, 50.63136751457178], [-3.383386967008734, 50.63217626187378], [-3.3829899896989586, 50.63260999467498], [-3.3816899896981587, 50.63258999467498], [-3.380884355828581, 50.632970182054834], [-3.381329087965809, 50.63201190278026]]]}}, {"type": "Feature", "properties": {"type": "postcode-cell", "postcode": "EX8 5EF", "postcodes": ["EX8 5EF"]}, "geometry": {"type": "Polygon", "coordinates": [[[-3.3742678446943404, 50.64030336492233], [-3.3768820876543026, 50.6405316488682], [-3.3743999896891497, 50.6418499946823], [-3.374779989689269, 50.6420899946825], [-3.374709989688782, 50.64300999468318], [-3.372779989686083, 50.64610999468566], [-3.373459989685786, 50.64759999468679], [-3.3704499896834585, 50.648539994687575], [-3.3689176318496106, 50.64941564223735], [-3.3742678446943404, 50.64030336492233]]]}}, {"type": "Feature", "properties": {"type": "postcode-cell", "postcode": "EX8 3BA", "postcodes": ["EX8 3BA"]}, "geometry": {"type": "Polygon", "coordinates": [[[-3.3994916140723133, 50.63005004274423], [-3.397983719513531, 50.62953556261404], [-3.3980143538592613, 50.62920093547336], [-3.3990703803376916, 50.62918840825388], [-3.39956281602617, 50.62989951536127], [-3.3994916140723133, 50.63005004274423]]]}}, {"type": "Feature", "properties": {"type": "postcode-cell", "postcode": "EX8 3QT", "postcodes": ["EX8 3QT"]}, "geometry": {"type": "Polygon", "coordinates": [[[-3.3998148199463465, 50.62743812751444], [-3.3996171712528787, 50.62749864844889], [-3.3988108574005036, 50.62716395978493], [-3.3991215325903985, 50.62642331628704], [-3.3999510102803447, 50.62653983646149], [-3.3998148199463465, 50.62743812751444]]]}}, {"type": "Feature", "properties": {"type": "postcode-cell", "postcode": "EX8 3AT", "postcodes": ["EX8 3AT"]}, "geometry": {"type": "Polygon", "coordinates": [[[-3.400166903066459, 50.62940009359997], [-3.39956281602617, 50.62989951536127], [-3.3990703803376916, 50.62918840825388], [-3.399290600768619, 50.62863174075551], [-3.400074350043567, 50.62896840706117], [-3.400166903066459, 50.62940009359997]]]}}, {"type": "Feature", "properties": {"type": "postcode-cell", "postcode": "EX8 3QR", "postcodes": ["EX8 3QR"]}, "geometry": {"type": "Polygon", "coordinates": [[[-3.3990424144817486, 50.62832480574499], [-3.3989915867681346, 50.628323970996384], [-3.3983997558785055, 50.62804604404], [-3.397806819000977, 50.627341685542916], [-3.3988108574005036, 50.62716395978493], [-3.3996171712528787, 50.62749864844889], [-3.3992412759241777, 50.62821058560581], [-3.3990424144817486, 50.62832480574499]]]}}, {"type": "Feature", "properties": {"type": "postcode-cell", "postcode": "EX8 3QE", "postcodes": ["EX8 3QE"]}, "geometry": {"type": "Polygon", "coordinates": [[[-3.399741118317233, 50.625600241042214], [-3.399183331214248, 50.625652740372345], [-3.398825135611149, 50.62518033548789], [-3.399616048499719, 50.62489477825836], [-3.3999599897131123, 50.625179994668876], [-3.400185958944012, 50.62507496768248], [-3.399741118317233, 50.625600241042214]]]}}, {"type": "Feature", "properties": {"type": "postcode-cell", "postcode": "EX8 3QD", "postcodes": ["EX8 3QD"]}, "geometry": {"type": "Polygon", "coordinates": [[[-3.3987685969751067, 50.62616821456554], [-3.3981354824116385, 50.62617868797581], [-3.3971724659410114, 50.62557496501565], [-3.3971418487601506, 50.62545686620789], [-3.3974905573730756, 50.62502479863267], [-3.3984543168299846, 50.62502335616069], [-3.398825135611149, 50.62518033548789], [-3.399183331214248, 50.625652740372345], [-3.3987685969751067, 50.62616821456554]]]}}, {"type": "Feature", "properties": {"type": "postcode-cell", "postcode": "EX8 3QX", "postcodes": ["EX8 3QX"]}, "geometry": {"type": "Polygon", "coordinates": [[[-3.398825135611149, 50.62518033548789], [-3.3984543168299846, 50.62502335616069], [-3.3991168700893244, 50.62421133926409], [-3.4002612810696995, 50.62398960046164], [-3.4005085011973972, 50.62403950704734], [-3.3991399897129306, 50.62449999466838], [-3.399616048499719, 50.62489477825836], [-3.398825135611149, 50.62518033548789]]]}}, {"type": "Feature", "properties": {"type": "postcode-cell", "postcode": "EX8 3RA", "postcodes": ["EX8 3RA"]}, "geometry": {"type": "Polygon", "coordinates": [[[-3.399290600768619, 50.62863174075551], [-3.3990703803376916, 50.62918840825388], [-3.3980143538592613, 50.62920093547336], [-3.3978861628576094, 50.62893927472104], [-3.3989915867681346, 50.628323970996384], [-3.3990424144817486, 50.62832480574499], [-3.399290600768619, 50.62863174075551]]]}}, {"type": "Feature", "properties": {"type": "postcode-cell", "postcode": "EX8 3QJ", "postcodes": ["EX8 3QJ"]}, "geometry": {"type": "Polygon", "coordinates": [[[-3.3991215325903985, 50.62642331628704], [-3.3988108574005036, 50.62716395978493], [-3.397806819000977, 50.627341685542916], [-3.397614136508925, 50.627291709347766], [-3.3974434104504687, 50.626947048426686], [-3.3981354824116385, 50.62617868797581], [-3.3987685969751067, 50.62616821456554], [-3.3991215325903985, 50.62642331628704]]]}}, {"type": "Feature", "properties": {"type": "postcode-cell", "postcode": "EX8 3BB", "postcodes": ["EX8 3BB"]}, "geometry": {"type": "Polygon", "coordinates": [[[-3.39963881305462, 50.630791869633], [-3.3976939977545544, 50.6311263235129], [-3.397935600375603, 50.629559910251906], [-3.397983719513531, 50.62953556261404], [-3.3994916140723133, 50.63005004274423], [-3.3996663977699066, 50.63068741719358], [-3.39963881305462, 50.630791869633]]]}}, {"type": "Feature", "properties": {"type": "postcode-cell", "postcode": "EX8 4HS", "postcodes": ["EX8 4HS"]}, "geometry": {"type": "Polygon", "coordinates": [[[-3.385177989485218, 50.63178033947631], [-3.385360047322355, 50.630964457485675], [-3.3858948419909134, 50.63080583978955], [-3.3862118664170193, 50.630901972600505], [-3.3864792535506973, 50.63153759287398], [-3.38556998970096, 50.63178999467428], [-3.3851854162417427, 50.63183335634511], [-3.385177989485218, 50.63178033947631]]]}}, {"type": "Feature", "properties": {"type": "postcode-cell", "postcode": "EX8 3BE", "postcodes": ["EX8 3BE"]}, "geometry": {"type": "Polygon", "coordinates": [[[-3.3968445901710376, 50.62974749631644], [-3.397935600375603, 50.629559910251906], [-3.3976939977545544, 50.6311263235129], [-3.3975631430557285, 50.63116505257663], [-3.3968523760583356, 50.630309737073816], [-3.3968445901710376, 50.62974749631644]]]}}, {"type": "Feature", "properties": {"type": "postcode-cell", "postcode": "EX8 3BD", "postcodes": ["EX8 3BD"]}, "geometry": {"type": "Polygon", "coordinates": [[[-3.3968523760583356, 50.630309737073816], [-3.395492499002962, 50.63020297858633], [-3.39539963954892, 50.63015963687301], [-3.3959776798128454, 50.62916686800452], [-3.3968445901710376, 50.62974749631644], [-3.3968523760583356, 50.630309737073816]]]}}, {"type": "Feature", "properties": {"type": "postcode-cell", "postcode": "EX8 2JZ", "postcodes": ["EX8 2JZ"]}, "geometry": {"type": "Polygon", "coordinates": [[[-3.3974887203494797, 50.623874283981046], [-3.39911762831652, 50.62313582231257], [-3.4002612810696995, 50.62398960046164], [-3.3991168700893244, 50.62421133926409], [-3.397515779127287, 50.62391722699205], [-3.3974887203494797, 50.623874283981046]]]}}, {"type": "Feature", "properties": {"type": "postcode-cell", "postcode": "EX8 2JQ", "postcodes": ["EX8 2JQ"]}, "geometry": {"type": "Polygon", "coordinates": [[[-3.397515779127287, 50.62391722699205], [-3.397331191491988, 50.624694206225094], [-3.3967973112189007, 50.62463826903237], [-3.395622672474131, 50.62409206706018], [-3.3968990111728115, 50.623516117461854], [-3.3974887203494797, 50.623874283981046], [-3.397515779127287, 50.62391722699205]]]}}, {"type": "Feature", "properties": {"type": "postcode-cell", "postcode": "EX8 2JU", "postcodes": ["EX8 2JU"]}, "geometry": {"type": "Polygon", "coordinates": [[[-3.3984543168299846, 50.62502335616069], [-3.3974905573730756, 50.62502479863267], [-3.397331191491988, 50.624694206225094], [-3.397515779127287, 50.62391722699205], [-3.3991168700893244, 50.62421133926409], [-3.3984543168299846, 50.62502335616069]]]}}, {"type": "Feature", "properties": {"type": "postcode-cell", "postcode": "EX8 3QS", "postcodes": ["EX8 3QS"]}, "geometry": {"type": "Polygon", "coordinates": [[[-3.3989915867681346, 50.628323970996384], [-3.3978861628576094, 50.62893927472104], [-3.3968026762429697, 50.62865170988243], [-3.3969107209897254, 50.628410880100844], [-3.3983997558785055, 50.62804604404], [-3.3989915867681346, 50.628323970996384]]]}}, {"type": "Feature", "properties": {"type": "postcode-cell", "postcode": "EX8 3QB", "postcodes": ["EX8 3QB"]}, "geometry": {"type": "Polygon", "coordinates": [[[-3.3981354824116385, 50.62617868797581], [-3.3974434104504687, 50.626947048426686], [-3.3968559288437405, 50.62675711723602], [-3.3966093538560718, 50.62606575397038], [-3.3971724659410114, 50.62557496501565], [-3.3981354824116385, 50.62617868797581]]]}}, {"type": "Feature", "properties": {"type": "postcode-cell", "postcode": "EX8 3QN", "postcodes": ["EX8 3QN"]}, "geometry": {"type": "Polygon", "coordinates": [[[-3.397806819000977, 50.627341685542916], [-3.3983997558785055, 50.62804604404], [-3.3969107209897254, 50.628410880100844], [-3.3968287483465147, 50.62771804667044], [-3.397614136508925, 50.627291709347766], [-3.397806819000977, 50.627341685542916]]]}}, {"type": "Feature", "properties": {"type": "postcode-cell", "postcode": "EX8 3AZ", "postcodes": ["EX8 3AZ"]}, "geometry": {"type": "Polygon", "coordinates": [[[-3.397983719513531, 50.62953556261404], [-3.397935600375603, 50.629559910251906], [-3.3968445901710376, 50.62974749631644], [-3.3959776798128454, 50.62916686800452], [-3.395900268076993, 50.62899924354606], [-3.3968026762429697, 50.62865170988243], [-3.3978861628576094, 50.62893927472104], [-3.3980143538592613, 50.62920093547336], [-3.397983719513531, 50.62953556261404]]]}}, {"type": "Feature", "properties": {"type": "postcode-cell", "postcode": "EX8 2JT", "postcodes": ["EX8 2JT"]}, "geometry": {"type": "Polygon", "coordinates": [[[-3.39911762831652, 50.62313582231257], [-3.3974887203494797, 50.623874283981046], [-3.3968990111728115, 50.623516117461854], [-3.398219989713118, 50.62291999466717], [-3.3990118980395834, 50.62275286318966], [-3.39911762831652, 50.62313582231257]]]}}, {"type": "Feature", "properties": {"type": "postcode-cell", "postcode": "EX8 3QA", "postcodes": ["EX8 3QA"]}, "geometry": {"type": "Polygon", "coordinates": [[[-3.397614136508925, 50.627291709347766], [-3.3968287483465147, 50.62771804667044], [-3.395847619262271, 50.627545001811214], [-3.395913474024879, 50.62687506976661], [-3.3968559288437405, 50.62675711723602], [-3.3974434104504687, 50.626947048426686], [-3.397614136508925, 50.627291709347766]]]}}, {"type": "Feature", "properties": {"type": "postcode-cell", "postcode": "EX8 2LP", "postcodes": ["EX8 2LP"]}, "geometry": {"type": "Polygon", "coordinates": [[[-3.3974905573730756, 50.62502479863267], [-3.3971418487601506, 50.62545686620789], [-3.3961451787177808, 50.62534465141475], [-3.395761749915496, 50.62500874854508], [-3.3958774268365337, 50.62475232288182], [-3.3967973112189007, 50.62463826903237], [-3.397331191491988, 50.624694206225094], [-3.3974905573730756, 50.62502479863267]]]}}, {"type": "Feature", "properties": {"type": "postcode-cell", "postcode": "EX8 4NF", "postcodes": ["EX8 4NF"]}, "geometry": {"type": "Polygon", "coordinates": [[[-3.3975631430557285, 50.63116505257663], [-3.3972975779714085, 50.63138739630508], [-3.395899989707938, 50.63065999467323], [-3.3957942993234633, 50.630733116059645], [-3.395492499002962, 50.63020297858633], [-3.3968523760583356, 50.630309737073816], [-3.3975631430557285, 50.63116505257663]]]}}, {"type": "Feature", "properties": {"type": "postcode-cell", "postcode": "EX8 3QW", "postcodes": ["EX8 3QW"]}, "geometry": {"type": "Polygon", "coordinates": [[[-3.3968026762429697, 50.62865170988243], [-3.395900268076993, 50.62899924354606], [-3.3949083979430617, 50.62873269175508], [-3.3954420398844256, 50.627687263401036], [-3.395847619262271, 50.627545001811214], [-3.3968287483465147, 50.62771804667044], [-3.3969107209897254, 50.628410880100844], [-3.3968026762429697, 50.62865170988243]]]}}, {"type": "Feature", "properties": {"type": "postcode-cell", "postcode": "EX8 2LW", "postcodes": ["EX8 2LW"]}, "geometry": {"type": "Polygon", "coordinates": [[[-3.3950623721766218, 50.625010245873874], [-3.3938950798592926, 50.625294518703754], [-3.3938811997213465, 50.6252927488927], [-3.3938099897094127, 50.6249099946688], [-3.395479964401139, 50.62415646253935], [-3.3950623721766218, 50.625010245873874]]]}}, {"type": "Feature", "properties": {"type": "postcode-cell", "postcode": "EX8 3PU", "postcodes": ["EX8 3PU"]}, "geometry": {"type": "Polygon", "coordinates": [[[-3.3953331290503, 50.626514117658225], [-3.394516570635796, 50.626764076906966], [-3.394351350518049, 50.62662660718466], [-3.39383404196405, 50.625331015826234], [-3.3938899897092543, 50.62533999466913], [-3.3938811997213465, 50.6252927488927], [-3.3938950798592926, 50.625294518703754], [-3.3951900149842476, 50.62581309944786], [-3.3954468724375593, 50.62624267870633], [-3.3953331290503, 50.626514117658225]]]}}, {"type": "Feature", "properties": {"type": "postcode-cell", "postcode": "EX8 3PY", "postcodes": ["EX8 3PY"]}, "geometry": {"type": "Polygon", "coordinates": [[[-3.3954468724375593, 50.62624267870633], [-3.3966093538560718, 50.62606575397038], [-3.3968559288437405, 50.62675711723602], [-3.395913474024879, 50.62687506976661], [-3.3953331290503, 50.626514117658225], [-3.3954468724375593, 50.62624267870633]]]}}, {"type": "Feature", "properties": {"type": "postcode-cell", "postcode": "EX8 3PX", "postcodes": ["EX8 3PX"]}, "geometry": {"type": "Polygon", "coordinates": [[[-3.3971724659410114, 50.62557496501565], [-3.3966093538560718, 50.62606575397038], [-3.3954468724375593, 50.62624267870633], [-3.3951900149842476, 50.62581309944786], [-3.3961451787177808, 50.62534465141475], [-3.3971418487601506, 50.62545686620789], [-3.3971724659410114, 50.62557496501565]]]}}, {"type": "Feature", "properties": {"type": "postcode-cell", "postcode": "EX8 3PT", "postcodes": ["EX8 3PT"]}, "geometry": {"type": "Polygon", "coordinates": [[[-3.395847619262271, 50.627545001811214], [-3.3954420398844256, 50.627687263401036], [-3.3942465528841153, 50.627134686862995], [-3.394516570635796, 50.626764076906966], [-3.3953331290503, 50.626514117658225], [-3.395913474024879, 50.62687506976661], [-3.395847619262271, 50.627545001811214]]]}}, {"type": "Feature", "properties": {"type": "postcode-cell", "postcode": "EX8 2JG", "postcodes": ["EX8 2JG"]}, "geometry": {"type": "Polygon", "coordinates": [[[-3.3967973112189007, 50.62463826903237], [-3.3958774268365337, 50.62475232288182], [-3.395495355365903, 50.624149517549256], [-3.395622672474131, 50.62409206706018], [-3.3967973112189007, 50.62463826903237]]]}}, {"type": "Feature", "properties": {"type": "postcode-cell", "postcode": "EX8 2LA", "postcodes": ["EX8 2LA"]}, "geometry": {"type": "Polygon", "coordinates": [[[-3.395761749915496, 50.62500874854508], [-3.3950623721766218, 50.625010245873874], [-3.395479964401139, 50.62415646253935], [-3.395495355365903, 50.624149517549256], [-3.3958774268365337, 50.62475232288182], [-3.395761749915496, 50.62500874854508]]]}}, {"type": "Feature", "properties": {"type": "postcode-cell", "postcode": "EX8 4NG", "postcodes": ["EX8 4NG"]}, "geometry": {"type": "Polygon", "coordinates": [[[-3.395492499002962, 50.63020297858633], [-3.3957942993234633, 50.630733116059645], [-3.3953409113369672, 50.63104678672754], [-3.3950922960925354, 50.630941219850946], [-3.3946670578234035, 50.63053378805825], [-3.395224968345264, 50.63018776449267], [-3.39539963954892, 50.63015963687301], [-3.395492499002962, 50.63020297858633]]]}}, {"type": "Feature", "properties": {"type": "postcode-cell", "postcode": "EX8 4BE", "postcodes": ["EX8 4BE"]}, "geometry": {"type": "Polygon", "coordinates": [[[-3.3959776798128454, 50.62916686800452], [-3.39539963954892, 50.63015963687301], [-3.395224968345264, 50.63018776449267], [-3.394251708791757, 50.62960733993622], [-3.3947013978371468, 50.628752556858885], [-3.3949083979430617, 50.62873269175508], [-3.395900268076993, 50.62899924354606], [-3.3959776798128454, 50.62916686800452]]]}}, {"type": "Feature", "properties": {"type": "postcode-cell", "postcode": "EX8 2LR", "postcodes": ["EX8 2LR"]}, "geometry": {"type": "Polygon", "coordinates": [[[-3.3951900149842476, 50.62581309944786], [-3.3938950798592926, 50.625294518703754], [-3.3950623721766218, 50.625010245873874], [-3.395761749915496, 50.62500874854508], [-3.3961451787177808, 50.62534465141475], [-3.3951900149842476, 50.62581309944786]]]}}, {"type": "Feature", "properties": {"type": "postcode-cell", "postcode": "EX8 4NQ", "postcodes": ["EX8 4NQ"]}, "geometry": {"type": "Polygon", "coordinates": [[[-3.3950922960925354, 50.630941219850946], [-3.3953409113369672, 50.63104678672754], [-3.3943099897064184, 50.631759994674105], [-3.393862942977288, 50.631429572230246], [-3.3950922960925354, 50.630941219850946]]]}}, {"type": "Feature", "properties": {"type": "postcode-cell", "postcode": "EX8 4ND", "postcodes": ["EX8 4ND"]}, "geometry": {"type": "Polygon", "coordinates": [[[-3.3950922960925354, 50.630941219850946], [-3.393862942977288, 50.631429572230246], [-3.393787507459326, 50.63137381548297], [-3.3945040287097883, 50.63053882818354], [-3.3946670578234035, 50.63053378805825], [-3.3950922960925354, 50.630941219850946]]]}}, {"type": "Feature", "properties": {"type": "postcode-cell", "postcode": "EX8 3PS", "postcodes": ["EX8 3PS"]}, "geometry": {"type": "Polygon", "coordinates": [[[-3.3949083979430617, 50.62873269175508], [-3.3947013978371468, 50.628752556858885], [-3.3940035810086484, 50.62858023738074], [-3.393890275912325, 50.628517337122624], [-3.3935946015212686, 50.628103878407146], [-3.39424181185984, 50.627136279465], [-3.3942465528841153, 50.627134686862995], [-3.3954420398844256, 50.627687263401036], [-3.3949083979430617, 50.62873269175508]]]}}, {"type": "Feature", "properties": {"type": "postcode-cell", "postcode": "EX8 2NG", "postcodes": ["EX8 2NG"]}, "geometry": {"type": "Polygon", "coordinates": [[[-3.390676829259813, 50.62529767518936], [-3.390609849836984, 50.62533630808021], [-3.389989639858817, 50.62547688283538], [-3.3891920940386386, 50.6245971546776], [-3.3901599897075316, 50.62409999466823], [-3.3911900985353256, 50.62457844379263], [-3.390676829259813, 50.62529767518936]]]}}, {"type": "Feature", "properties": {"type": "postcode-cell", "postcode": "EX8 4BZ", "postcodes": ["EX8 4BZ"]}, "geometry": {"type": "Polygon", "coordinates": [[[-3.391662408923204, 50.63087726383915], [-3.393135131142104, 50.63086071455267], [-3.3932173728899113, 50.631097318193895], [-3.391551435976879, 50.631264494918824], [-3.391662408923204, 50.63087726383915]]]}}, {"type": "Feature", "properties": {"type": "postcode-cell", "postcode": "EX8 4BY", "postcodes": ["EX8 4BY"]}, "geometry": {"type": "Polygon", "coordinates": [[[-3.393135131142104, 50.63086071455267], [-3.393131781625932, 50.630784104185146], [-3.3935481889375834, 50.630214470119064], [-3.393591368586449, 50.630193202448446], [-3.3945040287097883, 50.63053882818354], [-3.393787507459326, 50.63137381548297], [-3.393389989706172, 50.631079994673584], [-3.3932173728899113, 50.631097318193895], [-3.393135131142104, 50.63086071455267]]]}}, {"type": "Feature", "properties": {"type": "postcode-cell", "postcode": "EX8 3PP", "postcodes": ["EX8 3PP"]}, "geometry": {"type": "Polygon", "coordinates": [[[-3.394351350518049, 50.62662660718466], [-3.3927163191824645, 50.62618556400747], [-3.3926935877428455, 50.625957896082674], [-3.3927644654901736, 50.625817997288415], [-3.3934389074438163, 50.62526760131006], [-3.39383404196405, 50.625331015826234], [-3.394351350518049, 50.62662660718466]]]}}, {"type": "Feature", "properties": {"type": "postcode-cell", "postcode": "EX8 3PR", "postcodes": ["EX8 3PR"]}, "geometry": {"type": "Polygon", "coordinates": [[[-3.3942465528841153, 50.627134686862995], [-3.39424181185984, 50.627136279465], [-3.392687224748794, 50.6269224368002], [-3.3925356606420385, 50.62674892686976], [-3.3927163191824645, 50.62618556400747], [-3.394351350518049, 50.62662660718466], [-3.394516570635796, 50.626764076906966], [-3.3942465528841153, 50.627134686862995]]]}}, {"type": "Feature", "properties": {"type": "postcode-cell", "postcode": "EX8 4BG", "postcodes": ["EX8 4BG"]}, "geometry": {"type": "Polygon", "coordinates": [[[-3.3946670578234035, 50.63053378805825], [-3.3945040287097883, 50.63053882818354], [-3.393591368586449, 50.630193202448446], [-3.39365917119506, 50.62995697062223], [-3.394251708791757, 50.62960733993622], [-3.395224968345264, 50.63018776449267], [-3.3946670578234035, 50.63053378805825]]]}}, {"type": "Feature", "properties": {"type": "postcode-cell", "postcode": "EX8 4BB", "postcodes": ["EX8 4BB"]}, "geometry": {"type": "Polygon", "coordinates": [[[-3.394251708791757, 50.62960733993622], [-3.39365917119506, 50.62995697062223], [-3.3929246553374326, 50.629498194442824], [-3.3928963302857027, 50.629427548507465], [-3.3940035810086484, 50.62858023738074], [-3.3947013978371468, 50.628752556858885], [-3.394251708791757, 50.62960733993622]]]}}, {"type": "Feature", "properties": {"type": "postcode-cell", "postcode": "EX8 4AH", "postcodes": ["EX8 4AH"]}, "geometry": {"type": "Polygon", "coordinates": [[[-3.3927644654901736, 50.625817997288415], [-3.390676829259813, 50.62529767518936], [-3.3911900985353256, 50.62457844379263], [-3.3922699897083715, 50.62507999466896], [-3.3934389074438163, 50.62526760131006], [-3.3927644654901736, 50.625817997288415]]]}}, {"type": "Feature", "properties": {"type": "postcode-cell", "postcode": "EX8 4DA", "postcodes": ["EX8 4DA"]}, "geometry": {"type": "Polygon", "coordinates": [[[-3.393135131142104, 50.63086071455267], [-3.391662408923204, 50.63087726383915], [-3.3916543733301, 50.63034630547656], [-3.391707739663735, 50.630319514790855], [-3.393131781625932, 50.630784104185146], [-3.393135131142104, 50.63086071455267]]]}}, {"type": "Feature", "properties": {"type": "postcode-cell", "postcode": "EX8 4DY", "postcodes": ["EX8 4DY"]}, "geometry": {"type": "Polygon", "coordinates": [[[-3.3935481889375834, 50.630214470119064], [-3.3920869228897104, 50.63008787499389], [-3.3929246553374326, 50.629498194442824], [-3.39365917119506, 50.62995697062223], [-3.393591368586449, 50.630193202448446], [-3.3935481889375834, 50.630214470119064]]]}}, {"type": "Feature", "properties": {"type": "postcode-cell", "postcode": "EX8 3QP", "postcodes": ["EX8 3QP"]}, "geometry": {"type": "Polygon", "coordinates": [[[-3.392687224748794, 50.6269224368002], [-3.39424181185984, 50.627136279465], [-3.3935946015212686, 50.628103878407146], [-3.392467500518761, 50.627716266912415], [-3.392687224748794, 50.6269224368002]]]}}, {"type": "Feature", "properties": {"type": "postcode-cell", "postcode": "EX8 4AL", "postcodes": ["EX8 4AL"]}, "geometry": {"type": "Polygon", "coordinates": [[[-3.392467500518761, 50.627716266912415], [-3.3919179168020266, 50.627872748440296], [-3.3905835236609074, 50.626910626334755], [-3.3925356606420385, 50.62674892686976], [-3.392687224748794, 50.6269224368002], [-3.392467500518761, 50.627716266912415]]]}}, {"type": "Feature", "properties": {"type": "postcode-cell", "postcode": "EX8 4AW", "postcodes": ["EX8 4AW"]}, "geometry": {"type": "Polygon", "coordinates": [[[-3.393890275912325, 50.628517337122624], [-3.3923483477188388, 50.62872528648066], [-3.3917205475710506, 50.62808325933823], [-3.3919179168020266, 50.627872748440296], [-3.392467500518761, 50.627716266912415], [-3.3935946015212686, 50.628103878407146], [-3.393890275912325, 50.628517337122624]]]}}, {"type": "Feature", "properties": {"type": "postcode-cell", "postcode": "EX8 4DE", "postcodes": ["EX8 4DE"]}, "geometry": {"type": "Polygon", "coordinates": [[[-3.3940035810086484, 50.62858023738074], [-3.3928963302857027, 50.629427548507465], [-3.3920144954226195, 50.629142630005006], [-3.3923483477188388, 50.62872528648066], [-3.393890275912325, 50.628517337122624], [-3.3940035810086484, 50.62858023738074]]]}}, {"type": "Feature", "properties": {"type": "postcode-cell", "postcode": "EX8 4AT", "postcodes": ["EX8 4AT"]}, "geometry": {"type": "Polygon", "coordinates": [[[-3.3919062513466836, 50.630121205962986], [-3.39161236083352, 50.62933216821405], [-3.3917871628637615, 50.62920505664523], [-3.3920144954226195, 50.629142630005006], [-3.3928963302857027, 50.629427548507465], [-3.3929246553374326, 50.629498194442824], [-3.3920869228897104, 50.63008787499389], [-3.3919062513466836, 50.630121205962986]]]}}, {"type": "Feature", "properties": {"type": "postcode-cell", "postcode": "EX8 4BD", "postcodes": ["EX8 4BD"]}, "geometry": {"type": "Polygon", "coordinates": [[[-3.3920869228897104, 50.63008787499389], [-3.3935481889375834, 50.630214470119064], [-3.393131781625932, 50.630784104185146], [-3.391707739663735, 50.630319514790855], [-3.3919062513466836, 50.630121205962986], [-3.3920869228897104, 50.63008787499389]]]}}, {"type": "Feature", "properties": {"type": "postcode-cell", "postcode": "EX8 4DF", "postcodes": ["EX8 4DF"]}, "geometry": {"type": "Polygon", "coordinates": [[[-3.391551435976879, 50.631264494918824], [-3.390499989704232, 50.63136999467386], [-3.38998998970404, 50.63110999467367], [-3.3900199897042524, 50.63070999467337], [-3.3914599897052113, 50.630579994673234], [-3.3912599989332683, 50.63030821402456], [-3.3916543733301, 50.63034630547656], [-3.391662408923204, 50.63087726383915], [-3.391551435976879, 50.631264494918824]]]}}, {"type": "Feature", "properties": {"type": "postcode-cell", "postcode": "EX8 4AP", "postcodes": ["EX8 4AP"]}, "geometry": {"type": "Polygon", "coordinates": [[[-3.3917871628637615, 50.62920505664523], [-3.390935108543496, 50.62832537528686], [-3.3917205475710506, 50.62808325933823], [-3.3923483477188388, 50.62872528648066], [-3.3920144954226195, 50.629142630005006], [-3.3917871628637615, 50.62920505664523]]]}}, {"type": "Feature", "properties": {"type": "postcode-cell", "postcode": "EX8 4RH", "postcodes": ["EX8 4RH"]}, "geometry": {"type": "Polygon", "coordinates": [[[-3.3862118664170193, 50.630901972600505], [-3.3867110291404243, 50.630557441454265], [-3.386808567058645, 50.63053785365993], [-3.3869846859187263, 50.630542377277976], [-3.3876531035686304, 50.631211730377935], [-3.3864792535506973, 50.63153759287398], [-3.3862118664170193, 50.630901972600505]]]}}, {"type": "Feature", "properties": {"type": "postcode-cell", "postcode": "EX8 4AU", "postcodes": ["EX8 4AU"]}, "geometry": {"type": "Polygon", "coordinates": [[[-3.391707739663735, 50.630319514790855], [-3.3916543733301, 50.63034630547656], [-3.3912599989332683, 50.63030821402456], [-3.3910699897052257, 50.630049994672845], [-3.3906946477372744, 50.63012311692846], [-3.390451414605953, 50.62938310647754], [-3.3904640022728443, 50.6293763883272], [-3.39161236083352, 50.62933216821405], [-3.3919062513466836, 50.630121205962986], [-3.391707739663735, 50.630319514790855]]]}}, {"type": "Feature", "properties": {"type": "postcode-cell", "postcode": "EX8 4AJ", "postcodes": ["EX8 4AJ"]}, "geometry": {"type": "Polygon", "coordinates": [[[-3.3927163191824645, 50.62618556400747], [-3.3925356606420385, 50.62674892686976], [-3.3905835236609074, 50.626910626334755], [-3.3905696112324155, 50.62690792163495], [-3.3912434688955604, 50.62611969312394], [-3.3926935877428455, 50.625957896082674], [-3.3927163191824645, 50.62618556400747]]]}}, {"type": "Feature", "properties": {"type": "postcode-cell", "postcode": "EX8 4AN", "postcodes": ["EX8 4AN"]}, "geometry": {"type": "Polygon", "coordinates": [[[-3.3919179168020266, 50.627872748440296], [-3.3917205475710506, 50.62808325933823], [-3.390935108543496, 50.62832537528686], [-3.390575072620346, 50.62833827054025], [-3.3905451522481274, 50.62832733641776], [-3.3900719086205098, 50.627773104967794], [-3.390498020463969, 50.62691268585109], [-3.3905696112324155, 50.62690792163495], [-3.3905835236609074, 50.626910626334755], [-3.3919179168020266, 50.627872748440296]]]}}, {"type": "Feature", "properties": {"type": "postcode-cell", "postcode": "EX8 4AS", "postcodes": ["EX8 4AS"]}, "geometry": {"type": "Polygon", "coordinates": [[[-3.3917871628637615, 50.62920505664523], [-3.39161236083352, 50.62933216821405], [-3.3904640022728443, 50.6293763883272], [-3.390575072620346, 50.62833827054025], [-3.390935108543496, 50.62832537528686], [-3.3917871628637615, 50.62920505664523]]]}}, {"type": "Feature", "properties": {"type": "postcode-cell", "postcode": "EX8 4RT", "postcodes": ["EX8 4RT"]}, "geometry": {"type": "Polygon", "coordinates": [[[-3.3926935877428455, 50.625957896082674], [-3.3912434688955604, 50.62611969312394], [-3.390609849836984, 50.62533630808021], [-3.390676829259813, 50.62529767518936], [-3.3927644654901736, 50.625817997288415], [-3.3926935877428455, 50.625957896082674]]]}}, {"type": "Feature", "properties": {"type": "postcode-cell", "postcode": "EX8 4AY", "postcodes": ["EX8 4AY"]}, "geometry": {"type": "Polygon", "coordinates": [[[-3.3906946477372744, 50.63012311692846], [-3.3892219810713358, 50.63041000069372], [-3.3894771874834397, 50.62970477771827], [-3.390238059228068, 50.62939134307043], [-3.390451414605953, 50.62938310647754], [-3.3906946477372744, 50.63012311692846]]]}}, {"type": "Feature", "properties": {"type": "postcode-cell", "postcode": "EX8 4AX", "postcodes": ["EX8 4AX"]}, "geometry": {"type": "Polygon", "coordinates": [[[-3.3904640022728443, 50.6293763883272], [-3.390451414605953, 50.62938310647754], [-3.390238059228068, 50.62939134307043], [-3.389061491304781, 50.62873350647173], [-3.3905451522481274, 50.62832733641776], [-3.390575072620346, 50.62833827054025], [-3.3904640022728443, 50.6293763883272]]]}}, {"type": "Feature", "properties": {"type": "postcode-cell", "postcode": "EX8 2NQ", "postcodes": ["EX8 2NQ"]}, "geometry": {"type": "Polygon", "coordinates": [[[-3.3905696112324155, 50.62690792163495], [-3.390498020463969, 50.62691268585109], [-3.3898553414189645, 50.62665744635777], [-3.389612398973327, 50.62574910425988], [-3.389989639858817, 50.62547688283538], [-3.390609849836984, 50.62533630808021], [-3.3912434688955604, 50.62611969312394], [-3.3905696112324155, 50.62690792163495]]]}}, {"type": "Feature", "properties": {"type": "postcode-cell", "postcode": "EX8 4RW", "postcodes": ["EX8 4RW"]}, "geometry": {"type": "Polygon", "coordinates": [[[-3.3869846859187263, 50.630542377277976], [-3.3878567388798917, 50.629989334322914], [-3.3887596640912276, 50.630506669771854], [-3.388739989703358, 50.630909994673544], [-3.3876531035686304, 50.631211730377935], [-3.3869846859187263, 50.630542377277976]]]}}, {"type": "Feature", "properties": {"type": "postcode-cell", "postcode": "EX8 4BA", "postcodes": ["EX8 4BA"]}, "geometry": {"type": "Polygon", "coordinates": [[[-3.3892219810713358, 50.63041000069372], [-3.388759989703569, 50.63049999467324], [-3.3887596640912276, 50.630506669771854], [-3.3878567388798917, 50.629989334322914], [-3.387770226565426, 50.62982460756913], [-3.388001773254715, 50.6295795999375], [-3.388755699424397, 50.62934836833615], [-3.3894771874834397, 50.62970477771827], [-3.3892219810713358, 50.63041000069372]]]}}, {"type": "Feature", "properties": {"type": "postcode-cell", "postcode": "EX8 4AR", "postcodes": ["EX8 4AR"]}, "geometry": {"type": "Polygon", "coordinates": [[[-3.3905451522481274, 50.62832733641776], [-3.389061491304781, 50.62873350647173], [-3.3890382803525534, 50.62873225730662], [-3.3883537284339607, 50.62832668993104], [-3.388732508410959, 50.62787229056592], [-3.3900719086205098, 50.627773104967794], [-3.3905451522481274, 50.62832733641776]]]}}, {"type": "Feature", "properties": {"type": "postcode-cell", "postcode": "EX8 4AZ", "postcodes": ["EX8 4AZ"]}, "geometry": {"type": "Polygon", "coordinates": [[[-3.390238059228068, 50.62939134307043], [-3.3894771874834397, 50.62970477771827], [-3.388755699424397, 50.62934836833615], [-3.3890382803525534, 50.62873225730662], [-3.389061491304781, 50.62873350647173], [-3.390238059228068, 50.62939134307043]]]}}, {"type": "Feature", "properties": {"type": "postcode-cell", "postcode": "EX8 4AE", "postcodes": ["EX8 4AE"]}, "geometry": {"type": "Polygon", "coordinates": [[[-3.3900719086205098, 50.627773104967794], [-3.388732508410959, 50.62787229056592], [-3.3883759254382535, 50.62698604135156], [-3.3898553414189645, 50.62665744635777], [-3.390498020463969, 50.62691268585109], [-3.3900719086205098, 50.627773104967794]]]}}, {"type": "Feature", "properties": {"type": "postcode-cell", "postcode": "EX8 4AQ", "postcodes": ["EX8 4AQ"]}, "geometry": {"type": "Polygon", "coordinates": [[[-3.3890382803525534, 50.62873225730662], [-3.388755699424397, 50.62934836833615], [-3.388001773254715, 50.6295795999375], [-3.387770249341982, 50.62896358609508], [-3.388119310993581, 50.628357924264286], [-3.3883537284339607, 50.62832668993104], [-3.3890382803525534, 50.62873225730662]]]}}, {"type": "Feature", "properties": {"type": "postcode-cell", "postcode": "EX8 4AB", "postcodes": ["EX8 4AB"]}, "geometry": {"type": "Polygon", "coordinates": [[[-3.3883759254382535, 50.62698604135156], [-3.387977860312736, 50.626879898201246], [-3.3878103505007915, 50.6265749825261], [-3.3890949502303367, 50.62570175860178], [-3.389612398973327, 50.62574910425988], [-3.3898553414189645, 50.62665744635777], [-3.3883759254382535, 50.62698604135156]]]}}, {"type": "Feature", "properties": {"type": "postcode-cell", "postcode": "EX8 2NH", "postcodes": ["EX8 2NH"]}, "geometry": {"type": "Polygon", "coordinates": [[[-3.389989639858817, 50.62547688283538], [-3.389612398973327, 50.62574910425988], [-3.3890949502303367, 50.62570175860178], [-3.3880034426778813, 50.62530922888827], [-3.38792090172201, 50.625250075131596], [-3.3891920940386386, 50.6245971546776], [-3.389989639858817, 50.62547688283538]]]}}, {"type": "Feature", "properties": {"type": "postcode-cell", "postcode": "EX8 4AD", "postcodes": ["EX8 4AD"]}, "geometry": {"type": "Polygon", "coordinates": [[[-3.3883759254382535, 50.62698604135156], [-3.388732508410959, 50.62787229056592], [-3.3883537284339607, 50.62832668993104], [-3.388119310993581, 50.628357924264286], [-3.3879209134249955, 50.628319770324865], [-3.387862257787991, 50.628295243860386], [-3.386951250342404, 50.627332952927496], [-3.387977860312736, 50.626879898201246], [-3.3883759254382535, 50.62698604135156]]]}}, {"type": "Feature", "properties": {"type": "postcode-cell", "postcode": "EX8 2NL", "postcodes": ["EX8 2NL"]}, "geometry": {"type": "Polygon", "coordinates": [[[-3.3890949502303367, 50.62570175860178], [-3.3878103505007915, 50.6265749825261], [-3.387794019511197, 50.62656187466882], [-3.3880034426778813, 50.62530922888827], [-3.3890949502303367, 50.62570175860178]]]}}, {"type": "Feature", "properties": {"type": "postcode-cell", "postcode": "EX8 2NJ", "postcodes": ["EX8 2NJ"]}, "geometry": {"type": "Polygon", "coordinates": [[[-3.3880034426778813, 50.62530922888827], [-3.387794019511197, 50.62656187466882], [-3.3869269582515575, 50.626211496468926], [-3.386618083925471, 50.62591920633769], [-3.38792090172201, 50.625250075131596], [-3.3880034426778813, 50.62530922888827]]]}}, {"type": "Feature", "properties": {"type": "postcode-cell", "postcode": "EX8 4AG", "postcodes": ["EX8 4AG"]}, "geometry": {"type": "Polygon", "coordinates": [[[-3.388001773254715, 50.6295795999375], [-3.387770226565426, 50.62982460756913], [-3.3875573230272327, 50.62977836936452], [-3.386898410015901, 50.62928434381855], [-3.3868742714610565, 50.6290831296543], [-3.387770249341982, 50.62896358609508], [-3.388001773254715, 50.6295795999375]]]}}, {"type": "Feature", "properties": {"type": "postcode-cell", "postcode": "EX8 4BQ", "postcodes": ["EX8 4BQ"]}, "geometry": {"type": "Polygon", "coordinates": [[[-3.387770249341982, 50.62896358609508], [-3.3868742714610565, 50.6290831296543], [-3.3866306630753447, 50.62888206360942], [-3.3879209134249955, 50.628319770324865], [-3.388119310993581, 50.628357924264286], [-3.387770249341982, 50.62896358609508]]]}}, {"type": "Feature", "properties": {"type": "postcode-cell", "postcode": "EX8 4AF", "postcodes": ["EX8 4AF"]}, "geometry": {"type": "Polygon", "coordinates": [[[-3.3878103505007915, 50.6265749825261], [-3.387977860312736, 50.626879898201246], [-3.386951250342404, 50.627332952927496], [-3.3866504732263683, 50.627354046428415], [-3.3859705222830887, 50.62708730610006], [-3.3869269582515575, 50.626211496468926], [-3.387794019511197, 50.62656187466882], [-3.3878103505007915, 50.6265749825261]]]}}, {"type": "Feature", "properties": {"type": "postcode-cell", "postcode": "EX8 2NP", "postcodes": ["EX8 2NP"]}, "geometry": {"type": "Polygon", "coordinates": [[[-3.3869269582515575, 50.626211496468926], [-3.3859705222830887, 50.62708730610006], [-3.3848489351435687, 50.626915532568134], [-3.3847692992752854, 50.62686869046907], [-3.386618083925471, 50.62591920633769], [-3.3869269582515575, 50.626211496468926]]]}}, {"type": "Feature", "properties": {"type": "postcode-cell", "postcode": "EX8 4SA", "postcodes": ["EX8 4SA"]}, "geometry": {"type": "Polygon", "coordinates": [[[-3.386898410015901, 50.62928434381855], [-3.386262198449716, 50.629531276299005], [-3.38591756392658, 50.629383882192585], [-3.385871177025988, 50.629052784714936], [-3.386524908406053, 50.628851211332716], [-3.3866306630753447, 50.62888206360942], [-3.3868742714610565, 50.6290831296543], [-3.386898410015901, 50.62928434381855]]]}}, {"type": "Feature", "properties": {"type": "postcode-cell", "postcode": "EX8 4SD", "postcodes": ["EX8 4SD"]}, "geometry": {"type": "Polygon", "coordinates": [[[-3.3878567388798917, 50.629989334322914], [-3.3869846859187263, 50.630542377277976], [-3.386808567058645, 50.63053785365993], [-3.3866359708152074, 50.63007157368079], [-3.3868641317001726, 50.629861249789556], [-3.3875573230272327, 50.62977836936452], [-3.387770226565426, 50.62982460756913], [-3.3878567388798917, 50.629989334322914]]]}}, {"type": "Feature", "properties": {"type": "postcode-cell", "postcode": "EX8 4BH", "postcodes": ["EX8 4BH"]}, "geometry": {"type": "Polygon", "coordinates": [[[-3.3866306630753447, 50.62888206360942], [-3.386524908406053, 50.628851211332716], [-3.3863049618066694, 50.62821605785937], [-3.387862257787991, 50.628295243860386], [-3.3879209134249955, 50.628319770324865], [-3.3866306630753447, 50.62888206360942]]]}}, {"type": "Feature", "properties": {"type": "postcode-cell", "postcode": "EX8 4BJ", "postcodes": ["EX8 4BJ"]}, "geometry": {"type": "Polygon", "coordinates": [[[-3.387862257787991, 50.628295243860386], [-3.3863049618066694, 50.62821605785937], [-3.38622523602662, 50.62816657047654], [-3.3866504732263683, 50.627354046428415], [-3.386951250342404, 50.627332952927496], [-3.387862257787991, 50.628295243860386]]]}}, {"type": "Feature", "properties": {"type": "postcode-cell", "postcode": "EX8 4SB", "postcodes": ["EX8 4SB"]}, "geometry": {"type": "Polygon", "coordinates": [[[-3.386524908406053, 50.628851211332716], [-3.385871177025988, 50.629052784714936], [-3.385551053190787, 50.628947072003825], [-3.3856752577514855, 50.628203145194725], [-3.38622523602662, 50.62816657047654], [-3.3863049618066694, 50.62821605785937], [-3.386524908406053, 50.628851211332716]]]}}, {"type": "Feature", "properties": {"type": "postcode-cell", "postcode": "EX8 4SF", "postcodes": ["EX8 4SF"]}, "geometry": {"type": "Polygon", "coordinates": [[[-3.3868641317001726, 50.629861249789556], [-3.3863337211202773, 50.6297001726748], [-3.386262198449716, 50.629531276299005], [-3.386898410015901, 50.62928434381855], [-3.3875573230272327, 50.62977836936452], [-3.3868641317001726, 50.629861249789556]]]}}, {"type": "Feature", "properties": {"type": "postcode-cell", "postcode": "EX8 4SW", "postcodes": ["EX8 4SW"]}, "geometry": {"type": "Polygon", "coordinates": [[[-3.383019366943266, 50.63136751457178], [-3.383774882074603, 50.63092172347602], [-3.3845556590594157, 50.631904360218485], [-3.383529989699579, 50.6320199946745], [-3.383386967008734, 50.63217626187378], [-3.383019366943266, 50.63136751457178]]]}}, {"type": "Feature", "properties": {"type": "postcode-cell", "postcode": "EX8 4HR", "postcodes": ["EX8 4HR"]}, "geometry": {"type": "Polygon", "coordinates": [[[-3.3867110291404243, 50.630557441454265], [-3.3862118664170193, 50.630901972600505], [-3.3858948419909134, 50.63080583978955], [-3.3855749417414414, 50.6303202105559], [-3.385591463339235, 50.63016184517348], [-3.3858032341858864, 50.630138119486276], [-3.385856841808457, 50.630149159668925], [-3.3867110291404243, 50.630557441454265]]]}}, {"type": "Feature", "properties": {"type": "postcode-cell", "postcode": "EX8 4RN", "postcodes": ["EX8 4RN"]}, "geometry": {"type": "Polygon", "coordinates": [[[-3.385856841808457, 50.630149159668925], [-3.3866359708152074, 50.63007157368079], [-3.386808567058645, 50.63053785365993], [-3.3867110291404243, 50.630557441454265], [-3.385856841808457, 50.630149159668925]]]}}, {"type": "Feature", "properties": {"type": "postcode-cell", "postcode": "EX8 4SE", "postcodes": ["EX8 4SE"]}, "geometry": {"type": "Polygon", "coordinates": [[[-3.3868641317001726, 50.629861249789556], [-3.3866359708152074, 50.63007157368079], [-3.385856841808457, 50.630149159668925], [-3.3858032341858864, 50.630138119486276], [-3.3863337211202773, 50.6297001726748], [-3.3868641317001726, 50.629861249789556]]]}}, {"type": "Feature", "properties": {"type": "postcode-cell", "postcode": "EX8 4RU", "postcodes": ["EX8 4RU"]}, "geometry": {"type": "Polygon", "coordinates": [[[-3.386262198449716, 50.629531276299005], [-3.3863337211202773, 50.6297001726748], [-3.3858032341858864, 50.630138119486276], [-3.385591463339235, 50.63016184517348], [-3.38499414908453, 50.62985857698354], [-3.38591756392658, 50.629383882192585], [-3.386262198449716, 50.629531276299005]]]}}, {"type": "Feature", "properties": {"type": "postcode-cell", "postcode": "EX8 2TS", "postcodes": ["EX8 2TS"]}, "geometry": {"type": "Polygon", "coordinates": [[[-3.3866504732263683, 50.627354046428415], [-3.38622523602662, 50.62816657047654], [-3.3856752577514855, 50.628203145194725], [-3.385083355058567, 50.628062715941915], [-3.3848489351435687, 50.626915532568134], [-3.3859705222830887, 50.62708730610006], [-3.3866504732263683, 50.627354046428415]]]}}, {"type": "Feature", "properties": {"type": "postcode-cell", "postcode": "EX8 5BW", "postcodes": ["EX8 5BW"]}, "geometry": {"type": "Polygon", "coordinates": [[[-3.3743601244142374, 50.63158913942064], [-3.3647483263678972, 50.63814544845739], [-3.3589852367554682, 50.637370259856475], [-3.3567599896825118, 50.63290999467571], [-3.362119989685733, 50.63312999467578], [-3.3713599896921083, 50.63181999467458], [-3.3741349191516585, 50.63071798017194], [-3.3743601244142374, 50.63158913942064]]]}}, {"type": "Feature", "properties": {"type": "postcode-cell", "postcode": "EX8 4RG", "postcodes": ["EX8 4RG"]}, "geometry": {"type": "Polygon", "coordinates": [[[-3.3858948419909134, 50.63080583978955], [-3.385360047322355, 50.630964457485675], [-3.3849397462836275, 50.630755075187835], [-3.3855749417414414, 50.6303202105559], [-3.3858948419909134, 50.63080583978955]]]}}, {"type": "Feature", "properties": {"type": "postcode-cell", "postcode": "EX8 4RX", "postcodes": ["EX8 4RX"]}, "geometry": {"type": "Polygon", "coordinates": [[[-3.385871177025988, 50.629052784714936], [-3.38591756392658, 50.629383882192585], [-3.38499414908453, 50.62985857698354], [-3.384481898904415, 50.62978041067047], [-3.3853180102064893, 50.62896703479273], [-3.385551053190787, 50.628947072003825], [-3.385871177025988, 50.629052784714936]]]}}, {"type": "Feature", "properties": {"type": "postcode-cell", "postcode": "EX8 2GG", "postcodes": ["EX8 2GG"]}, "geometry": {"type": "Polygon", "coordinates": [[[-3.384342605197718, 50.62845064897698], [-3.383417123016083, 50.62756308783019], [-3.3847692992752854, 50.62686869046907], [-3.3848489351435687, 50.626915532568134], [-3.385083355058567, 50.628062715941915], [-3.384342605197718, 50.62845064897698]]]}}, {"type": "Feature", "properties": {"type": "postcode-cell", "postcode": "EX8 4RP", "postcodes": ["EX8 4RP"]}, "geometry": {"type": "Polygon", "coordinates": [[[-3.385083355058567, 50.628062715941915], [-3.3856752577514855, 50.628203145194725], [-3.385551053190787, 50.628947072003825], [-3.3853180102064893, 50.62896703479273], [-3.3843029300243144, 50.628514066181516], [-3.384342605197718, 50.62845064897698], [-3.385083355058567, 50.628062715941915]]]}}, {"type": "Feature", "properties": {"type": "postcode-cell", "postcode": "EX8 4RQ", "postcodes": ["EX8 4RQ"]}, "geometry": {"type": "Polygon", "coordinates": [[[-3.385360047322355, 50.630964457485675], [-3.385177989485218, 50.63178033947631], [-3.3844972423067197, 50.630755993778216], [-3.3849397462836275, 50.630755075187835], [-3.385360047322355, 50.630964457485675]]]}}, {"type": "Feature", "properties": {"type": "postcode-cell", "postcode": "EX8 4SG", "postcodes": ["EX8 4SG"]}, "geometry": {"type": "Polygon", "coordinates": [[[-3.38499414908453, 50.62985857698354], [-3.385591463339235, 50.63016184517348], [-3.3855749417414414, 50.6303202105559], [-3.3849397462836275, 50.630755075187835], [-3.3844972423067197, 50.630755993778216], [-3.3838995195378505, 50.630591185758895], [-3.3834939433439764, 50.6299028827185], [-3.3836605086370484, 50.62982683269949], [-3.384481898904415, 50.62978041067047], [-3.38499414908453, 50.62985857698354]]]}}, {"type": "Feature", "properties": {"type": "postcode-cell", "postcode": "EX8 4RY", "postcodes": ["EX8 4RY"]}, "geometry": {"type": "Polygon", "coordinates": [[[-3.384481898904415, 50.62978041067047], [-3.3836605086370484, 50.62982683269949], [-3.3840504342413675, 50.62866244446339], [-3.3843029300243144, 50.628514066181516], [-3.3853180102064893, 50.62896703479273], [-3.384481898904415, 50.62978041067047]]]}}, {"type": "Feature", "properties": {"type": "postcode-cell", "postcode": "EX8 4RJ", "postcodes": ["EX8 4RJ"]}, "geometry": {"type": "Polygon", "coordinates": [[[-3.3844972423067197, 50.630755993778216], [-3.385177989485218, 50.63178033947631], [-3.3851854162417427, 50.63183335634511], [-3.3845556590594157, 50.631904360218485], [-3.383774882074603, 50.63092172347602], [-3.3838995195378505, 50.630591185758895], [-3.3844972423067197, 50.630755993778216]]]}}, {"type": "Feature", "properties": {"type": "postcode-cell", "postcode": "EX8 4HP", "postcodes": ["EX8 4HP"]}, "geometry": {"type": "Polygon", "coordinates": [[[-3.383774882074603, 50.63092172347602], [-3.383019366943266, 50.63136751457178], [-3.382140642897975, 50.6311508108415], [-3.3817825729644846, 50.630072373943314], [-3.38243992753699, 50.62986679350965], [-3.3834939433439764, 50.6299028827185], [-3.3838995195378505, 50.630591185758895], [-3.383774882074603, 50.63092172347602]]]}}, {"type": "Feature", "properties": {"type": "postcode-cell", "postcode": "EX8 2NS", "postcodes": ["EX8 2NS"]}, "geometry": {"type": "Polygon", "coordinates": [[[-3.3834939433439764, 50.6299028827185], [-3.38243992753699, 50.62986679350965], [-3.382162766473636, 50.62824418872356], [-3.3840504342413675, 50.62866244446339], [-3.3836605086370484, 50.62982683269949], [-3.3834939433439764, 50.6299028827185]]]}}, {"type": "Feature", "properties": {"type": "postcode-cell", "postcode": "EX8 2ND", "postcodes": ["EX8 2ND"]}, "geometry": {"type": "Polygon", "coordinates": [[[-3.3840504342413675, 50.62866244446339], [-3.382162766473636, 50.62824418872356], [-3.3821395800804326, 50.62821912490425], [-3.383417123016083, 50.62756308783019], [-3.384342605197718, 50.62845064897698], [-3.3843029300243144, 50.628514066181516], [-3.3840504342413675, 50.62866244446339]]]}}, {"type": "Feature", "properties": {"type": "postcode-cell", "postcode": "EX8 4FG", "postcodes": ["EX8 4FG", "EX8 4RZ"]}, "geometry": {"type": "Polygon", "coordinates": [[[-3.382162766473636, 50.62824418872356], [-3.38243992753699, 50.62986679350965], [-3.3817825729644846, 50.630072373943314], [-3.380897624043439, 50.63004869993929], [-3.380053006965457, 50.628818112469354], [-3.382059989700482, 50.628259994671616], [-3.3821395800804326, 50.62821912490425], [-3.382162766473636, 50.62824418872356]]]}}, {"type": "Feature", "properties": {"type": "postcode-cell", "postcode": "EX8 4PA", "postcodes": ["EX8 4PA"]}, "geometry": {"type": "Polygon", "coordinates": [[[-3.3817825729644846, 50.630072373943314], [-3.382140642897975, 50.6311508108415], [-3.381329087965809, 50.63201190278026], [-3.3804717574209096, 50.63025838010319], [-3.380897624043439, 50.63004869993929], [-3.3817825729644846, 50.630072373943314]]]}}, {"type": "Feature", "properties": {"type": "postcode-cell", "postcode": "EX8 4RS", "postcodes": ["EX8 4RS"]}, "geometry": {"type": "Polygon", "coordinates": [[[-3.380897624043439, 50.63004869993929], [-3.3804717574209096, 50.63025838010319], [-3.3798678395998363, 50.630446625384096], [-3.377078034578042, 50.629645328958226], [-3.380053006965457, 50.628818112469354], [-3.380897624043439, 50.63004869993929]]]}}, {"type": "Feature", "properties": {"type": "postcode-cell", "postcode": "EX8 4PB", "postcodes": ["EX8 4PB"]}, "geometry": {"type": "Polygon", "coordinates": [[[-3.380884355828581, 50.632970182054834], [-3.380799989697401, 50.633009994675334], [-3.3794699896965503, 50.63305999467539], [-3.3794250214105266, 50.63323237578172], [-3.37864840087706, 50.63250697806023], [-3.3798678395998363, 50.630446625384096], [-3.3804717574209096, 50.63025838010319], [-3.381329087965809, 50.63201190278026], [-3.380884355828581, 50.632970182054834]]]}}, {"type": "Feature", "properties": {"type": "postcode-cell", "postcode": "EX8 2NU", "postcodes": ["EX8 2NU"]}, "geometry": {"type": "Polygon", "coordinates": [[[-3.3742678446943404, 50.64030336492233], [-3.3700144458549492, 50.639195549358774], [-3.3759129069341642, 50.632246469068726], [-3.377755564047449, 50.63217692744225], [-3.37864840087706, 50.63250697806023], [-3.3794250214105266, 50.63323237578172], [-3.3792299896959572, 50.63397999467611], [-3.380009989695162, 50.636629994678145], [-3.379259989694242, 50.637569994678906], [-3.379629989694144, 50.63824999467942], [-3.3774499896918297, 50.640229994681], [-3.3768820876543026, 50.6405316488682], [-3.3742678446943404, 50.64030336492233]]]}}, {"type": "Feature", "properties": {"type": "postcode-cell", "postcode": "EX8 2NX", "postcodes": ["EX8 2NX"]}, "geometry": {"type": "Polygon", "coordinates": [[[-3.37864840087706, 50.63250697806023], [-3.377755564047449, 50.63217692744225], [-3.376595063955704, 50.629779613194586], [-3.377078034578042, 50.629645328958226], [-3.3798678395998363, 50.630446625384096], [-3.37864840087706, 50.63250697806023]]]}}, {"type": "Feature", "properties": {"type": "postcode-cell", "postcode": "EX8 2NR", "postcodes": ["EX8 2NR"]}, "geometry": {"type": "Polygon", "coordinates": [[[-3.377755564047449, 50.63217692744225], [-3.3759129069341642, 50.632246469068726], [-3.3743601244142374, 50.63158913942064], [-3.3741349191516585, 50.63071798017194], [-3.376269989696102, 50.62986999467297], [-3.376595063955704, 50.629779613194586], [-3.377755564047449, 50.63217692744225]]]}}, {"type": "Feature", "properties": {"type": "postcode-cell", "postcode": "EX8 2GH", "postcodes": ["EX8 2GH"]}, "geometry": {"type": "Polygon", "coordinates": [[[-3.3759129069341642, 50.632246469068726], [-3.3700144458549492, 50.639195549358774], [-3.3647483263678972, 50.63814544845739], [-3.3743601244142374, 50.63158913942064], [-3.3759129069341642, 50.632246469068726]]]}}, {"type": "Feature", "properties": {"type": "postcode-cell", "postcode": "EX8 5EE", "postcodes": ["EX8 5EE"]}, "geometry": {"type": "Polygon", "coordinates": [[[-3.3647483263678972, 50.63814544845739], [-3.3700144458549492, 50.639195549358774], [-3.3742678446943404, 50.64030336492233], [-3.3689176318496106, 50.64941564223735], [-3.3680699896813215, 50.649899994688695], [-3.363199989678045, 50.650409994689184], [-3.3627399896779, 50.65011999468894], [-3.3630899896802258, 50.64575999468556], [-3.3635099896810625, 50.64456999468462], [-3.3652999896829834, 50.64289999468328], [-3.36326998968236, 50.64157999468233], [-3.3606399896818813, 50.63918999468051], [-3.357719989680604, 50.63807999467971], [-3.3590399896817154, 50.6374799946792], [-3.3589852367554682, 50.637370259856475], [-3.3647483263678972, 50.63814544845739]]]}}]}