{"type": "FeatureCollection", "features": [{"type": "Feature", "properties": {"type": "ward-outline", "name": "Halberton"}, "geometry": {"type": "Polygon", "coordinates": [[[-3.33912, 50.90951], [-3.33932, 50.90365], [-3.33878, 50.90204], [-3.34144, 50.90144], [-3.34046, 50.90055], [-3.34032, 50.89982], [-3.34177, 50.89985], [-3.34246, 50.89929], [-3.34304, 50.89949], [-3.34397, 50.89926], [-3.34471, 50.89889], [-3.34518, 50.8979], [-3.3461, 50.89775], [-3.3462, 50.89717], [-3.3472, 50.89728], [-3.34862, 50.89645], [-3.34967, 50.89627], [-3.34964, 50.89597], [-3.3504, 50.89595], [-3.35119, 50.89499], [-3.35104, 50.89467], [-3.35171, 50.89461], [-3.35132, 50.89427], [-3.35241, 50.89435], [-3.35291, 50.89383], [-3.35274, 50.89323], [-3.35349, 50.89274], [-3.35346, 50.89214], [-3.35557, 50.89334], [-3.36183, 50.89559], [-3.36371, 50.89679], [-3.36646, 50.89626], [-3.36813, 50.89536], [-3.36807, 50.89489], [-3.36866, 50.89448], [-3.37015, 50.89389], [-3.37143, 50.89481], [-3.3731, 50.89484], [-3.37647, 50.89648], [-3.37904, 50.89524], [-3.38013, 50.89505], [-3.38014, 50.89467], [-3.38083, 50.89437], [-3.38169, 50.89443], [-3.38192, 50.8934], [-3.38393, 50.89237], [-3.38434, 50.89261], [-3.38506, 50.89233], [-3.38553, 50.89252], [-3.38575, 50.89216], [-3.3863, 50.89242], [-3.38668, 50.89227], [-3.38664, 50.89136], [-3.38724, 50.89136], [-3.38724, 50.89088], [-3.38788, 50.89092], [-3.38972, 50.88865], [-3.39102, 50.88786], [-3.3913, 50.88682], [-3.39095, 50.88656], [-3.39249, 50.88529], [-3.39146, 50.88485], [-3.3911, 50.88427], [-3.39046, 50.8843], [-3.39067, 50.88404], [-3.3901, 50.88346], [-3.3902, 50.88253], [-3.39144, 50.88239], [-3.39169, 50.88141], [-3.39053, 50.88058], [-3.38897, 50.88006], [-3.389, 50.87968], [-3.38786, 50.87941], [-3.38696, 50.87874], [-3.38694, 50.87807], [-3.38548, 50.87717], [-3.38412, 50.87692], [-3.38399, 50.87641], [-3.38462, 50.87627], [-3.38404, 50.87519], [-3.38495, 50.87463], [-3.3847, 50.87437], [-3.38521, 50.87364], [-3.3847, 50.87342], [-3.38562, 50.8725], [-3.38534, 50.87149], [-3.38633, 50.87101], [-3.38624, 50.87053], [-3.38693, 50.87035], [-3.38832, 50.87102], [-3.39474, 50.87247], [-3.39625, 50.87224], [-3.40225, 50.87332], [-3.40416, 50.87256], [-3.40727, 50.87196], [-3.40765, 50.87151], [-3.41042, 50.87176], [-3.41597, 50.87143], [-3.41689, 50.87173], [-3.41779, 50.87149], [-3.41845, 50.87169], [-3.41937, 50.87164], [-3.42064, 50.87095], [-3.42216, 50.87114], [-3.42322, 50.87167], [-3.42447, 50.87105], [-3.42927, 50.87105], [-3.43079, 50.87062], [-3.43925, 50.87192], [-3.44434, 50.87219], [-3.44782, 50.8729], [-3.45236, 50.87252], [-3.45329, 50.87131], [-3.45337, 50.86999], [-3.45149, 50.86593], [-3.45262, 50.86514], [-3.45488, 50.85949], [-3.45531, 50.85927], [-3.45808, 50.85989], [-3.4583, 50.86016], [-3.45928, 50.86009], [-3.46076, 50.85959], [-3.4621, 50.85985], [-3.46517, 50.8594], [-3.46627, 50.85954], [-3.46663, 50.86002], [-3.46587, 50.86065], [-3.46588, 50.86115], [-3.47033, 50.86349], [-3.471, 50.8642], [-3.47211, 50.86423], [-3.4738, 50.86546], [-3.47662, 50.868], [-3.47689, 50.86854], [-3.47623, 50.86861], [-3.47748, 50.87078], [-3.47916, 50.87035], [-3.48451, 50.86984], [-3.48572, 50.86936], [-3.48665, 50.86823], [-3.48867, 50.86833], [-3.48952, 50.86781], [-3.49004, 50.86796], [-3.49007, 50.86836], [-3.49202, 50.86824], [-3.49287, 50.8687], [-3.493, 50.86831], [-3.49537, 50.86803], [-3.49572, 50.86771], [-3.4965, 50.8678], [-3.49152, 50.87348], [-3.48982, 50.8747], [-3.48803, 50.87725], [-3.48848, 50.87866], [-3.48976, 50.87903], [-3.48916, 50.8802], [-3.48944, 50.88054], [-3.4883, 50.88142], [-3.48616, 50.88143], [-3.48569, 50.88237], [-3.48348, 50.88201], [-3.48175, 50.88208], [-3.48013, 50.88343], [-3.47792, 50.88339], [-3.47556, 50.88422], [-3.4738, 50.88431], [-3.47073, 50.88355], [-3.46914, 50.88442], [-3.46707, 50.88495], [-3.46215, 50.88598], [-3.45895, 50.88627], [-3.45838, 50.88604], [-3.45804, 50.88659], [-3.45297, 50.88614], [-3.4514, 50.88632], [-3.44958, 50.88596], [-3.44774, 50.88811], [-3.44727, 50.89194], [-3.44576, 50.89353], [-3.44139, 50.90115], [-3.44071, 50.90403], [-3.43844, 50.90916], [-3.43756, 50.91042], [-3.436, 50.91169], [-3.43441, 50.915], [-3.43114, 50.91562], [-3.42671, 50.91751], [-3.42725, 50.9189], [-3.42022, 50.91933], [-3.40812, 50.91939], [-3.40469, 50.9199], [-3.40023, 50.92119], [-3.39879, 50.91958], [-3.39784, 50.9195], [-3.39728, 50.91977], [-3.39496, 50.91915], [-3.38639, 50.91348], [-3.38255, 50.91177], [-3.38239, 50.91206], [-3.38099, 50.91157], [-3.38058, 50.91208], [-3.38173, 50.91259], [-3.37887, 50.91401], [-3.37374, 50.91237], [-3.36866, 50.91176], [-3.36853, 50.91135], [-3.36804, 50.91125], [-3.36137, 50.91238], [-3.35482, 50.91053], [-3.34973, 50.90968], [-3.34248, 50.90923], [-3.33912, 50.90951]]]}}, {"type": "Feature", "properties": {"type": "postcode-cell", "postcode": "EX16 4PW", "postcodes": ["EX16 4PW"]}, "geometry": {"type": "Polygon", "coordinates": [[[-3.460376082374911, 50.87451669478058], [-3.489022406958042, 50.87583625330895], [-3.4880299896482505, 50.877249994865885], [-3.4884799896478698, 50.878659994867], [-3.489759989648514, 50.87902999486729], [-3.4891599896475762, 50.880199994868214], [-3.4894399896475936, 50.88053999486851], [-3.488299989646452, 50.88141999486921], [-3.486159989645081, 50.88142999486922], [-3.4856899896443356, 50.88236999486999], [-3.4834799896430955, 50.882009994869726], [-3.4817499896419584, 50.88207999486981], [-3.4801299896402855, 50.8834299948709], [-3.4779199896388944, 50.883389994870896], [-3.4755599896369973, 50.88421999487158], [-3.4747881210933667, 50.884259468729056], [-3.460376082374911, 50.87451669478058]]]}}, {"type": "Feature", "properties": {"type": "postcode-cell", "postcode": "EX16 4PS", "postcodes": ["EX16 4PS"]}, "geometry": {"type": "Polygon", "coordinates": [[[-3.460376082374911, 50.87451669478058], [-3.4603325961082736, 50.87449035941623], [-3.460220911250579, 50.874169200756675], [-3.4603973695079295, 50.87397680062443], [-3.4773518213768964, 50.87055750486471], [-3.477479989644581, 50.87077999486086], [-3.4791599896458556, 50.87034999486049], [-3.484509989649508, 50.86983999486002], [-3.4857199896505073, 50.86935999485963], [-3.4862048287182197, 50.868770896985346], [-3.4884443086756436, 50.868318824291364], [-3.488669989652876, 50.86832999485878], [-3.4888083984991938, 50.86824532241496], [-3.490042700023251, 50.86799613343894], [-3.4900699896537555, 50.86835999485878], [-3.492019989655057, 50.86823999485867], [-3.4928699896553805, 50.86869999485899], [-3.492999989655647, 50.868309994858706], [-3.495369989657293, 50.86802999485845], [-3.495719989657668, 50.8677099948582], [-3.4964999896581235, 50.86779999485825], [-3.49151998965226, 50.87347999486286], [-3.489819989650598, 50.87469999486383], [-3.489022406958042, 50.87583625330895], [-3.460376082374911, 50.87451669478058]]]}}, {"type": "Feature", "properties": {"type": "postcode-cell", "postcode": "EX15 1WF", "postcodes": ["EX15 1WF"]}, "geometry": {"type": "MultiPolygon", "coordinates": [[[[-3.4888083984991938, 50.86824532241496], [-3.4895199896536635, 50.86780999485834], [-3.490039989653926, 50.86795999485846], [-3.490042700023251, 50.86799613343894], [-3.4888083984991938, 50.86824532241496]]], [[[-3.4862048287182197, 50.868770896985346], [-3.486649989651634, 50.86822999485871], [-3.4884443086756436, 50.868318824291364], [-3.4862048287182197, 50.868770896985346]]], [[[-3.4603973695079295, 50.87397680062443], [-3.4611205186911755, 50.86812200163241], [-3.473014660389096, 50.86546633844577], [-3.473818628089644, 50.865476783822295], [-3.4766199896453474, 50.86799999485865], [-3.476889989645265, 50.86853999485908], [-3.4762299896448114, 50.868609994859135], [-3.4773518213768964, 50.87055750486471], [-3.4603973695079295, 50.87397680062443]]]]}}, {"type": "Feature", "properties": {"type": "postcode-cell", "postcode": "EX15 1PW", "postcodes": ["EX15 1PW"]}, "geometry": {"type": "Polygon", "coordinates": [[[-3.4600837020933697, 50.86393090957203], [-3.4616072339712365, 50.86161089279598], [-3.462063986965709, 50.861347278692925], [-3.473014660389096, 50.86546633844577], [-3.4611205186911755, 50.86812200163241], [-3.4602577595236563, 50.86780882178822], [-3.4600837020933697, 50.86393090957203]]]}}, {"type": "Feature", "properties": {"type": "postcode-cell", "postcode": "EX15 1PN", "postcodes": ["EX15 1PN"]}, "geometry": {"type": "Polygon", "coordinates": [[[-3.4602577595236563, 50.86780882178822], [-3.4582169375675407, 50.86750089232151], [-3.457409711654511, 50.86708966369875], [-3.458179673607564, 50.86386154414797], [-3.4582400760586314, 50.863789525369214], [-3.4600837020933697, 50.86393090957203], [-3.4602577595236563, 50.86780882178822]]]}}, {"type": "Feature", "properties": {"type": "postcode-cell", "postcode": "EX15 1PJ", "postcodes": ["EX15 1PJ"]}, "geometry": {"type": "Polygon", "coordinates": [[[-3.473014660389096, 50.86546633844577], [-3.462063986965709, 50.861347278692925], [-3.46134793007889, 50.85970407510846], [-3.462099989639966, 50.85984999485236], [-3.465169989642133, 50.859399994851955], [-3.4662699896427664, 50.85953999485205], [-3.4666299896427675, 50.86001999485242], [-3.465869989641984, 50.86064999485291], [-3.465879989641755, 50.861149994853335], [-3.4703299896434765, 50.86348999485514], [-3.4709999896435675, 50.864199994855674], [-3.472109989644261, 50.8642299948557], [-3.473799989644754, 50.86545999485664], [-3.473818628089644, 50.865476783822295], [-3.473014660389096, 50.86546633844577]]]}}, {"type": "Feature", "properties": {"type": "postcode-cell", "postcode": "EX15 1PP", "postcodes": ["EX15 1PP"]}, "geometry": {"type": "Polygon", "coordinates": [[[-3.460220911250579, 50.874169200756675], [-3.4498325429573153, 50.87273156578339], [-3.4523599896277624, 50.872519994862536], [-3.453289989628927, 50.87130999486157], [-3.4533640720575804, 50.87008763692892], [-3.4582169375675407, 50.86750089232151], [-3.4602577595236563, 50.86780882178822], [-3.4611205186911755, 50.86812200163241], [-3.4603973695079295, 50.87397680062443], [-3.460220911250579, 50.874169200756675]]]}}, {"type": "Feature", "properties": {"type": "postcode-cell", "postcode": "EX16 4PJ", "postcodes": ["EX16 4PJ"]}, "geometry": {"type": "Polygon", "coordinates": [[[-3.460376082374911, 50.87451669478058], [-3.4747881210933667, 50.884259468729056], [-3.473799989635831, 50.88430999487169], [-3.4707299896342323, 50.8835499948711], [-3.469139989632809, 50.88441999487182], [-3.467069989631238, 50.88494999487226], [-3.4621499896276164, 50.885979994873146], [-3.4589499896254403, 50.886269994873416], [-3.4583799896251852, 50.88603999487323], [-3.4580399896247074, 50.88658999487367], [-3.4555967440577176, 50.886373167390815], [-3.452070668771603, 50.883547376602515], [-3.4603325961082736, 50.87449035941623], [-3.460376082374911, 50.87451669478058]]]}}, {"type": "Feature", "properties": {"type": "postcode-cell", "postcode": "EX15 1PH", "postcodes": ["EX15 1PH"]}, "geometry": {"type": "Polygon", "coordinates": [[[-3.462063986965709, 50.861347278692925], [-3.4616072339712365, 50.86161089279598], [-3.456626524699202, 50.862608904817044], [-3.453637878431833, 50.8625954433598], [-3.454879989635547, 50.859489994852176], [-3.455309989635924, 50.859269994851985], [-3.458079989637391, 50.85988999485246], [-3.458299989637404, 50.86015999485265], [-3.459279989638058, 50.860089994852565], [-3.4607599896392363, 50.859589994852165], [-3.46134793007889, 50.85970407510846], [-3.462063986965709, 50.861347278692925]]]}}, {"type": "Feature", "properties": {"type": "postcode-cell", "postcode": "EX16 4NG", "postcodes": ["EX16 4NG"]}, "geometry": {"type": "Polygon", "coordinates": [[[-3.4267129721937395, 50.912623789063844], [-3.4316085336292512, 50.90461404217034], [-3.4354612953139556, 50.902270900163856], [-3.44102630405666, 50.902690353078206], [-3.440709989605411, 50.90402999488778], [-3.4384399896015347, 50.90915999489191], [-3.4375599896003775, 50.910419994892926], [-3.4359999895987823, 50.91168999489397], [-3.4344099895962024, 50.914999994896625], [-3.4311399895938273, 50.91561999489714], [-3.430930652906597, 50.91570931278081], [-3.4267129721937395, 50.912623789063844]]]}}, {"type": "Feature", "properties": {"type": "postcode-cell", "postcode": "EX15 1LX", "postcodes": ["EX15 1LX"]}, "geometry": {"type": "Polygon", "coordinates": [[[-3.452070668771603, 50.883547376602515], [-3.448998554534882, 50.88235265368232], [-3.4452418171510657, 50.87766675876758], [-3.4461578920358846, 50.87267002777293], [-3.446609496800306, 50.87265304078119], [-3.4478199896246973, 50.87289999486291], [-3.4498325429573153, 50.87273156578339], [-3.460220911250579, 50.874169200756675], [-3.4603325961082736, 50.87449035941623], [-3.452070668771603, 50.883547376602515]]]}}, {"type": "Feature", "properties": {"type": "postcode-cell", "postcode": "EX15 1PL", "postcodes": ["EX15 1PL"]}, "geometry": {"type": "Polygon", "coordinates": [[[-3.456626524699202, 50.862608904817044], [-3.4616072339712365, 50.86161089279598], [-3.4600837020933697, 50.86393090957203], [-3.4582400760586314, 50.863789525369214], [-3.456626524699202, 50.862608904817044]]]}}, {"type": "Feature", "properties": {"type": "postcode-cell", "postcode": "EX15 1QG", "postcodes": ["EX15 1QG"]}, "geometry": {"type": "Polygon", "coordinates": [[[-3.4582400760586314, 50.863789525369214], [-3.458179673607564, 50.86386154414797], [-3.4538789392581113, 50.86554803217241], [-3.452649189400565, 50.86506700421795], [-3.453637878431833, 50.8625954433598], [-3.456626524699202, 50.862608904817044], [-3.4582400760586314, 50.863789525369214]]]}}, {"type": "Feature", "properties": {"type": "postcode-cell", "postcode": "EX15 1WE", "postcodes": ["EX15 1WE"]}, "geometry": {"type": "MultiPolygon", "coordinates": [[[[-3.4582169375675407, 50.86750089232151], [-3.4533640720575804, 50.87008763692892], [-3.4533699896296057, 50.86998999486052], [-3.4514899896303364, 50.86592999485732], [-3.4526199896314287, 50.86513999485668], [-3.452649189400565, 50.86506700421795], [-3.4538789392581113, 50.86554803217241], [-3.457409711654511, 50.86708966369875], [-3.4582169375675407, 50.86750089232151]]], [[[-3.4461578920358846, 50.87267002777293], [-3.44600891561715, 50.8725305098447], [-3.446609496800306, 50.87265304078119], [-3.4461578920358846, 50.87267002777293]]]]}}, {"type": "Feature", "properties": {"type": "postcode-cell", "postcode": "EX15 1QF", "postcodes": ["EX15 1QF"]}, "geometry": {"type": "Polygon", "coordinates": [[[-3.457409711654511, 50.86708966369875], [-3.4538789392581113, 50.86554803217241], [-3.458179673607564, 50.86386154414797], [-3.457409711654511, 50.86708966369875]]]}}, {"type": "Feature", "properties": {"type": "postcode-cell", "postcode": "EX16 4NX", "postcodes": ["EX16 4NX"]}, "geometry": {"type": "Polygon", "coordinates": [[[-3.4555967440577176, 50.886373167390815], [-3.4529699896216934, 50.88613999487338], [-3.451399989620607, 50.88631999487353], [-3.44957998961962, 50.88595999487327], [-3.4477399896174292, 50.88810999487501], [-3.447269989615316, 50.89193999487807], [-3.4464946622802937, 50.89275641497898], [-3.4327933821390384, 50.88738721827764], [-3.4326777201533765, 50.88686423320321], [-3.448998554534882, 50.88235265368232], [-3.452070668771603, 50.883547376602515], [-3.4555967440577176, 50.886373167390815]]]}}, {"type": "Feature", "properties": {"type": "postcode-cell", "postcode": "EX15 1LY", "postcodes": ["EX15 1LY"]}, "geometry": {"type": "Polygon", "coordinates": [[[-3.448998554534882, 50.88235265368232], [-3.4326777201533765, 50.88686423320321], [-3.4266818339019025, 50.88237538216595], [-3.431673596281142, 50.87886466026659], [-3.4452418171510657, 50.87766675876758], [-3.448998554534882, 50.88235265368232]]]}}, {"type": "Feature", "properties": {"type": "postcode-cell", "postcode": "EX15 1LZ", "postcodes": ["EX15 1LZ"]}, "geometry": {"type": "Polygon", "coordinates": [[[-3.4461578920358846, 50.87267002777293], [-3.4452418171510657, 50.87766675876758], [-3.431673596281142, 50.87886466026659], [-3.4324125107351735, 50.87086937175637], [-3.439249989619715, 50.87191999486223], [-3.4443399896228195, 50.872189994862396], [-3.44600891561715, 50.8725305098447], [-3.4461578920358846, 50.87267002777293]]]}}, {"type": "Feature", "properties": {"type": "postcode-cell", "postcode": "EX16 4NJ", "postcodes": ["EX16 4NJ"]}, "geometry": {"type": "Polygon", "coordinates": [[[-3.4354612953139556, 50.902270900163856], [-3.4323062444773793, 50.898608261231395], [-3.4322702573745842, 50.895927573038485], [-3.432463880345656, 50.89547737839973], [-3.445237072317944, 50.89444194699472], [-3.4413899896072095, 50.90114999488548], [-3.44102630405666, 50.902690353078206], [-3.4354612953139556, 50.902270900163856]]]}}, {"type": "Feature", "properties": {"type": "postcode-cell", "postcode": "EX16 7FH", "postcodes": ["EX16 7FH"]}, "geometry": {"type": "Polygon", "coordinates": [[[-3.4354612953139556, 50.902270900163856], [-3.4316085336292512, 50.90461404217034], [-3.4246702798106963, 50.90277749722998], [-3.424305313384121, 50.90257359073091], [-3.4217234176065054, 50.900445955152556], [-3.42623646626121, 50.899180675006846], [-3.4323062444773793, 50.898608261231395], [-3.4354612953139556, 50.902270900163856]]]}}, {"type": "Feature", "properties": {"type": "postcode-cell", "postcode": "EX15 1NA", "postcodes": ["EX15 1NA"]}, "geometry": {"type": "Polygon", "coordinates": [[[-3.4266818339019025, 50.88237538216595], [-3.4247928097684412, 50.88218657847337], [-3.4212192896278033, 50.881263374180236], [-3.4188648576696545, 50.87935194545903], [-3.4167328258067604, 50.87167874658934], [-3.4168899896056177, 50.87172999486236], [-3.417789989606302, 50.87148999486214], [-3.4184499896066267, 50.87168999486231], [-3.4193699896072314, 50.871639994862264], [-3.420639989608366, 50.8709499948617], [-3.4221599896092396, 50.87113999486181], [-3.42321998960966, 50.87166999486224], [-3.4244699896107478, 50.871049994861714], [-3.4292699896137915, 50.87104999486168], [-3.430789989614961, 50.87061999486131], [-3.4324125107351735, 50.87086937175637], [-3.431673596281142, 50.87886466026659], [-3.4266818339019025, 50.88237538216595]]]}}, {"type": "Feature", "properties": {"type": "postcode-cell", "postcode": "EX16 4NY", "postcodes": ["EX16 4NY"]}, "geometry": {"type": "Polygon", "coordinates": [[[-3.4464946622802937, 50.89275641497898], [-3.445759989613601, 50.89352999487936], [-3.445237072317944, 50.89444194699472], [-3.432463880345656, 50.89547737839973], [-3.4317615411159994, 50.89365295026744], [-3.4315835407166118, 50.8895249328542], [-3.4327933821390384, 50.88738721827764], [-3.4464946622802937, 50.89275641497898]]]}}, {"type": "Feature", "properties": {"type": "postcode-cell", "postcode": "EX16 4NP", "postcodes": ["EX16 4NP"]}, "geometry": {"type": "Polygon", "coordinates": [[[-3.4317615411159994, 50.89365295026744], [-3.4211349208386657, 50.894218071055136], [-3.422144880459348, 50.891937845636924], [-3.4315835407166118, 50.8895249328542], [-3.4317615411159994, 50.89365295026744]]]}}, {"type": "Feature", "properties": {"type": "postcode-cell", "postcode": "EX16 4NU", "postcodes": ["EX16 4NU"]}, "geometry": {"type": "Polygon", "coordinates": [[[-3.4327933821390384, 50.88738721827764], [-3.4315835407166118, 50.8895249328542], [-3.422144880459348, 50.891937845636924], [-3.4200362534157827, 50.89010003326412], [-3.4247928097684412, 50.88218657847337], [-3.4266818339019025, 50.88237538216595], [-3.4326777201533765, 50.88686423320321], [-3.4327933821390384, 50.88738721827764]]]}}, {"type": "Feature", "properties": {"type": "postcode-cell", "postcode": "EX16 7AY", "postcodes": ["EX16 7AY"]}, "geometry": {"type": "Polygon", "coordinates": [[[-3.4267129721937395, 50.912623789063844], [-3.4252662849682194, 50.91233881980777], [-3.422030800266113, 50.90894235172811], [-3.4223702409054493, 50.90601497734941], [-3.4246702798106963, 50.90277749722998], [-3.4316085336292512, 50.90461404217034], [-3.4267129721937395, 50.912623789063844]]]}}, {"type": "Feature", "properties": {"type": "postcode-cell", "postcode": "EX15 1QY", "postcodes": ["EX15 1QY"]}, "geometry": {"type": "Polygon", "coordinates": [[[-3.399217273223776, 50.87308629802223], [-3.392089308241247, 50.87819148265616], [-3.384863836657923, 50.874683012924834], [-3.3849499895840216, 50.87462999486505], [-3.3846999895839867, 50.87436999486484], [-3.3852099895846557, 50.873639994864256], [-3.38469998958444, 50.87341999486408], [-3.3856199895854604, 50.87249999486336], [-3.385339989585764, 50.87148999486256], [-3.3863299895866183, 50.87100999486216], [-3.3862399895867905, 50.87052999486179], [-3.3869299895873146, 50.87034999486164], [-3.3883199895878717, 50.871019994862145], [-3.3947399895912405, 50.87246999486321], [-3.3962499895923046, 50.872239994863016], [-3.399288005256483, 50.872786882649685], [-3.399217273223776, 50.87308629802223]]]}}, {"type": "Feature", "properties": {"type": "postcode-cell", "postcode": "EX16 4NW", "postcodes": ["EX16 4NW"]}, "geometry": {"type": "Polygon", "coordinates": [[[-3.4322702573745842, 50.895927573038485], [-3.4240210739857346, 50.895987471665904], [-3.420226301925045, 50.89513507518035], [-3.4211349208386657, 50.894218071055136], [-3.4317615411159994, 50.89365295026744], [-3.432463880345656, 50.89547737839973], [-3.4322702573745842, 50.895927573038485]]]}}, {"type": "Feature", "properties": {"type": "postcode-cell", "postcode": "EX16 7BD", "postcodes": ["EX16 7BD"]}, "geometry": {"type": "Polygon", "coordinates": [[[-3.4217234176065054, 50.900445955152556], [-3.424305313384121, 50.90257359073091], [-3.4215181701893562, 50.904317330478065], [-3.4211742522323414, 50.90417683542393], [-3.4216132184243335, 50.90042756242573], [-3.4217234176065054, 50.900445955152556]]]}}, {"type": "Feature", "properties": {"type": "postcode-cell", "postcode": "EX16 4NL", "postcodes": ["EX16 4NL"]}, "geometry": {"type": "Polygon", "coordinates": [[[-3.4216132184243335, 50.90042756242573], [-3.421489493256421, 50.900400546123294], [-3.415612758509024, 50.898678140780554], [-3.4168487425441914, 50.89652822548869], [-3.420226301925045, 50.89513507518035], [-3.4240210739857346, 50.895987471665904], [-3.42623646626121, 50.899180675006846], [-3.4217234176065054, 50.900445955152556], [-3.4216132184243335, 50.90042756242573]]]}}, {"type": "Feature", "properties": {"type": "postcode-cell", "postcode": "EX16 4NN", "postcodes": ["EX16 4NN"]}, "geometry": {"type": "Polygon", "coordinates": [[[-3.4323062444773793, 50.898608261231395], [-3.42623646626121, 50.899180675006846], [-3.4240210739857346, 50.895987471665904], [-3.4322702573745842, 50.895927573038485], [-3.4323062444773793, 50.898608261231395]]]}}, {"type": "Feature", "properties": {"type": "postcode-cell", "postcode": "EX16 4NR", "postcodes": ["EX16 4NR"]}, "geometry": {"type": "Polygon", "coordinates": [[[-3.420226301925045, 50.89513507518035], [-3.4168487425441914, 50.89652822548869], [-3.413511557365889, 50.892179764683895], [-3.419584774752992, 50.890105528328945], [-3.4200362534157827, 50.89010003326412], [-3.422144880459348, 50.891937845636924], [-3.4211349208386657, 50.894218071055136], [-3.420226301925045, 50.89513507518035]]]}}, {"type": "Feature", "properties": {"type": "postcode-cell", "postcode": "EX16 7AT", "postcodes": ["EX16 7AT"]}, "geometry": {"type": "Polygon", "coordinates": [[[-3.4208854065983956, 50.90825429432382], [-3.416244642775998, 50.90742618608038], [-3.415215182062321, 50.905832795426875], [-3.4153828060041804, 50.90537176531824], [-3.420648458190612, 50.90799330117287], [-3.4208854065983956, 50.90825429432382]]]}}, {"type": "Feature", "properties": {"type": "postcode-cell", "postcode": "EX16 7FG", "postcodes": ["EX16 7FG"]}, "geometry": {"type": "Polygon", "coordinates": [[[-3.420648458190612, 50.90799330117287], [-3.4205615783675234, 50.907854718934864], [-3.419798848119184, 50.904555291416756], [-3.4208430058736727, 50.90415326088391], [-3.4211742522323414, 50.90417683542393], [-3.4215181701893562, 50.904317330478065], [-3.4223702409054493, 50.90601497734941], [-3.422030800266113, 50.90894235172811], [-3.4208854065983956, 50.90825429432382], [-3.420648458190612, 50.90799330117287]]]}}, {"type": "Feature", "properties": {"type": "postcode-cell", "postcode": "EX16 7FF", "postcodes": ["EX16 7FF"]}, "geometry": {"type": "Polygon", "coordinates": [[[-3.4246702798106963, 50.90277749722998], [-3.4223702409054493, 50.90601497734941], [-3.4215181701893562, 50.904317330478065], [-3.424305313384121, 50.90257359073091], [-3.4246702798106963, 50.90277749722998]]]}}, {"type": "Feature", "properties": {"type": "postcode-cell", "postcode": "EX16 7SH", "postcodes": ["EX16 7SH"]}, "geometry": {"type": "Polygon", "coordinates": [[[-3.4202944294984325, 50.90370058545468], [-3.418947103968788, 50.904003263233385], [-3.4138296964331665, 50.89942892763496], [-3.415612758509024, 50.898678140780554], [-3.421489493256421, 50.900400546123294], [-3.4202944294984325, 50.90370058545468]]]}}, {"type": "Feature", "properties": {"type": "postcode-cell", "postcode": "EX16 7AX", "postcodes": ["EX16 7AX"]}, "geometry": {"type": "Polygon", "coordinates": [[[-3.421489493256421, 50.900400546123294], [-3.4216132184243335, 50.90042756242573], [-3.4211742522323414, 50.90417683542393], [-3.4208430058736727, 50.90415326088391], [-3.4202944294984325, 50.90370058545468], [-3.421489493256421, 50.900400546123294]]]}}, {"type": "Feature", "properties": {"type": "postcode-cell", "postcode": "EX16 7AZ", "postcodes": ["EX16 7AZ"]}, "geometry": {"type": "Polygon", "coordinates": [[[-3.4208430058736727, 50.90415326088391], [-3.419798848119184, 50.904555291416756], [-3.418970149940729, 50.904063377493365], [-3.418947103968788, 50.904003263233385], [-3.4202944294984325, 50.90370058545468], [-3.4208430058736727, 50.90415326088391]]]}}, {"type": "Feature", "properties": {"type": "postcode-cell", "postcode": "EX16 7DJ", "postcodes": ["EX16 7DJ"]}, "geometry": {"type": "Polygon", "coordinates": [[[-3.406647417484595, 50.91585012517014], [-3.417958136048576, 50.91310654174672], [-3.4252662849682194, 50.91233881980777], [-3.4267129721937395, 50.912623789063844], [-3.430930652906597, 50.91570931278081], [-3.426709989590112, 50.9175099948987], [-3.427249989589796, 50.91889999489981], [-3.420219989585121, 50.91932999490024], [-3.408119989577403, 50.91938999490042], [-3.4053234373061256, 50.91980581720127], [-3.406647417484595, 50.91585012517014]]]}}, {"type": "Feature", "properties": {"type": "postcode-cell", "postcode": "EX16 7DB", "postcodes": ["EX16 7DB"]}, "geometry": {"type": "Polygon", "coordinates": [[[-3.4205615783675234, 50.907854718934864], [-3.417927942127153, 50.90510856581728], [-3.418970149940729, 50.904063377493365], [-3.419798848119184, 50.904555291416756], [-3.4205615783675234, 50.907854718934864]]]}}, {"type": "Feature", "properties": {"type": "postcode-cell", "postcode": "EX15 1NE", "postcodes": ["EX15 1NE"]}, "geometry": {"type": "Polygon", "coordinates": [[[-3.415612758509024, 50.898678140780554], [-3.4138296964331665, 50.89942892763496], [-3.411230401045779, 50.90023602572016], [-3.4105004309467457, 50.90023741967698], [-3.4080894254902447, 50.90005141829963], [-3.40189783355771, 50.89793425230018], [-3.396603760643435, 50.89312242376231], [-3.39601155932168, 50.89006088649787], [-3.3986749913622485, 50.8891254442001], [-3.4122083722996845, 50.89144596351523], [-3.413511557365889, 50.892179764683895], [-3.4168487425441914, 50.89652822548869], [-3.415612758509024, 50.898678140780554]]]}}, {"type": "Feature", "properties": {"type": "postcode-cell", "postcode": "EX16 7AU", "postcodes": ["EX16 7AU"]}, "geometry": {"type": "Polygon", "coordinates": [[[-3.418970149940729, 50.904063377493365], [-3.417927942127153, 50.90510856581728], [-3.414844607552284, 50.904114057388796], [-3.4119442561254725, 50.901489136961985], [-3.411230401045779, 50.90023602572016], [-3.4138296964331665, 50.89942892763496], [-3.418947103968788, 50.904003263233385], [-3.418970149940729, 50.904063377493365]]]}}, {"type": "Feature", "properties": {"type": "postcode-cell", "postcode": "EX16 4NS", "postcodes": ["EX16 4NS"]}, "geometry": {"type": "Polygon", "coordinates": [[[-3.413511557365889, 50.892179764683895], [-3.4122083722996845, 50.89144596351523], [-3.4154783536022193, 50.88825418660883], [-3.419584774752992, 50.890105528328945], [-3.413511557365889, 50.892179764683895]]]}}, {"type": "Feature", "properties": {"type": "postcode-cell", "postcode": "EX16 4NT", "postcodes": ["EX16 4NT"]}, "geometry": {"type": "Polygon", "coordinates": [[[-3.4200362534157827, 50.89010003326412], [-3.419584774752992, 50.890105528328945], [-3.4154783536022193, 50.88825418660883], [-3.4156316799434663, 50.88479953648493], [-3.4212192896278033, 50.881263374180236], [-3.4247928097684412, 50.88218657847337], [-3.4200362534157827, 50.89010003326412]]]}}, {"type": "Feature", "properties": {"type": "postcode-cell", "postcode": "EX15 1ND", "postcodes": ["EX15 1ND"]}, "geometry": {"type": "Polygon", "coordinates": [[[-3.4154783536022193, 50.88825418660883], [-3.4122083722996845, 50.89144596351523], [-3.3986749913622485, 50.8891254442001], [-3.399817284342788, 50.888276022766654], [-3.4156316799434663, 50.88479953648493], [-3.4154783536022193, 50.88825418660883]]]}}, {"type": "Feature", "properties": {"type": "postcode-cell", "postcode": "EX16 7BA", "postcodes": ["EX16 7BA"]}, "geometry": {"type": "Polygon", "coordinates": [[[-3.420648458190612, 50.90799330117287], [-3.4153828060041804, 50.90537176531824], [-3.414844607552284, 50.904114057388796], [-3.417927942127153, 50.90510856581728], [-3.4205615783675234, 50.907854718934864], [-3.420648458190612, 50.90799330117287]]]}}, {"type": "Feature", "properties": {"type": "postcode-cell", "postcode": "EX16 7AE", "postcodes": ["EX16 7AE"]}, "geometry": {"type": "Polygon", "coordinates": [[[-3.409467789291449, 50.90857641982758], [-3.4119319431706727, 50.90840738073237], [-3.4141411205598935, 50.90923276092105], [-3.417958136048576, 50.91310654174672], [-3.406647417484595, 50.91585012517014], [-3.4065579224527087, 50.91574250939681], [-3.4063292326408363, 50.91229694028027], [-3.4083430588612167, 50.909212986574666], [-3.409467789291449, 50.90857641982758]]]}}, {"type": "Feature", "properties": {"type": "postcode-cell", "postcode": "EX16 7AG", "postcodes": ["EX16 7AG"]}, "geometry": {"type": "Polygon", "coordinates": [[[-3.4083430588612167, 50.909212986574666], [-3.407358726987594, 50.90777691442979], [-3.408104244672956, 50.906309246386286], [-3.409081089588017, 50.9060188008667], [-3.410106649410379, 50.9073410742132], [-3.409467789291449, 50.90857641982758], [-3.4083430588612167, 50.909212986574666]]]}}, {"type": "Feature", "properties": {"type": "postcode-cell", "postcode": "EX15 1NB", "postcodes": ["EX15 1NB"]}, "geometry": {"type": "Polygon", "coordinates": [[[-3.4156316799434663, 50.88479953648493], [-3.399817284342788, 50.888276022766654], [-3.4046707800394116, 50.88035143710736], [-3.4188648576696545, 50.87935194545903], [-3.4212192896278033, 50.881263374180236], [-3.4156316799434663, 50.88479953648493]]]}}, {"type": "Feature", "properties": {"type": "postcode-cell", "postcode": "EX16 7AS", "postcodes": ["EX16 7AS"]}, "geometry": {"type": "Polygon", "coordinates": [[[-3.4153828060041804, 50.90537176531824], [-3.415215182062321, 50.905832795426875], [-3.4143237395121355, 50.906552686309894], [-3.4133644395821783, 50.906663783843484], [-3.412189551694488, 50.9061258973558], [-3.4119442561254725, 50.901489136961985], [-3.414844607552284, 50.904114057388796], [-3.4153828060041804, 50.90537176531824]]]}}, {"type": "Feature", "properties": {"type": "postcode-cell", "postcode": "EX16 7AW", "postcodes": ["EX16 7AW"]}, "geometry": {"type": "Polygon", "coordinates": [[[-3.422030800266113, 50.90894235172811], [-3.4252662849682194, 50.91233881980777], [-3.417958136048576, 50.91310654174672], [-3.4141411205598935, 50.90923276092105], [-3.4143880544869143, 50.9079391927941], [-3.414602031652361, 50.90773500972141], [-3.415982956256753, 50.90742518463031], [-3.416244642775998, 50.90742618608038], [-3.4208854065983956, 50.90825429432382], [-3.422030800266113, 50.90894235172811]]]}}, {"type": "Feature", "properties": {"type": "postcode-cell", "postcode": "EX16 7AR", "postcodes": ["EX16 7AR"]}, "geometry": {"type": "Polygon", "coordinates": [[[-3.415215182062321, 50.905832795426875], [-3.416244642775998, 50.90742618608038], [-3.415982956256753, 50.90742518463031], [-3.4143237395121355, 50.906552686309894], [-3.415215182062321, 50.905832795426875]]]}}, {"type": "Feature", "properties": {"type": "postcode-cell", "postcode": "EX16 7SQ", "postcodes": ["EX16 7SQ"]}, "geometry": {"type": "Polygon", "coordinates": [[[-3.4143880544869143, 50.9079391927941], [-3.412970558036624, 50.907897220820054], [-3.4134013944855, 50.907157588545374], [-3.4135010030547557, 50.90704423491084], [-3.414602031652361, 50.90773500972141], [-3.4143880544869143, 50.9079391927941]]]}}, {"type": "Feature", "properties": {"type": "postcode-cell", "postcode": "EX16 7AB", "postcodes": ["EX16 7AB"]}, "geometry": {"type": "Polygon", "coordinates": [[[-3.4134013944855, 50.907157588545374], [-3.412387392348337, 50.90751723100759], [-3.412110613143367, 50.906189456711566], [-3.412189551694488, 50.9061258973558], [-3.4133644395821783, 50.906663783843484], [-3.4135010030547557, 50.90704423491084], [-3.4134013944855, 50.907157588545374]]]}}, {"type": "Feature", "properties": {"type": "postcode-cell", "postcode": "EX16 7AP", "postcodes": ["EX16 7AP"]}, "geometry": {"type": "Polygon", "coordinates": [[[-3.414602031652361, 50.90773500972141], [-3.4135010030547557, 50.90704423491084], [-3.4133644395821783, 50.906663783843484], [-3.4143237395121355, 50.906552686309894], [-3.415982956256753, 50.90742518463031], [-3.414602031652361, 50.90773500972141]]]}}, {"type": "Feature", "properties": {"type": "postcode-cell", "postcode": "EX16 7AD", "postcodes": ["EX16 7AD"]}, "geometry": {"type": "Polygon", "coordinates": [[[-3.412970558036624, 50.907897220820054], [-3.4121977386408173, 50.90821172824925], [-3.412387392348337, 50.90751723100759], [-3.4134013944855, 50.907157588545374], [-3.412970558036624, 50.907897220820054]]]}}, {"type": "Feature", "properties": {"type": "postcode-cell", "postcode": "EX16 7AF", "postcodes": ["EX16 7AF"]}, "geometry": {"type": "Polygon", "coordinates": [[[-3.4141411205598935, 50.90923276092105], [-3.4119319431706727, 50.90840738073237], [-3.4121977386408173, 50.90821172824925], [-3.412970558036624, 50.907897220820054], [-3.4143880544869143, 50.9079391927941], [-3.4141411205598935, 50.90923276092105]]]}}, {"type": "Feature", "properties": {"type": "postcode-cell", "postcode": "EX16 7AA", "postcodes": ["EX16 7AA"]}, "geometry": {"type": "Polygon", "coordinates": [[[-3.4119319431706727, 50.90840738073237], [-3.409467789291449, 50.90857641982758], [-3.410106649410379, 50.9073410742132], [-3.412110613143367, 50.906189456711566], [-3.412387392348337, 50.90751723100759], [-3.4121977386408173, 50.90821172824925], [-3.4119319431706727, 50.90840738073237]]]}}, {"type": "Feature", "properties": {"type": "postcode-cell", "postcode": "EX16 7BB", "postcodes": ["EX16 7BB"]}, "geometry": {"type": "Polygon", "coordinates": [[[-3.412110613143367, 50.906189456711566], [-3.410106649410379, 50.9073410742132], [-3.409081089588017, 50.9060188008667], [-3.4105004309467457, 50.90023741967698], [-3.411230401045779, 50.90023602572016], [-3.4119442561254725, 50.901489136961985], [-3.412189551694488, 50.9061258973558], [-3.412110613143367, 50.906189456711566]]]}}, {"type": "Feature", "properties": {"type": "postcode-cell", "postcode": "EX16 7AQ", "postcodes": ["EX16 7AQ"]}, "geometry": {"type": "Polygon", "coordinates": [[[-3.4083430588612167, 50.909212986574666], [-3.4063292326408363, 50.91229694028027], [-3.404718536532877, 50.91071682987075], [-3.4042006740365367, 50.90744678027019], [-3.4057866633151614, 50.90682908082055], [-3.4065131291755795, 50.90710331346589], [-3.407358726987594, 50.90777691442979], [-3.4083430588612167, 50.909212986574666]]]}}, {"type": "Feature", "properties": {"type": "postcode-cell", "postcode": "EX16 7DD", "postcodes": ["EX16 7DD"]}, "geometry": {"type": "Polygon", "coordinates": [[[-3.409081089588017, 50.9060188008667], [-3.408104244672956, 50.906309246386286], [-3.4072026624863714, 50.90599113687307], [-3.4058314093402062, 50.90352407301325], [-3.4080894254902447, 50.90005141829963], [-3.4105004309467457, 50.90023741967698], [-3.409081089588017, 50.9060188008667]]]}}, {"type": "Feature", "properties": {"type": "postcode-cell", "postcode": "EX16 7FE", "postcodes": ["EX16 7FE"]}, "geometry": {"type": "Polygon", "coordinates": [[[-3.4072026624863714, 50.90599113687307], [-3.4065131291755795, 50.90710331346589], [-3.4057866633151614, 50.90682908082055], [-3.4043899317584057, 50.904961770726736], [-3.4058314093402062, 50.90352407301325], [-3.4072026624863714, 50.90599113687307]]]}}, {"type": "Feature", "properties": {"type": "postcode-cell", "postcode": "EX15 1QR", "postcodes": ["EX15 1QR"]}, "geometry": {"type": "Polygon", "coordinates": [[[-3.3986749913622485, 50.8891254442001], [-3.39601155932168, 50.89006088649787], [-3.390495868411634, 50.88817850420913], [-3.391019989581555, 50.8878599948755], [-3.3912999895822287, 50.88681999487466], [-3.3909499895821296, 50.88655999487444], [-3.3924899895837095, 50.885289994873446], [-3.3914599895832676, 50.88484999487309], [-3.3910999895833145, 50.88426999487263], [-3.3904599895828973, 50.884299994872684], [-3.3906699895831527, 50.884039994872445], [-3.3900999895830686, 50.88345999487199], [-3.390199989583575, 50.88252999487126], [-3.391439989584427, 50.88238999487113], [-3.3916899895850503, 50.88140999487035], [-3.390529989584712, 50.8805799948697], [-3.3903503716151002, 50.880520123876366], [-3.392089308241247, 50.87819148265616], [-3.399217273223776, 50.87308629802223], [-3.4046707800394116, 50.88035143710736], [-3.399817284342788, 50.888276022766654], [-3.3986749913622485, 50.8891254442001]]]}}, {"type": "Feature", "properties": {"type": "postcode-cell", "postcode": "EX15 1NF", "postcodes": ["EX15 1NF"]}, "geometry": {"type": "Polygon", "coordinates": [[[-3.399288005256483, 50.872786882649685], [-3.402249989595588, 50.8733199948638], [-3.4041599895971593, 50.872559994863174], [-3.4072699895994143, 50.87195999486266], [-3.4076499895998684, 50.871509994862286], [-3.410419989601503, 50.87175999486245], [-3.415969989605177, 50.871429994862126], [-3.4167328258067604, 50.87167874658934], [-3.4188648576696545, 50.87935194545903], [-3.4046707800394116, 50.88035143710736], [-3.399217273223776, 50.87308629802223], [-3.399288005256483, 50.872786882649685]]]}}, {"type": "Feature", "properties": {"type": "postcode-cell", "postcode": "EX16 7LP", "postcodes": ["EX16 7LP"]}, "geometry": {"type": "Polygon", "coordinates": [[[-3.4065131291755795, 50.90710331346589], [-3.4072026624863714, 50.90599113687307], [-3.408104244672956, 50.906309246386286], [-3.407358726987594, 50.90777691442979], [-3.4065131291755795, 50.90710331346589]]]}}, {"type": "Feature", "properties": {"type": "postcode-cell", "postcode": "EX16 7AH", "postcodes": ["EX16 7AH"]}, "geometry": {"type": "Polygon", "coordinates": [[[-3.4057866633151614, 50.90682908082055], [-3.4042006740365367, 50.90744678027019], [-3.4019935200884563, 50.906046747658515], [-3.4043899317584057, 50.904961770726736], [-3.4057866633151614, 50.90682908082055]]]}}, {"type": "Feature", "properties": {"type": "postcode-cell", "postcode": "EX16 7AN", "postcodes": ["EX16 7AN"]}, "geometry": {"type": "Polygon", "coordinates": [[[-3.4058314093402062, 50.90352407301325], [-3.4043899317584057, 50.904961770726736], [-3.4019935200884563, 50.906046747658515], [-3.3983671504873927, 50.90667859431878], [-3.3949404387481614, 50.90623012228047], [-3.40189783355771, 50.89793425230018], [-3.4080894254902447, 50.90005141829963], [-3.4058314093402062, 50.90352407301325]]]}}, {"type": "Feature", "properties": {"type": "postcode-cell", "postcode": "EX16 7AL", "postcodes": ["EX16 7AL"]}, "geometry": {"type": "Polygon", "coordinates": [[[-3.4063292326408363, 50.91229694028027], [-3.4065579224527087, 50.91574250939681], [-3.394044430204871, 50.91122314616743], [-3.3941784892635547, 50.90646205084298], [-3.3949404387481614, 50.90623012228047], [-3.3983671504873927, 50.90667859431878], [-3.404718536532877, 50.91071682987075], [-3.4063292326408363, 50.91229694028027]]]}}, {"type": "Feature", "properties": {"type": "postcode-cell", "postcode": "EX16 7AJ", "postcodes": ["EX16 7AJ"]}, "geometry": {"type": "Polygon", "coordinates": [[[-3.404718536532877, 50.91071682987075], [-3.3983671504873927, 50.90667859431878], [-3.4019935200884563, 50.906046747658515], [-3.4042006740365367, 50.90744678027019], [-3.404718536532877, 50.91071682987075]]]}}, {"type": "Feature", "properties": {"type": "postcode-cell", "postcode": "EX16 7EF", "postcodes": ["EX16 7EF"]}, "geometry": {"type": "Polygon", "coordinates": [[[-3.406647417484595, 50.91585012517014], [-3.4053234373061256, 50.91980581720127], [-3.4046899895749814, 50.919899994900845], [-3.400229989571539, 50.921189994901944], [-3.398789989571389, 50.91957999490066], [-3.397839989570824, 50.91949999490062], [-3.3976057511119526, 50.91961293200408], [-3.3900868496185184, 50.913123531675396], [-3.394044430204871, 50.91122314616743], [-3.4065579224527087, 50.91574250939681], [-3.406647417484595, 50.91585012517014]]]}}, {"type": "Feature", "properties": {"type": "postcode-cell", "postcode": "EX15 2QQ", "postcodes": ["EX15 2QQ"]}, "geometry": {"type": "Polygon", "coordinates": [[[-3.40189783355771, 50.89793425230018], [-3.3949404387481614, 50.90623012228047], [-3.3941784892635547, 50.90646205084298], [-3.389981724469704, 50.90531865595978], [-3.3884978747415064, 50.9036686415117], [-3.3893861709420845, 50.89856129599943], [-3.396603760643435, 50.89312242376231], [-3.40189783355771, 50.89793425230018]]]}}, {"type": "Feature", "properties": {"type": "postcode-cell", "postcode": "EX16 7BW", "postcodes": ["EX16 7BW"]}, "geometry": {"type": "Polygon", "coordinates": [[[-3.3900868496185184, 50.913123531675396], [-3.3976057511119526, 50.91961293200408], [-3.397279989570339, 50.91976999490083], [-3.394959989569164, 50.91914999490038], [-3.3868101962484944, 50.91375805528172], [-3.3900868496185184, 50.913123531675396]]]}}, {"type": "Feature", "properties": {"type": "postcode-cell", "postcode": "EX16 7EE", "postcodes": ["EX16 7EE"]}, "geometry": {"type": "Polygon", "coordinates": [[[-3.3900868496185184, 50.913123531675396], [-3.3868101962484944, 50.91375805528172], [-3.3863899895664256, 50.91347999489594], [-3.384034660468361, 50.912431167501076], [-3.3830404582693467, 50.90883698409435], [-3.389981724469704, 50.90531865595978], [-3.3941784892635547, 50.90646205084298], [-3.394044430204871, 50.91122314616743], [-3.3900868496185184, 50.913123531675396]]]}}, {"type": "Feature", "properties": {"type": "postcode-cell", "postcode": "EX15 2QF", "postcodes": ["EX15 2QF"]}, "geometry": {"type": "Polygon", "coordinates": [[[-3.396603760643435, 50.89312242376231], [-3.3893861709420845, 50.89856129599943], [-3.3764950405573133, 50.89879401213122], [-3.3764081927435012, 50.8977052029155], [-3.3767079122860637, 50.89636520460456], [-3.3790399895704586, 50.89523999488149], [-3.3801299895712393, 50.89504999488134], [-3.3801399895714264, 50.89466999488104], [-3.380829989572005, 50.89436999488079], [-3.381689989572522, 50.894429994880824], [-3.3819199895731584, 50.89339999488003], [-3.3839299895749195, 50.89236999487917], [-3.3843399895750643, 50.89260999487935], [-3.385059989575653, 50.89232999487915], [-3.3855299895758613, 50.89251999487926], [-3.385749989576171, 50.89215999487897], [-3.3862999895763948, 50.892419994879184], [-3.3866799895767072, 50.89226999487905], [-3.3866399895771164, 50.89135999487833], [-3.3872399895774947, 50.891359994878314], [-3.387239989577724, 50.890879994877956], [-3.3878799895781104, 50.89091999487797], [-3.3897199895803563, 50.88864999487612], [-3.390495868411634, 50.88817850420913], [-3.39601155932168, 50.89006088649787], [-3.396603760643435, 50.89312242376231]]]}}, {"type": "Feature", "properties": {"type": "postcode-cell", "postcode": "EX16 7EB", "postcodes": ["EX16 7EB"]}, "geometry": {"type": "Polygon", "coordinates": [[[-3.3657330689583476, 50.91153359273177], [-3.3730097596791944, 50.90539561845266], [-3.3830404582693467, 50.90883698409435], [-3.384034660468361, 50.912431167501076], [-3.3825499895648075, 50.91176999489462], [-3.3823899895645675, 50.912059994894854], [-3.3809899895639135, 50.91156999489449], [-3.3805799895634125, 50.9120799948949], [-3.381729989563897, 50.91258999489528], [-3.378869989561411, 50.91400999489645], [-3.373739989558946, 50.9123699948952], [-3.3686599895560225, 50.91175999489476], [-3.368529989556133, 50.91134999489445], [-3.368039989555873, 50.91124999489436], [-3.3656794342626264, 50.91164995875975], [-3.3657330689583476, 50.91153359273177]]]}}, {"type": "Feature", "properties": {"type": "postcode-cell", "postcode": "EX15 1QP", "postcodes": ["EX15 1QP"]}, "geometry": {"type": "Polygon", "coordinates": [[[-3.3903503716151002, 50.880520123876366], [-3.388969989583974, 50.88005999486931], [-3.388999989584172, 50.87967999486901], [-3.387859989583582, 50.8794099948688], [-3.3869599895833318, 50.87873999486829], [-3.3869399895836385, 50.87806999486777], [-3.385479989583145, 50.87716999486706], [-3.3841199895824055, 50.876919994866896], [-3.3839899895825654, 50.876409994866485], [-3.384619989583029, 50.87626999486634], [-3.384039989583179, 50.8751899948655], [-3.384863836657923, 50.874683012924834], [-3.392089308241247, 50.87819148265616], [-3.3903503716151002, 50.880520123876366]]]}}, {"type": "Feature", "properties": {"type": "postcode-cell", "postcode": "EX15 3DA", "postcodes": ["EX15 3DA"]}, "geometry": {"type": "Polygon", "coordinates": [[[-3.3553819436074415, 50.895199326459434], [-3.3525213471693807, 50.89814377361016], [-3.3471811257149833, 50.900335673526556], [-3.345905930868885, 50.89936119639187], [-3.3449695251219924, 50.89834331890015], [-3.3451799895478076, 50.897899994884035], [-3.3460999895484598, 50.8977499948839], [-3.3461999895487997, 50.897169994883434], [-3.347199989549378, 50.89727999488351], [-3.348619989550669, 50.89644999488284], [-3.3496699895514177, 50.89626999488268], [-3.349639989551543, 50.89596999488244], [-3.350399989552031, 50.89594999488242], [-3.351189989552987, 50.894989994881634], [-3.3510399895530463, 50.894669994881404], [-3.3517099895534987, 50.89460999488134], [-3.3513199895534123, 50.89426999488107], [-3.3524099895540616, 50.894349994881125], [-3.352909989554627, 50.8938299948807], [-3.352739989554805, 50.89322999488022], [-3.3534899895555124, 50.89273999487983], [-3.353459989555781, 50.892139994879344], [-3.355257044955421, 50.89316202327574], [-3.3553819436074415, 50.895199326459434]]]}}, {"type": "Feature", "properties": {"type": "postcode-cell", "postcode": "EX15 2RF", "postcodes": ["EX15 2RF"]}, "geometry": {"type": "Polygon", "coordinates": [[[-3.355257044955421, 50.89316202327574], [-3.35556998955654, 50.89333999488028], [-3.3618299895594164, 50.895589994881995], [-3.363709989560032, 50.89678999488293], [-3.365380647230376, 50.89646802271953], [-3.367882877943172, 50.90076720952558], [-3.3596797723398244, 50.90089783768529], [-3.3553819436074415, 50.895199326459434], [-3.355257044955421, 50.89316202327574]]]}}, {"type": "Feature", "properties": {"type": "postcode-cell", "postcode": "EX15 2QG", "postcodes": ["EX15 2QG"]}, "geometry": {"type": "Polygon", "coordinates": [[[-3.3884978747415064, 50.9036686415117], [-3.374201039676652, 50.9022728017706], [-3.3764950405573133, 50.89879401213122], [-3.3893861709420845, 50.89856129599943], [-3.3884978747415064, 50.9036686415117]]]}}, {"type": "Feature", "properties": {"type": "postcode-cell", "postcode": "EX15 2JH", "postcodes": ["EX15 2JH"]}, "geometry": {"type": "Polygon", "coordinates": [[[-3.374201039676652, 50.9022728017706], [-3.373693223330233, 50.90261089103929], [-3.367882877943172, 50.90076720952558], [-3.365380647230376, 50.89646802271953], [-3.366459989562022, 50.896259994882456], [-3.366955151207743, 50.895993147381205], [-3.3690474789156934, 50.895948875138], [-3.3764081927435012, 50.8977052029155], [-3.3764950405573133, 50.89879401213122], [-3.374201039676652, 50.9022728017706]]]}}, {"type": "Feature", "properties": {"type": "postcode-cell", "postcode": "EX16 7ED", "postcodes": ["EX16 7ED"]}, "geometry": {"type": "Polygon", "coordinates": [[[-3.389981724469704, 50.90531865595978], [-3.3830404582693467, 50.90883698409435], [-3.3730097596791944, 50.90539561845266], [-3.373693223330233, 50.90261089103929], [-3.374201039676652, 50.9022728017706], [-3.3884978747415064, 50.9036686415117], [-3.389981724469704, 50.90531865595978]]]}}, {"type": "Feature", "properties": {"type": "postcode-cell", "postcode": "EX15 2FB", "postcodes": ["EX15 2FB"]}, "geometry": {"type": "Polygon", "coordinates": [[[-3.3764081927435012, 50.8977052029155], [-3.3690474789156934, 50.895948875138], [-3.3692232095307912, 50.89500621288184], [-3.370804794573585, 50.89436064233778], [-3.3714299895658537, 50.89480999488125], [-3.3730999895668954, 50.89483999488127], [-3.3764699895682435, 50.896479994882526], [-3.3767079122860637, 50.89636520460456], [-3.3764081927435012, 50.8977052029155]]]}}, {"type": "Feature", "properties": {"type": "postcode-cell", "postcode": "EX15 3BX", "postcodes": ["EX15 3BX"]}, "geometry": {"type": "Polygon", "coordinates": [[[-3.348480169571506, 50.907471708038294], [-3.352934145008136, 50.90466754961565], [-3.3584889132760174, 50.903852214105925], [-3.3657330689583476, 50.91153359273177], [-3.3656794342626264, 50.91164995875975], [-3.3613699895511173, 50.91237999489534], [-3.354819989547861, 50.91052999489396], [-3.3497299895450516, 50.90967999489334], [-3.347361925525138, 50.90953306214334], [-3.348480169571506, 50.907471708038294]]]}}, {"type": "Feature", "properties": {"type": "postcode-cell", "postcode": "EX15 3BY", "postcodes": ["EX15 3BY"]}, "geometry": {"type": "Polygon", "coordinates": [[[-3.3730097596791944, 50.90539561845266], [-3.3657330689583476, 50.91153359273177], [-3.3584889132760174, 50.903852214105925], [-3.3592727285706867, 50.901484149483494], [-3.3596797723398244, 50.90089783768529], [-3.367882877943172, 50.90076720952558], [-3.373693223330233, 50.90261089103929], [-3.3730097596791944, 50.90539561845266]]]}}, {"type": "Feature", "properties": {"type": "postcode-cell", "postcode": "EX15 2FN", "postcodes": ["EX15 2FN"]}, "geometry": {"type": "Polygon", "coordinates": [[[-3.3692232095307912, 50.89500621288184], [-3.3685343672149006, 50.894567292616095], [-3.3686599895642604, 50.89447999488103], [-3.370149989565484, 50.893889994880546], [-3.370804794573585, 50.89436064233778], [-3.3692232095307912, 50.89500621288184]]]}}, {"type": "Feature", "properties": {"type": "postcode-cell", "postcode": "EX15 3BZ", "postcodes": ["EX15 3BZ"]}, "geometry": {"type": "Polygon", "coordinates": [[[-3.3553819436074415, 50.895199326459434], [-3.3596797723398244, 50.90089783768529], [-3.3592727285706867, 50.901484149483494], [-3.3552063428824774, 50.901581226657015], [-3.3535984229193785, 50.90132661565945], [-3.3524617486205397, 50.90070920371588], [-3.352328678043112, 50.89928687102868], [-3.3525213471693807, 50.89814377361016], [-3.3553819436074415, 50.895199326459434]]]}}, {"type": "Feature", "properties": {"type": "postcode-cell", "postcode": "EX15 2EZ", "postcodes": ["EX15 2EZ"]}, "geometry": {"type": "Polygon", "coordinates": [[[-3.3690474789156934, 50.895948875138], [-3.366955151207743, 50.895993147381205], [-3.3681299895635046, 50.895359994881744], [-3.3680699895636916, 50.89488999488135], [-3.3685343672149006, 50.894567292616095], [-3.3692232095307912, 50.89500621288184], [-3.3690474789156934, 50.895948875138]]]}}, {"type": "Feature", "properties": {"type": "postcode-cell", "postcode": "EX15 3FX", "postcodes": ["EX15 3FX"]}, "geometry": {"type": "Polygon", "coordinates": [[[-3.352328678043112, 50.89928687102868], [-3.3493864135314224, 50.901792375430645], [-3.347053919314682, 50.90180176699479], [-3.3471811257149833, 50.900335673526556], [-3.3525213471693807, 50.89814377361016], [-3.352328678043112, 50.89928687102868]]]}}, {"type": "Feature", "properties": {"type": "postcode-cell", "postcode": "EX15 3FA", "postcodes": ["EX15 3FA"]}, "geometry": {"type": "Polygon", "coordinates": [[[-3.3584889132760174, 50.903852214105925], [-3.352934145008136, 50.90466754961565], [-3.352260237864769, 50.90294729976192], [-3.3530214783945316, 50.902397354900074], [-3.3552063428824774, 50.901581226657015], [-3.3592727285706867, 50.901484149483494], [-3.3584889132760174, 50.903852214105925]]]}}, {"type": "Feature", "properties": {"type": "postcode-cell", "postcode": "EX15 3BU", "postcodes": ["EX15 3BU"]}, "geometry": {"type": "Polygon", "coordinates": [[[-3.3436094922070394, 50.90214379016476], [-3.346529773030697, 50.90229856850507], [-3.348480169571506, 50.907471708038294], [-3.347361925525138, 50.90953306214334], [-3.3424799895406916, 50.90922999489307], [-3.339119989538438, 50.909509994893334], [-3.3393199895413654, 50.903649994888674], [-3.3391854047314014, 50.903248743742985], [-3.3436094922070394, 50.90214379016476]]]}}, {"type": "Feature", "properties": {"type": "postcode-cell", "postcode": "EX15 3FZ", "postcodes": ["EX15 3FZ"]}, "geometry": {"type": "Polygon", "coordinates": [[[-3.3493864135314224, 50.901792375430645], [-3.352328678043112, 50.89928687102868], [-3.3524617486205397, 50.90070920371588], [-3.3513882148540626, 50.90213093828936], [-3.3493864135314224, 50.901792375430645]]]}}, {"type": "Feature", "properties": {"type": "postcode-cell", "postcode": "EX15 3FG", "postcodes": ["EX15 3FG"]}, "geometry": {"type": "Polygon", "coordinates": [[[-3.3513882148540626, 50.90213093828936], [-3.352260237864769, 50.90294729976192], [-3.352934145008136, 50.90466754961565], [-3.348480169571506, 50.907471708038294], [-3.346529773030697, 50.90229856850507], [-3.347053919314682, 50.90180176699479], [-3.3493864135314224, 50.901792375430645], [-3.3513882148540626, 50.90213093828936]]]}}, {"type": "Feature", "properties": {"type": "postcode-cell", "postcode": "EX15 3FH", "postcodes": ["EX15 3FH"]}, "geometry": {"type": "Polygon", "coordinates": [[[-3.352260237864769, 50.90294729976192], [-3.3513882148540626, 50.90213093828936], [-3.3524617486205397, 50.90070920371588], [-3.3535984229193785, 50.90132661565945], [-3.3530214783945316, 50.902397354900074], [-3.352260237864769, 50.90294729976192]]]}}, {"type": "Feature", "properties": {"type": "postcode-cell", "postcode": "EX15 3FN", "postcodes": ["EX15 3FN"]}, "geometry": {"type": "Polygon", "coordinates": [[[-3.3530214783945316, 50.902397354900074], [-3.3535984229193785, 50.90132661565945], [-3.3552063428824774, 50.901581226657015], [-3.3530214783945316, 50.902397354900074]]]}}, {"type": "Feature", "properties": {"type": "postcode-cell", "postcode": "EX15 3FQ", "postcodes": ["EX15 3FQ"]}, "geometry": {"type": "Polygon", "coordinates": [[[-3.347053919314682, 50.90180176699479], [-3.346529773030697, 50.90229856850507], [-3.3436094922070394, 50.90214379016476], [-3.343069957278314, 50.90068570913465], [-3.345905930868885, 50.89936119639187], [-3.3471811257149833, 50.900335673526556], [-3.347053919314682, 50.90180176699479]]]}}, {"type": "Feature", "properties": {"type": "postcode-cell", "postcode": "EX15 3FR", "postcodes": ["EX15 3FR"]}, "geometry": {"type": "Polygon", "coordinates": [[[-3.345905930868885, 50.89936119639187], [-3.343069957278314, 50.90068570913465], [-3.343033993156272, 50.90064907645727], [-3.3425947336617705, 50.90001443188363], [-3.3424119244956034, 50.89932900476482], [-3.3424599895454294, 50.89928999488517], [-3.3430399895456984, 50.89948999488532], [-3.343969989546396, 50.899259994885114], [-3.344709989547037, 50.89888999488482], [-3.3449695251219924, 50.89834331890015], [-3.345905930868885, 50.89936119639187]]]}}, {"type": "Feature", "properties": {"type": "postcode-cell", "postcode": "EX15 3FS", "postcodes": ["EX15 3FS"]}, "geometry": {"type": "Polygon", "coordinates": [[[-3.3425947336617705, 50.90001443188363], [-3.341050614168287, 50.900722515362304], [-3.340744285264902, 50.90080818621748], [-3.3404599895435663, 50.90054999488619], [-3.3403199895438265, 50.89981999488562], [-3.3417699895447255, 50.899849994885614], [-3.3424119244956034, 50.89932900476482], [-3.3425947336617705, 50.90001443188363]]]}}, {"type": "Feature", "properties": {"type": "postcode-cell", "postcode": "EX15 3FU", "postcodes": ["EX15 3FU"]}, "geometry": {"type": "Polygon", "coordinates": [[[-3.343033993156272, 50.90064907645727], [-3.341050614168287, 50.900722515362304], [-3.3425947336617705, 50.90001443188363], [-3.343033993156272, 50.90064907645727]]]}}, {"type": "Feature", "properties": {"type": "postcode-cell", "postcode": "EX15 3FT", "postcodes": ["EX15 3FT"]}, "geometry": {"type": "Polygon", "coordinates": [[[-3.3436094922070394, 50.90214379016476], [-3.3391854047314014, 50.903248743742985], [-3.3387799895417936, 50.90203999488739], [-3.3414399895437588, 50.901439994886886], [-3.340744285264902, 50.90080818621748], [-3.341050614168287, 50.900722515362304], [-3.343033993156272, 50.90064907645727], [-3.343069957278314, 50.90068570913465], [-3.3436094922070394, 50.90214379016476]]]}}]}