{"type": "FeatureCollection", "features": [{"type": "Feature", "properties": {"type": "ward-outline", "name": "Hatherleigh"}, "geometry": {"type": "Polygon", "coordinates": [[[-4.0581, 50.87138], [-4.05473, 50.86767], [-4.05305, 50.86382], [-4.05204, 50.86269], [-4.05112, 50.86082], [-4.05229, 50.85958], [-4.05355, 50.85628], [-4.05574, 50.85386], [-4.05538, 50.85268], [-4.05723, 50.85065], [-4.05797, 50.84772], [-4.05962, 50.84698], [-4.05977, 50.84623], [-4.05544, 50.84531], [-4.05397, 50.84469], [-4.05511, 50.84332], [-4.05521, 50.8425], [-4.053, 50.84192], [-4.05091, 50.83955], [-4.04762, 50.8378], [-4.04707, 50.83805], [-4.04703, 50.83929], [-4.04457, 50.83879], [-4.04406, 50.83783], [-4.04489, 50.83601], [-4.04336, 50.83565], [-4.03958, 50.83571], [-4.03935, 50.83519], [-4.0396, 50.83394], [-4.04014, 50.83366], [-4.03993, 50.83314], [-4.03633, 50.83327], [-4.03479, 50.83439], [-4.03316, 50.83493], [-4.03229, 50.83479], [-4.03123, 50.83405], [-4.02898, 50.8338], [-4.02781, 50.83469], [-4.02621, 50.83363], [-4.02597, 50.83379], [-4.02253, 50.83203], [-4.02025, 50.83174], [-4.02047, 50.83121], [-4.01975, 50.82914], [-4.01869, 50.82843], [-4.01818, 50.82855], [-4.01561, 50.82788], [-4.01436, 50.82468], [-4.01364, 50.82407], [-4.014, 50.82163], [-4.01165, 50.82014], [-4.01303, 50.81761], [-4.01102, 50.81598], [-4.01191, 50.81551], [-4.0133, 50.81566], [-4.01342, 50.81486], [-4.01329, 50.8141], [-4.01224, 50.81316], [-4.01286, 50.8133], [-4.01284, 50.81287], [-4.01344, 50.81285], [-4.01389, 50.81175], [-4.01447, 50.81167], [-4.01431, 50.81116], [-4.01705, 50.81072], [-4.01796, 50.8099], [-4.01935, 50.80981], [-4.02089, 50.81021], [-4.02281, 50.80978], [-4.03061, 50.80973], [-4.03249, 50.81016], [-4.03386, 50.81097], [-4.03869, 50.81056], [-4.03956, 50.80992], [-4.0415, 50.8096], [-4.0465, 50.81007], [-4.04884, 50.80972], [-4.04772, 50.80902], [-4.04664, 50.80559], [-4.04488, 50.804], [-4.04203, 50.80277], [-4.04224, 50.80237], [-4.04128, 50.80137], [-4.04112, 50.80004], [-4.04249, 50.79845], [-4.04147, 50.79656], [-4.03785, 50.79389], [-4.03596, 50.79289], [-4.03482, 50.79127], [-4.03264, 50.7865], [-4.0345, 50.78594], [-4.03458, 50.78531], [-4.04159, 50.7863], [-4.0427, 50.78611], [-4.0439, 50.78548], [-4.04531, 50.78531], [-4.04671, 50.78562], [-4.04951, 50.78794], [-4.05092, 50.78771], [-4.05291, 50.78783], [-4.05532, 50.78897], [-4.06253, 50.78966], [-4.07054, 50.7916], [-4.07126, 50.79154], [-4.0731, 50.79211], [-4.07053, 50.79492], [-4.0709, 50.79554], [-4.07246, 50.79591], [-4.07242, 50.79624], [-4.07315, 50.79651], [-4.07398, 50.79508], [-4.0767, 50.79543], [-4.07681, 50.79485], [-4.07865, 50.79427], [-4.07901, 50.79398], [-4.07853, 50.79278], [-4.08188, 50.79276], [-4.08208, 50.79339], [-4.08479, 50.79281], [-4.08577, 50.79451], [-4.08693, 50.79427], [-4.0876, 50.79463], [-4.08756, 50.79501], [-4.08861, 50.79491], [-4.08947, 50.79443], [-4.09097, 50.79222], [-4.09169, 50.79228], [-4.09147, 50.79203], [-4.09243, 50.7915], [-4.09167, 50.78862], [-4.09267, 50.78367], [-4.09209, 50.78022], [-4.09377, 50.77346], [-4.09581, 50.76982], [-4.09346, 50.76878], [-4.09085, 50.76807], [-4.08899, 50.76814], [-4.08716, 50.76777], [-4.08434, 50.76867], [-4.08368, 50.7686], [-4.08363, 50.76769], [-4.07886, 50.76288], [-4.07952, 50.76255], [-4.07854, 50.76187], [-4.0785, 50.76116], [-4.07725, 50.75996], [-4.07717, 50.75935], [-4.07575, 50.75836], [-4.0758, 50.75796], [-4.07455, 50.75677], [-4.07457, 50.75611], [-4.0739, 50.75606], [-4.07353, 50.75539], [-4.07124, 50.75404], [-4.06688, 50.75208], [-4.06583, 50.75215], [-4.06406, 50.74951], [-4.06028, 50.74734], [-4.05898, 50.74579], [-4.06222, 50.74371], [-4.06449, 50.74287], [-4.06599, 50.74127], [-4.06714, 50.74118], [-4.06688, 50.74053], [-4.0676, 50.74076], [-4.06765, 50.74051], [-4.07072, 50.73974], [-4.07742, 50.7361], [-4.0795, 50.73457], [-4.08418, 50.73009], [-4.08608, 50.73135], [-4.08612, 50.73359], [-4.08661, 50.7349], [-4.0888, 50.73714], [-4.09095, 50.73862], [-4.09365, 50.73989], [-4.09596, 50.74167], [-4.09582, 50.74192], [-4.09649, 50.74223], [-4.09743, 50.74363], [-4.10307, 50.74553], [-4.10728, 50.75013], [-4.11028, 50.7517], [-4.11193, 50.75331], [-4.11259, 50.75354], [-4.11533, 50.75673], [-4.11784, 50.75487], [-4.11828, 50.75487], [-4.1197, 50.75235], [-4.12152, 50.7518], [-4.12282, 50.75077], [-4.12342, 50.74954], [-4.12516, 50.74831], [-4.12595, 50.74883], [-4.12896, 50.74824], [-4.12928, 50.7479], [-4.1288, 50.7475], [-4.13023, 50.74689], [-4.13119, 50.7477], [-4.13072, 50.74879], [-4.13409, 50.74927], [-4.13865, 50.74808], [-4.14052, 50.74713], [-4.14194, 50.74683], [-4.15015, 50.74593], [-4.15001, 50.74531], [-4.15046, 50.74488], [-4.15204, 50.74482], [-4.15355, 50.74544], [-4.15256, 50.74692], [-4.15265, 50.74876], [-4.15393, 50.75058], [-4.15606, 50.75237], [-4.15758, 50.75466], [-4.15721, 50.75688], [-4.15607, 50.75843], [-4.1562, 50.76087], [-4.15749, 50.76211], [-4.15761, 50.76283], [-4.15944, 50.76505], [-4.16155, 50.76954], [-4.16207, 50.76974], [-4.16315, 50.7718], [-4.16461, 50.77296], [-4.16573, 50.77188], [-4.16702, 50.7717], [-4.16841, 50.77072], [-4.17132, 50.77155], [-4.17361, 50.77269], [-4.17504, 50.77289], [-4.17639, 50.77369], [-4.17831, 50.77591], [-4.17775, 50.77649], [-4.17905, 50.77667], [-4.18421, 50.7839], [-4.18259, 50.78428], [-4.18191, 50.78476], [-4.17932, 50.78467], [-4.17749, 50.78573], [-4.17509, 50.786], [-4.17468, 50.78635], [-4.17376, 50.7862], [-4.17157, 50.78676], [-4.16967, 50.78623], [-4.16646, 50.78703], [-4.16756, 50.78848], [-4.16816, 50.78836], [-4.16831, 50.78856], [-4.16908, 50.7916], [-4.17993, 50.79094], [-4.18431, 50.78918], [-4.18795, 50.78913], [-4.19078, 50.78973], [-4.19017, 50.79], [-4.18876, 50.79249], [-4.18738, 50.79319], [-4.18735, 50.79392], [-4.18547, 50.79441], [-4.18346, 50.79575], [-4.18173, 50.79628], [-4.18057, 50.79593], [-4.18021, 50.79645], [-4.17896, 50.79657], [-4.17854, 50.79712], [-4.17722, 50.79749], [-4.17648, 50.79752], [-4.17589, 50.79713], [-4.17383, 50.7977], [-4.1703, 50.79694], [-4.17002, 50.79738], [-4.16879, 50.79767], [-4.17268, 50.79915], [-4.17419, 50.80047], [-4.17505, 50.80063], [-4.17625, 50.80151], [-4.17603, 50.80251], [-4.17479, 50.80324], [-4.17376, 50.80462], [-4.17438, 50.80551], [-4.17722, 50.80717], [-4.17522, 50.80843], [-4.17303, 50.80902], [-4.17274, 50.80978], [-4.17071, 50.81121], [-4.16384, 50.81352], [-4.16328, 50.81348], [-4.15828, 50.81545], [-4.15917, 50.81725], [-4.15858, 50.81734], [-4.1585, 50.81783], [-4.15996, 50.8197], [-4.15988, 50.82069], [-4.15839, 50.82317], [-4.16214, 50.82711], [-4.16214, 50.82788], [-4.16297, 50.82937], [-4.16391, 50.82989], [-4.16404, 50.83091], [-4.16208, 50.83033], [-4.16056, 50.82948], [-4.15881, 50.83016], [-4.15585, 50.82977], [-4.15474, 50.82992], [-4.15563, 50.831], [-4.1555, 50.83136], [-4.15672, 50.83163], [-4.15643, 50.83164], [-4.15595, 50.83168], [-4.15505, 50.83291], [-4.15366, 50.83255], [-4.15286, 50.8331], [-4.1516, 50.83224], [-4.15164, 50.83129], [-4.14666, 50.83082], [-4.14364, 50.83126], [-4.13991, 50.83246], [-4.13897, 50.83307], [-4.13835, 50.8347], [-4.13896, 50.8354], [-4.13844, 50.83593], [-4.13899, 50.83655], [-4.13873, 50.83715], [-4.13963, 50.83764], [-4.13863, 50.83931], [-4.13787, 50.83993], [-4.13706, 50.84003], [-4.13576, 50.83892], [-4.13505, 50.83889], [-4.13324, 50.84146], [-4.13223, 50.8416], [-4.13198, 50.84221], [-4.13094, 50.84187], [-4.12997, 50.84201], [-4.13014, 50.84281], [-4.12872, 50.84411], [-4.12613, 50.84366], [-4.12437, 50.84288], [-4.12263, 50.84302], [-4.12102, 50.84185], [-4.11924, 50.8383], [-4.11828, 50.83765], [-4.11618, 50.83775], [-4.11509, 50.83749], [-4.11411, 50.83812], [-4.11352, 50.83747], [-4.11276, 50.83807], [-4.11073, 50.83848], [-4.10937, 50.83736], [-4.10751, 50.83737], [-4.10714, 50.83639], [-4.10596, 50.83619], [-4.10489, 50.83663], [-4.10346, 50.83556], [-4.10277, 50.83541], [-4.10319, 50.83595], [-4.10333, 50.83803], [-4.10271, 50.839], [-4.10338, 50.84083], [-4.10299, 50.8429], [-4.10429, 50.84414], [-4.10485, 50.84603], [-4.10129, 50.84655], [-4.10307, 50.85031], [-4.09464, 50.85254], [-4.08543, 50.85782], [-4.08574, 50.85868], [-4.08701, 50.85901], [-4.08948, 50.86161], [-4.09002, 50.86731], [-4.08496, 50.86914], [-4.07933, 50.87184], [-4.07747, 50.8717], [-4.07122, 50.87343], [-4.06868, 50.87461], [-4.06649, 50.87239], [-4.06742, 50.87216], [-4.06718, 50.87089], [-4.06676, 50.87082], [-4.06662, 50.87034], [-4.06517, 50.87009], [-4.06385, 50.87063], [-4.06212, 50.87071], [-4.06105, 50.87112], [-4.05926, 50.87035], [-4.0581, 50.87138]]]}}, {"type": "Feature", "properties": {"type": "postcode-cell", "postcode": "EX21 5AU", "postcodes": ["EX21 5AU"]}, "geometry": {"type": "Polygon", "coordinates": [[[-4.156608411247683, 50.77645571694706], [-4.162006974901876, 50.76971575835856], [-4.1620699901399725, 50.76973999477188], [-4.163149990139779, 50.77179999477353], [-4.1646099901402405, 50.772959994774446], [-4.165729990141478, 50.77187999477356], [-4.167019990142429, 50.77169999477339], [-4.1684099901438065, 50.7707199947726], [-4.171319990145392, 50.77154999477324], [-4.173609990146428, 50.77268999477414], [-4.175039990147301, 50.772889994774275], [-4.176389990147852, 50.77368999477491], [-4.178309990148154, 50.77590999477669], [-4.1777499901475155, 50.77648999477716], [-4.179049990148313, 50.776669994777286], [-4.182281803002059, 50.781198586312584], [-4.156608411247683, 50.77645571694706]]]}}, {"type": "Feature", "properties": {"type": "postcode-cell", "postcode": "EX21 5LX", "postcodes": ["EX21 5LX"]}, "geometry": {"type": "Polygon", "coordinates": [[[-4.157431932975995, 50.81270728677744], [-4.14974439154746, 50.809841648181674], [-4.165259856181937, 50.79457632512623], [-4.184364020042635, 50.795147321816565], [-4.183459990142752, 50.79574999479265], [-4.181729990141344, 50.7962799947931], [-4.18056999014072, 50.79592999479283], [-4.180209990140241, 50.79644999479325], [-4.178959990139344, 50.79656999479334], [-4.178539990138814, 50.79711999479379], [-4.177219990137757, 50.797489994794105], [-4.176479990137245, 50.79751999479415], [-4.17588999013702, 50.797129994793835], [-4.173829990135372, 50.79769999479433], [-4.170299990133332, 50.79693999479375], [-4.170019990132945, 50.797379994794106], [-4.1687899901319865, 50.79766999479434], [-4.172679990133948, 50.7991499947955], [-4.174189990134377, 50.80046999479654], [-4.175049990134887, 50.80062999479667], [-4.176249990135302, 50.801509994797364], [-4.176029990134707, 50.80250999479817], [-4.174789990133544, 50.80323999479879], [-4.17375999013223, 50.804619994799914], [-4.174379990132249, 50.80550999480063], [-4.177219990133425, 50.807169994801946], [-4.175219990131514, 50.808429994802985], [-4.173029990129767, 50.80901999480348], [-4.172739990129232, 50.80977999480408], [-4.17070999012722, 50.811209994805274], [-4.16383999012155, 50.813519994807216], [-4.163279990121189, 50.813479994807196], [-4.162050602926388, 50.813964408336766], [-4.157431932975995, 50.81270728677744]]]}}, {"type": "Feature", "properties": {"type": "postcode-cell", "postcode": "EX20 4LF", "postcodes": ["EX20 4LF"]}, "geometry": {"type": "Polygon", "coordinates": [[[-4.147444122053956, 50.74622668603658], [-4.150149990142652, 50.74592999475286], [-4.150009990142838, 50.74530999475237], [-4.150459990143333, 50.744879994752004], [-4.152039990144424, 50.74481999475197], [-4.153549990145158, 50.74543999475245], [-4.152990445810921, 50.746276497510486], [-4.147444122053956, 50.74622668603658]]]}}, {"type": "Feature", "properties": {"type": "postcode-cell", "postcode": "EX21 5AX", "postcodes": ["EX21 5AX"]}, "geometry": {"type": "Polygon", "coordinates": [[[-4.182281803002059, 50.781198586312584], [-4.184209990148559, 50.78389999478307], [-4.182589990147295, 50.7842799947834], [-4.181909990146621, 50.78475999478377], [-4.179319990144911, 50.78466999478374], [-4.177489990143203, 50.785729994784624], [-4.17508999014146, 50.78599999478486], [-4.174679990141028, 50.78634999478515], [-4.173759990140474, 50.786199994785036], [-4.171569990138747, 50.786759994785506], [-4.169669990137702, 50.78622999478511], [-4.166459990135182, 50.7870299947858], [-4.167559990135273, 50.78847999478694], [-4.168159990135729, 50.788359994786845], [-4.168309990135742, 50.78855999478699], [-4.169079990134898, 50.79159999478944], [-4.179929990142518, 50.790939994788815], [-4.184309990146263, 50.789179994787325], [-4.187949990148743, 50.78912999478727], [-4.19077999015039, 50.7897299947877], [-4.190169990149857, 50.789999994787905], [-4.188759990147789, 50.79248999478995], [-4.187379990146544, 50.79318999479053], [-4.187349990146197, 50.79391999479112], [-4.185469990144708, 50.794409994791536], [-4.184364020042635, 50.795147321816565], [-4.165259856181937, 50.79457632512623], [-4.158816376993022, 50.79252914774582], [-4.157241203869396, 50.790747641341724], [-4.15261526991023, 50.7787492607233], [-4.156608411247683, 50.77645571694706], [-4.182281803002059, 50.781198586312584]]]}}, {"type": "Feature", "properties": {"type": "postcode-cell", "postcode": "EX21 5LU", "postcodes": ["EX21 5LU"]}, "geometry": {"type": "Polygon", "coordinates": [[[-4.147578731455134, 50.81036432614431], [-4.137848139163025, 50.80776432255429], [-4.133546488443813, 50.79739815711893], [-4.158816376993022, 50.79252914774582], [-4.165259856181937, 50.79457632512623], [-4.14974439154746, 50.809841648181674], [-4.147578731455134, 50.81036432614431]]]}}, {"type": "Feature", "properties": {"type": "postcode-cell", "postcode": "EX21 5LT", "postcodes": ["EX21 5LT"]}, "geometry": {"type": "Polygon", "coordinates": [[[-4.14974439154746, 50.809841648181674], [-4.157431932975995, 50.81270728677744], [-4.1551975573425715, 50.81728166315189], [-4.152129833189656, 50.81723746985888], [-4.148504616652993, 50.81637816284788], [-4.147538037537117, 50.81563528946616], [-4.1468499765599764, 50.81306066391991], [-4.147578731455134, 50.81036432614431], [-4.14974439154746, 50.809841648181674]]]}}, {"type": "Feature", "properties": {"type": "postcode-cell", "postcode": "EX21 5LR", "postcodes": ["EX21 5LR"]}, "geometry": {"type": "Polygon", "coordinates": [[[-4.1552951214722045, 50.81746813636508], [-4.155304367120348, 50.817424002159605], [-4.158512769089547, 50.81775172422755], [-4.1584999901160105, 50.817829994810765], [-4.159959990116161, 50.81969999481227], [-4.159879990115665, 50.820689994813065], [-4.159619379271823, 50.821123783056436], [-4.1552951214722045, 50.81746813636508]]]}}, {"type": "Feature", "properties": {"type": "postcode-cell", "postcode": "EX21 5AY", "postcodes": ["EX21 5AY"]}, "geometry": {"type": "Polygon", "coordinates": [[[-4.162050602926388, 50.813964408336766], [-4.158279990116931, 50.81544999480883], [-4.159169990116725, 50.81724999481028], [-4.158579990116286, 50.817339994810354], [-4.158512769089547, 50.81775172422755], [-4.155304367120348, 50.817424002159605], [-4.1551975573425715, 50.81728166315189], [-4.157431932975995, 50.81270728677744], [-4.162050602926388, 50.813964408336766]]]}}, {"type": "Feature", "properties": {"type": "postcode-cell", "postcode": "EX21 5LP", "postcodes": ["EX21 5LP"]}, "geometry": {"type": "Polygon", "coordinates": [[[-4.1552951214722045, 50.81746813636508], [-4.154669208126916, 50.81844298009438], [-4.152129833189656, 50.81723746985888], [-4.1551975573425715, 50.81728166315189], [-4.155304367120348, 50.817424002159605], [-4.1552951214722045, 50.81746813636508]]]}}, {"type": "Feature", "properties": {"type": "postcode-cell", "postcode": "EX21 5NX", "postcodes": ["EX21 5NX"]}, "geometry": {"type": "Polygon", "coordinates": [[[-4.1391348129114744, 50.829428694091156], [-4.14256684699315, 50.82523476160044], [-4.154751820393639, 50.82451417050332], [-4.158462023515178, 50.82505579985595], [-4.160627633257569, 50.82552110828913], [-4.16213999011432, 50.827109994818215], [-4.162139990113974, 50.827879994818865], [-4.162969990113868, 50.82936999482005], [-4.163909990114272, 50.829889994820476], [-4.1640399901139045, 50.830909994821305], [-4.162079990112838, 50.830329994820836], [-4.160559990112191, 50.829479994820176], [-4.158809990110704, 50.83015999482075], [-4.1558499901088775, 50.82976999482044], [-4.154739990108061, 50.829919994820585], [-4.155629990108179, 50.83099999482145], [-4.155499990107933, 50.83135999482174], [-4.156719990108633, 50.83162999482196], [-4.156429990108434, 50.83163999482195], [-4.155949990108094, 50.83167999482201], [-4.155049990106935, 50.832909994823005], [-4.153659990106157, 50.832549994822735], [-4.15285999010537, 50.83309999482318], [-4.151599990104904, 50.832239994822494], [-4.151639990105357, 50.83128999482171], [-4.146659990102203, 50.83081999482139], [-4.143639990099971, 50.83125999482177], [-4.14192655037741, 50.831811257787884], [-4.1391348129114744, 50.829428694091156]]]}}, {"type": "Feature", "properties": {"type": "postcode-cell", "postcode": "EX21 5BW", "postcodes": ["EX21 5BW"]}, "geometry": {"type": "Polygon", "coordinates": [[[-4.159619379271823, 50.821123783056436], [-4.158389990113549, 50.82316999481506], [-4.160627633257569, 50.82552110828913], [-4.158462023515178, 50.82505579985595], [-4.154669208126916, 50.81844298009438], [-4.1552951214722045, 50.81746813636508], [-4.159619379271823, 50.821123783056436]]]}}, {"type": "Feature", "properties": {"type": "postcode-cell", "postcode": "EX21 5LS", "postcodes": ["EX21 5LS"]}, "geometry": {"type": "Polygon", "coordinates": [[[-4.152129833189656, 50.81723746985888], [-4.154669208126916, 50.81844298009438], [-4.158462023515178, 50.82505579985595], [-4.154751820393639, 50.82451417050332], [-4.148504616652993, 50.81637816284788], [-4.152129833189656, 50.81723746985888]]]}}, {"type": "Feature", "properties": {"type": "postcode-cell", "postcode": "EX21 5LE", "postcodes": ["EX21 5LE"]}, "geometry": {"type": "Polygon", "coordinates": [[[-4.148504616652993, 50.81637816284788], [-4.154751820393639, 50.82451417050332], [-4.14256684699315, 50.82523476160044], [-4.141505192136058, 50.82362316186679], [-4.147538037537117, 50.81563528946616], [-4.148504616652993, 50.81637816284788]]]}}, {"type": "Feature", "properties": {"type": "postcode-cell", "postcode": "EX20 3NF", "postcodes": ["EX20 3NF"]}, "geometry": {"type": "Polygon", "coordinates": [[[-4.15261526991023, 50.7787492607233], [-4.148932955218935, 50.77768066089783], [-4.1447962323528715, 50.774100636795886], [-4.150754379471048, 50.76098415416999], [-4.156074111555026, 50.75932775604101], [-4.15611775687683, 50.759326577808096], [-4.156199990140006, 50.76086999476482], [-4.157489990140319, 50.7621099947658], [-4.157609990140076, 50.76282999476639], [-4.159439990140308, 50.76504999476814], [-4.161549990139714, 50.76953999477175], [-4.162006974901876, 50.76971575835856], [-4.156608411247683, 50.77645571694706], [-4.15261526991023, 50.7787492607233]]]}}, {"type": "Feature", "properties": {"type": "postcode-cell", "postcode": "EX20 3BH", "postcodes": ["EX20 3BH"]}, "geometry": {"type": "Polygon", "coordinates": [[[-4.156074111555026, 50.75932775604101], [-4.139849659244501, 50.747470544987614], [-4.140519990135649, 50.74712999475395], [-4.141939990136735, 50.746829994753675], [-4.147444122053956, 50.74622668603658], [-4.152990445810921, 50.746276497510486], [-4.152559990143828, 50.746919994753654], [-4.15264999014306, 50.7487599947551], [-4.153929990143103, 50.75057999475655], [-4.156059990143729, 50.75236999475797], [-4.157579990143723, 50.75465999475979], [-4.157209990142477, 50.75687999476158], [-4.156069990141015, 50.75842999476286], [-4.15611775687683, 50.759326577808096], [-4.156074111555026, 50.75932775604101]]]}}, {"type": "Feature", "properties": {"type": "postcode-cell", "postcode": "EX20 3NG", "postcodes": ["EX20 3NG"]}, "geometry": {"type": "Polygon", "coordinates": [[[-4.1447962323528715, 50.774100636795886], [-4.139804743369869, 50.77355891104697], [-4.13367356513398, 50.770866828128966], [-4.133124097430261, 50.76950782672953], [-4.144269087897849, 50.76143869177912], [-4.150754379471048, 50.76098415416999], [-4.1447962323528715, 50.774100636795886]]]}}, {"type": "Feature", "properties": {"type": "postcode-cell", "postcode": "EX21 5LF", "postcodes": ["EX21 5LF"]}, "geometry": {"type": "Polygon", "coordinates": [[[-4.1391348129114744, 50.829428694091156], [-4.128012329277208, 50.83071125411002], [-4.124963950676305, 50.82980149115141], [-4.12184672297129, 50.82527159138318], [-4.127163174091038, 50.81791217747165], [-4.13413288961217, 50.819339666863065], [-4.141505192136058, 50.82362316186679], [-4.14256684699315, 50.82523476160044], [-4.1391348129114744, 50.829428694091156]]]}}, {"type": "Feature", "properties": {"type": "postcode-cell", "postcode": "EX20 3PW", "postcodes": ["EX20 3PW"]}, "geometry": {"type": "Polygon", "coordinates": [[[-4.148932955218935, 50.77768066089783], [-4.15261526991023, 50.7787492607233], [-4.157241203869396, 50.790747641341724], [-4.136192210561243, 50.784310094973776], [-4.137324807723902, 50.78165566528736], [-4.148932955218935, 50.77768066089783]]]}}, {"type": "Feature", "properties": {"type": "postcode-cell", "postcode": "EX20 3NE", "postcodes": ["EX20 3NE"]}, "geometry": {"type": "Polygon", "coordinates": [[[-4.137324807723902, 50.78165566528736], [-4.134298452067002, 50.778754108203806], [-4.139804743369869, 50.77355891104697], [-4.1447962323528715, 50.774100636795886], [-4.148932955218935, 50.77768066089783], [-4.137324807723902, 50.78165566528736]]]}}, {"type": "Feature", "properties": {"type": "postcode-cell", "postcode": "EX21 5LL", "postcodes": ["EX21 5LL"]}, "geometry": {"type": "Polygon", "coordinates": [[[-4.1468499765599764, 50.81306066391991], [-4.13413288961217, 50.819339666863065], [-4.127163174091038, 50.81791217747165], [-4.126519957463136, 50.816564256532196], [-4.127975252367165, 50.81243529624874], [-4.137848139163025, 50.80776432255429], [-4.147578731455134, 50.81036432614431], [-4.1468499765599764, 50.81306066391991]]]}}, {"type": "Feature", "properties": {"type": "postcode-cell", "postcode": "EX21 5LN", "postcodes": ["EX21 5LN"]}, "geometry": {"type": "Polygon", "coordinates": [[[-4.147538037537117, 50.81563528946616], [-4.141505192136058, 50.82362316186679], [-4.13413288961217, 50.819339666863065], [-4.1468499765599764, 50.81306066391991], [-4.147538037537117, 50.81563528946616]]]}}, {"type": "Feature", "properties": {"type": "postcode-cell", "postcode": "EX20 3PP", "postcodes": ["EX20 3PP"]}, "geometry": {"type": "Polygon", "coordinates": [[[-4.157241203869396, 50.790747641341724], [-4.158816376993022, 50.79252914774582], [-4.133546488443813, 50.79739815711893], [-4.124101575539609, 50.79464560929384], [-4.12362153886167, 50.7938568830968], [-4.124337892351815, 50.78997181855047], [-4.125384006967345, 50.78900941442452], [-4.136192210561243, 50.784310094973776], [-4.157241203869396, 50.790747641341724]]]}}, {"type": "Feature", "properties": {"type": "postcode-cell", "postcode": "EX20 3BJ", "postcodes": ["EX20 3BJ"]}, "geometry": {"type": "Polygon", "coordinates": [[[-4.150754379471048, 50.76098415416999], [-4.144269087897849, 50.76143869177912], [-4.138928384572376, 50.76017356538493], [-4.135331473116428, 50.75744585848322], [-4.133097021413027, 50.74912857420512], [-4.134089990130367, 50.749269994755764], [-4.138649990133962, 50.748079994754725], [-4.139849659244501, 50.747470544987614], [-4.156074111555026, 50.75932775604101], [-4.150754379471048, 50.76098415416999]]]}}, {"type": "Feature", "properties": {"type": "postcode-cell", "postcode": "EX21 5NU", "postcodes": ["EX21 5NU"]}, "geometry": {"type": "Polygon", "coordinates": [[[-4.128012329277208, 50.83071125411002], [-4.1391348129114744, 50.829428694091156], [-4.14192655037741, 50.831811257787884], [-4.139909990096913, 50.83245999482278], [-4.138969990096006, 50.8330699948233], [-4.138349990094861, 50.834699994824604], [-4.138959990094958, 50.835399994825174], [-4.138439990094369, 50.83592999482562], [-4.13898999009446, 50.83654999482611], [-4.138729990094018, 50.83714999482661], [-4.139629990094408, 50.83763999482697], [-4.138629990092983, 50.83930999482834], [-4.137869990092193, 50.83992999482886], [-4.137059990091602, 50.84002999482896], [-4.135759990091221, 50.83891999482807], [-4.135049990090755, 50.83888999482803], [-4.133239990088381, 50.84145999483013], [-4.132229990087639, 50.84159999483027], [-4.131979990087196, 50.84220999483078], [-4.1314521035912435, 50.84203741834684], [-4.128012329277208, 50.83071125411002]]]}}, {"type": "Feature", "properties": {"type": "postcode-cell", "postcode": "EX20 3PH", "postcodes": ["EX20 3PH"]}, "geometry": {"type": "Polygon", "coordinates": [[[-4.135331473116428, 50.75744585848322], [-4.130992158406956, 50.75685407337288], [-4.119573836998773, 50.752573883496474], [-4.119699990119331, 50.752349994758376], [-4.121519990120796, 50.75179999475792], [-4.122819990122132, 50.75076999475707], [-4.123419990123091, 50.7495399947561], [-4.125159990124811, 50.748309994755076], [-4.125949990125105, 50.74882999475548], [-4.12895999012739, 50.74823999475497], [-4.129279990127756, 50.74789999475471], [-4.128799990127618, 50.74749999475439], [-4.130229990128852, 50.746889994753865], [-4.131189990129132, 50.74769999475453], [-4.1307199901283225, 50.748789994755384], [-4.133097021413027, 50.74912857420512], [-4.135331473116428, 50.75744585848322]]]}}, {"type": "Feature", "properties": {"type": "postcode-cell", "postcode": "EX20 3ND", "postcodes": ["EX20 3ND"]}, "geometry": {"type": "Polygon", "coordinates": [[[-4.134298452067002, 50.778754108203806], [-4.127652356580285, 50.777002499587624], [-4.129118251876626, 50.774808532561195], [-4.13367356513398, 50.770866828128966], [-4.139804743369869, 50.77355891104697], [-4.134298452067002, 50.778754108203806]]]}}, {"type": "Feature", "properties": {"type": "postcode-cell", "postcode": "EX20 3PN", "postcodes": ["EX20 3PN"]}, "geometry": {"type": "Polygon", "coordinates": [[[-4.137324807723902, 50.78165566528736], [-4.136192210561243, 50.784310094973776], [-4.125384006967345, 50.78900941442452], [-4.126081656880838, 50.77750739508529], [-4.127652356580285, 50.777002499587624], [-4.134298452067002, 50.778754108203806], [-4.137324807723902, 50.78165566528736]]]}}, {"type": "Feature", "properties": {"type": "postcode-cell", "postcode": "EX21 5LJ", "postcodes": ["EX21 5LJ"]}, "geometry": {"type": "Polygon", "coordinates": [[[-4.137848139163025, 50.80776432255429], [-4.127975252367165, 50.81243529624874], [-4.113653380865735, 50.80395480693377], [-4.124101575539609, 50.79464560929384], [-4.133546488443813, 50.79739815711893], [-4.137848139163025, 50.80776432255429]]]}}, {"type": "Feature", "properties": {"type": "postcode-cell", "postcode": "EX20 3PJ", "postcodes": ["EX20 3PJ"]}, "geometry": {"type": "Polygon", "coordinates": [[[-4.133124097430261, 50.76950782672953], [-4.13259182980945, 50.76934028013044], [-4.124209570251316, 50.7651238334762], [-4.125302331083098, 50.762580880576046], [-4.138928384572376, 50.76017356538493], [-4.144269087897849, 50.76143869177912], [-4.133124097430261, 50.76950782672953]]]}}, {"type": "Feature", "properties": {"type": "postcode-cell", "postcode": "EX20 3EJ", "postcodes": ["EX20 3EJ"]}, "geometry": {"type": "Polygon", "coordinates": [[[-4.070199541888181, 50.864782671955005], [-4.089916959123934, 50.86622257102719], [-4.090019990047661, 50.867309994851496], [-4.084959990043433, 50.86913999485306], [-4.079329990038429, 50.8718399948553], [-4.07746999003724, 50.87169999485519], [-4.071219990032261, 50.87342999485665], [-4.068679990030022, 50.87460999485763], [-4.0664899900295515, 50.87238999485585], [-4.067419990030277, 50.872159994855664], [-4.06717999003069, 50.87088999485463], [-4.066759990030439, 50.87081999485458], [-4.066619990030559, 50.87033999485419], [-4.065169990029698, 50.870089994854006], [-4.063849990028569, 50.870629994854454], [-4.06211999002737, 50.87070999485456], [-4.061049990026466, 50.87111999485487], [-4.059259990025611, 50.87034999485427], [-4.058099990024365, 50.871379994855104], [-4.055529570987188, 50.8685503091763], [-4.070199541888181, 50.864782671955005]]]}}, {"type": "Feature", "properties": {"type": "postcode-cell", "postcode": "EX21 5LQ", "postcodes": ["EX21 5LQ"]}, "geometry": {"type": "Polygon", "coordinates": [[[-4.127163174091038, 50.81791217747165], [-4.12184672297129, 50.82527159138318], [-4.102963405973438, 50.823165761407694], [-4.102198030694076, 50.819312105257346], [-4.105554838139858, 50.81466959238364], [-4.126519957463136, 50.816564256532196], [-4.127163174091038, 50.81791217747165]]]}}, {"type": "Feature", "properties": {"type": "postcode-cell", "postcode": "EX20 3NQ", "postcodes": ["EX20 3NQ"]}, "geometry": {"type": "Polygon", "coordinates": [[[-4.13367356513398, 50.770866828128966], [-4.129118251876626, 50.774808532561195], [-4.128860401813221, 50.77464776511241], [-4.12577540956995, 50.77194372706383], [-4.126414717153949, 50.77083703367567], [-4.13259182980945, 50.76934028013044], [-4.133124097430261, 50.76950782672953], [-4.13367356513398, 50.770866828128966]]]}}, {"type": "Feature", "properties": {"type": "postcode-cell", "postcode": "EX20 3NT", "postcodes": ["EX20 3NT"]}, "geometry": {"type": "Polygon", "coordinates": [[[-4.10995314898705, 50.75765872232424], [-4.102785827231245, 50.75898405443455], [-4.070044192001476, 50.739909503654324], [-4.0707199900922815, 50.73973999474886], [-4.077419990098399, 50.73609999474587], [-4.079499990100477, 50.73456999474462], [-4.084179990105632, 50.73008999474097], [-4.086079990106325, 50.73134999474194], [-4.08611999010534, 50.733589994743745], [-4.086609990105075, 50.73489999474479], [-4.0887999901055245, 50.737139994746556], [-4.090949990106293, 50.73861999474773], [-4.093649990107521, 50.7398899947487], [-4.09595999010826, 50.741669994750104], [-4.095819990108054, 50.74191999475031], [-4.096489990108362, 50.74222999475056], [-4.097429990108358, 50.743629994751664], [-4.10306999011127, 50.74552999475312], [-4.107279990112013, 50.75012999475675], [-4.110279990113313, 50.75169999475799], [-4.11192999011369, 50.75330999475924], [-4.11258999011403, 50.75353999475942], [-4.113636088543859, 50.754757957841576], [-4.10995314898705, 50.75765872232424]]]}}, {"type": "Feature", "properties": {"type": "postcode-cell", "postcode": "EX20 3BL", "postcodes": ["EX20 3BL"]}, "geometry": {"type": "Polygon", "coordinates": [[[-4.138928384572376, 50.76017356538493], [-4.125302331083098, 50.762580880576046], [-4.124079941865082, 50.760945362777875], [-4.130992158406956, 50.75685407337288], [-4.135331473116428, 50.75744585848322], [-4.138928384572376, 50.76017356538493]]]}}, {"type": "Feature", "properties": {"type": "postcode-cell", "postcode": "EX21 5NS", "postcodes": ["EX21 5NS"]}, "geometry": {"type": "Polygon", "coordinates": [[[-4.128012329277208, 50.83071125411002], [-4.1314521035912435, 50.84203741834684], [-4.130939990086647, 50.841869994830496], [-4.129969990085931, 50.842009994830626], [-4.130139990085684, 50.842809994831256], [-4.128719990084146, 50.84410999483234], [-4.1261299900826, 50.843659994832], [-4.124369990081764, 50.84287999483139], [-4.122629990080528, 50.84301999483152], [-4.1210199900799696, 50.84184999483059], [-4.119239990080361, 50.838299994827715], [-4.118279990080007, 50.837649994827196], [-4.116236718568025, 50.837747293972505], [-4.120579554619524, 50.832166059417695], [-4.124963950676305, 50.82980149115141], [-4.128012329277208, 50.83071125411002]]]}}, {"type": "Feature", "properties": {"type": "postcode-cell", "postcode": "EX20 3NW", "postcodes": ["EX20 3NW"]}, "geometry": {"type": "Polygon", "coordinates": [[[-4.129118251876626, 50.774808532561195], [-4.127652356580285, 50.777002499587624], [-4.126081656880838, 50.77750739508529], [-4.124464499648344, 50.77719880413271], [-4.1236528845968365, 50.773080394281024], [-4.123690918952998, 50.77299323554292], [-4.1239929303944765, 50.7728506034284], [-4.125038046184058, 50.772622058135454], [-4.128860401813221, 50.77464776511241], [-4.129118251876626, 50.774808532561195]]]}}, {"type": "Feature", "properties": {"type": "postcode-cell", "postcode": "EX20 3BN", "postcodes": ["EX20 3BN"]}, "geometry": {"type": "Polygon", "coordinates": [[[-4.124209570251316, 50.7651238334762], [-4.13259182980945, 50.76934028013044], [-4.126414717153949, 50.77083703367567], [-4.125832963093107, 50.77087355924504], [-4.1234041867828255, 50.77073262987959], [-4.123399278264383, 50.77073164508104], [-4.122903394345981, 50.77047996690442], [-4.122855011096246, 50.76562019606846], [-4.124209570251316, 50.7651238334762]]]}}, {"type": "Feature", "properties": {"type": "postcode-cell", "postcode": "EX20 3PE", "postcodes": ["EX20 3PE"]}, "geometry": {"type": "Polygon", "coordinates": [[[-4.122855011096246, 50.76562019606846], [-4.113910568439611, 50.76685933076928], [-4.113420263085784, 50.76679461951013], [-4.10995314898705, 50.75765872232424], [-4.113636088543859, 50.754757957841576], [-4.115329990114428, 50.756729994761955], [-4.117643510579915, 50.7550156003312], [-4.124079941865082, 50.760945362777875], [-4.125302331083098, 50.762580880576046], [-4.124209570251316, 50.7651238334762], [-4.122855011096246, 50.76562019606846]]]}}, {"type": "Feature", "properties": {"type": "postcode-cell", "postcode": "EX20 3BG", "postcodes": ["EX20 3BG"]}, "geometry": {"type": "Polygon", "coordinates": [[[-4.130992158406956, 50.75685407337288], [-4.124079941865082, 50.760945362777875], [-4.117643510579915, 50.7550156003312], [-4.117839990116947, 50.75486999476043], [-4.118279990117243, 50.754869994760426], [-4.119573836998773, 50.752573883496474], [-4.130992158406956, 50.75685407337288]]]}}, {"type": "Feature", "properties": {"type": "postcode-cell", "postcode": "EX20 3BP", "postcodes": ["EX20 3BP"]}, "geometry": {"type": "Polygon", "coordinates": [[[-4.12577540956995, 50.77194372706383], [-4.124915023819013, 50.77208695319243], [-4.124882469672874, 50.771994212893375], [-4.125832963093107, 50.77087355924504], [-4.126414717153949, 50.77083703367567], [-4.12577540956995, 50.77194372706383]]]}}, {"type": "Feature", "properties": {"type": "postcode-cell", "postcode": "EX20 3PY", "postcodes": ["EX20 3PY"]}, "geometry": {"type": "Polygon", "coordinates": [[[-4.125038046184058, 50.772622058135454], [-4.124943543631976, 50.77240463106453], [-4.124887343154382, 50.77213267050613], [-4.124915023819013, 50.77208695319243], [-4.12577540956995, 50.77194372706383], [-4.128860401813221, 50.77464776511241], [-4.125038046184058, 50.772622058135454]]]}}, {"type": "Feature", "properties": {"type": "postcode-cell", "postcode": "EX20 3PR", "postcodes": ["EX20 3PR"]}, "geometry": {"type": "Polygon", "coordinates": [[[-4.124337892351815, 50.78997181855047], [-4.113474113441809, 50.78206116100195], [-4.119127784928691, 50.776666879123496], [-4.124464499648344, 50.77719880413271], [-4.126081656880838, 50.77750739508529], [-4.125384006967345, 50.78900941442452], [-4.124337892351815, 50.78997181855047]]]}}, {"type": "Feature", "properties": {"type": "postcode-cell", "postcode": "EX20 3BW", "postcodes": ["EX20 3BW"]}, "geometry": {"type": "Polygon", "coordinates": [[[-4.124882469672874, 50.771994212893375], [-4.1234041867828255, 50.77073262987959], [-4.125832963093107, 50.77087355924504], [-4.124882469672874, 50.771994212893375]]]}}, {"type": "Feature", "properties": {"type": "postcode-cell", "postcode": "EX21 5LH", "postcodes": ["EX21 5LH"]}, "geometry": {"type": "Polygon", "coordinates": [[[-4.127975252367165, 50.81243529624874], [-4.126519957463136, 50.816564256532196], [-4.105554838139858, 50.81466959238364], [-4.105188521463591, 50.80780168502566], [-4.105838647098463, 50.80616222552147], [-4.113653380865735, 50.80395480693377], [-4.127975252367165, 50.81243529624874]]]}}, {"type": "Feature", "properties": {"type": "postcode-cell", "postcode": "EX20 3NP", "postcodes": ["EX20 3NP"]}, "geometry": {"type": "Polygon", "coordinates": [[[-4.124915023819013, 50.77208695319243], [-4.124887343154382, 50.77213267050613], [-4.123844172349703, 50.77212521471165], [-4.1238295454987615, 50.77212113155088], [-4.123504343972725, 50.77189466666693], [-4.123399278264383, 50.77073164508104], [-4.1234041867828255, 50.77073262987959], [-4.124882469672874, 50.771994212893375], [-4.124915023819013, 50.77208695319243]]]}}, {"type": "Feature", "properties": {"type": "postcode-cell", "postcode": "EX20 3NZ", "postcodes": ["EX20 3NZ"]}, "geometry": {"type": "Polygon", "coordinates": [[[-4.1238295454987615, 50.77212113155088], [-4.123461936665391, 50.77270945411113], [-4.122907705542649, 50.772415071744994], [-4.1228935881876305, 50.77230458306332], [-4.123504343972725, 50.77189466666693], [-4.1238295454987615, 50.77212113155088]]]}}, {"type": "Feature", "properties": {"type": "postcode-cell", "postcode": "EX20 3NH", "postcodes": ["EX20 3NH"]}, "geometry": {"type": "Polygon", "coordinates": [[[-4.125038046184058, 50.772622058135454], [-4.1239929303944765, 50.7728506034284], [-4.124048995029705, 50.77241890652544], [-4.124943543631976, 50.77240463106453], [-4.125038046184058, 50.772622058135454]]]}}, {"type": "Feature", "properties": {"type": "postcode-cell", "postcode": "EX20 3PA", "postcodes": ["EX20 3PA"]}, "geometry": {"type": "Polygon", "coordinates": [[[-4.123461936665391, 50.77270945411113], [-4.1238295454987615, 50.77212113155088], [-4.123844172349703, 50.77212521471165], [-4.124048995029705, 50.77241890652544], [-4.1239929303944765, 50.7728506034284], [-4.123690918952998, 50.77299323554292], [-4.123461936665391, 50.77270945411113]]]}}, {"type": "Feature", "properties": {"type": "postcode-cell", "postcode": "EX20 3NN", "postcodes": ["EX20 3NN"]}, "geometry": {"type": "Polygon", "coordinates": [[[-4.123690918952998, 50.77299323554292], [-4.1236528845968365, 50.773080394281024], [-4.122537120803154, 50.77293611969467], [-4.122549925180701, 50.77264384609342], [-4.122907705542649, 50.772415071744994], [-4.123461936665391, 50.77270945411113], [-4.123690918952998, 50.77299323554292]]]}}, {"type": "Feature", "properties": {"type": "postcode-cell", "postcode": "EX20 3PB", "postcodes": ["EX20 3PB"]}, "geometry": {"type": "Polygon", "coordinates": [[[-4.123504343972725, 50.77189466666693], [-4.1228935881876305, 50.77230458306332], [-4.121004659958847, 50.77160971269016], [-4.121111884047187, 50.77130383715432], [-4.122903394345981, 50.77047996690442], [-4.123399278264383, 50.77073164508104], [-4.123504343972725, 50.77189466666693]]]}}, {"type": "Feature", "properties": {"type": "postcode-cell", "postcode": "EX20 3FJ", "postcodes": ["EX20 3FJ"]}, "geometry": {"type": "Polygon", "coordinates": [[[-4.124943543631976, 50.77240463106453], [-4.124048995029705, 50.77241890652544], [-4.123844172349703, 50.77212521471165], [-4.124887343154382, 50.77213267050613], [-4.124943543631976, 50.77240463106453]]]}}, {"type": "Feature", "properties": {"type": "postcode-cell", "postcode": "EX20 3NL", "postcodes": ["EX20 3NL"]}, "geometry": {"type": "Polygon", "coordinates": [[[-4.124464499648344, 50.77719880413271], [-4.119127784928691, 50.776666879123496], [-4.1179521367509215, 50.775459744634844], [-4.122537120803154, 50.77293611969467], [-4.1236528845968365, 50.773080394281024], [-4.124464499648344, 50.77719880413271]]]}}, {"type": "Feature", "properties": {"type": "postcode-cell", "postcode": "EX20 3PD", "postcodes": ["EX20 3PD"]}, "geometry": {"type": "Polygon", "coordinates": [[[-4.121111884047187, 50.77130383715432], [-4.11567905216118, 50.768900581457686], [-4.113910568439611, 50.76685933076928], [-4.122855011096246, 50.76562019606846], [-4.122903394345981, 50.77047996690442], [-4.121111884047187, 50.77130383715432]]]}}, {"type": "Feature", "properties": {"type": "postcode-cell", "postcode": "EX20 3NY", "postcodes": ["EX20 3NY"]}, "geometry": {"type": "Polygon", "coordinates": [[[-4.122907705542649, 50.772415071744994], [-4.122549925180701, 50.77264384609342], [-4.120554738661169, 50.772206895572765], [-4.121004659958847, 50.77160971269016], [-4.1228935881876305, 50.77230458306332], [-4.122907705542649, 50.772415071744994]]]}}, {"type": "Feature", "properties": {"type": "postcode-cell", "postcode": "EX20 3NJ", "postcodes": ["EX20 3NJ"]}, "geometry": {"type": "Polygon", "coordinates": [[[-4.1179521367509215, 50.775459744634844], [-4.117868529877351, 50.77538696943122], [-4.118016156706947, 50.77456395622292], [-4.120554738661169, 50.772206895572765], [-4.122549925180701, 50.77264384609342], [-4.122537120803154, 50.77293611969467], [-4.1179521367509215, 50.775459744634844]]]}}, {"type": "Feature", "properties": {"type": "postcode-cell", "postcode": "EX20 3NR", "postcodes": ["EX20 3NR"]}, "geometry": {"type": "Polygon", "coordinates": [[[-4.121004659958847, 50.77160971269016], [-4.120554738661169, 50.772206895572765], [-4.118016156706947, 50.77456395622292], [-4.11567905216118, 50.768900581457686], [-4.121111884047187, 50.77130383715432], [-4.121004659958847, 50.77160971269016]]]}}, {"type": "Feature", "properties": {"type": "postcode-cell", "postcode": "EX20 3PX", "postcodes": ["EX20 3PX"]}, "geometry": {"type": "Polygon", "coordinates": [[[-4.1179521367509215, 50.775459744634844], [-4.119127784928691, 50.776666879123496], [-4.113474113441809, 50.78206116100195], [-4.113115015398742, 50.782025916052405], [-4.105081964918145, 50.77330307253745], [-4.117868529877351, 50.77538696943122], [-4.1179521367509215, 50.775459744634844]]]}}, {"type": "Feature", "properties": {"type": "postcode-cell", "postcode": "EX20 3LZ", "postcodes": ["EX20 3LZ"]}, "geometry": {"type": "Polygon", "coordinates": [[[-4.124101575539609, 50.79464560929384], [-4.113653380865735, 50.80395480693377], [-4.105838647098463, 50.80616222552147], [-4.100124457259514, 50.80302225325439], [-4.0942305825544265, 50.794583296866406], [-4.106216920713628, 50.79128374781273], [-4.12362153886167, 50.7938568830968], [-4.124101575539609, 50.79464560929384]]]}}, {"type": "Feature", "properties": {"type": "postcode-cell", "postcode": "EX20 3PS", "postcodes": ["EX20 3PS"]}, "geometry": {"type": "Polygon", "coordinates": [[[-4.12362153886167, 50.7938568830968], [-4.106216920713628, 50.79128374781273], [-4.104553077017757, 50.783741961753115], [-4.113115015398742, 50.782025916052405], [-4.113474113441809, 50.78206116100195], [-4.124337892351815, 50.78997181855047], [-4.12362153886167, 50.7938568830968]]]}}, {"type": "Feature", "properties": {"type": "postcode-cell", "postcode": "EX20 3QD", "postcodes": ["EX20 3QD"]}, "geometry": {"type": "Polygon", "coordinates": [[[-4.070199541888181, 50.864782671955005], [-4.070663358905557, 50.85507460878616], [-4.0754633003081295, 50.852186796487906], [-4.080528595779715, 50.85057797544351], [-4.091047596995389, 50.854599703773566], [-4.085429990048836, 50.85781999484387], [-4.085739990048658, 50.85867999484457], [-4.087009990049363, 50.85900999484482], [-4.089479990049857, 50.8616099948469], [-4.089916959123934, 50.86622257102719], [-4.070199541888181, 50.864782671955005]]]}}, {"type": "Feature", "properties": {"type": "postcode-cell", "postcode": "EX21 5NT", "postcodes": ["EX21 5NT"]}, "geometry": {"type": "Polygon", "coordinates": [[[-4.116236718568025, 50.837747293972505], [-4.116179990078546, 50.837749994827305], [-4.115089990077929, 50.8374899948271], [-4.114109990076987, 50.838119994827636], [-4.113519990076882, 50.8374699948271], [-4.1127599900761, 50.8380699948276], [-4.11072999007455, 50.83847999482796], [-4.109369990074138, 50.83735999482706], [-4.107509990072883, 50.83736999482709], [-4.107139990073073, 50.836389994826284], [-4.10595999007237, 50.83618999482614], [-4.104889990071451, 50.83662999482652], [-4.103459990070969, 50.83555999482567], [-4.1027699900705725, 50.835409994825554], [-4.103189990070611, 50.83594999482598], [-4.103329990069773, 50.83802999482768], [-4.102709990068918, 50.838999994828455], [-4.1033799900685475, 50.84082999482993], [-4.103258262659581, 50.84147610476718], [-4.096925307551191, 50.83595925540697], [-4.09866169038195, 50.83125363533318], [-4.120579554619524, 50.832166059417695], [-4.116236718568025, 50.837747293972505]]]}}, {"type": "Feature", "properties": {"type": "postcode-cell", "postcode": "EX20 3BR", "postcodes": ["EX20 3BR"]}, "geometry": {"type": "Polygon", "coordinates": [[[-4.117868529877351, 50.77538696943122], [-4.105081964918145, 50.77330307253745], [-4.104645543010832, 50.77310936217856], [-4.105509251610048, 50.7700769212316], [-4.113420263085784, 50.76679461951013], [-4.113910568439611, 50.76685933076928], [-4.11567905216118, 50.768900581457686], [-4.118016156706947, 50.77456395622292], [-4.117868529877351, 50.77538696943122]]]}}, {"type": "Feature", "properties": {"type": "postcode-cell", "postcode": "EX20 3NS", "postcodes": ["EX20 3NS"]}, "geometry": {"type": "Polygon", "coordinates": [[[-4.105509251610048, 50.7700769212316], [-4.09681596042454, 50.76420554873516], [-4.102785827231245, 50.75898405443455], [-4.10995314898705, 50.75765872232424], [-4.113420263085784, 50.76679461951013], [-4.105509251610048, 50.7700769212316]]]}}, {"type": "Feature", "properties": {"type": "postcode-cell", "postcode": "EX20 3LG", "postcodes": ["EX20 3LG"]}, "geometry": {"type": "Polygon", "coordinates": [[[-4.124963950676305, 50.82980149115141], [-4.120579554619524, 50.832166059417695], [-4.09866169038195, 50.83125363533318], [-4.098629499537437, 50.82817373519543], [-4.102963405973438, 50.823165761407694], [-4.12184672297129, 50.82527159138318], [-4.124963950676305, 50.82980149115141]]]}}, {"type": "Feature", "properties": {"type": "postcode-cell", "postcode": "EX20 3PT", "postcodes": ["EX20 3PT"]}, "geometry": {"type": "Polygon", "coordinates": [[[-4.113115015398742, 50.782025916052405], [-4.104553077017757, 50.783741961753115], [-4.100426822903474, 50.782413793665555], [-4.103815457726802, 50.773500482914784], [-4.104645543010832, 50.77310936217856], [-4.105081964918145, 50.77330307253745], [-4.113115015398742, 50.782025916052405]]]}}, {"type": "Feature", "properties": {"type": "postcode-cell", "postcode": "EX20 3LE", "postcodes": ["EX20 3LE"]}, "geometry": {"type": "Polygon", "coordinates": [[[-4.105554838139858, 50.81466959238364], [-4.102198030694076, 50.819312105257346], [-4.0888581927098375, 50.81652788149796], [-4.087353425623151, 50.8146358962105], [-4.086252758702475, 50.811488465240345], [-4.105188521463591, 50.80780168502566], [-4.105554838139858, 50.81466959238364]]]}}, {"type": "Feature", "properties": {"type": "postcode-cell", "postcode": "EX20 3QN", "postcodes": ["EX20 3QN"]}, "geometry": {"type": "Polygon", "coordinates": [[[-4.080528595779715, 50.85057797544351], [-4.076500565751298, 50.840867719064256], [-4.0838453950320766, 50.837651454793736], [-4.096925307551191, 50.83595925540697], [-4.103258262659581, 50.84147610476718], [-4.102989990067354, 50.84289999483161], [-4.104289990067673, 50.84413999483259], [-4.1048499900672, 50.84602999483411], [-4.101289990064571, 50.8465499948346], [-4.103069990064078, 50.850309994837616], [-4.094639990057405, 50.852539994839496], [-4.091047596995389, 50.854599703773566], [-4.080528595779715, 50.85057797544351]]]}}, {"type": "Feature", "properties": {"type": "postcode-cell", "postcode": "EX20 3LF", "postcodes": ["EX20 3LF"]}, "geometry": {"type": "Polygon", "coordinates": [[[-4.09866169038195, 50.83125363533318], [-4.096925307551191, 50.83595925540697], [-4.0838453950320766, 50.837651454793736], [-4.079302628765645, 50.83010368765721], [-4.084676874036146, 50.82515942396525], [-4.098629499537437, 50.82817373519543], [-4.09866169038195, 50.83125363533318]]]}}, {"type": "Feature", "properties": {"type": "postcode-cell", "postcode": "EX20 3LY", "postcodes": ["EX20 3LY"]}, "geometry": {"type": "Polygon", "coordinates": [[[-4.104553077017757, 50.783741961753115], [-4.106216920713628, 50.79128374781273], [-4.0942305825544265, 50.794583296866406], [-4.090260985794264, 50.793264622258455], [-4.0909699900820975, 50.79221999479081], [-4.091689990082553, 50.79227999479085], [-4.0914699900825156, 50.792029994790646], [-4.092429990083402, 50.791499994790215], [-4.091669990084188, 50.78861999478789], [-4.092669990087092, 50.783669994783914], [-4.092635396145588, 50.78346423613263], [-4.100426822903474, 50.782413793665555], [-4.104553077017757, 50.783741961753115]]]}}, {"type": "Feature", "properties": {"type": "postcode-cell", "postcode": "EX20 3PU", "postcodes": ["EX20 3PU"]}, "geometry": {"type": "Polygon", "coordinates": [[[-4.100426822903474, 50.782413793665555], [-4.092635396145588, 50.78346423613263], [-4.092089990088259, 50.78021999478113], [-4.093601345656216, 50.77413867193125], [-4.103815457726802, 50.773500482914784], [-4.100426822903474, 50.782413793665555]]]}}, {"type": "Feature", "properties": {"type": "postcode-cell", "postcode": "EX20 3BS", "postcodes": ["EX20 3BS"]}, "geometry": {"type": "Polygon", "coordinates": [[[-4.103815457726802, 50.773500482914784], [-4.093601345656216, 50.77413867193125], [-4.093769990092437, 50.77345999477566], [-4.095809990095445, 50.76981999477273], [-4.093459990094341, 50.76877999477191], [-4.091161504805722, 50.76815474055648], [-4.093082231201162, 50.764398474275374], [-4.09681596042454, 50.76420554873516], [-4.105509251610048, 50.7700769212316], [-4.104645543010832, 50.77310936217856], [-4.103815457726802, 50.773500482914784]]]}}, {"type": "Feature", "properties": {"type": "postcode-cell", "postcode": "EX20 3PL", "postcodes": ["EX20 3PL"]}, "geometry": {"type": "Polygon", "coordinates": [[[-4.102963405973438, 50.823165761407694], [-4.098629499537437, 50.82817373519543], [-4.084676874036146, 50.82515942396525], [-4.083196976779258, 50.8240136832681], [-4.082481649418471, 50.8217312679293], [-4.084461421728047, 50.819576618973954], [-4.085693435427469, 50.818552550709605], [-4.0888581927098375, 50.81652788149796], [-4.102198030694076, 50.819312105257346], [-4.102963405973438, 50.823165761407694]]]}}, {"type": "Feature", "properties": {"type": "postcode-cell", "postcode": "EX20 3NA", "postcodes": ["EX20 3NA"]}, "geometry": {"type": "Polygon", "coordinates": [[[-4.105188521463591, 50.80780168502566], [-4.086252758702475, 50.811488465240345], [-4.079062720308968, 50.80680348037142], [-4.079070723127265, 50.806776694375124], [-4.100124457259514, 50.80302225325439], [-4.105838647098463, 50.80616222552147], [-4.105188521463591, 50.80780168502566]]]}}, {"type": "Feature", "properties": {"type": "postcode-cell", "postcode": "EX20 3LU", "postcodes": ["EX20 3LU"]}, "geometry": {"type": "Polygon", "coordinates": [[[-4.0942305825544265, 50.794583296866406], [-4.100124457259514, 50.80302225325439], [-4.079070723127265, 50.806776694375124], [-4.075647082103355, 50.79796295458734], [-4.078064117760526, 50.794454676613206], [-4.078649990072921, 50.794269994792586], [-4.07900999007329, 50.79397999479236], [-4.078782644955321, 50.79341164023762], [-4.07922059102097, 50.792775879676256], [-4.081879990075761, 50.79275999479134], [-4.082079990075614, 50.79338999479185], [-4.084789990077687, 50.79280999479136], [-4.085769990077578, 50.7945099947927], [-4.086929990078464, 50.79426999479251], [-4.087599990078752, 50.79462999479279], [-4.087559990078551, 50.79500999479309], [-4.0886099900793, 50.79490999479301], [-4.089469990080095, 50.79442999479262], [-4.090260985794264, 50.793264622258455], [-4.0942305825544265, 50.794583296866406]]]}}, {"type": "Feature", "properties": {"type": "postcode-cell", "postcode": "EX20 3BE", "postcodes": ["EX20 3BE"]}, "geometry": {"type": "MultiPolygon", "coordinates": [[[[-4.078782644955321, 50.79341164023762], [-4.07852999007351, 50.79277999479141], [-4.07922059102097, 50.792775879676256], [-4.078782644955321, 50.79341164023762]]], [[[-4.075647082103355, 50.79796295458734], [-4.062476123549264, 50.80028741575137], [-4.0478561255979075, 50.79182274881023], [-4.050151679719664, 50.78783532439035], [-4.050919990057342, 50.787709994787626], [-4.052909990058616, 50.78782999478771], [-4.055319990059708, 50.788969994788594], [-4.062529990064214, 50.78965999478905], [-4.070539990068695, 50.79159999479052], [-4.071259990069204, 50.791539994790476], [-4.073099990070176, 50.79210999479092], [-4.070529990067188, 50.7949199947932], [-4.070899990067155, 50.79553999479371], [-4.072459990068034, 50.795909994793995], [-4.072419990067856, 50.79623999479425], [-4.073149990068223, 50.79650999479446], [-4.073979990069425, 50.795079994793284], [-4.076699990071086, 50.79542999479354], [-4.076809990071425, 50.79484999479309], [-4.078064117760526, 50.794454676613206], [-4.075647082103355, 50.79796295458734]]]]}}, {"type": "Feature", "properties": {"type": "postcode-cell", "postcode": "EX20 3BT", "postcodes": ["EX20 3BT"]}, "geometry": {"type": "Polygon", "coordinates": [[[-4.09681596042454, 50.76420554873516], [-4.093082231201162, 50.764398474275374], [-4.07579782557268, 50.75797731100676], [-4.0757999900874236, 50.757959994763425], [-4.074549990087125, 50.756769994762486], [-4.074569990087437, 50.75610999476194], [-4.073899990087011, 50.75605999476192], [-4.073529990087068, 50.75538999476137], [-4.071239990086151, 50.75403999476033], [-4.066879990084127, 50.7520799947588], [-4.0658299900833965, 50.75214999475889], [-4.064059990083407, 50.74950999475678], [-4.060279990081874, 50.74733999475508], [-4.058979990081708, 50.74578999475386], [-4.062219990084811, 50.74370999475216], [-4.064489990086707, 50.742869994751445], [-4.065989990088432, 50.741269994750155], [-4.067139990089238, 50.741179994750055], [-4.066879990089361, 50.74052999474956], [-4.067599990089735, 50.74075999474973], [-4.067649990089882, 50.74050999474953], [-4.070044192001476, 50.739909503654324], [-4.102785827231245, 50.75898405443455], [-4.09681596042454, 50.76420554873516]]]}}, {"type": "Feature", "properties": {"type": "postcode-cell", "postcode": "EX20 3PZ", "postcodes": ["EX20 3PZ"]}, "geometry": {"type": "Polygon", "coordinates": [[[-4.0478561255979075, 50.79182274881023], [-4.040893746262757, 50.79613500355531], [-4.037849990045817, 50.79388999479275], [-4.035959990045011, 50.79288999479196], [-4.0348199900449835, 50.79126999479067], [-4.0326399900456895, 50.78649999478687], [-4.034499990047185, 50.78593999478638], [-4.034579990047524, 50.785309994785884], [-4.041589990051751, 50.786299994786596], [-4.0426999900525775, 50.78610999478643], [-4.0438999900536645, 50.78547999478591], [-4.045309990054682, 50.78530999478578], [-4.046709990055479, 50.785619994786], [-4.049509990056294, 50.78793999478783], [-4.050151679719664, 50.78783532439035], [-4.0478561255979075, 50.79182274881023]]]}}, {"type": "Feature", "properties": {"type": "postcode-cell", "postcode": "EX20 3JW", "postcodes": ["EX20 3JW"]}, "geometry": {"type": "Polygon", "coordinates": [[[-4.0888581927098375, 50.81652788149796], [-4.085693435427469, 50.818552550709605], [-4.080422235061225, 50.81677141462771], [-4.081275318766847, 50.81565767375245], [-4.081901812430236, 50.81537772230397], [-4.087353425623151, 50.8146358962105], [-4.0888581927098375, 50.81652788149796]]]}}, {"type": "Feature", "properties": {"type": "postcode-cell", "postcode": "EX20 3GZ", "postcodes": ["EX20 3GZ"]}, "geometry": {"type": "Polygon", "coordinates": [[[-4.087353425623151, 50.8146358962105], [-4.081901812430236, 50.81537772230397], [-4.078570944772186, 50.81445900061471], [-4.076318979209868, 50.81221481804645], [-4.0770064606273975, 50.80798129138613], [-4.079062720308968, 50.80680348037142], [-4.086252758702475, 50.811488465240345], [-4.087353425623151, 50.8146358962105]]]}}, {"type": "Feature", "properties": {"type": "postcode-cell", "postcode": "EX20 3BU", "postcodes": ["EX20 3BU"]}, "geometry": {"type": "Polygon", "coordinates": [[[-4.093082231201162, 50.764398474275374], [-4.091161504805722, 50.76815474055648], [-4.090849990092916, 50.76806999477138], [-4.088989990091639, 50.76813999477145], [-4.087159990090582, 50.767769994771164], [-4.0843399900882895, 50.76866999477193], [-4.083679990087877, 50.768599994771876], [-4.083629990088255, 50.767689994771146], [-4.078859990087239, 50.76287999476734], [-4.0795199900878325, 50.76254999476707], [-4.078539990087482, 50.76186999476653], [-4.078499990087778, 50.761159994765976], [-4.077249990087485, 50.759959994765005], [-4.077169990087706, 50.75934999476453], [-4.075749990087205, 50.75835999476374], [-4.07579782557268, 50.75797731100676], [-4.093082231201162, 50.764398474275374]]]}}, {"type": "Feature", "properties": {"type": "postcode-cell", "postcode": "EX20 3QA", "postcodes": ["EX20 3QA"]}, "geometry": {"type": "Polygon", "coordinates": [[[-4.076500565751298, 50.840867719064256], [-4.065797676240047, 50.839074518512305], [-4.0685886516391445, 50.82968173227854], [-4.07291379377724, 50.82872134615085], [-4.079302628765645, 50.83010368765721], [-4.0838453950320766, 50.837651454793736], [-4.076500565751298, 50.840867719064256]]]}}, {"type": "Feature", "properties": {"type": "postcode-cell", "postcode": "EX20 3LQ", "postcodes": ["EX20 3LQ"]}, "geometry": {"type": "Polygon", "coordinates": [[[-4.084676874036146, 50.82515942396525], [-4.079302628765645, 50.83010368765721], [-4.07291379377724, 50.82872134615085], [-4.07463106331415, 50.82624536193117], [-4.076005078526834, 50.82515107244811], [-4.083196976779258, 50.8240136832681], [-4.084676874036146, 50.82515942396525]]]}}, {"type": "Feature", "properties": {"type": "postcode-cell", "postcode": "EX20 3LA", "postcodes": ["EX20 3LA"]}, "geometry": {"type": "Polygon", "coordinates": [[[-4.085693435427469, 50.818552550709605], [-4.084461421728047, 50.819576618973954], [-4.080214729976028, 50.81766650350301], [-4.080177072417221, 50.81680832162893], [-4.080422235061225, 50.81677141462771], [-4.085693435427469, 50.818552550709605]]]}}, {"type": "Feature", "properties": {"type": "postcode-cell", "postcode": "EX20 3LS", "postcodes": ["EX20 3LS"]}, "geometry": {"type": "Polygon", "coordinates": [[[-4.079062720308968, 50.80680348037142], [-4.0770064606273975, 50.80798129138613], [-4.056143586830198, 50.81205601293277], [-4.053450393759979, 50.811900934384596], [-4.062476123549264, 50.80028741575137], [-4.075647082103355, 50.79796295458734], [-4.079070723127265, 50.806776694375124], [-4.079062720308968, 50.80680348037142]]]}}, {"type": "Feature", "properties": {"type": "postcode-cell", "postcode": "EX20 3LR", "postcodes": ["EX20 3LR"]}, "geometry": {"type": "Polygon", "coordinates": [[[-4.081901812430236, 50.81537772230397], [-4.081275318766847, 50.81565767375245], [-4.079157507207149, 50.81589366740938], [-4.0789265830951535, 50.81577796124692], [-4.078570944772186, 50.81445900061471], [-4.081901812430236, 50.81537772230397]]]}}, {"type": "Feature", "properties": {"type": "postcode-cell", "postcode": "EX20 3LP", "postcodes": ["EX20 3LP"]}, "geometry": {"type": "Polygon", "coordinates": [[[-4.078570944772186, 50.81445900061471], [-4.0789265830951535, 50.81577796124692], [-4.077276642270776, 50.81635422241568], [-4.074663747398603, 50.81464754975847], [-4.076318979209868, 50.81221481804645], [-4.078570944772186, 50.81445900061471]]]}}, {"type": "Feature", "properties": {"type": "postcode-cell", "postcode": "EX20 3SN", "postcodes": ["EX20 3SN"]}, "geometry": {"type": "Polygon", "coordinates": [[[-4.084461421728047, 50.819576618973954], [-4.082481649418471, 50.8217312679293], [-4.081551094866876, 50.82146335461811], [-4.079075179964682, 50.817767041400124], [-4.079168639883205, 50.8176946600012], [-4.080214729976028, 50.81766650350301], [-4.084461421728047, 50.819576618973954]]]}}, {"type": "Feature", "properties": {"type": "postcode-cell", "postcode": "EX20 3NB", "postcodes": ["EX20 3NB"]}, "geometry": {"type": "Polygon", "coordinates": [[[-4.080422235061225, 50.81677141462771], [-4.080177072417221, 50.81680832162893], [-4.079508189978397, 50.816719078357984], [-4.079157507207149, 50.81589366740938], [-4.081275318766847, 50.81565767375245], [-4.080422235061225, 50.81677141462771]]]}}, {"type": "Feature", "properties": {"type": "postcode-cell", "postcode": "EX20 3NX", "postcodes": ["EX20 3NX"]}, "geometry": {"type": "Polygon", "coordinates": [[[-4.080177072417221, 50.81680832162893], [-4.080214729976028, 50.81766650350301], [-4.079168639883205, 50.8176946600012], [-4.0791905604198115, 50.816909837570755], [-4.079508189978397, 50.816719078357984], [-4.080177072417221, 50.81680832162893]]]}}, {"type": "Feature", "properties": {"type": "postcode-cell", "postcode": "EX20 3LB", "postcodes": ["EX20 3LB"]}, "geometry": {"type": "Polygon", "coordinates": [[[-4.079157507207149, 50.81589366740938], [-4.079508189978397, 50.816719078357984], [-4.0791905604198115, 50.816909837570755], [-4.077355092194712, 50.81693009903651], [-4.077276642270776, 50.81635422241568], [-4.0789265830951535, 50.81577796124692], [-4.079157507207149, 50.81589366740938]]]}}, {"type": "Feature", "properties": {"type": "postcode-cell", "postcode": "EX20 3QW", "postcodes": ["EX20 3QW"]}, "geometry": {"type": "Polygon", "coordinates": [[[-4.079075179964682, 50.817767041400124], [-4.076572526402097, 50.81803689001405], [-4.077355092194712, 50.81693009903651], [-4.0791905604198115, 50.816909837570755], [-4.079168639883205, 50.8176946600012], [-4.079075179964682, 50.817767041400124]]]}}, {"type": "Feature", "properties": {"type": "postcode-cell", "postcode": "EX20 3HT", "postcodes": ["EX20 3HT"]}, "geometry": {"type": "Polygon", "coordinates": [[[-4.082481649418471, 50.8217312679293], [-4.083196976779258, 50.8240136832681], [-4.076005078526834, 50.82515107244811], [-4.074002892204636, 50.82315418844902], [-4.073988812739715, 50.82294893003342], [-4.074008633780286, 50.822921938264315], [-4.074686471849194, 50.82237839424617], [-4.074937499407199, 50.82225974755738], [-4.077397108871663, 50.82174304999484], [-4.0808427854182865, 50.82131073873547], [-4.081551094866876, 50.82146335461811], [-4.082481649418471, 50.8217312679293]]]}}, {"type": "Feature", "properties": {"type": "postcode-cell", "postcode": "EX20 3SL", "postcodes": ["EX20 3SL"]}, "geometry": {"type": "Polygon", "coordinates": [[[-4.076572526402097, 50.81803689001405], [-4.079075179964682, 50.817767041400124], [-4.081551094866876, 50.82146335461811], [-4.0808427854182865, 50.82131073873547], [-4.078596276698415, 50.820240259786274], [-4.076486586267119, 50.81878925246389], [-4.076258855795188, 50.81824495324195], [-4.076572526402097, 50.81803689001405]]]}}, {"type": "Feature", "properties": {"type": "postcode-cell", "postcode": "EX20 3LD", "postcodes": ["EX20 3LD"]}, "geometry": {"type": "Polygon", "coordinates": [[[-4.076258855795188, 50.81824495324195], [-4.0739152661306, 50.81747363831293], [-4.073860414067721, 50.81743815066124], [-4.072473011907483, 50.81612926167428], [-4.074663747398603, 50.81464754975847], [-4.077276642270776, 50.81635422241568], [-4.077355092194712, 50.81693009903651], [-4.076572526402097, 50.81803689001405], [-4.076258855795188, 50.81824495324195]]]}}, {"type": "Feature", "properties": {"type": "postcode-cell", "postcode": "EX20 3LT", "postcodes": ["EX20 3LT"]}, "geometry": {"type": "Polygon", "coordinates": [[[-4.076318979209868, 50.81221481804645], [-4.074663747398603, 50.81464754975847], [-4.072473011907483, 50.81612926167428], [-4.068446437869649, 50.81627119353232], [-4.0657298732678395, 50.81599797219125], [-4.056143586830198, 50.81205601293277], [-4.0770064606273975, 50.80798129138613], [-4.076318979209868, 50.81221481804645]]]}}, {"type": "Feature", "properties": {"type": "postcode-cell", "postcode": "EX20 3DY", "postcodes": ["EX20 3DY"]}, "geometry": {"type": "Polygon", "coordinates": [[[-4.073860414067721, 50.81743815066124], [-4.07168272582664, 50.81899647824185], [-4.070591542942345, 50.81839245936945], [-4.068446437869649, 50.81627119353232], [-4.072473011907483, 50.81612926167428], [-4.073860414067721, 50.81743815066124]]]}}, {"type": "Feature", "properties": {"type": "postcode-cell", "postcode": "EX20 3FN", "postcodes": ["EX20 3FN"]}, "geometry": {"type": "Polygon", "coordinates": [[[-4.074859207371082, 50.82103460860065], [-4.075208496122485, 50.82093082987351], [-4.077397108871663, 50.82174304999484], [-4.074937499407199, 50.82225974755738], [-4.074859207371082, 50.82103460860065]]]}}, {"type": "Feature", "properties": {"type": "postcode-cell", "postcode": "EX20 3FB", "postcodes": ["EX20 3FB"]}, "geometry": {"type": "Polygon", "coordinates": [[[-4.074937499407199, 50.82225974755738], [-4.074686471849194, 50.82237839424617], [-4.073859979894158, 50.821317712280525], [-4.073988680097007, 50.8207764142691], [-4.07448743847608, 50.82085838315851], [-4.074859207371082, 50.82103460860065], [-4.074937499407199, 50.82225974755738]]]}}, {"type": "Feature", "properties": {"type": "postcode-cell", "postcode": "EX20 3HB", "postcodes": ["EX20 3HB"]}, "geometry": {"type": "Polygon", "coordinates": [[[-4.074847399127869, 50.81961626793141], [-4.073962114746163, 50.81957648360077], [-4.073295379536574, 50.81898495565175], [-4.0739152661306, 50.81747363831293], [-4.076258855795188, 50.81824495324195], [-4.076486586267119, 50.81878925246389], [-4.074847399127869, 50.81961626793141]]]}}, {"type": "Feature", "properties": {"type": "postcode-cell", "postcode": "EX20 3FF", "postcodes": ["EX20 3FF"]}, "geometry": {"type": "Polygon", "coordinates": [[[-4.076486586267119, 50.81878925246389], [-4.078596276698415, 50.820240259786274], [-4.075552548850401, 50.82056750349312], [-4.075069499747597, 50.820350767810154], [-4.074771744891251, 50.81996234864569], [-4.074847399127869, 50.81961626793141], [-4.076486586267119, 50.81878925246389]]]}}, {"type": "Feature", "properties": {"type": "postcode-cell", "postcode": "EX20 3FE", "postcodes": ["EX20 3FE"]}, "geometry": {"type": "Polygon", "coordinates": [[[-4.07448743847608, 50.82085838315851], [-4.075069499747597, 50.820350767810154], [-4.075552548850401, 50.82056750349312], [-4.075208496122485, 50.82093082987351], [-4.074859207371082, 50.82103460860065], [-4.07448743847608, 50.82085838315851]]]}}, {"type": "Feature", "properties": {"type": "postcode-cell", "postcode": "EX20 3FQ", "postcodes": ["EX20 3FQ"]}, "geometry": {"type": "Polygon", "coordinates": [[[-4.0808427854182865, 50.82131073873547], [-4.077397108871663, 50.82174304999484], [-4.075208496122485, 50.82093082987351], [-4.075552548850401, 50.82056750349312], [-4.078596276698415, 50.820240259786274], [-4.0808427854182865, 50.82131073873547]]]}}, {"type": "Feature", "properties": {"type": "postcode-cell", "postcode": "EX20 3FD", "postcodes": ["EX20 3FD"]}, "geometry": {"type": "Polygon", "coordinates": [[[-4.075069499747597, 50.820350767810154], [-4.07448743847608, 50.82085838315851], [-4.073988680097007, 50.8207764142691], [-4.0737782704597265, 50.820627749411315], [-4.074771744891251, 50.81996234864569], [-4.075069499747597, 50.820350767810154]]]}}, {"type": "Feature", "properties": {"type": "postcode-cell", "postcode": "EX20 3FP", "postcodes": ["EX20 3FP"]}, "geometry": {"type": "Polygon", "coordinates": [[[-4.074008633780286, 50.822921938264315], [-4.0727669310752965, 50.82136687143022], [-4.072808304613636, 50.821337001666606], [-4.073859979894158, 50.821317712280525], [-4.074686471849194, 50.82237839424617], [-4.074008633780286, 50.822921938264315]]]}}, {"type": "Feature", "properties": {"type": "postcode-cell", "postcode": "EX20 3DB", "postcodes": ["EX20 3DB"]}, "geometry": {"type": "Polygon", "coordinates": [[[-4.074771744891251, 50.81996234864569], [-4.0737782704597265, 50.820627749411315], [-4.0734771197529795, 50.82057054512989], [-4.073311381853902, 50.82037089015655], [-4.073369538470989, 50.81988676005475], [-4.073962114746163, 50.81957648360077], [-4.074847399127869, 50.81961626793141], [-4.074771744891251, 50.81996234864569]]]}}, {"type": "Feature", "properties": {"type": "postcode-cell", "postcode": "EX20 3GD", "postcodes": ["EX20 3GD"]}, "geometry": {"type": "Polygon", "coordinates": [[[-4.076005078526834, 50.82515107244811], [-4.07463106331415, 50.82624536193117], [-4.072280723154262, 50.82491490119037], [-4.072120941515168, 50.82390475774099], [-4.072440946266628, 50.8236363278259], [-4.074002892204636, 50.82315418844902], [-4.076005078526834, 50.82515107244811]]]}}, {"type": "Feature", "properties": {"type": "postcode-cell", "postcode": "EX20 3QB", "postcodes": ["EX20 3QB"]}, "geometry": {"type": "Polygon", "coordinates": [[[-4.080528595779715, 50.85057797544351], [-4.0754633003081295, 50.852186796487906], [-4.059017033490777, 50.84725041708951], [-4.059619990036383, 50.84697999483535], [-4.059769990036824, 50.846229994834744], [-4.055439990034334, 50.84530999483403], [-4.053969990033631, 50.84468999483355], [-4.055109990035009, 50.843319994832406], [-4.055209990035448, 50.84249999483176], [-4.0529999900342295, 50.84191999483132], [-4.052454657959098, 50.84130163127645], [-4.065797676240047, 50.839074518512305], [-4.076500565751298, 50.840867719064256], [-4.080528595779715, 50.85057797544351]]]}}, {"type": "Feature", "properties": {"type": "postcode-cell", "postcode": "EX20 3GB", "postcodes": ["EX20 3GB"]}, "geometry": {"type": "Polygon", "coordinates": [[[-4.071487305173375, 50.82482551818934], [-4.072280723154262, 50.82491490119037], [-4.07463106331415, 50.82624536193117], [-4.07291379377724, 50.82872134615085], [-4.0685886516391445, 50.82968173227854], [-4.066841343040552, 50.828243220477546], [-4.071487305173375, 50.82482551818934]]]}}, {"type": "Feature", "properties": {"type": "postcode-cell", "postcode": "EX20 3GA", "postcodes": ["EX20 3GA"]}, "geometry": {"type": "Polygon", "coordinates": [[[-4.066841343040552, 50.828243220477546], [-4.064536005410898, 50.82657591434565], [-4.068580217009982, 50.82445991173161], [-4.071357852736846, 50.824723427754215], [-4.071487305173375, 50.82482551818934], [-4.066841343040552, 50.828243220477546]]]}}, {"type": "Feature", "properties": {"type": "postcode-cell", "postcode": "EX20 3HA", "postcodes": ["EX20 3HA"]}, "geometry": {"type": "Polygon", "coordinates": [[[-4.073988680097007, 50.8207764142691], [-4.073859979894158, 50.821317712280525], [-4.072808304613636, 50.821337001666606], [-4.073090409821815, 50.82079932585339], [-4.0734771197529795, 50.82057054512989], [-4.0737782704597265, 50.820627749411315], [-4.073988680097007, 50.8207764142691]]]}}, {"type": "Feature", "properties": {"type": "postcode-cell", "postcode": "EX20 3DD", "postcodes": ["EX20 3DD"]}, "geometry": {"type": "Polygon", "coordinates": [[[-4.073369538470989, 50.81988676005475], [-4.072278748263626, 50.81952471569534], [-4.072202509299674, 50.81941346169991], [-4.073295379536574, 50.81898495565175], [-4.073962114746163, 50.81957648360077], [-4.073369538470989, 50.81988676005475]]]}}, {"type": "Feature", "properties": {"type": "postcode-cell", "postcode": "EX20 3JA", "postcodes": ["EX20 3JA"]}, "geometry": {"type": "Polygon", "coordinates": [[[-4.073295379536574, 50.81898495565175], [-4.072202509299674, 50.81941346169991], [-4.071827379268888, 50.819284532704074], [-4.07168272582664, 50.81899647824185], [-4.073860414067721, 50.81743815066124], [-4.0739152661306, 50.81747363831293], [-4.073295379536574, 50.81898495565175]]]}}, {"type": "Feature", "properties": {"type": "postcode-cell", "postcode": "EX20 3HY", "postcodes": ["EX20 3HY"]}, "geometry": {"type": "Polygon", "coordinates": [[[-4.073090409821815, 50.82079932585339], [-4.072309109092892, 50.82072351814345], [-4.071910279734644, 50.82033666312254], [-4.072117691715595, 50.820211229140085], [-4.073311381853902, 50.82037089015655], [-4.0734771197529795, 50.82057054512989], [-4.073090409821815, 50.82079932585339]]]}}, {"type": "Feature", "properties": {"type": "postcode-cell", "postcode": "EX20 3HU", "postcodes": ["EX20 3HU"]}, "geometry": {"type": "Polygon", "coordinates": [[[-4.0727669310752965, 50.82136687143022], [-4.071851249619796, 50.82138900842496], [-4.072309109092892, 50.82072351814345], [-4.073090409821815, 50.82079932585339], [-4.072808304613636, 50.821337001666606], [-4.0727669310752965, 50.82136687143022]]]}}, {"type": "Feature", "properties": {"type": "postcode-cell", "postcode": "EX20 3HZ", "postcodes": ["EX20 3HZ"]}, "geometry": {"type": "Polygon", "coordinates": [[[-4.073311381853902, 50.82037089015655], [-4.072117691715595, 50.820211229140085], [-4.072278748263626, 50.81952471569534], [-4.073369538470989, 50.81988676005475], [-4.073311381853902, 50.82037089015655]]]}}, {"type": "Feature", "properties": {"type": "postcode-cell", "postcode": "EX20 3JN", "postcodes": ["EX20 3JN"]}, "geometry": {"type": "Polygon", "coordinates": [[[-4.073988812739715, 50.82294893003342], [-4.0725199666835685, 50.82254581652096], [-4.071474878840266, 50.821573949932386], [-4.071761793036177, 50.821409345657095], [-4.071851249619796, 50.82138900842496], [-4.0727669310752965, 50.82136687143022], [-4.074008633780286, 50.822921938264315], [-4.073988812739715, 50.82294893003342]]]}}, {"type": "Feature", "properties": {"type": "postcode-cell", "postcode": "EX20 3JB", "postcodes": ["EX20 3JB"]}, "geometry": {"type": "Polygon", "coordinates": [[[-4.072278748263626, 50.81952471569534], [-4.072117691715595, 50.820211229140085], [-4.071910279734644, 50.82033666312254], [-4.071442256129098, 50.82040817540963], [-4.070818860679235, 50.82030673592489], [-4.071179833665165, 50.81956016094102], [-4.071827379268888, 50.819284532704074], [-4.072202509299674, 50.81941346169991], [-4.072278748263626, 50.81952471569534]]]}}, {"type": "Feature", "properties": {"type": "postcode-cell", "postcode": "EX20 3JP", "postcodes": ["EX20 3JP"]}, "geometry": {"type": "Polygon", "coordinates": [[[-4.0725199666835685, 50.82254581652096], [-4.0701463397300905, 50.822832252502934], [-4.070268005365404, 50.82165003628637], [-4.071474878840266, 50.821573949932386], [-4.0725199666835685, 50.82254581652096]]]}}, {"type": "Feature", "properties": {"type": "postcode-cell", "postcode": "EX20 3JT", "postcodes": ["EX20 3JT"]}, "geometry": {"type": "Polygon", "coordinates": [[[-4.072280723154262, 50.82491490119037], [-4.071487305173375, 50.82482551818934], [-4.071357852736846, 50.824723427754215], [-4.071294178629011, 50.82411272822989], [-4.072120941515168, 50.82390475774099], [-4.072280723154262, 50.82491490119037]]]}}, {"type": "Feature", "properties": {"type": "postcode-cell", "postcode": "EX20 3JY", "postcodes": ["EX20 3JY"]}, "geometry": {"type": "Polygon", "coordinates": [[[-4.073988812739715, 50.82294893003342], [-4.074002892204636, 50.82315418844902], [-4.072440946266628, 50.8236363278259], [-4.070021057540833, 50.822985507989664], [-4.0701463397300905, 50.822832252502934], [-4.0725199666835685, 50.82254581652096], [-4.073988812739715, 50.82294893003342]]]}}, {"type": "Feature", "properties": {"type": "postcode-cell", "postcode": "EX20 3HX", "postcodes": ["EX20 3HX"]}, "geometry": {"type": "Polygon", "coordinates": [[[-4.072309109092892, 50.82072351814345], [-4.071851249619796, 50.82138900842496], [-4.071761793036177, 50.821409345657095], [-4.071442256129098, 50.82040817540963], [-4.071910279734644, 50.82033666312254], [-4.072309109092892, 50.82072351814345]]]}}, {"type": "Feature", "properties": {"type": "postcode-cell", "postcode": "EX20 3JZ", "postcodes": ["EX20 3JZ"]}, "geometry": {"type": "Polygon", "coordinates": [[[-4.071827379268888, 50.819284532704074], [-4.071179833665165, 50.81956016094102], [-4.070442908510178, 50.819382285719925], [-4.070591542942345, 50.81839245936945], [-4.07168272582664, 50.81899647824185], [-4.071827379268888, 50.819284532704074]]]}}, {"type": "Feature", "properties": {"type": "postcode-cell", "postcode": "EX20 3JD", "postcodes": ["EX20 3JD"]}, "geometry": {"type": "Polygon", "coordinates": [[[-4.0679900043532, 50.81906556386117], [-4.069453985827365, 50.81964730252813], [-4.070202222004814, 50.82045316193233], [-4.070139064166982, 50.820540865400304], [-4.068581817652394, 50.82064398419931], [-4.068165991811857, 50.82036632756674], [-4.0679900043532, 50.81906556386117]]]}}, {"type": "Feature", "properties": {"type": "postcode-cell", "postcode": "EX20 3JE", "postcodes": ["EX20 3JE"]}, "geometry": {"type": "Polygon", "coordinates": [[[-4.068165991811857, 50.82036632756674], [-4.066303051817041, 50.821251859459586], [-4.066043569385329, 50.8208103880198], [-4.066642996101007, 50.81781150791027], [-4.0679900043532, 50.81906556386117], [-4.068165991811857, 50.82036632756674]]]}}, {"type": "Feature", "properties": {"type": "postcode-cell", "postcode": "EX20 3JH", "postcodes": ["EX20 3JH"]}, "geometry": {"type": "Polygon", "coordinates": [[[-4.071761793036177, 50.821409345657095], [-4.071474878840266, 50.821573949932386], [-4.070268005365404, 50.82165003628637], [-4.0702338078919915, 50.82162614176006], [-4.070139064166982, 50.820540865400304], [-4.070202222004814, 50.82045316193233], [-4.070818860679235, 50.82030673592489], [-4.071442256129098, 50.82040817540963], [-4.071761793036177, 50.821409345657095]]]}}, {"type": "Feature", "properties": {"type": "postcode-cell", "postcode": "EX20 3JU", "postcodes": ["EX20 3JU"]}, "geometry": {"type": "Polygon", "coordinates": [[[-4.071294178629011, 50.82411272822989], [-4.069474756882904, 50.82384315334825], [-4.070002721734053, 50.822996441037425], [-4.070021057540833, 50.822985507989664], [-4.072440946266628, 50.8236363278259], [-4.072120941515168, 50.82390475774099], [-4.071294178629011, 50.82411272822989]]]}}, {"type": "Feature", "properties": {"type": "postcode-cell", "postcode": "EX20 3EP", "postcodes": ["EX20 3EP"]}, "geometry": {"type": "Polygon", "coordinates": [[[-4.070663358905557, 50.85507460878616], [-4.070199541888181, 50.864782671955005], [-4.055529570987188, 50.8685503091763], [-4.0547299900237785, 50.867669994852136], [-4.053049990024383, 50.86381999484904], [-4.052039990024217, 50.86268999484813], [-4.051119990024444, 50.86081999484664], [-4.0522899900257885, 50.85957999484562], [-4.053549990028119, 50.85627999484291], [-4.0557399900306805, 50.85385999484095], [-4.055702645522296, 50.853737590810134], [-4.070663358905557, 50.85507460878616]]]}}, {"type": "Feature", "properties": {"type": "postcode-cell", "postcode": "EX19 8RY", "postcodes": ["EX19 8RY"]}, "geometry": {"type": "Polygon", "coordinates": [[[-4.026030045883594, 50.82000864780598], [-4.0426128774718535, 50.820338189854425], [-4.0430366146228325, 50.821752681203044], [-4.026550034704097, 50.833855280373676], [-4.026209990020051, 50.833629994824896], [-4.025969990019818, 50.83378999482503], [-4.022529990018317, 50.832029994823635], [-4.020249990016924, 50.83173999482343], [-4.020469990017311, 50.831209994823], [-4.019749990017769, 50.82913999482135], [-4.018689990017382, 50.828429994820794], [-4.018179990016989, 50.82854999482089], [-4.015609990015575, 50.827879994820364], [-4.014715178369488, 50.82558932478468], [-4.026030045883594, 50.82000864780598]]]}}, {"type": "Feature", "properties": {"type": "postcode-cell", "postcode": "EX20 3JS", "postcodes": ["EX20 3JS"]}, "geometry": {"type": "Polygon", "coordinates": [[[-4.070021057540833, 50.822985507989664], [-4.070002721734053, 50.822996441037425], [-4.0669652476371, 50.82202484263971], [-4.0684514277964, 50.82154023145937], [-4.0702338078919915, 50.82162614176006], [-4.070268005365404, 50.82165003628637], [-4.0701463397300905, 50.822832252502934], [-4.070021057540833, 50.822985507989664]]]}}, {"type": "Feature", "properties": {"type": "postcode-cell", "postcode": "EX20 3LH", "postcodes": ["EX20 3LH"]}, "geometry": {"type": "Polygon", "coordinates": [[[-4.0685886516391445, 50.82968173227854], [-4.065797676240047, 50.839074518512305], [-4.052454657959098, 50.84130163127645], [-4.050955055525079, 50.839601100796415], [-4.049146469227086, 50.827331959160134], [-4.063337378873218, 50.826098401750066], [-4.064536005410898, 50.82657591434565], [-4.066841343040552, 50.828243220477546], [-4.0685886516391445, 50.82968173227854]]]}}, {"type": "Feature", "properties": {"type": "postcode-cell", "postcode": "EX20 3JX", "postcodes": ["EX20 3JX"]}, "geometry": {"type": "Polygon", "coordinates": [[[-4.071357852736846, 50.824723427754215], [-4.068580217009982, 50.82445991173161], [-4.069474756882904, 50.82384315334825], [-4.071294178629011, 50.82411272822989], [-4.071357852736846, 50.824723427754215]]]}}, {"type": "Feature", "properties": {"type": "postcode-cell", "postcode": "EX20 3JG", "postcodes": ["EX20 3JG"]}, "geometry": {"type": "Polygon", "coordinates": [[[-4.0702338078919915, 50.82162614176006], [-4.0684514277964, 50.82154023145937], [-4.068581817652394, 50.82064398419931], [-4.070139064166982, 50.820540865400304], [-4.0702338078919915, 50.82162614176006]]]}}, {"type": "Feature", "properties": {"type": "postcode-cell", "postcode": "EX20 3JL", "postcodes": ["EX20 3JL"]}, "geometry": {"type": "Polygon", "coordinates": [[[-4.070442908510178, 50.819382285719925], [-4.069453985827365, 50.81964730252813], [-4.0679900043532, 50.81906556386117], [-4.066642996101007, 50.81781150791027], [-4.0657298732678395, 50.81599797219125], [-4.068446437869649, 50.81627119353232], [-4.070591542942345, 50.81839245936945], [-4.070442908510178, 50.819382285719925]]]}}, {"type": "Feature", "properties": {"type": "postcode-cell", "postcode": "EX20 3JJ", "postcodes": ["EX20 3JJ"]}, "geometry": {"type": "Polygon", "coordinates": [[[-4.070818860679235, 50.82030673592489], [-4.070202222004814, 50.82045316193233], [-4.069453985827365, 50.81964730252813], [-4.070442908510178, 50.819382285719925], [-4.071179833665165, 50.81956016094102], [-4.070818860679235, 50.82030673592489]]]}}, {"type": "Feature", "properties": {"type": "postcode-cell", "postcode": "EX20 3JR", "postcodes": ["EX20 3JR"]}, "geometry": {"type": "Polygon", "coordinates": [[[-4.063337378873218, 50.826098401750066], [-4.063632487744632, 50.8241300600757], [-4.066355844597839, 50.822072556261645], [-4.0669652476371, 50.82202484263971], [-4.070002721734053, 50.822996441037425], [-4.069474756882904, 50.82384315334825], [-4.068580217009982, 50.82445991173161], [-4.064536005410898, 50.82657591434565], [-4.063337378873218, 50.826098401750066]]]}}, {"type": "Feature", "properties": {"type": "postcode-cell", "postcode": "EX20 3JQ", "postcodes": ["EX20 3JQ"]}, "geometry": {"type": "Polygon", "coordinates": [[[-4.0684514277964, 50.82154023145937], [-4.0669652476371, 50.82202484263971], [-4.066355844597839, 50.822072556261645], [-4.066303051817041, 50.821251859459586], [-4.068165991811857, 50.82036632756674], [-4.068581817652394, 50.82064398419931], [-4.0684514277964, 50.82154023145937]]]}}, {"type": "Feature", "properties": {"type": "postcode-cell", "postcode": "EX20 3LJ", "postcodes": ["EX20 3LJ"]}, "geometry": {"type": "Polygon", "coordinates": [[[-4.066303051817041, 50.821251859459586], [-4.066355844597839, 50.822072556261645], [-4.063632487744632, 50.8241300600757], [-4.060669376823914, 50.81978091619178], [-4.066043569385329, 50.8208103880198], [-4.066303051817041, 50.821251859459586]]]}}, {"type": "Feature", "properties": {"type": "postcode-cell", "postcode": "EX20 3JF", "postcodes": ["EX20 3JF"]}, "geometry": {"type": "Polygon", "coordinates": [[[-4.052956586732234, 50.81201792378802], [-4.053450393759979, 50.811900934384596], [-4.056143586830198, 50.81205601293277], [-4.0657298732678395, 50.81599797219125], [-4.066642996101007, 50.81781150791027], [-4.066043569385329, 50.8208103880198], [-4.060669376823914, 50.81978091619178], [-4.052956586732234, 50.81201792378802]]]}}, {"type": "Feature", "properties": {"type": "postcode-cell", "postcode": "EX20 3LL", "postcodes": ["EX20 3LL"]}, "geometry": {"type": "Polygon", "coordinates": [[[-4.060669376823914, 50.81978091619178], [-4.063632487744632, 50.8241300600757], [-4.063337378873218, 50.826098401750066], [-4.049146469227086, 50.827331959160134], [-4.0430366146228325, 50.821752681203044], [-4.0426128774718535, 50.820338189854425], [-4.048007297460875, 50.81254572585138], [-4.052956586732234, 50.81201792378802], [-4.060669376823914, 50.81978091619178]]]}}, {"type": "Feature", "properties": {"type": "postcode-cell", "postcode": "EX20 3ER", "postcodes": ["EX20 3ER"]}, "geometry": {"type": "Polygon", "coordinates": [[[-4.070663358905557, 50.85507460878616], [-4.055702645522296, 50.853737590810134], [-4.0553799900309695, 50.852679994839995], [-4.057229990033125, 50.85064999483833], [-4.057969990034945, 50.84771999483596], [-4.059017033490777, 50.84725041708951], [-4.0754633003081295, 50.852186796487906], [-4.070663358905557, 50.85507460878616]]]}}, {"type": "Feature", "properties": {"type": "postcode-cell", "postcode": "EX20 3LW", "postcodes": ["EX20 3LW"]}, "geometry": {"type": "Polygon", "coordinates": [[[-4.052956586732234, 50.81201792378802], [-4.048007297460875, 50.81254572585138], [-4.044495528857723, 50.80988160240798], [-4.0464999900442695, 50.81006999480568], [-4.048839990045994, 50.80971999480537], [-4.04771999004556, 50.8090199948048], [-4.0466399900463905, 50.80558999480207], [-4.044879990045932, 50.8039999948008], [-4.042029990044586, 50.80276999479986], [-4.042239990044906, 50.80236999479952], [-4.041279990044719, 50.80136999479872], [-4.041119990045216, 50.80003999479766], [-4.04248999004685, 50.798449994796385], [-4.041469990047026, 50.79655999479484], [-4.040893746262757, 50.79613500355531], [-4.0478561255979075, 50.79182274881023], [-4.062476123549264, 50.80028741575137], [-4.053450393759979, 50.811900934384596], [-4.052956586732234, 50.81201792378802]]]}}, {"type": "Feature", "properties": {"type": "postcode-cell", "postcode": "EX19 8SL", "postcodes": ["EX19 8SL"]}, "geometry": {"type": "Polygon", "coordinates": [[[-4.0430366146228325, 50.821752681203044], [-4.049146469227086, 50.827331959160134], [-4.050955055525079, 50.839601100796415], [-4.050909990033899, 50.83954999482942], [-4.047619990032487, 50.83779999482806], [-4.047069990032004, 50.838049994828246], [-4.047029990031419, 50.83928999482925], [-4.044569990029996, 50.83878999482887], [-4.044059990030089, 50.837829994828105], [-4.044889990031465, 50.836009994826625], [-4.0433599900306065, 50.835649994826355], [-4.039579990028049, 50.835709994826445], [-4.0393499900281284, 50.83518999482601], [-4.0395999900288615, 50.83393999482502], [-4.040139990029353, 50.83365999482478], [-4.039929990029443, 50.833139994824336], [-4.036329990026977, 50.83326999482449], [-4.034789990025442, 50.83438999482543], [-4.033159990024108, 50.83492999482588], [-4.032289990023589, 50.83478999482576], [-4.031229990023215, 50.834049994825186], [-4.028979990021822, 50.83379999482502], [-4.027809990020638, 50.834689994825744], [-4.026550034704097, 50.833855280373676], [-4.0430366146228325, 50.821752681203044]]]}}, {"type": "Feature", "properties": {"type": "postcode-cell", "postcode": "EX20 3LN", "postcodes": ["EX20 3LN"]}, "geometry": {"type": "Polygon", "coordinates": [[[-4.048007297460875, 50.81254572585138], [-4.0426128774718535, 50.820338189854425], [-4.026030045883594, 50.82000864780598], [-4.019134280377805, 50.8098239627243], [-4.01934999002626, 50.809809994805754], [-4.020889990027107, 50.81020999480607], [-4.022809990028581, 50.80977999480569], [-4.030609990033809, 50.809729994805586], [-4.03248999003487, 50.81015999480592], [-4.033859990035416, 50.81096999480654], [-4.03868999003883, 50.81055999480617], [-4.0395599900397, 50.80991999480563], [-4.041499990041141, 50.80959999480535], [-4.044495528857723, 50.80988160240798], [-4.048007297460875, 50.81254572585138]]]}}, {"type": "Feature", "properties": {"type": "postcode-cell", "postcode": "EX20 3RA", "postcodes": ["EX20 3RA"]}, "geometry": {"type": "Polygon", "coordinates": [[[-4.026030045883594, 50.82000864780598], [-4.014715178369488, 50.82558932478468], [-4.014359990016194, 50.824679994817814], [-4.013639990015989, 50.824069994817314], [-4.013999990017333, 50.821629994815346], [-4.011649990016442, 50.82013999481417], [-4.01302999001851, 50.817609994812116], [-4.01101999001791, 50.81597999481083], [-4.011909990018717, 50.815509994810455], [-4.013299990019574, 50.815659994810545], [-4.013419990020018, 50.81485999480991], [-4.013289990020276, 50.81409999480929], [-4.012239990020002, 50.813159994808544], [-4.012859990020352, 50.81329999480865], [-4.012839990020533, 50.812869994808295], [-4.013439990020944, 50.812849994808275], [-4.013889990021742, 50.81174999480741], [-4.014469990022164, 50.8116699948073], [-4.014309990022289, 50.811159994806914], [-4.017049990024314, 50.810719994806526], [-4.017959990025295, 50.80989999480585], [-4.019134280377805, 50.8098239627243], [-4.026030045883594, 50.82000864780598]]]}}]}