{"type": "FeatureCollection", "features": [{"type": "Feature", "properties": {"type": "ward-outline", "name": "Heanton Punchardon"}, "geometry": {"type": "MultiPolygon", "coordinates": [[[[-4.17329, 51.07933], [-4.18181, 51.07728], [-4.18276, 51.07893], [-4.18243, 51.07989], [-4.18164, 51.08057], [-4.18122, 51.0826], [-4.17956, 51.08389], [-4.17818, 51.08425], [-4.17783, 51.08481], [-4.17575, 51.08596], [-4.17086, 51.08723], [-4.17086, 51.08722], [-4.16704, 51.08419], [-4.16768, 51.0822], [-4.1676, 51.08159], [-4.16698, 51.0811], [-4.16729, 51.08059], [-4.1666, 51.08047], [-4.17329, 51.07933]]], [[[-4.0977, 51.11437], [-4.09626, 51.11388], [-4.09425, 51.11181], [-4.09418, 51.11102], [-4.09482, 51.11089], [-4.09474, 51.10951], [-4.09334, 51.10956], [-4.08843, 51.10856], [-4.08365, 51.10334], [-4.08606, 51.10299], [-4.08765, 51.10104], [-4.08895, 51.10025], [-4.08839, 51.09722], [-4.08909, 51.09678], [-4.08781, 51.09343], [-4.09042, 51.09213], [-4.0914, 51.09124], [-4.09192, 51.08705], [-4.0923, 51.08662], [-4.09238, 51.08663], [-4.09618, 51.08746], [-4.09917, 51.08865], [-4.09914, 51.08928], [-4.09937, 51.08879], [-4.10197, 51.0902], [-4.10488, 51.0925], [-4.10678, 51.09322], [-4.10721, 51.09368], [-4.11294, 51.09444], [-4.11891, 51.09463], [-4.1287, 51.09347], [-4.12882, 51.09191], [-4.12827, 51.09147], [-4.12926, 51.08979], [-4.12927, 51.08799], [-4.13119, 51.08655], [-4.13314, 51.08584], [-4.14655, 51.08373], [-4.14984, 51.08445], [-4.15217, 51.08534], [-4.15713, 51.08539], [-4.15956, 51.08505], [-4.1621, 51.08381], [-4.16375, 51.08358], [-4.16591, 51.08471], [-4.16897, 51.08751], [-4.16716, 51.09063], [-4.16769, 51.09207], [-4.16756, 51.09328], [-4.16613, 51.09311], [-4.16527, 51.09235], [-4.16456, 51.09223], [-4.16304, 51.09296], [-4.16238, 51.09376], [-4.16051, 51.09423], [-4.16036, 51.09507], [-4.16087, 51.09522], [-4.161, 51.09479], [-4.16178, 51.09481], [-4.16192, 51.09539], [-4.16383, 51.09574], [-4.16399, 51.09631], [-4.1637, 51.09748], [-4.16279, 51.09736], [-4.16069, 51.09787], [-4.16085, 51.09893], [-4.15989, 51.1002], [-4.15814, 51.10162], [-4.15611, 51.10176], [-4.15558, 51.10229], [-4.15209, 51.10364], [-4.14757, 51.10444], [-4.14602, 51.10441], [-4.1457, 51.1048], [-4.14539, 51.10375], [-4.14421, 51.10396], [-4.14427, 51.10365], [-4.13787, 51.10462], [-4.13444, 51.10457], [-4.13353, 51.10421], [-4.13251, 51.10491], [-4.13187, 51.10463], [-4.13127, 51.10487], [-4.1297, 51.10458], [-4.12588, 51.10479], [-4.12543, 51.10518], [-4.1243, 51.10503], [-4.1226, 51.10535], [-4.12213, 51.10491], [-4.12089, 51.10474], [-4.12044, 51.1049], [-4.12072, 51.10646], [-4.12007, 51.10859], [-4.1198, 51.10883], [-4.11829, 51.10875], [-4.11775, 51.10937], [-4.11634, 51.10988], [-4.11599, 51.11073], [-4.11394, 51.11098], [-4.11185, 51.1108], [-4.10994, 51.10871], [-4.10893, 51.10878], [-4.10749, 51.10974], [-4.10585, 51.10985], [-4.10327, 51.1131], [-4.09996, 51.11406], [-4.09917, 51.11398], [-4.0977, 51.11437]]]]}}, {"type": "Feature", "properties": {"type": "postcode-cell", "postcode": "EX33 2FG", "postcodes": ["EX33 2FG"]}, "geometry": {"type": "Polygon", "coordinates": [[[-4.156103317410655, 51.100502486621615], [-4.158703356481958, 51.099762765912885], [-4.159075029088912, 51.099709674110485], [-4.160164707630853, 51.09983657426635], [-4.159889989991508, 51.10019999504202], [-4.158139989989679, 51.10161999504317], [-4.1566111507411225, 51.101725435582864], [-4.156103317410655, 51.100502486621615]]]}}, {"type": "Feature", "properties": {"type": "postcode-cell", "postcode": "EX33 2FN", "postcodes": ["EX33 2FN"]}, "geometry": {"type": "MultiPolygon", "coordinates": [[[[-4.159075029088912, 51.099709674110485], [-4.158029697645441, 51.09874001441466], [-4.157564413005306, 51.097038223472346], [-4.167359406064073, 51.08603631127366], [-4.168969990003333, 51.087509995031475], [-4.167159990000716, 51.09062999503405], [-4.1676899900004445, 51.09206999503525], [-4.1675599899998215, 51.09327999503625], [-4.166129989998916, 51.09310999503611], [-4.1652699899986585, 51.09234999503548], [-4.164559989998227, 51.092229995035396], [-4.163039989996862, 51.09295999503601], [-4.1623799899960545, 51.09375999503666], [-4.160509989994567, 51.09422999503707], [-4.1603599899940935, 51.09506999503776], [-4.160869989994377, 51.09521999503789], [-4.160999989994655, 51.09478999503754], [-4.161779989995179, 51.09480999503754], [-4.16191998999502, 51.095389995038005], [-4.163829989996178, 51.0957399950383], [-4.163989989996034, 51.09630999503876], [-4.1636999899953215, 51.09747999503974], [-4.162789989994749, 51.09735999503963], [-4.1606899899930845, 51.09786999504008], [-4.160849989992725, 51.09892999504094], [-4.160164707630853, 51.09983657426635], [-4.159075029088912, 51.099709674110485]]], [[[-4.173337635940163, 51.07931853314043], [-4.181809990016654, 51.07727999502295], [-4.182759990016582, 51.0789299950243], [-4.182429990015931, 51.07988999502511], [-4.181639990015087, 51.08056999502566], [-4.181219990013909, 51.082599995027365], [-4.1795599900122, 51.083889995028436], [-4.178179990011093, 51.084249995028706], [-4.177829990010606, 51.0848099950292], [-4.175749990008671, 51.08595999503015], [-4.170859990004753, 51.08722999503122], [-4.1708599900047565, 51.08721999503122], [-4.168190452927914, 51.08510259079914], [-4.173337635940163, 51.07931853314043]]]]}}, {"type": "Feature", "properties": {"type": "postcode-cell", "postcode": "EX33 2DW", "postcodes": ["EX33 2DW"]}, "geometry": {"type": "MultiPolygon", "coordinates": [[[[-4.168190452927914, 51.08510259079914], [-4.167039990003474, 51.08418999502873], [-4.16767999000479, 51.082199995027054], [-4.167599990005003, 51.08158999502656], [-4.166979990004793, 51.081099995026165], [-4.167289990005233, 51.08058999502575], [-4.166599990004812, 51.08046999502565], [-4.173289990009904, 51.079329995024686], [-4.173337635940163, 51.07931853314043], [-4.168190452927914, 51.08510259079914]]], [[[-4.157564413005306, 51.097038223472346], [-4.15553448087866, 51.097847894745904], [-4.155346835995784, 51.097863075444245], [-4.154545398463441, 51.097536567479516], [-4.15427958691129, 51.086600223611605], [-4.155092851178475, 51.085369484855214], [-4.157129989996148, 51.08538999502976], [-4.1595599899979625, 51.08504999502946], [-4.162099990000251, 51.08380999502842], [-4.163749990001484, 51.08357999502822], [-4.165909990002468, 51.084709995029165], [-4.167359406064073, 51.08603631127366], [-4.157564413005306, 51.097038223472346]]]]}}, {"type": "Feature", "properties": {"type": "postcode-cell", "postcode": "EX33 2PA", "postcodes": ["EX33 2PA"]}, "geometry": {"type": "Polygon", "coordinates": [[[-4.154269384439228, 51.1014026240683], [-4.155778394231421, 51.1005317106314], [-4.155938297063189, 51.10049454326663], [-4.156103317410655, 51.100502486621615], [-4.1566111507411225, 51.101725435582864], [-4.156109989988225, 51.1017599950433], [-4.155579989987627, 51.10228999504376], [-4.152955317052433, 51.103305286598136], [-4.154269384439228, 51.1014026240683]]]}}, {"type": "Feature", "properties": {"type": "postcode-cell", "postcode": "EX33 2DR", "postcodes": ["EX33 2DR"]}, "geometry": {"type": "Polygon", "coordinates": [[[-4.15553448087866, 51.097847894745904], [-4.158029697645441, 51.09874001441466], [-4.159075029088912, 51.099709674110485], [-4.158703356481958, 51.099762765912885], [-4.155369002055429, 51.09871832390853], [-4.155346835995784, 51.097863075444245], [-4.15553448087866, 51.097847894745904]]]}}, {"type": "Feature", "properties": {"type": "postcode-cell", "postcode": "EX33 2DS", "postcodes": ["EX33 2DS"]}, "geometry": {"type": "Polygon", "coordinates": [[[-4.158029697645441, 51.09874001441466], [-4.15553448087866, 51.097847894745904], [-4.157564413005306, 51.097038223472346], [-4.158029697645441, 51.09874001441466]]]}}, {"type": "Feature", "properties": {"type": "postcode-cell", "postcode": "EX33 2DZ", "postcodes": ["EX33 2DZ"]}, "geometry": {"type": "Polygon", "coordinates": [[[-4.1549458902151715, 51.09915483538087], [-4.15298602375656, 51.099297177278096], [-4.152351042524687, 51.09820837708055], [-4.154545398463441, 51.097536567479516], [-4.155346835995784, 51.097863075444245], [-4.155369002055429, 51.09871832390853], [-4.1549458902151715, 51.09915483538087]]]}}, {"type": "Feature", "properties": {"type": "postcode-cell", "postcode": "EX33 2DP", "postcodes": ["EX33 2DP"]}, "geometry": {"type": "Polygon", "coordinates": [[[-4.155369002055429, 51.09871832390853], [-4.158703356481958, 51.099762765912885], [-4.156103317410655, 51.100502486621615], [-4.155938297063189, 51.10049454326663], [-4.1549458902151715, 51.09915483538087], [-4.155369002055429, 51.09871832390853]]]}}, {"type": "Feature", "properties": {"type": "postcode-cell", "postcode": "EX31 4FY", "postcodes": ["EX31 4FY"]}, "geometry": {"type": "Polygon", "coordinates": [[[-4.151768488927675, 51.08957348667823], [-4.148819297286852, 51.097254170985096], [-4.148117405581657, 51.09772392564537], [-4.14572266540913, 51.09871775945401], [-4.145015203485754, 51.09853628530078], [-4.144452318928593, 51.095629816922], [-4.148225635192109, 51.09161969844127], [-4.151768488927675, 51.08957348667823]]]}}, {"type": "Feature", "properties": {"type": "postcode-cell", "postcode": "EX31 4AZ", "postcodes": ["EX31 4AZ"]}, "geometry": {"type": "Polygon", "coordinates": [[[-4.148225635192109, 51.09161969844127], [-4.14449151055798, 51.093291430604246], [-4.144078086274206, 51.09338276643026], [-4.1422716551233005, 51.09358052772328], [-4.139863720315609, 51.09325622991331], [-4.139785899194972, 51.093208896024734], [-4.139199477966295, 51.09256531074863], [-4.145370291360402, 51.088185200176866], [-4.150744117186256, 51.084795358011704], [-4.152169989992769, 51.08533999502974], [-4.155092851178475, 51.085369484855214], [-4.15427958691129, 51.086600223611605], [-4.151768488927675, 51.08957348667823], [-4.148225635192109, 51.09161969844127]]]}}, {"type": "Feature", "properties": {"type": "postcode-cell", "postcode": "EX33 2DN", "postcodes": ["EX33 2DN"]}, "geometry": {"type": "Polygon", "coordinates": [[[-4.155938297063189, 51.10049454326663], [-4.155778394231421, 51.1005317106314], [-4.152995007595572, 51.099795637399545], [-4.15288728512478, 51.09963457061216], [-4.15298602375656, 51.099297177278096], [-4.1549458902151715, 51.09915483538087], [-4.155938297063189, 51.10049454326663]]]}}, {"type": "Feature", "properties": {"type": "postcode-cell", "postcode": "EX31 4DE", "postcodes": ["EX31 4DE"]}, "geometry": {"type": "Polygon", "coordinates": [[[-4.111254715869041, 51.11008554503775], [-4.120332756749718, 51.10772895141226], [-4.120069989960516, 51.10858999504909], [-4.119799989960223, 51.10882999504929], [-4.118289989959228, 51.10874999504923], [-4.117749989958582, 51.10936999504976], [-4.116339989957391, 51.109879995050164], [-4.115989989956777, 51.11072999505089], [-4.113939989955263, 51.1109799950511], [-4.111849989953913, 51.11079999505096], [-4.1112344712474505, 51.11012649387532], [-4.111254715869041, 51.11008554503775]]]}}, {"type": "Feature", "properties": {"type": "postcode-cell", "postcode": "EX33 2DY", "postcodes": ["EX33 2DY"]}, "geometry": {"type": "Polygon", "coordinates": [[[-4.154269384439228, 51.1014026240683], [-4.152933834838406, 51.10027379421742], [-4.152995007595572, 51.099795637399545], [-4.155778394231421, 51.1005317106314], [-4.154269384439228, 51.1014026240683]]]}}, {"type": "Feature", "properties": {"type": "postcode-cell", "postcode": "EX33 2BZ", "postcodes": ["EX33 2BZ"]}, "geometry": {"type": "Polygon", "coordinates": [[[-4.152933834838406, 51.10027379421742], [-4.152051398376336, 51.10101451460591], [-4.151324729663456, 51.10030551138084], [-4.15152759170018, 51.099899269849516], [-4.15288728512478, 51.09963457061216], [-4.152995007595572, 51.099795637399545], [-4.152933834838406, 51.10027379421742]]]}}, {"type": "Feature", "properties": {"type": "postcode-cell", "postcode": "EX33 2HZ", "postcodes": ["EX33 2HZ"]}, "geometry": {"type": "Polygon", "coordinates": [[[-4.152955317052433, 51.103305286598136], [-4.15208998998464, 51.103639995044894], [-4.151953560096115, 51.10366414487766], [-4.15169554497119, 51.10334868598078], [-4.151514260925083, 51.10226154942262], [-4.152051398376336, 51.10101451460591], [-4.152933834838406, 51.10027379421742], [-4.154269384439228, 51.1014026240683], [-4.152955317052433, 51.103305286598136]]]}}, {"type": "Feature", "properties": {"type": "postcode-cell", "postcode": "EX33 2DJ", "postcodes": ["EX33 2DJ"]}, "geometry": {"type": "Polygon", "coordinates": [[[-4.15288728512478, 51.09963457061216], [-4.15152759170018, 51.099899269849516], [-4.150460550291338, 51.09961958758729], [-4.148117405581657, 51.09772392564537], [-4.148819297286852, 51.097254170985096], [-4.152351042524687, 51.09820837708055], [-4.15298602375656, 51.099297177278096], [-4.15288728512478, 51.09963457061216]]]}}, {"type": "Feature", "properties": {"type": "postcode-cell", "postcode": "EX31 4FP", "postcodes": ["EX31 4FP"]}, "geometry": {"type": "Polygon", "coordinates": [[[-4.148225635192109, 51.09161969844127], [-4.144452318928593, 51.095629816922], [-4.142775445938504, 51.09549853499361], [-4.142780787643813, 51.0952457355588], [-4.14449151055798, 51.093291430604246], [-4.148225635192109, 51.09161969844127]]]}}, {"type": "Feature", "properties": {"type": "postcode-cell", "postcode": "EX33 2DL", "postcodes": ["EX33 2DL"]}, "geometry": {"type": "Polygon", "coordinates": [[[-4.152351042524687, 51.09820837708055], [-4.148819297286852, 51.097254170985096], [-4.151768488927675, 51.08957348667823], [-4.15427958691129, 51.086600223611605], [-4.154545398463441, 51.097536567479516], [-4.152351042524687, 51.09820837708055]]]}}, {"type": "Feature", "properties": {"type": "postcode-cell", "postcode": "EX33 2DG", "postcodes": ["EX33 2DG"]}, "geometry": {"type": "Polygon", "coordinates": [[[-4.15169554497119, 51.10334868598078], [-4.145970991480314, 51.100578485825785], [-4.146015151027709, 51.10034133772917], [-4.150157615275682, 51.1006737433597], [-4.150286145988762, 51.10073427554458], [-4.151514260925083, 51.10226154942262], [-4.15169554497119, 51.10334868598078]]]}}, {"type": "Feature", "properties": {"type": "postcode-cell", "postcode": "EX33 2DE", "postcodes": ["EX33 2DE"]}, "geometry": {"type": "Polygon", "coordinates": [[[-4.151514260925083, 51.10226154942262], [-4.150286145988762, 51.10073427554458], [-4.151324729663456, 51.10030551138084], [-4.152051398376336, 51.10101451460591], [-4.151514260925083, 51.10226154942262]]]}}, {"type": "Feature", "properties": {"type": "postcode-cell", "postcode": "EX33 2DH", "postcodes": ["EX33 2DH"]}, "geometry": {"type": "Polygon", "coordinates": [[[-4.151324729663456, 51.10030551138084], [-4.150286145988762, 51.10073427554458], [-4.150157615275682, 51.1006737433597], [-4.150460550291338, 51.09961958758729], [-4.15152759170018, 51.099899269849516], [-4.151324729663456, 51.10030551138084]]]}}, {"type": "Feature", "properties": {"type": "postcode-cell", "postcode": "EX33 2DF", "postcodes": ["EX33 2DF"]}, "geometry": {"type": "Polygon", "coordinates": [[[-4.145147475290842, 51.10149782203882], [-4.145970991480314, 51.100578485825785], [-4.15169554497119, 51.10334868598078], [-4.151953560096115, 51.10366414487766], [-4.147569989981186, 51.104439995045546], [-4.146019989980135, 51.104409995045536], [-4.145699989979745, 51.10479999504585], [-4.145389989979996, 51.10374999504501], [-4.144209989979095, 51.10395999504519], [-4.144269989979272, 51.103649995044925], [-4.143568580037064, 51.103756321496995], [-4.145147475290842, 51.10149782203882]]]}}, {"type": "Feature", "properties": {"type": "postcode-cell", "postcode": "EX33 2DQ", "postcodes": ["EX33 2DQ"]}, "geometry": {"type": "Polygon", "coordinates": [[[-4.150460550291338, 51.09961958758729], [-4.150157615275682, 51.1006737433597], [-4.146015151027709, 51.10034133772917], [-4.14572266540913, 51.09871775945401], [-4.148117405581657, 51.09772392564537], [-4.150460550291338, 51.09961958758729]]]}}, {"type": "Feature", "properties": {"type": "postcode-cell", "postcode": "EX31 4DQ", "postcodes": ["EX31 4DQ"]}, "geometry": {"type": "Polygon", "coordinates": [[[-4.14572266540913, 51.09871775945401], [-4.146015151027709, 51.10034133772917], [-4.145970991480314, 51.100578485825785], [-4.145147475290842, 51.10149782203882], [-4.141426983722668, 51.100681069527944], [-4.1448724212847505, 51.09851883583537], [-4.145015203485754, 51.09853628530078], [-4.14572266540913, 51.09871775945401]]]}}, {"type": "Feature", "properties": {"type": "postcode-cell", "postcode": "EX31 4GE", "postcodes": ["EX31 4GE"]}, "geometry": {"type": "Polygon", "coordinates": [[[-4.142679846480113, 51.09559790140361], [-4.142775445938504, 51.09549853499361], [-4.144452318928593, 51.095629816922], [-4.145015203485754, 51.09853628530078], [-4.1448724212847505, 51.09851883583537], [-4.144444872214749, 51.09843307688239], [-4.142679846480113, 51.09559790140361]]]}}, {"type": "Feature", "properties": {"type": "postcode-cell", "postcode": "EX31 4GD", "postcodes": ["EX31 4GD"]}, "geometry": {"type": "Polygon", "coordinates": [[[-4.144444872214749, 51.09843307688239], [-4.140170872022576, 51.098080932267955], [-4.138937271355585, 51.09761729539924], [-4.139722852316704, 51.096405667648405], [-4.140544631803231, 51.09603971896132], [-4.142679846480113, 51.09559790140361], [-4.144444872214749, 51.09843307688239]]]}}, {"type": "Feature", "properties": {"type": "postcode-cell", "postcode": "EX31 4FD", "postcodes": ["EX31 4FD"]}, "geometry": {"type": "Polygon", "coordinates": [[[-4.14449151055798, 51.093291430604246], [-4.142780787643813, 51.0952457355588], [-4.141521925857925, 51.094753394405615], [-4.14150860125108, 51.094718933268645], [-4.144078086274206, 51.09338276643026], [-4.14449151055798, 51.093291430604246]]]}}, {"type": "Feature", "properties": {"type": "postcode-cell", "postcode": "EX31 4FE", "postcodes": ["EX31 4FE"]}, "geometry": {"type": "Polygon", "coordinates": [[[-4.141521925857925, 51.094753394405615], [-4.140544631803231, 51.09603971896132], [-4.139722852316704, 51.096405667648405], [-4.139693461311126, 51.09627097296195], [-4.140199619725232, 51.09457425972482], [-4.140577407872194, 51.09432196699021], [-4.140803829781727, 51.094346875866115], [-4.14150860125108, 51.094718933268645], [-4.141521925857925, 51.094753394405615]]]}}, {"type": "Feature", "properties": {"type": "postcode-cell", "postcode": "EX31 4FG", "postcodes": ["EX31 4FG"]}, "geometry": {"type": "Polygon", "coordinates": [[[-4.142679846480113, 51.09559790140361], [-4.140544631803231, 51.09603971896132], [-4.141521925857925, 51.094753394405615], [-4.142780787643813, 51.0952457355588], [-4.142775445938504, 51.09549853499361], [-4.142679846480113, 51.09559790140361]]]}}, {"type": "Feature", "properties": {"type": "postcode-cell", "postcode": "EX31 4DH", "postcodes": ["EX31 4DH"]}, "geometry": {"type": "Polygon", "coordinates": [[[-4.143568580037064, 51.103756321496995], [-4.138332649046058, 51.104549886342944], [-4.139014615303619, 51.10253682600984], [-4.140026032384227, 51.101013472141176], [-4.141426983722668, 51.100681069527944], [-4.145147475290842, 51.10149782203882], [-4.143568580037064, 51.103756321496995]]]}}, {"type": "Feature", "properties": {"type": "postcode-cell", "postcode": "EX31 4DJ", "postcodes": ["EX31 4DJ"]}, "geometry": {"type": "Polygon", "coordinates": [[[-4.1448724212847505, 51.09851883583537], [-4.141426983722668, 51.100681069527944], [-4.140026032384227, 51.101013472141176], [-4.140170872022576, 51.098080932267955], [-4.144444872214749, 51.09843307688239], [-4.1448724212847505, 51.09851883583537]]]}}, {"type": "Feature", "properties": {"type": "postcode-cell", "postcode": "EX31 4FJ", "postcodes": ["EX31 4FJ"]}, "geometry": {"type": "Polygon", "coordinates": [[[-4.1422716551233005, 51.09358052772328], [-4.144078086274206, 51.09338276643026], [-4.14150860125108, 51.094718933268645], [-4.140803829781727, 51.094346875866115], [-4.1422716551233005, 51.09358052772328]]]}}, {"type": "Feature", "properties": {"type": "postcode-cell", "postcode": "EX31 4FH", "postcodes": ["EX31 4FH"]}, "geometry": {"type": "Polygon", "coordinates": [[[-4.140803829781727, 51.094346875866115], [-4.140577407872194, 51.09432196699021], [-4.139863720315609, 51.09325622991331], [-4.1422716551233005, 51.09358052772328], [-4.140803829781727, 51.094346875866115]]]}}, {"type": "Feature", "properties": {"type": "postcode-cell", "postcode": "EX31 4LH", "postcodes": ["EX31 4LH"]}, "geometry": {"type": "Polygon", "coordinates": [[[-4.138332649046058, 51.104549886342944], [-4.137869989974457, 51.10461999504574], [-4.13443998997213, 51.10456999504572], [-4.133529989971667, 51.104209995045444], [-4.132509989970658, 51.10490999504601], [-4.131869989970345, 51.10462999504579], [-4.1312699899698275, 51.10486999504598], [-4.129699989968878, 51.10457999504577], [-4.128882224408264, 51.104624961391174], [-4.126094406389428, 51.101693815481056], [-4.128987635480773, 51.09916002937468], [-4.135084327036633, 51.0976230773506], [-4.13677968923539, 51.09772052228925], [-4.139014615303619, 51.10253682600984], [-4.138332649046058, 51.104549886342944]]]}}, {"type": "Feature", "properties": {"type": "postcode-cell", "postcode": "EX31 4DG", "postcodes": ["EX31 4DG"]}, "geometry": {"type": "Polygon", "coordinates": [[[-4.139014615303619, 51.10253682600984], [-4.13677968923539, 51.09772052228925], [-4.138937271355585, 51.09761729539924], [-4.140170872022576, 51.098080932267955], [-4.140026032384227, 51.101013472141176], [-4.139014615303619, 51.10253682600984]]]}}, {"type": "Feature", "properties": {"type": "postcode-cell", "postcode": "EX31 4RB", "postcodes": ["EX31 4RB"]}, "geometry": {"type": "Polygon", "coordinates": [[[-4.145370291360402, 51.088185200176866], [-4.137529972099573, 51.09112195683157], [-4.137010609719683, 51.09103925626448], [-4.136183712265837, 51.087899178764914], [-4.136916165469975, 51.08524600607767], [-4.146549989989632, 51.08372999502843], [-4.149839989991564, 51.084449995029], [-4.150744117186256, 51.084795358011704], [-4.145370291360402, 51.088185200176866]]]}}, {"type": "Feature", "properties": {"type": "postcode-cell", "postcode": "EX31 4FS", "postcodes": ["EX31 4FS"]}, "geometry": {"type": "Polygon", "coordinates": [[[-4.138471072112806, 51.094591981335405], [-4.139013597718269, 51.094410566727355], [-4.140199619725232, 51.09457425972482], [-4.139693461311126, 51.09627097296195], [-4.138471072112806, 51.094591981335405]]]}}, {"type": "Feature", "properties": {"type": "postcode-cell", "postcode": "EX31 4BX", "postcodes": ["EX31 4BX"]}, "geometry": {"type": "Polygon", "coordinates": [[[-4.139693461311126, 51.09627097296195], [-4.139722852316704, 51.096405667648405], [-4.138937271355585, 51.09761729539924], [-4.13677968923539, 51.09772052228925], [-4.135084327036633, 51.0976230773506], [-4.135727634419253, 51.095317472299676], [-4.1381119481879765, 51.094498236037786], [-4.138471072112806, 51.094591981335405], [-4.139693461311126, 51.09627097296195]]]}}, {"type": "Feature", "properties": {"type": "postcode-cell", "postcode": "EX31 4FL", "postcodes": ["EX31 4FL"]}, "geometry": {"type": "Polygon", "coordinates": [[[-4.139863720315609, 51.09325622991331], [-4.140577407872194, 51.09432196699021], [-4.140199619725232, 51.09457425972482], [-4.139013597718269, 51.094410566727355], [-4.139785899194972, 51.093208896024734], [-4.139863720315609, 51.09325622991331]]]}}, {"type": "Feature", "properties": {"type": "postcode-cell", "postcode": "EX31 4FF", "postcodes": ["EX31 4FF"]}, "geometry": {"type": "Polygon", "coordinates": [[[-4.139785899194972, 51.093208896024734], [-4.139013597718269, 51.094410566727355], [-4.138471072112806, 51.094591981335405], [-4.1381119481879765, 51.094498236037786], [-4.137641095074481, 51.092851657042914], [-4.138602989920212, 51.092621959187966], [-4.139199477966295, 51.09256531074863], [-4.139785899194972, 51.093208896024734]]]}}, {"type": "Feature", "properties": {"type": "postcode-cell", "postcode": "EX31 4BN", "postcodes": ["EX31 4BN"]}, "geometry": {"type": "Polygon", "coordinates": [[[-4.135714210563552, 51.095278762164796], [-4.135985761440724, 51.09364446666166], [-4.137607190478163, 51.09285112900266], [-4.137641095074481, 51.092851657042914], [-4.1381119481879765, 51.094498236037786], [-4.135727634419253, 51.095317472299676], [-4.135714210563552, 51.095278762164796]]]}}, {"type": "Feature", "properties": {"type": "postcode-cell", "postcode": "EX31 4AS", "postcodes": ["EX31 4AS"]}, "geometry": {"type": "Polygon", "coordinates": [[[-4.135727634419253, 51.095317472299676], [-4.135084327036633, 51.0976230773506], [-4.128987635480773, 51.09916002937468], [-4.12903391493587, 51.096692682504525], [-4.131513473118911, 51.09416823249638], [-4.132758559901076, 51.09352342144349], [-4.135714210563552, 51.095278762164796], [-4.135727634419253, 51.095317472299676]]]}}, {"type": "Feature", "properties": {"type": "postcode-cell", "postcode": "EX31 4BA", "postcodes": ["EX31 4BA"]}, "geometry": {"type": "Polygon", "coordinates": [[[-4.137529972099573, 51.09112195683157], [-4.145370291360402, 51.088185200176866], [-4.139199477966295, 51.09256531074863], [-4.138602989920212, 51.092621959187966], [-4.137529972099573, 51.09112195683157]]]}}, {"type": "Feature", "properties": {"type": "postcode-cell", "postcode": "EX31 4RD", "postcodes": ["EX31 4RD"]}, "geometry": {"type": "Polygon", "coordinates": [[[-4.138602989920212, 51.092621959187966], [-4.137641095074481, 51.092851657042914], [-4.137607190478163, 51.09285112900266], [-4.136306336071731, 51.09210095753999], [-4.136558479500528, 51.09132079424629], [-4.137010609719683, 51.09103925626448], [-4.137529972099573, 51.09112195683157], [-4.138602989920212, 51.092621959187966]]]}}, {"type": "Feature", "properties": {"type": "postcode-cell", "postcode": "EX31 4BH", "postcodes": ["EX31 4BH"]}, "geometry": {"type": "Polygon", "coordinates": [[[-4.136183712265837, 51.087899178764914], [-4.135973590521226, 51.08830048096315], [-4.13389946567385, 51.09076371740122], [-4.133216615748111, 51.091056472962926], [-4.132435350490949, 51.09106256352541], [-4.131768619184444, 51.09050379255305], [-4.135537346006395, 51.08546290896282], [-4.136916165469975, 51.08524600607767], [-4.136183712265837, 51.087899178764914]]]}}, {"type": "Feature", "properties": {"type": "postcode-cell", "postcode": "EX31 4BD", "postcodes": ["EX31 4BD"]}, "geometry": {"type": "Polygon", "coordinates": [[[-4.136306336071731, 51.09210095753999], [-4.135082056966948, 51.09200007187272], [-4.135115536568355, 51.09117750231776], [-4.135575396124005, 51.090890142070286], [-4.136558479500528, 51.09132079424629], [-4.136306336071731, 51.09210095753999]]]}}, {"type": "Feature", "properties": {"type": "postcode-cell", "postcode": "EX31 4EW", "postcodes": ["EX31 4EW"]}, "geometry": {"type": "Polygon", "coordinates": [[[-4.137607190478163, 51.09285112900266], [-4.135985761440724, 51.09364446666166], [-4.1336446896679675, 51.0930228091008], [-4.134625466126388, 51.09212172140365], [-4.135082056966948, 51.09200007187272], [-4.136306336071731, 51.09210095753999], [-4.137607190478163, 51.09285112900266]]]}}, {"type": "Feature", "properties": {"type": "postcode-cell", "postcode": "EX31 4FT", "postcodes": ["EX31 4FT"]}, "geometry": {"type": "Polygon", "coordinates": [[[-4.12903391493587, 51.096692682504525], [-4.1270232459382035, 51.09366873163814], [-4.128699989973108, 51.093469995036536], [-4.128797275908403, 51.09220528440944], [-4.129979037092329, 51.092366454078814], [-4.131513473118911, 51.09416823249638], [-4.12903391493587, 51.096692682504525]]]}}, {"type": "Feature", "properties": {"type": "postcode-cell", "postcode": "EX31 4BB", "postcodes": ["EX31 4BB"]}, "geometry": {"type": "Polygon", "coordinates": [[[-4.136183712265837, 51.087899178764914], [-4.137010609719683, 51.09103925626448], [-4.136558479500528, 51.09132079424629], [-4.135575396124005, 51.090890142070286], [-4.135973590521226, 51.08830048096315], [-4.136183712265837, 51.087899178764914]]]}}, {"type": "Feature", "properties": {"type": "postcode-cell", "postcode": "EX31 4BE", "postcodes": ["EX31 4BE"]}, "geometry": {"type": "Polygon", "coordinates": [[[-4.135082056966948, 51.09200007187272], [-4.134625466126388, 51.09212172140365], [-4.133216615748111, 51.091056472962926], [-4.13389946567385, 51.09076371740122], [-4.135115536568355, 51.09117750231776], [-4.135082056966948, 51.09200007187272]]]}}, {"type": "Feature", "properties": {"type": "postcode-cell", "postcode": "EX31 4GB", "postcodes": ["EX31 4GB"]}, "geometry": {"type": "Polygon", "coordinates": [[[-4.135985761440724, 51.09364446666166], [-4.135714210563552, 51.095278762164796], [-4.132758559901076, 51.09352342144349], [-4.13309719458666, 51.093151412800744], [-4.1336446896679675, 51.0930228091008], [-4.135985761440724, 51.09364446666166]]]}}, {"type": "Feature", "properties": {"type": "postcode-cell", "postcode": "EX31 4BU", "postcodes": ["EX31 4BU"]}, "geometry": {"type": "Polygon", "coordinates": [[[-4.131768619184444, 51.09050379255305], [-4.129637132054554, 51.09042783746373], [-4.128940617843382, 51.090331973751965], [-4.129259989975116, 51.089789995033506], [-4.129269989975919, 51.08798999503201], [-4.13118998997787, 51.08654999503081], [-4.133139989979519, 51.085839995030206], [-4.135537346006395, 51.08546290896282], [-4.131768619184444, 51.09050379255305]]]}}, {"type": "Feature", "properties": {"type": "postcode-cell", "postcode": "EX31 4BG", "postcodes": ["EX31 4BG"]}, "geometry": {"type": "Polygon", "coordinates": [[[-4.135115536568355, 51.09117750231776], [-4.13389946567385, 51.09076371740122], [-4.135973590521226, 51.08830048096315], [-4.135575396124005, 51.090890142070286], [-4.135115536568355, 51.09117750231776]]]}}, {"type": "Feature", "properties": {"type": "postcode-cell", "postcode": "EX31 4BQ", "postcodes": ["EX31 4BQ"]}, "geometry": {"type": "Polygon", "coordinates": [[[-4.13309719458666, 51.093151412800744], [-4.131946034120614, 51.092010142837516], [-4.132435350490949, 51.09106256352541], [-4.133216615748111, 51.091056472962926], [-4.134625466126388, 51.09212172140365], [-4.1336446896679675, 51.0930228091008], [-4.13309719458666, 51.093151412800744]]]}}, {"type": "Feature", "properties": {"type": "postcode-cell", "postcode": "EX31 4AX", "postcodes": ["EX31 4AX"]}, "geometry": {"type": "Polygon", "coordinates": [[[-4.128987635480773, 51.09916002937468], [-4.126094406389428, 51.101693815481056], [-4.115095334028028, 51.099796179284944], [-4.112122635730253, 51.09460395716904], [-4.112153129798093, 51.094335647832686], [-4.1129399899619, 51.09443999503741], [-4.118909989965896, 51.09462999503755], [-4.1270232459382035, 51.09366873163814], [-4.12903391493587, 51.096692682504525], [-4.128987635480773, 51.09916002937468]]]}}, {"type": "Feature", "properties": {"type": "postcode-cell", "postcode": "EX31 4AY", "postcodes": ["EX31 4AY"]}, "geometry": {"type": "Polygon", "coordinates": [[[-4.13309719458666, 51.093151412800744], [-4.132758559901076, 51.09352342144349], [-4.131513473118911, 51.09416823249638], [-4.129979037092329, 51.092366454078814], [-4.1312356497990566, 51.09205234299693], [-4.131946034120614, 51.092010142837516], [-4.13309719458666, 51.093151412800744]]]}}, {"type": "Feature", "properties": {"type": "postcode-cell", "postcode": "EX31 4BR", "postcodes": ["EX31 4BR"]}, "geometry": {"type": "Polygon", "coordinates": [[[-4.09295739579212, 51.09321602866108], [-4.0920889859039224, 51.09328956482918], [-4.088255172884429, 51.093208265611565], [-4.090419989947547, 51.092129995035584], [-4.091399989948614, 51.09123999503485], [-4.091919989950827, 51.087049995031386], [-4.092299989951276, 51.08661999503103], [-4.0923799899513265, 51.08662999503104], [-4.0961799899535505, 51.08745999503172], [-4.099169989955062, 51.088649995032696], [-4.099139989954763, 51.08927999503321], [-4.099369989955137, 51.0887899950328], [-4.1008350231320865, 51.08958451169789], [-4.09295739579212, 51.09321602866108]]]}}, {"type": "Feature", "properties": {"type": "postcode-cell", "postcode": "EX31 4BJ", "postcodes": ["EX31 4BJ"]}, "geometry": {"type": "Polygon", "coordinates": [[[-4.132435350490949, 51.09106256352541], [-4.131946034120614, 51.092010142837516], [-4.1312356497990566, 51.09205234299693], [-4.129637132054554, 51.09042783746373], [-4.131768619184444, 51.09050379255305], [-4.132435350490949, 51.09106256352541]]]}}, {"type": "Feature", "properties": {"type": "postcode-cell", "postcode": "EX31 4BL", "postcodes": ["EX31 4BL"]}, "geometry": {"type": "Polygon", "coordinates": [[[-4.129637132054554, 51.09042783746373], [-4.1312356497990566, 51.09205234299693], [-4.129979037092329, 51.092366454078814], [-4.128797275908403, 51.09220528440944], [-4.128819989973878, 51.091909995035266], [-4.128269989973696, 51.091469995034885], [-4.128940617843382, 51.090331973751965], [-4.129637132054554, 51.09042783746373]]]}}, {"type": "Feature", "properties": {"type": "postcode-cell", "postcode": "EX31 4DB", "postcodes": ["EX31 4DB"]}, "geometry": {"type": "Polygon", "coordinates": [[[-4.115095334028028, 51.099796179284944], [-4.113756790239545, 51.10092475504695], [-4.099149408894992, 51.10358560370895], [-4.099121751096298, 51.10145932169866], [-4.099664092092265, 51.09956605848972], [-4.1050761351510054, 51.09669998163358], [-4.109248048983822, 51.095113409258545], [-4.112122635730253, 51.09460395716904], [-4.115095334028028, 51.099796179284944]]]}}, {"type": "Feature", "properties": {"type": "postcode-cell", "postcode": "EX31 4DD", "postcodes": ["EX31 4DD"]}, "geometry": {"type": "Polygon", "coordinates": [[[-4.128882224408264, 51.104624961391174], [-4.12587998996617, 51.10478999504591], [-4.12542998996569, 51.10517999504626], [-4.124299989964983, 51.105029995046124], [-4.122599989963679, 51.10534999504641], [-4.122129989963553, 51.10490999504604], [-4.1208899899627776, 51.10473999504592], [-4.120439989962401, 51.104899995046026], [-4.120719989961901, 51.10645999504732], [-4.120332756749718, 51.10772895141226], [-4.111254715869041, 51.11008554503775], [-4.113756790239545, 51.10092475504695], [-4.115095334028028, 51.099796179284944], [-4.126094406389428, 51.101693815481056], [-4.128882224408264, 51.104624961391174]]]}}, {"type": "Feature", "properties": {"type": "postcode-cell", "postcode": "EX31 4EL", "postcodes": ["EX31 4EL"]}, "geometry": {"type": "Polygon", "coordinates": [[[-4.1112344712474505, 51.11012649387532], [-4.109939989953532, 51.10870999504923], [-4.108929989952809, 51.10877999504928], [-4.1074899899514, 51.1097399950501], [-4.105849989950232, 51.1098499950502], [-4.103269989947031, 51.113099995052906], [-4.099959989944339, 51.11405999505371], [-4.099169989943835, 51.113979995053626], [-4.097699989942659, 51.11436999505396], [-4.09723816189145, 51.11421284832229], [-4.096309278544466, 51.106208056027185], [-4.097267070156894, 51.104769604391706], [-4.099149408894992, 51.10358560370895], [-4.113756790239545, 51.10092475504695], [-4.111254715869041, 51.11008554503775], [-4.1112344712474505, 51.11012649387532]]]}}, {"type": "Feature", "properties": {"type": "postcode-cell", "postcode": "EX31 4DU", "postcodes": ["EX31 4DU"]}, "geometry": {"type": "Polygon", "coordinates": [[[-4.085640041979257, 51.10343662004627], [-4.096309278544466, 51.106208056027185], [-4.09723816189145, 51.11421284832229], [-4.09625998994189, 51.11387999505355], [-4.094249989941436, 51.11180999505186], [-4.094179989941738, 51.111019995051194], [-4.094819989942235, 51.11088999505108], [-4.0947399899427905, 51.10950999504995], [-4.093339989941813, 51.10955999504999], [-4.088429989938903, 51.10855999504919], [-4.083649989937956, 51.10333999504489], [-4.084122972088259, 51.10327130901179], [-4.085640041979257, 51.10343662004627]]]}}, {"type": "Feature", "properties": {"type": "postcode-cell", "postcode": "EX31 4BY", "postcodes": ["EX31 4BY"]}, "geometry": {"type": "Polygon", "coordinates": [[[-4.099121751096298, 51.10145932169866], [-4.0953247697415796, 51.098555085894795], [-4.09617059136549, 51.09793897802807], [-4.097389076500951, 51.09787006504585], [-4.099140675575837, 51.09899866405982], [-4.099664092092265, 51.09956605848972], [-4.099121751096298, 51.10145932169866]]]}}, {"type": "Feature", "properties": {"type": "postcode-cell", "postcode": "EX31 4BP", "postcodes": ["EX31 4BP"]}, "geometry": {"type": "Polygon", "coordinates": [[[-4.099140675575837, 51.09899866405982], [-4.0997614880204045, 51.09727573528748], [-4.1050761351510054, 51.09669998163358], [-4.099664092092265, 51.09956605848972], [-4.099140675575837, 51.09899866405982]]]}}, {"type": "Feature", "properties": {"type": "postcode-cell", "postcode": "EX31 4FX", "postcodes": ["EX31 4FX"]}, "geometry": {"type": "Polygon", "coordinates": [[[-4.109248048983822, 51.095113409258545], [-4.098078549323611, 51.09512057475526], [-4.094471108507418, 51.09374919127621], [-4.10607210287242, 51.09295174937861], [-4.106779989958229, 51.09321999503644], [-4.10720998995832, 51.093679995036815], [-4.112153129798093, 51.094335647832686], [-4.112122635730253, 51.09460395716904], [-4.109248048983822, 51.095113409258545]]]}}, {"type": "Feature", "properties": {"type": "postcode-cell", "postcode": "EX31 4AE", "postcodes": ["EX31 4AE"]}, "geometry": {"type": "Polygon", "coordinates": [[[-4.0997614880204045, 51.09727573528748], [-4.099140675575837, 51.09899866405982], [-4.097389076500951, 51.09787006504585], [-4.09824068156144, 51.09671596914665], [-4.0997614880204045, 51.09727573528748]]]}}, {"type": "Feature", "properties": {"type": "postcode-cell", "postcode": "EX31 4BW", "postcodes": ["EX31 4BW"]}, "geometry": {"type": "Polygon", "coordinates": [[[-4.09824068156144, 51.09671596914665], [-4.098078549323611, 51.09512057475526], [-4.109248048983822, 51.095113409258545], [-4.1050761351510054, 51.09669998163358], [-4.0997614880204045, 51.09727573528748], [-4.09824068156144, 51.09671596914665]]]}}, {"type": "Feature", "properties": {"type": "postcode-cell", "postcode": "EX31 4AU", "postcodes": ["EX31 4AU"]}, "geometry": {"type": "Polygon", "coordinates": [[[-4.094471108507418, 51.09374919127621], [-4.09295739579212, 51.09321602866108], [-4.1008350231320865, 51.08958451169789], [-4.101969989956286, 51.09019999503394], [-4.10487998995725, 51.09249999503582], [-4.10607210287242, 51.09295174937861], [-4.094471108507418, 51.09374919127621]]]}}, {"type": "Feature", "properties": {"type": "postcode-cell", "postcode": "EX31 4BS", "postcodes": ["EX31 4BS"]}, "geometry": {"type": "Polygon", "coordinates": [[[-4.09295739579212, 51.09321602866108], [-4.094471108507418, 51.09374919127621], [-4.098078549323611, 51.09512057475526], [-4.09824068156144, 51.09671596914665], [-4.097389076500951, 51.09787006504585], [-4.09617059136549, 51.09793897802807], [-4.0920889859039224, 51.09328956482918], [-4.09295739579212, 51.09321602866108]]]}}, {"type": "Feature", "properties": {"type": "postcode-cell", "postcode": "EX31 4BZ", "postcodes": ["EX31 4BZ"]}, "geometry": {"type": "Polygon", "coordinates": [[[-4.099149408894992, 51.10358560370895], [-4.097267070156894, 51.104769604391706], [-4.09208834135934, 51.09988900936265], [-4.091852722386675, 51.09931678035574], [-4.0953247697415796, 51.098555085894795], [-4.099121751096298, 51.10145932169866], [-4.099149408894992, 51.10358560370895]]]}}, {"type": "Feature", "properties": {"type": "postcode-cell", "postcode": "EX31 4BT", "postcodes": ["EX31 4BT"]}, "geometry": {"type": "Polygon", "coordinates": [[[-4.0953247697415796, 51.098555085894795], [-4.091852722386675, 51.09931678035574], [-4.08870225422964, 51.09702371616682], [-4.089089989944577, 51.09677999503943], [-4.087809989945192, 51.09342999503667], [-4.088255172884429, 51.093208265611565], [-4.0920889859039224, 51.09328956482918], [-4.09617059136549, 51.09793897802807], [-4.0953247697415796, 51.098555085894795]]]}}, {"type": "Feature", "properties": {"type": "postcode-cell", "postcode": "EX31 4DA", "postcodes": ["EX31 4DA"]}, "geometry": {"type": "Polygon", "coordinates": [[[-4.096309278544466, 51.106208056027185], [-4.085640041979257, 51.10343662004627], [-4.09208834135934, 51.09988900936265], [-4.097267070156894, 51.104769604391706], [-4.096309278544466, 51.106208056027185]]]}}, {"type": "Feature", "properties": {"type": "postcode-cell", "postcode": "EX31 4DL", "postcodes": ["EX31 4DL"]}, "geometry": {"type": "Polygon", "coordinates": [[[-4.091852722386675, 51.09931678035574], [-4.09208834135934, 51.09988900936265], [-4.085640041979257, 51.10343662004627], [-4.084122972088259, 51.10327130901179], [-4.086059989939756, 51.10298999504459], [-4.087649989941706, 51.10103999504297], [-4.088949989942945, 51.10024999504232], [-4.088389989943907, 51.097219995039794], [-4.08870225422964, 51.09702371616682], [-4.091852722386675, 51.09931678035574]]]}}]}