{"type": "FeatureCollection", "features": [{"type": "Feature", "properties": {"type": "ward-outline", "name": "Honiton St Paul's"}, "geometry": {"type": "Polygon", "coordinates": [[[-3.15688, 50.80125], [-3.16036, 50.79895], [-3.16168, 50.79757], [-3.16425, 50.79622], [-3.16667, 50.79393], [-3.16419, 50.79179], [-3.1656, 50.79096], [-3.16882, 50.79006], [-3.16985, 50.7892], [-3.17066, 50.78745], [-3.17047, 50.78583], [-3.17178, 50.78562], [-3.17088, 50.78455], [-3.17392, 50.7859], [-3.17567, 50.78763], [-3.17735, 50.78817], [-3.17741, 50.78949], [-3.18052, 50.79129], [-3.18167, 50.79319], [-3.18238, 50.79369], [-3.18779, 50.79308], [-3.1891, 50.79349], [-3.18848, 50.79417], [-3.18838, 50.79554], [-3.18616, 50.79615], [-3.18642, 50.79694], [-3.18907, 50.79965], [-3.19904, 50.79678], [-3.20524, 50.79945], [-3.20445, 50.80061], [-3.20454, 50.80131], [-3.20488, 50.80131], [-3.20446, 50.80188], [-3.20508, 50.8024], [-3.20507, 50.80293], [-3.20412, 50.80313], [-3.20464, 50.80332], [-3.20124, 50.80527], [-3.19638, 50.80513], [-3.19577, 50.80466], [-3.19587, 50.80413], [-3.1946, 50.80365], [-3.19238, 50.80391], [-3.19086, 50.80449], [-3.18979, 50.8039], [-3.18793, 50.80441], [-3.18736, 50.80403], [-3.18669, 50.80405], [-3.18603, 50.80482], [-3.18618, 50.80519], [-3.18521, 50.80551], [-3.1848, 50.80624], [-3.18234, 50.80759], [-3.18057, 50.8096], [-3.17936, 50.8096], [-3.17832, 50.8108], [-3.17563, 50.81208], [-3.17556, 50.81241], [-3.17455, 50.81249], [-3.17429, 50.81291], [-3.17479, 50.8137], [-3.17336, 50.81427], [-3.17081, 50.81371], [-3.16723, 50.81012], [-3.16509, 50.80892], [-3.16319, 50.80706], [-3.16123, 50.80738], [-3.15548, 50.80692], [-3.15328, 50.80594], [-3.15516, 50.80268], [-3.15688, 50.80125]]]}}, {"type": "Feature", "properties": {"type": "postcode-cell", "postcode": "EX14 1ER", "postcodes": ["EX14 1ER"]}, "geometry": {"type": "Polygon", "coordinates": [[[-3.2007351315936354, 50.799591801143336], [-3.200754596290507, 50.7995809155381], [-3.205134230101304, 50.799605290705436], [-3.204834340001239, 50.800045639823225], [-3.2013310927809884, 50.80010954607286], [-3.2007351315936354, 50.799591801143336]]]}}, {"type": "Feature", "properties": {"type": "postcode-cell", "postcode": "EX14 1EZ", "postcodes": ["EX14 1EZ"]}, "geometry": {"type": "Polygon", "coordinates": [[[-3.2013310927809884, 50.80010954607286], [-3.200235534230099, 50.80104325377015], [-3.1991535719675506, 50.800360437819336], [-3.2006910983050627, 50.79959552987018], [-3.2007351315936354, 50.799591801143336], [-3.2013310927809884, 50.80010954607286]]]}}, {"type": "Feature", "properties": {"type": "postcode-cell", "postcode": "EX14 1EQ", "postcodes": ["EX14 1EQ"]}, "geometry": {"type": "Polygon", "coordinates": [[[-3.200754596290507, 50.7995809155381], [-3.20199957132846, 50.79805460406264], [-3.2052399895078776, 50.79944999480821], [-3.205134230101304, 50.799605290705436], [-3.200754596290507, 50.7995809155381]]]}}, {"type": "Feature", "properties": {"type": "postcode-cell", "postcode": "EX14 1AW", "postcodes": ["EX14 1AW"]}, "geometry": {"type": "Polygon", "coordinates": [[[-3.19973718502925, 50.79837840215952], [-3.1990996429167877, 50.79823858243968], [-3.1990222718836008, 50.79819574777648], [-3.1988102448533784, 50.79773337444305], [-3.1993821137021925, 50.796927345584386], [-3.2017352071139644, 50.79794075569571], [-3.19973718502925, 50.79837840215952]]]}}, {"type": "Feature", "properties": {"type": "postcode-cell", "postcode": "EX14 1AR", "postcodes": ["EX14 1AR"]}, "geometry": {"type": "Polygon", "coordinates": [[[-3.200957125244223, 50.80190114529207], [-3.200235534230099, 50.80104325377015], [-3.2013310927809884, 50.80010954607286], [-3.204834340001239, 50.800045639823225], [-3.204449989506829, 50.80060999480914], [-3.204539989506543, 50.80130999480968], [-3.2048799895067535, 50.801309994809685], [-3.2044599895062165, 50.801879994810136], [-3.205079989506347, 50.80239999481052], [-3.2050699895060832, 50.80292999481095], [-3.204693425169254, 50.80300927264043], [-3.200957125244223, 50.80190114529207]]]}}, {"type": "Feature", "properties": {"type": "postcode-cell", "postcode": "EX14 1EN", "postcodes": ["EX14 1EN"]}, "geometry": {"type": "Polygon", "coordinates": [[[-3.2007351315936354, 50.799591801143336], [-3.2006910983050627, 50.79959552987018], [-3.199705483600988, 50.798857807904525], [-3.19973718502925, 50.79837840215952], [-3.2017352071139644, 50.79794075569571], [-3.20199957132846, 50.79805460406264], [-3.200754596290507, 50.7995809155381], [-3.2007351315936354, 50.799591801143336]]]}}, {"type": "Feature", "properties": {"type": "postcode-cell", "postcode": "EX14 3FA", "postcodes": ["EX14 3FA"]}, "geometry": {"type": "Polygon", "coordinates": [[[-3.197538841731439, 50.803248756130195], [-3.199192955897441, 50.802234985453524], [-3.200957125244223, 50.80190114529207], [-3.204693425169254, 50.80300927264043], [-3.2041199895053993, 50.80312999481113], [-3.2046399895056283, 50.803319994811254], [-3.2012399895025796, 50.805269994812825], [-3.196444401332715, 50.80513185162784], [-3.197538841731439, 50.803248756130195]]]}}, {"type": "Feature", "properties": {"type": "postcode-cell", "postcode": "EX14 1UF", "postcodes": ["EX14 1UF"]}, "geometry": {"type": "Polygon", "coordinates": [[[-3.200957125244223, 50.80190114529207], [-3.199192955897441, 50.802234985453524], [-3.1976955488557204, 50.80131678769689], [-3.1977375790313802, 50.8012387825689], [-3.1989723424912566, 50.800315776553006], [-3.1991535719675506, 50.800360437819336], [-3.200235534230099, 50.80104325377015], [-3.200957125244223, 50.80190114529207]]]}}, {"type": "Feature", "properties": {"type": "postcode-cell", "postcode": "EX14 1BW", "postcodes": ["EX14 1BW"]}, "geometry": {"type": "Polygon", "coordinates": [[[-3.199705483600988, 50.798857807904525], [-3.198689038798509, 50.80007054952672], [-3.1985249148042327, 50.800008891000054], [-3.197954837309651, 50.79931012865015], [-3.1990996429167877, 50.79823858243968], [-3.19973718502925, 50.79837840215952], [-3.199705483600988, 50.798857807904525]]]}}, {"type": "Feature", "properties": {"type": "postcode-cell", "postcode": "EX14 1EP", "postcodes": ["EX14 1EP"]}, "geometry": {"type": "Polygon", "coordinates": [[[-3.199705483600988, 50.798857807904525], [-3.2006910983050627, 50.79959552987018], [-3.1991535719675506, 50.800360437819336], [-3.1989723424912566, 50.800315776553006], [-3.198689038798509, 50.80007054952672], [-3.199705483600988, 50.798857807904525]]]}}, {"type": "Feature", "properties": {"type": "postcode-cell", "postcode": "EX14 2AA", "postcodes": ["EX14 2AA"]}, "geometry": {"type": "Polygon", "coordinates": [[[-3.1874428830152968, 50.79382807465919], [-3.186504958122863, 50.793224911557225], [-3.187789989500203, 50.79307999480348], [-3.18883574530339, 50.793407294193656], [-3.1874428830152968, 50.79382807465919]]]}}, {"type": "Feature", "properties": {"type": "postcode-cell", "postcode": "EX14 1AN", "postcodes": ["EX14 1AN"]}, "geometry": {"type": "Polygon", "coordinates": [[[-3.1988102448533784, 50.79773337444305], [-3.1975087397821276, 50.79722086385949], [-3.1990399895053456, 50.7967799948062], [-3.1993821137021925, 50.796927345584386], [-3.1988102448533784, 50.79773337444305]]]}}, {"type": "Feature", "properties": {"type": "postcode-cell", "postcode": "EX14 1NB", "postcodes": ["EX14 1NB"]}, "geometry": {"type": "Polygon", "coordinates": [[[-3.1969483870544533, 50.80204821854921], [-3.1973363339071925, 50.801463890999464], [-3.1976955488557204, 50.80131678769689], [-3.199192955897441, 50.802234985453524], [-3.197538841731439, 50.803248756130195], [-3.1969483870544533, 50.80204821854921]]]}}, {"type": "Feature", "properties": {"type": "postcode-cell", "postcode": "EX14 1NS", "postcodes": ["EX14 1NS"]}, "geometry": {"type": "Polygon", "coordinates": [[[-3.197538841731439, 50.803248756130195], [-3.196444401332715, 50.80513185162784], [-3.196379989499643, 50.80512999481279], [-3.195769989499496, 50.804659994812425], [-3.195869989499815, 50.80412999481204], [-3.19537576510875, 50.80394320417294], [-3.1957378036998003, 50.802079865319556], [-3.1962367325199206, 50.80194721320294], [-3.1969483870544533, 50.80204821854921], [-3.197538841731439, 50.803248756130195]]]}}, {"type": "Feature", "properties": {"type": "postcode-cell", "postcode": "EX14 1EL", "postcodes": ["EX14 1EL"]}, "geometry": {"type": "Polygon", "coordinates": [[[-3.197954837309651, 50.79931012865015], [-3.1976069876503965, 50.799174111800156], [-3.197146261504701, 50.7988692125105], [-3.197152026788525, 50.79842745619051], [-3.197367318411301, 50.798298478361076], [-3.1990222718836008, 50.79819574777648], [-3.1990996429167877, 50.79823858243968], [-3.197954837309651, 50.79931012865015]]]}}, {"type": "Feature", "properties": {"type": "postcode-cell", "postcode": "EX14 1TD", "postcodes": ["EX14 1TD"]}, "geometry": {"type": "Polygon", "coordinates": [[[-3.1977375790313802, 50.8012387825689], [-3.1968146591798985, 50.80062666108217], [-3.1968034272505994, 50.80019033946609], [-3.196840624237569, 50.800157818732906], [-3.1985249148042327, 50.800008891000054], [-3.198689038798509, 50.80007054952672], [-3.1989723424912566, 50.800315776553006], [-3.1977375790313802, 50.8012387825689]]]}}, {"type": "Feature", "properties": {"type": "postcode-cell", "postcode": "EX14 1XH", "postcodes": ["EX14 1XH"]}, "geometry": {"type": "Polygon", "coordinates": [[[-3.1985249148042327, 50.800008891000054], [-3.196840624237569, 50.800157818732906], [-3.1965105107153238, 50.799764854553665], [-3.1976069876503965, 50.799174111800156], [-3.197954837309651, 50.79931012865015], [-3.1985249148042327, 50.800008891000054]]]}}, {"type": "Feature", "properties": {"type": "postcode-cell", "postcode": "EX14 1BH", "postcodes": ["EX14 1BH"]}, "geometry": {"type": "Polygon", "coordinates": [[[-3.1990222718836008, 50.79819574777648], [-3.197367318411301, 50.798298478361076], [-3.1972585637043758, 50.79729289049813], [-3.1975087397821276, 50.79722086385949], [-3.1988102448533784, 50.79773337444305], [-3.1990222718836008, 50.79819574777648]]]}}, {"type": "Feature", "properties": {"type": "postcode-cell", "postcode": "EX14 1BP", "postcodes": ["EX14 1BP"]}, "geometry": {"type": "Polygon", "coordinates": [[[-3.197367318411301, 50.798298478361076], [-3.197152026788525, 50.79842745619051], [-3.196136715713163, 50.79819160090508], [-3.196050114815171, 50.79764079686046], [-3.1972585637043758, 50.79729289049813], [-3.197367318411301, 50.798298478361076]]]}}, {"type": "Feature", "properties": {"type": "postcode-cell", "postcode": "EX14 1ND", "postcodes": ["EX14 1ND"]}, "geometry": {"type": "Polygon", "coordinates": [[[-3.1969483870544533, 50.80204821854921], [-3.1962367325199206, 50.80194721320294], [-3.1959257071856615, 50.80134993027086], [-3.1961569524558695, 50.801168341235105], [-3.1973363339071925, 50.801463890999464], [-3.1969483870544533, 50.80204821854921]]]}}, {"type": "Feature", "properties": {"type": "postcode-cell", "postcode": "EX14 1NA", "postcodes": ["EX14 1NA"]}, "geometry": {"type": "Polygon", "coordinates": [[[-3.1977375790313802, 50.8012387825689], [-3.1976955488557204, 50.80131678769689], [-3.1973363339071925, 50.801463890999464], [-3.1961569524558695, 50.801168341235105], [-3.1961323588278217, 50.80107246683307], [-3.1968146591798985, 50.80062666108217], [-3.1977375790313802, 50.8012387825689]]]}}, {"type": "Feature", "properties": {"type": "postcode-cell", "postcode": "EX14 1LZ", "postcodes": ["EX14 1LZ"]}, "geometry": {"type": "Polygon", "coordinates": [[[-3.1968146591798985, 50.80062666108217], [-3.1961323588278217, 50.80107246683307], [-3.1958215711064555, 50.80084405341609], [-3.195788185174089, 50.800389141509015], [-3.1968034272505994, 50.80019033946609], [-3.1968146591798985, 50.80062666108217]]]}}, {"type": "Feature", "properties": {"type": "postcode-cell", "postcode": "EX14 1YB", "postcodes": ["EX14 1YB"]}, "geometry": {"type": "Polygon", "coordinates": [[[-3.1976069876503965, 50.799174111800156], [-3.1965105107153238, 50.799764854553665], [-3.1957432962400025, 50.7993094001065], [-3.197146261504701, 50.7988692125105], [-3.1976069876503965, 50.799174111800156]]]}}, {"type": "Feature", "properties": {"type": "postcode-cell", "postcode": "EX14 1XJ", "postcodes": ["EX14 1XJ"]}, "geometry": {"type": "Polygon", "coordinates": [[[-3.196840624237569, 50.800157818732906], [-3.1968034272505994, 50.80019033946609], [-3.195788185174089, 50.800389141509015], [-3.195366257674201, 50.80022876886773], [-3.1949217751335452, 50.799549152708764], [-3.1950411778442627, 50.799326517912476], [-3.1951414612144378, 50.799250031618], [-3.1957432962400025, 50.7993094001065], [-3.1965105107153238, 50.799764854553665], [-3.196840624237569, 50.800157818732906]]]}}, {"type": "Feature", "properties": {"type": "postcode-cell", "postcode": "EX14 1AH", "postcodes": ["EX14 1AH"]}, "geometry": {"type": "Polygon", "coordinates": [[[-3.196136715713163, 50.79819160090508], [-3.195457222526032, 50.798513328261116], [-3.195196712989605, 50.79830735920874], [-3.194991916063282, 50.79794543248282], [-3.196050114815171, 50.79764079686046], [-3.196136715713163, 50.79819160090508]]]}}, {"type": "Feature", "properties": {"type": "postcode-cell", "postcode": "EX14 1YA", "postcodes": ["EX14 1YA"]}, "geometry": {"type": "Polygon", "coordinates": [[[-3.197146261504701, 50.7988692125105], [-3.1957432962400025, 50.7993094001065], [-3.1951414612144378, 50.799250031618], [-3.1951309965966566, 50.79919182878893], [-3.195457222526032, 50.798513328261116], [-3.196136715713163, 50.79819160090508], [-3.197152026788525, 50.79842745619051], [-3.197146261504701, 50.7988692125105]]]}}, {"type": "Feature", "properties": {"type": "postcode-cell", "postcode": "EX14 1NE", "postcodes": ["EX14 1NE"]}, "geometry": {"type": "Polygon", "coordinates": [[[-3.1962367325199206, 50.80194721320294], [-3.1957378036998003, 50.802079865319556], [-3.19463389624807, 50.80162174600526], [-3.1959257071856615, 50.80134993027086], [-3.1962367325199206, 50.80194721320294]]]}}, {"type": "Feature", "properties": {"type": "postcode-cell", "postcode": "EX14 1LD", "postcodes": ["EX14 1LD"]}, "geometry": {"type": "Polygon", "coordinates": [[[-3.195457222526032, 50.798513328261116], [-3.1951309965966566, 50.79919182878893], [-3.1942406749363457, 50.798635908122705], [-3.194503754323032, 50.79823291188705], [-3.195196712989605, 50.79830735920874], [-3.195457222526032, 50.798513328261116]]]}}, {"type": "Feature", "properties": {"type": "postcode-cell", "postcode": "EX14 1NG", "postcodes": ["EX14 1NG"]}, "geometry": {"type": "Polygon", "coordinates": [[[-3.1961569524558695, 50.801168341235105], [-3.1959257071856615, 50.80134993027086], [-3.19463389624807, 50.80162174600526], [-3.1945007294375833, 50.80161241590995], [-3.1948249319435287, 50.8009462047265], [-3.1958215711064555, 50.80084405341609], [-3.1961323588278217, 50.80107246683307], [-3.1961569524558695, 50.801168341235105]]]}}, {"type": "Feature", "properties": {"type": "postcode-cell", "postcode": "EX14 1NF", "postcodes": ["EX14 1NF"]}, "geometry": {"type": "Polygon", "coordinates": [[[-3.1936898645182716, 50.80186458141447], [-3.1945007294375833, 50.80161241590995], [-3.19463389624807, 50.80162174600526], [-3.1957378036998003, 50.802079865319556], [-3.19537576510875, 50.80394320417294], [-3.194599989499263, 50.803649994811686], [-3.1936566058424387, 50.803760486691516], [-3.1936898645182716, 50.80186458141447]]]}}, {"type": "Feature", "properties": {"type": "postcode-cell", "postcode": "EX14 1LY", "postcodes": ["EX14 1LY"]}, "geometry": {"type": "Polygon", "coordinates": [[[-3.1958215711064555, 50.80084405341609], [-3.1948249319435287, 50.8009462047265], [-3.1947352808663356, 50.800718180024006], [-3.195366257674201, 50.80022876886773], [-3.195788185174089, 50.800389141509015], [-3.1958215711064555, 50.80084405341609]]]}}, {"type": "Feature", "properties": {"type": "postcode-cell", "postcode": "EX14 2DD", "postcodes": ["EX14 2DD"]}, "geometry": {"type": "Polygon", "coordinates": [[[-3.187504510128236, 50.79413938175968], [-3.1874428830152968, 50.79382807465919], [-3.18883574530339, 50.793407294193656], [-3.189099989500811, 50.79348999480378], [-3.1884799895000975, 50.79416999480433], [-3.1884700451350083, 50.79430623579382], [-3.187504510128236, 50.79413938175968]]]}}, {"type": "Feature", "properties": {"type": "postcode-cell", "postcode": "EX14 1LX", "postcodes": ["EX14 1LX"]}, "geometry": {"type": "Polygon", "coordinates": [[[-3.1945505655381785, 50.80064485739215], [-3.1944706050275573, 50.79977245289343], [-3.1949217751335452, 50.799549152708764], [-3.195366257674201, 50.80022876886773], [-3.1947352808663356, 50.800718180024006], [-3.1945505655381785, 50.80064485739215]]]}}, {"type": "Feature", "properties": {"type": "postcode-cell", "postcode": "EX14 1NQ", "postcodes": ["EX14 1NQ"]}, "geometry": {"type": "Polygon", "coordinates": [[[-3.1947352808663356, 50.800718180024006], [-3.1948249319435287, 50.8009462047265], [-3.1945007294375833, 50.80161241590995], [-3.1936898645182716, 50.80186458141447], [-3.193109365861716, 50.8015131043615], [-3.1934332887625083, 50.800479916136865], [-3.1945505655381785, 50.80064485739215], [-3.1947352808663356, 50.800718180024006]]]}}, {"type": "Feature", "properties": {"type": "postcode-cell", "postcode": "EX14 1QW", "postcodes": ["EX14 1QW"]}, "geometry": {"type": "Polygon", "coordinates": [[[-3.1898389813279695, 50.80330621883155], [-3.192004792724951, 50.80144110289876], [-3.1922943242782145, 50.80142966227864], [-3.193109365861716, 50.8015131043615], [-3.1936898645182716, 50.80186458141447], [-3.1936566058424387, 50.803760486691516], [-3.1923799894977676, 50.8039099948119], [-3.1908599894965444, 50.804489994812386], [-3.189789989496171, 50.80389999481193], [-3.189766281839136, 50.80390649555425], [-3.1898389813279695, 50.80330621883155]]]}}, {"type": "Feature", "properties": {"type": "postcode-cell", "postcode": "EX14 1NJ", "postcodes": ["EX14 1NJ"]}, "geometry": {"type": "Polygon", "coordinates": [[[-3.193109365861716, 50.8015131043615], [-3.1922943242782145, 50.80142966227864], [-3.1922056634001397, 50.80002320991063], [-3.1922687733317456, 50.79990123257481], [-3.1927441311097158, 50.79993800328785], [-3.193304590833196, 50.80016112617634], [-3.1934332887625083, 50.800479916136865], [-3.193109365861716, 50.8015131043615]]]}}, {"type": "Feature", "properties": {"type": "postcode-cell", "postcode": "EX14 1LB", "postcodes": ["EX14 1LB"]}, "geometry": {"type": "Polygon", "coordinates": [[[-3.195196712989605, 50.79830735920874], [-3.194503754323032, 50.79823291188705], [-3.1943901260159793, 50.79811867054753], [-3.194991916063282, 50.79794543248282], [-3.195196712989605, 50.79830735920874]]]}}, {"type": "Feature", "properties": {"type": "postcode-cell", "postcode": "EX14 1LU", "postcodes": ["EX14 1LU"]}, "geometry": {"type": "Polygon", "coordinates": [[[-3.1949217751335452, 50.799549152708764], [-3.1944706050275573, 50.79977245289343], [-3.193304590833196, 50.80016112617634], [-3.1927441311097158, 50.79993800328785], [-3.193401003975791, 50.799151139172686], [-3.1950411778442627, 50.799326517912476], [-3.1949217751335452, 50.799549152708764]]]}}, {"type": "Feature", "properties": {"type": "postcode-cell", "postcode": "EX14 1NR", "postcodes": ["EX14 1NR"]}, "geometry": {"type": "Polygon", "coordinates": [[[-3.1951414612144378, 50.799250031618], [-3.1950411778442627, 50.799326517912476], [-3.193401003975791, 50.799151139172686], [-3.193296613591327, 50.79902560458886], [-3.1933008744909603, 50.79900896294452], [-3.193536133096837, 50.79874966077535], [-3.1941675741203377, 50.798613277510576], [-3.1942406749363457, 50.798635908122705], [-3.1951309965966566, 50.79919182878893], [-3.1951414612144378, 50.799250031618]]]}}, {"type": "Feature", "properties": {"type": "postcode-cell", "postcode": "EX14 1LE", "postcodes": ["EX14 1LE"]}, "geometry": {"type": "Polygon", "coordinates": [[[-3.194503754323032, 50.79823291188705], [-3.1942406749363457, 50.798635908122705], [-3.1941675741203377, 50.798613277510576], [-3.1938290257062176, 50.79828019126674], [-3.1943901260159793, 50.79811867054753], [-3.194503754323032, 50.79823291188705]]]}}, {"type": "Feature", "properties": {"type": "postcode-cell", "postcode": "EX14 1FQ", "postcodes": ["EX14 1FQ"]}, "geometry": {"type": "Polygon", "coordinates": [[[-3.1945505655381785, 50.80064485739215], [-3.1934332887625083, 50.800479916136865], [-3.193304590833196, 50.80016112617634], [-3.1944706050275573, 50.79977245289343], [-3.1945505655381785, 50.80064485739215]]]}}, {"type": "Feature", "properties": {"type": "postcode-cell", "postcode": "EX14 2NY", "postcodes": ["EX14 2NY"]}, "geometry": {"type": "Polygon", "coordinates": [[[-3.1871842154369525, 50.794512225115156], [-3.187504510128236, 50.79413938175968], [-3.1884700451350083, 50.79430623579382], [-3.18837998949937, 50.79553999480541], [-3.1878733639155685, 50.79567920784078], [-3.1871842154369525, 50.794512225115156]]]}}, {"type": "Feature", "properties": {"type": "postcode-cell", "postcode": "EX14 1LF", "postcodes": ["EX14 1LF"]}, "geometry": {"type": "Polygon", "coordinates": [[[-3.193514801615708, 50.798717303165944], [-3.193179752291023, 50.79846708912658], [-3.193594381786985, 50.79834773573513], [-3.193514801615708, 50.798717303165944]]]}}, {"type": "Feature", "properties": {"type": "postcode-cell", "postcode": "EX14 1LG", "postcodes": ["EX14 1LG"]}, "geometry": {"type": "Polygon", "coordinates": [[[-3.193536133096837, 50.79874966077535], [-3.193514801615708, 50.798717303165944], [-3.193594381786985, 50.79834773573513], [-3.1938290257062176, 50.79828019126674], [-3.1941675741203377, 50.798613277510576], [-3.193536133096837, 50.79874966077535]]]}}, {"type": "Feature", "properties": {"type": "postcode-cell", "postcode": "EX14 1LT", "postcodes": ["EX14 1LT"]}, "geometry": {"type": "Polygon", "coordinates": [[[-3.193401003975791, 50.799151139172686], [-3.1927441311097158, 50.79993800328785], [-3.1922687733317456, 50.79990123257481], [-3.1921291801177802, 50.79983398529577], [-3.1920663234038065, 50.799686258683955], [-3.1921023208891945, 50.799468893410136], [-3.1922621830121813, 50.799190577024945], [-3.1929585409747703, 50.79900282137328], [-3.193296613591327, 50.79902560458886], [-3.193401003975791, 50.799151139172686]]]}}, {"type": "Feature", "properties": {"type": "postcode-cell", "postcode": "EX14 1LQ", "postcodes": ["EX14 1LQ"]}, "geometry": {"type": "Polygon", "coordinates": [[[-3.193536133096837, 50.79874966077535], [-3.1933008744909603, 50.79900896294452], [-3.1929048294854687, 50.79854622603083], [-3.193179752291023, 50.79846708912658], [-3.193514801615708, 50.798717303165944], [-3.193536133096837, 50.79874966077535]]]}}, {"type": "Feature", "properties": {"type": "postcode-cell", "postcode": "EX14 1LH", "postcodes": ["EX14 1LH"]}, "geometry": {"type": "Polygon", "coordinates": [[[-3.1933008744909603, 50.79900896294452], [-3.193296613591327, 50.79902560458886], [-3.1929585409747703, 50.79900282137328], [-3.192475423746461, 50.79866982923222], [-3.1929048294854687, 50.79854622603083], [-3.1933008744909603, 50.79900896294452]]]}}, {"type": "Feature", "properties": {"type": "postcode-cell", "postcode": "EX14 1LJ", "postcodes": ["EX14 1LJ"]}, "geometry": {"type": "Polygon", "coordinates": [[[-3.1922621830121813, 50.799190577024945], [-3.1921023208891945, 50.799468893410136], [-3.191537678240593, 50.79893974882762], [-3.1921760648684026, 50.79875599750345], [-3.1922621830121813, 50.799190577024945]]]}}, {"type": "Feature", "properties": {"type": "postcode-cell", "postcode": "EX14 1DL", "postcodes": ["EX14 1DL"]}, "geometry": {"type": "Polygon", "coordinates": [[[-3.1922621830121813, 50.799190577024945], [-3.1921760648684026, 50.79875599750345], [-3.192475423746461, 50.79866982923222], [-3.1929585409747703, 50.79900282137328], [-3.1922621830121813, 50.799190577024945]]]}}, {"type": "Feature", "properties": {"type": "postcode-cell", "postcode": "EX14 1NL", "postcodes": ["EX14 1NL"]}, "geometry": {"type": "Polygon", "coordinates": [[[-3.1922056634001397, 50.80002320991063], [-3.1911595925506018, 50.80101889921968], [-3.190854807166275, 50.80096082775435], [-3.1906984101805156, 50.80080886440086], [-3.1908334149628366, 50.80023394151049], [-3.1909751985345256, 50.80010499635098], [-3.1916641443050193, 50.799897980489014], [-3.1921291801177802, 50.79983398529577], [-3.1922687733317456, 50.79990123257481], [-3.1922056634001397, 50.80002320991063]]]}}, {"type": "Feature", "properties": {"type": "postcode-cell", "postcode": "EX14 1NH", "postcodes": ["EX14 1NH"]}, "geometry": {"type": "Polygon", "coordinates": [[[-3.1922943242782145, 50.80142966227864], [-3.192004792724951, 50.80144110289876], [-3.1911595925506018, 50.80101889921968], [-3.1922056634001397, 50.80002320991063], [-3.1922943242782145, 50.80142966227864]]]}}, {"type": "Feature", "properties": {"type": "postcode-cell", "postcode": "EX14 1QR", "postcodes": ["EX14 1QR"]}, "geometry": {"type": "Polygon", "coordinates": [[[-3.185340731019631, 50.80472005115169], [-3.185193089295531, 50.80323723491023], [-3.185696229385023, 50.80247125618384], [-3.1858527585706007, 50.8024368892104], [-3.186863669931302, 50.802402576929886], [-3.189390409782863, 50.80400956041927], [-3.1879299894947764, 50.80440999481237], [-3.1873599894946096, 50.804029994812055], [-3.186689989494185, 50.8040499948121], [-3.1860299894934037, 50.8048199948127], [-3.186179989493316, 50.80518999481301], [-3.185892549787008, 50.805284821575796], [-3.185340731019631, 50.80472005115169]]]}}, {"type": "Feature", "properties": {"type": "postcode-cell", "postcode": "EX14 1NN", "postcodes": ["EX14 1NN"]}, "geometry": {"type": "Polygon", "coordinates": [[[-3.1908334149628366, 50.80023394151049], [-3.1899588897913334, 50.800074001975354], [-3.1900348586788927, 50.79983937789944], [-3.1902922912125935, 50.79968679452869], [-3.1904011346133765, 50.79968891955472], [-3.1909751985345256, 50.80010499635098], [-3.1908334149628366, 50.80023394151049]]]}}, {"type": "Feature", "properties": {"type": "postcode-cell", "postcode": "EX14 1LW", "postcodes": ["EX14 1LW"]}, "geometry": {"type": "Polygon", "coordinates": [[[-3.1912304412604353, 50.799155391559914], [-3.1909139539287605, 50.79938505619575], [-3.1907629548128766, 50.799402071478866], [-3.190617179663163, 50.79920469376117], [-3.1911748503962207, 50.79904418193138], [-3.1912304412604353, 50.799155391559914]]]}}, {"type": "Feature", "properties": {"type": "postcode-cell", "postcode": "EX14 1EX", "postcodes": ["EX14 1EX"]}, "geometry": {"type": "Polygon", "coordinates": [[[-3.188035568368434, 50.79894467950824], [-3.1877731755221297, 50.79874582077935], [-3.187840114849561, 50.79849617048778], [-3.187913746791176, 50.79846761959162], [-3.188304541820409, 50.798867255135754], [-3.188035568368434, 50.79894467950824]]]}}, {"type": "Feature", "properties": {"type": "postcode-cell", "postcode": "EX14 1DJ", "postcodes": ["EX14 1DJ"]}, "geometry": {"type": "Polygon", "coordinates": [[[-3.1920663234038065, 50.799686258683955], [-3.1917146224084503, 50.7995221441683], [-3.1912304412604353, 50.799155391559914], [-3.1911748503962207, 50.79904418193138], [-3.191537678240593, 50.79893974882762], [-3.1921023208891945, 50.799468893410136], [-3.1920663234038065, 50.799686258683955]]]}}, {"type": "Feature", "properties": {"type": "postcode-cell", "postcode": "EX14 1QT", "postcodes": ["EX14 1QT"]}, "geometry": {"type": "Polygon", "coordinates": [[[-3.1911595925506018, 50.80101889921968], [-3.192004792724951, 50.80144110289876], [-3.1898389813279695, 50.80330621883155], [-3.1894136990406188, 50.80206890392878], [-3.1895421415233227, 50.80184655692519], [-3.190854807166275, 50.80096082775435], [-3.1911595925506018, 50.80101889921968]]]}}, {"type": "Feature", "properties": {"type": "postcode-cell", "postcode": "EX14 1LP", "postcodes": ["EX14 1LP"]}, "geometry": {"type": "Polygon", "coordinates": [[[-3.1920663234038065, 50.799686258683955], [-3.1921291801177802, 50.79983398529577], [-3.1916641443050193, 50.799897980489014], [-3.190712371231361, 50.79951938939944], [-3.1907629548128766, 50.799402071478866], [-3.1909139539287605, 50.79938505619575], [-3.1917146224084503, 50.7995221441683], [-3.1920663234038065, 50.799686258683955]]]}}, {"type": "Feature", "properties": {"type": "postcode-cell", "postcode": "EX14 1LN", "postcodes": ["EX14 1LN"]}, "geometry": {"type": "Polygon", "coordinates": [[[-3.1917146224084503, 50.7995221441683], [-3.1909139539287605, 50.79938505619575], [-3.1912304412604353, 50.799155391559914], [-3.1917146224084503, 50.7995221441683]]]}}, {"type": "Feature", "properties": {"type": "postcode-cell", "postcode": "EX14 1HR", "postcodes": ["EX14 1HR"]}, "geometry": {"type": "Polygon", "coordinates": [[[-3.190712371231361, 50.79951938939944], [-3.1904011346133765, 50.79968891955472], [-3.1902922912125935, 50.79968679452869], [-3.1900193616683286, 50.79937675682483], [-3.190617179663163, 50.79920469376117], [-3.1907629548128766, 50.799402071478866], [-3.190712371231361, 50.79951938939944]]]}}, {"type": "Feature", "properties": {"type": "postcode-cell", "postcode": "EX14 1EY", "postcodes": ["EX14 1EY"]}, "geometry": {"type": "Polygon", "coordinates": [[[-3.188213805086586, 50.79937011667808], [-3.187986132071563, 50.799308962694326], [-3.1879506603752965, 50.79905315963498], [-3.188035568368434, 50.79894467950824], [-3.188304541820409, 50.798867255135754], [-3.1886862368565887, 50.79925757687769], [-3.188213805086586, 50.79937011667808]]]}}, {"type": "Feature", "properties": {"type": "postcode-cell", "postcode": "EX14 1LR", "postcodes": ["EX14 1LR"]}, "geometry": {"type": "Polygon", "coordinates": [[[-3.1904011346133765, 50.79968891955472], [-3.190712371231361, 50.79951938939944], [-3.1916641443050193, 50.799897980489014], [-3.1909751985345256, 50.80010499635098], [-3.1904011346133765, 50.79968891955472]]]}}, {"type": "Feature", "properties": {"type": "postcode-cell", "postcode": "EX14 1QF", "postcodes": ["EX14 1QF"]}, "geometry": {"type": "Polygon", "coordinates": [[[-3.1898389813279695, 50.80330621883155], [-3.189766281839136, 50.80390649555425], [-3.189390409782863, 50.80400956041927], [-3.186863669931302, 50.802402576929886], [-3.186892111809002, 50.80229486119395], [-3.188271349157576, 50.80154598821798], [-3.1894136990406188, 50.80206890392878], [-3.1898389813279695, 50.80330621883155]]]}}, {"type": "Feature", "properties": {"type": "postcode-cell", "postcode": "EX14 1EG", "postcodes": ["EX14 1EG"]}, "geometry": {"type": "Polygon", "coordinates": [[[-3.189838175885675, 50.80014484015141], [-3.1899588897913334, 50.800074001975354], [-3.1908334149628366, 50.80023394151049], [-3.1906984101805156, 50.80080886440086], [-3.1902513798943755, 50.80071261156593], [-3.189838175885675, 50.80014484015141]]]}}, {"type": "Feature", "properties": {"type": "postcode-cell", "postcode": "EX14 1NP", "postcodes": ["EX14 1NP"]}, "geometry": {"type": "Polygon", "coordinates": [[[-3.1902513798943755, 50.80071261156593], [-3.1895435917789094, 50.80075383543531], [-3.189281532023527, 50.80048396930706], [-3.1896693041846937, 50.80016188549651], [-3.189838175885675, 50.80014484015141], [-3.1902513798943755, 50.80071261156593]]]}}, {"type": "Feature", "properties": {"type": "postcode-cell", "postcode": "EX14 1LS", "postcodes": ["EX14 1LS"]}, "geometry": {"type": "Polygon", "coordinates": [[[-3.1900348586788927, 50.79983937789944], [-3.189893036167, 50.79979330883803], [-3.189693840022459, 50.79947044615418], [-3.1900193616683286, 50.79937675682483], [-3.1902922912125935, 50.79968679452869], [-3.1900348586788927, 50.79983937789944]]]}}, {"type": "Feature", "properties": {"type": "postcode-cell", "postcode": "EX14 1FD", "postcodes": ["EX14 1FD"]}, "geometry": {"type": "Polygon", "coordinates": [[[-3.1906984101805156, 50.80080886440086], [-3.190854807166275, 50.80096082775435], [-3.1895421415233227, 50.80184655692519], [-3.189319334812709, 50.80101007098666], [-3.1895435917789094, 50.80075383543531], [-3.1902513798943755, 50.80071261156593], [-3.1906984101805156, 50.80080886440086]]]}}, {"type": "Feature", "properties": {"type": "postcode-cell", "postcode": "EX14 1HS", "postcodes": ["EX14 1HS"]}, "geometry": {"type": "Polygon", "coordinates": [[[-3.189893036167, 50.79979330883803], [-3.1891958688273996, 50.79967052295841], [-3.1891542161601225, 50.79962575404557], [-3.189693840022459, 50.79947044615418], [-3.189893036167, 50.79979330883803]]]}}, {"type": "Feature", "properties": {"type": "postcode-cell", "postcode": "EX14 1HT", "postcodes": ["EX14 1HT"]}, "geometry": {"type": "Polygon", "coordinates": [[[-3.189838175885675, 50.80014484015141], [-3.1896693041846937, 50.80016188549651], [-3.189261030778384, 50.7999418086616], [-3.1891958688273996, 50.79967052295841], [-3.189893036167, 50.79979330883803], [-3.1900348586788927, 50.79983937789944], [-3.1899588897913334, 50.800074001975354], [-3.189838175885675, 50.80014484015141]]]}}, {"type": "Feature", "properties": {"type": "postcode-cell", "postcode": "EX14 1RR", "postcodes": ["EX14 1RR"]}, "geometry": {"type": "Polygon", "coordinates": [[[-3.1895421415233227, 50.80184655692519], [-3.1894136990406188, 50.80206890392878], [-3.188271349157576, 50.80154598821798], [-3.1878863195690554, 50.80119769512066], [-3.188250899741867, 50.8010369110057], [-3.1888435362608094, 50.80092818033462], [-3.189319334812709, 50.80101007098666], [-3.1895421415233227, 50.80184655692519]]]}}, {"type": "Feature", "properties": {"type": "postcode-cell", "postcode": "EX14 1QN", "postcodes": ["EX14 1QN"]}, "geometry": {"type": "Polygon", "coordinates": [[[-3.189319334812709, 50.80101007098666], [-3.1888435362608094, 50.80092818033462], [-3.1888038259759366, 50.800457721295686], [-3.188934197315746, 50.80043091251922], [-3.189281532023527, 50.80048396930706], [-3.1895435917789094, 50.80075383543531], [-3.189319334812709, 50.80101007098666]]]}}, {"type": "Feature", "properties": {"type": "postcode-cell", "postcode": "EX14 1SS", "postcodes": ["EX14 1SS"]}, "geometry": {"type": "Polygon", "coordinates": [[[-3.189281532023527, 50.80048396930706], [-3.188934197315746, 50.80043091251922], [-3.1889684464208927, 50.800111426256386], [-3.189261030778384, 50.7999418086616], [-3.1896693041846937, 50.80016188549651], [-3.189281532023527, 50.80048396930706]]]}}, {"type": "Feature", "properties": {"type": "postcode-cell", "postcode": "EX14 1PP", "postcodes": ["EX14 1PP"]}, "geometry": {"type": "Polygon", "coordinates": [[[-3.189261030778384, 50.7999418086616], [-3.1889684464208927, 50.800111426256386], [-3.1885121032578083, 50.799953704756504], [-3.1888003391167614, 50.79969692657152], [-3.1890504076966195, 50.799629971034726], [-3.1890699894977956, 50.79964999480861], [-3.1891542161601225, 50.79962575404557], [-3.1891958688273996, 50.79967052295841], [-3.189261030778384, 50.7999418086616]]]}}, {"type": "Feature", "properties": {"type": "postcode-cell", "postcode": "EX14 1PE", "postcodes": ["EX14 1PE"]}, "geometry": {"type": "Polygon", "coordinates": [[[-3.188934197315746, 50.80043091251922], [-3.1888038259759366, 50.800457721295686], [-3.1886388177981915, 50.80045147382762], [-3.188394526431686, 50.80037027319394], [-3.188466949794174, 50.799966797039204], [-3.1885121032578083, 50.799953704756504], [-3.1889684464208927, 50.800111426256386], [-3.188934197315746, 50.80043091251922]]]}}, {"type": "Feature", "properties": {"type": "postcode-cell", "postcode": "EX14 1PD", "postcodes": ["EX14 1PD"]}, "geometry": {"type": "Polygon", "coordinates": [[[-3.1885121032578083, 50.799953704756504], [-3.188466949794174, 50.799966797039204], [-3.1883725431261447, 50.799944184496994], [-3.188258114311296, 50.79963041105504], [-3.188322918800743, 50.79955762036161], [-3.1888003391167614, 50.79969692657152], [-3.1885121032578083, 50.799953704756504]]]}}, {"type": "Feature", "properties": {"type": "postcode-cell", "postcode": "EX14 1QL", "postcodes": ["EX14 1QL"]}, "geometry": {"type": "Polygon", "coordinates": [[[-3.1888435362608094, 50.80092818033462], [-3.188250899741867, 50.8010369110057], [-3.1886388177981915, 50.80045147382762], [-3.1888038259759366, 50.800457721295686], [-3.1888435362608094, 50.80092818033462]]]}}, {"type": "Feature", "properties": {"type": "postcode-cell", "postcode": "EX14 1PF", "postcodes": ["EX14 1PF"]}, "geometry": {"type": "Polygon", "coordinates": [[[-3.188466949794174, 50.799966797039204], [-3.188394526431686, 50.80037027319394], [-3.1881725028970016, 50.80039148762183], [-3.18804802505659, 50.80034590741897], [-3.1880041351762256, 50.79993021065873], [-3.1883725431261447, 50.799944184496994], [-3.188466949794174, 50.799966797039204]]]}}, {"type": "Feature", "properties": {"type": "postcode-cell", "postcode": "EX14 1QS", "postcodes": ["EX14 1QS"]}, "geometry": {"type": "Polygon", "coordinates": [[[-3.1886862368565887, 50.79925757687769], [-3.1890504076966195, 50.799629971034726], [-3.1888003391167614, 50.79969692657152], [-3.188322918800743, 50.79955762036161], [-3.188213805086586, 50.79937011667808], [-3.1886862368565887, 50.79925757687769]]]}}, {"type": "Feature", "properties": {"type": "postcode-cell", "postcode": "EX14 2TA", "postcodes": ["EX14 2TA"]}, "geometry": {"type": "Polygon", "coordinates": [[[-3.187504510128236, 50.79413938175968], [-3.1871842154369525, 50.794512225115156], [-3.1855695191658087, 50.794473473978826], [-3.1858770600175994, 50.79329571600046], [-3.186504958122863, 50.793224911557225], [-3.1874428830152968, 50.79382807465919], [-3.187504510128236, 50.79413938175968]]]}}, {"type": "Feature", "properties": {"type": "postcode-cell", "postcode": "EX14 1PS", "postcodes": ["EX14 1PS"]}, "geometry": {"type": "Polygon", "coordinates": [[[-3.1883725431261447, 50.799944184496994], [-3.1880041351762256, 50.79993021065873], [-3.187833784424812, 50.79987191003265], [-3.18784494727126, 50.799789796730785], [-3.188258114311296, 50.79963041105504], [-3.1883725431261447, 50.799944184496994]]]}}, {"type": "Feature", "properties": {"type": "postcode-cell", "postcode": "EX14 1SU", "postcodes": ["EX14 1SU"]}, "geometry": {"type": "Polygon", "coordinates": [[[-3.1886388177981915, 50.80045147382762], [-3.188250899741867, 50.8010369110057], [-3.1878863195690554, 50.80119769512066], [-3.1877382296837564, 50.801153378206145], [-3.1877441691115713, 50.801053102068195], [-3.1881725028970016, 50.80039148762183], [-3.188394526431686, 50.80037027319394], [-3.1886388177981915, 50.80045147382762]]]}}, {"type": "Feature", "properties": {"type": "postcode-cell", "postcode": "EX14 1NZ", "postcodes": ["EX14 1NZ"]}, "geometry": {"type": "Polygon", "coordinates": [[[-3.188322918800743, 50.79955762036161], [-3.188258114311296, 50.79963041105504], [-3.18784494727126, 50.799789796730785], [-3.1876807252116097, 50.79947159251631], [-3.187708726893245, 50.79943789850677], [-3.187986132071563, 50.799308962694326], [-3.188213805086586, 50.79937011667808], [-3.188322918800743, 50.79955762036161]]]}}, {"type": "Feature", "properties": {"type": "postcode-cell", "postcode": "EX14 1QG", "postcodes": ["EX14 1QG"]}, "geometry": {"type": "Polygon", "coordinates": [[[-3.188271349157576, 50.80154598821798], [-3.186892111809002, 50.80229486119395], [-3.1867264502627175, 50.80125363561813], [-3.1867335405201356, 50.80124528630152], [-3.1867486586171574, 50.80123950562098], [-3.1877382296837564, 50.801153378206145], [-3.1878863195690554, 50.80119769512066], [-3.188271349157576, 50.80154598821798]]]}}, {"type": "Feature", "properties": {"type": "postcode-cell", "postcode": "EX14 1BU", "postcodes": ["EX14 1BU"]}, "geometry": {"type": "Polygon", "coordinates": [[[-3.187840114849561, 50.79849617048778], [-3.187321755753034, 50.79841233353341], [-3.187715147572464, 50.79826452453075], [-3.187913746791176, 50.79846761959162], [-3.187840114849561, 50.79849617048778]]]}}, {"type": "Feature", "properties": {"type": "postcode-cell", "postcode": "EX14 1BJ", "postcodes": ["EX14 1BJ"]}, "geometry": {"type": "Polygon", "coordinates": [[[-3.187321755753034, 50.79841233353341], [-3.187319973638714, 50.79841221025714], [-3.1876117504919863, 50.79815878592966], [-3.187715147572464, 50.79826452453075], [-3.187321755753034, 50.79841233353341]]]}}, {"type": "Feature", "properties": {"type": "postcode-cell", "postcode": "EX14 1DG", "postcodes": ["EX14 1DG"]}, "geometry": {"type": "Polygon", "coordinates": [[[-3.187833784424812, 50.79987191003265], [-3.1875146394615625, 50.79999039250201], [-3.1870347517235436, 50.799618630463776], [-3.1876807252116097, 50.79947159251631], [-3.18784494727126, 50.799789796730785], [-3.187833784424812, 50.79987191003265]]]}}, {"type": "Feature", "properties": {"type": "postcode-cell", "postcode": "EX14 1HB", "postcodes": ["EX14 1HB"]}, "geometry": {"type": "Polygon", "coordinates": [[[-3.1877731755221297, 50.79874582077935], [-3.187072679810442, 50.79876699626862], [-3.1870664479180553, 50.79874986314981], [-3.187294051071333, 50.798414836771755], [-3.187319973638714, 50.79841221025714], [-3.187321755753034, 50.79841233353341], [-3.187840114849561, 50.79849617048778], [-3.1877731755221297, 50.79874582077935]]]}}, {"type": "Feature", "properties": {"type": "postcode-cell", "postcode": "EX14 1PG", "postcodes": ["EX14 1PG"]}, "geometry": {"type": "Polygon", "coordinates": [[[-3.1880041351762256, 50.79993021065873], [-3.18804802505659, 50.80034590741897], [-3.187379990126335, 50.800285609421756], [-3.1873411072710427, 50.80026566109915], [-3.1875146394615625, 50.79999039250201], [-3.187833784424812, 50.79987191003265], [-3.1880041351762256, 50.79993021065873]]]}}, {"type": "Feature", "properties": {"type": "postcode-cell", "postcode": "EX14 1EU", "postcodes": ["EX14 1EU"]}, "geometry": {"type": "Polygon", "coordinates": [[[-3.188035568368434, 50.79894467950824], [-3.1879506603752965, 50.79905315963498], [-3.187266244152839, 50.799019753885155], [-3.18706531969005, 50.798792790520174], [-3.187072679810442, 50.79876699626862], [-3.1877731755221297, 50.79874582077935], [-3.188035568368434, 50.79894467950824]]]}}, {"type": "Feature", "properties": {"type": "postcode-cell", "postcode": "EX14 9TB", "postcodes": ["EX14 9TB"]}, "geometry": {"type": "Polygon", "coordinates": [[[-3.178746827014464, 50.79251857840731], [-3.1759887870763768, 50.79290824342705], [-3.1739788637994804, 50.79175451644005], [-3.17024532922749, 50.78834588251615], [-3.1706599894923904, 50.78744999479935], [-3.1704699894930632, 50.785829994798064], [-3.171779989493972, 50.785619994797905], [-3.170879989493939, 50.784549994797075], [-3.1739199894951544, 50.785899994798086], [-3.1756699894953875, 50.7876299947994], [-3.177349989496159, 50.7881699947998], [-3.177409989495553, 50.78948999480084], [-3.180519989496591, 50.79128999480219], [-3.180806155712734, 50.7917628069057], [-3.178746827014464, 50.79251857840731]]]}}, {"type": "Feature", "properties": {"type": "postcode-cell", "postcode": "EX14 1QJ", "postcodes": ["EX14 1QJ"]}, "geometry": {"type": "Polygon", "coordinates": [[[-3.18804802505659, 50.80034590741897], [-3.1881725028970016, 50.80039148762183], [-3.1877441691115713, 50.801053102068195], [-3.187379990126335, 50.800285609421756], [-3.18804802505659, 50.80034590741897]]]}}, {"type": "Feature", "properties": {"type": "postcode-cell", "postcode": "EX14 4PN", "postcodes": ["EX14 4PN"]}, "geometry": {"type": "Polygon", "coordinates": [[[-3.1799919122753475, 50.80823243301439], [-3.1797622334423954, 50.80680634312381], [-3.180118133603908, 50.805102146178065], [-3.180739496853201, 50.804207820299865], [-3.181823166673487, 50.80371828795903], [-3.1831866517008836, 50.80372521438224], [-3.185340731019631, 50.80472005115169], [-3.185892549787008, 50.805284821575796], [-3.185209989492563, 50.80550999481327], [-3.1847999894919545, 50.80623999481384], [-3.1823399894897784, 50.807589994814926], [-3.18117995772951, 50.808907341366265], [-3.1799919122753475, 50.80823243301439]]]}}, {"type": "Feature", "properties": {"type": "postcode-cell", "postcode": "EX14 1ET", "postcodes": ["EX14 1ET"]}, "geometry": {"type": "Polygon", "coordinates": [[[-3.187708726893245, 50.79943789850677], [-3.1872418021781748, 50.79915064245393], [-3.187266244152839, 50.799019753885155], [-3.1879506603752965, 50.79905315963498], [-3.187986132071563, 50.799308962694326], [-3.187708726893245, 50.79943789850677]]]}}, {"type": "Feature", "properties": {"type": "postcode-cell", "postcode": "EX14 1BZ", "postcodes": ["EX14 1BZ"]}, "geometry": {"type": "Polygon", "coordinates": [[[-3.187050760132789, 50.7977143430208], [-3.185974989536982, 50.79753767938284], [-3.185575678669117, 50.79723548370433], [-3.1864327407088684, 50.796953035631375], [-3.1871701233005156, 50.7977071511998], [-3.187050760132789, 50.7977143430208]]]}}, {"type": "Feature", "properties": {"type": "postcode-cell", "postcode": "EX14 1FW", "postcodes": ["EX14 1FW"]}, "geometry": {"type": "Polygon", "coordinates": [[[-3.1872418021781748, 50.79915064245393], [-3.1867983344096515, 50.79945286251558], [-3.186454850972262, 50.799358049402485], [-3.1864695289066733, 50.79906034789535], [-3.18706531969005, 50.798792790520174], [-3.187266244152839, 50.799019753885155], [-3.1872418021781748, 50.79915064245393]]]}}, {"type": "Feature", "properties": {"type": "postcode-cell", "postcode": "EX14 1BY", "postcodes": ["EX14 1BY"]}, "geometry": {"type": "Polygon", "coordinates": [[[-3.187294051071333, 50.798414836771755], [-3.187105152683103, 50.798235369595126], [-3.1871744765601844, 50.797711603158284], [-3.1876117504919863, 50.79815878592966], [-3.187319973638714, 50.79841221025714], [-3.187294051071333, 50.798414836771755]]]}}, {"type": "Feature", "properties": {"type": "postcode-cell", "postcode": "EX14 1PN", "postcodes": ["EX14 1PN"]}, "geometry": {"type": "Polygon", "coordinates": [[[-3.187379990126335, 50.800285609421756], [-3.1877441691115713, 50.801053102068195], [-3.1877382296837564, 50.801153378206145], [-3.1867486586171574, 50.80123950562098], [-3.186836069517168, 50.800430209828804], [-3.1869819312185235, 50.80029574722173], [-3.1873411072710427, 50.80026566109915], [-3.187379990126335, 50.800285609421756]]]}}, {"type": "Feature", "properties": {"type": "postcode-cell", "postcode": "EX14 0FB", "postcodes": ["EX14 0FB", "EX14 0FJ", "EX14 0FW", "EX14 0FY", "EX14 0FZ", "EX14 1PA", "EX14 2ZG", "EX14 9YS"]}, "geometry": {"type": "Polygon", "coordinates": [[[-3.1870347517235436, 50.799618630463776], [-3.186988700263292, 50.79961226264832], [-3.1867983344096515, 50.79945286251558], [-3.1872418021781748, 50.79915064245393], [-3.187708726893245, 50.79943789850677], [-3.1876807252116097, 50.79947159251631], [-3.1870347517235436, 50.799618630463776]]]}}, {"type": "Feature", "properties": {"type": "postcode-cell", "postcode": "EX14 2JA", "postcodes": ["EX14 2JA"]}, "geometry": {"type": "Polygon", "coordinates": [[[-3.187294051071333, 50.798414836771755], [-3.1870664479180553, 50.79874986314981], [-3.1866163367776585, 50.79856124463161], [-3.186645459327927, 50.79830444592959], [-3.187105152683103, 50.798235369595126], [-3.187294051071333, 50.798414836771755]]]}}, {"type": "Feature", "properties": {"type": "postcode-cell", "postcode": "EX14 1PW", "postcodes": ["EX14 1PW"]}, "geometry": {"type": "Polygon", "coordinates": [[[-3.1867335405201356, 50.80124528630152], [-3.1855587317133294, 50.80059957008296], [-3.1856566949960956, 50.80049304262325], [-3.1866073848142222, 50.80042855068805], [-3.186836069517168, 50.800430209828804], [-3.1867486586171574, 50.80123950562098], [-3.1867335405201356, 50.80124528630152]]]}}, {"type": "Feature", "properties": {"type": "postcode-cell", "postcode": "EX14 1PQ", "postcodes": ["EX14 1PQ"]}, "geometry": {"type": "Polygon", "coordinates": [[[-3.1873411072710427, 50.80026566109915], [-3.1869819312185235, 50.80029574722173], [-3.186810401412513, 50.80014985422716], [-3.186849452889165, 50.79977558467336], [-3.186988700263292, 50.79961226264832], [-3.1870347517235436, 50.799618630463776], [-3.1875146394615625, 50.79999039250201], [-3.1873411072710427, 50.80026566109915]]]}}, {"type": "Feature", "properties": {"type": "postcode-cell", "postcode": "EX14 1HD", "postcodes": ["EX14 1HD"]}, "geometry": {"type": "Polygon", "coordinates": [[[-3.187072679810442, 50.79876699626862], [-3.18706531969005, 50.798792790520174], [-3.1864695289066733, 50.79906034789535], [-3.185829380470328, 50.7986873213487], [-3.1858390370173506, 50.79866474212585], [-3.1866163367776585, 50.79856124463161], [-3.1870664479180553, 50.79874986314981], [-3.187072679810442, 50.79876699626862]]]}}, {"type": "Feature", "properties": {"type": "postcode-cell", "postcode": "EX14 1PL", "postcodes": ["EX14 1PL"]}, "geometry": {"type": "Polygon", "coordinates": [[[-3.186836069517168, 50.800430209828804], [-3.1866073848142222, 50.80042855068805], [-3.186256050021856, 50.800209063084246], [-3.1866163726885635, 50.80011100280426], [-3.186810401412513, 50.80014985422716], [-3.1869819312185235, 50.80029574722173], [-3.186836069517168, 50.800430209828804]]]}}, {"type": "Feature", "properties": {"type": "postcode-cell", "postcode": "EX14 1RS", "postcodes": ["EX14 1RS"]}, "geometry": {"type": "Polygon", "coordinates": [[[-3.186810401412513, 50.80014985422716], [-3.1866163726885635, 50.80011100280426], [-3.186181393562205, 50.7998685168238], [-3.186849452889165, 50.79977558467336], [-3.186810401412513, 50.80014985422716]]]}}, {"type": "Feature", "properties": {"type": "postcode-cell", "postcode": "EX14 1PH", "postcodes": ["EX14 1PH"]}, "geometry": {"type": "Polygon", "coordinates": [[[-3.186849452889165, 50.79977558467336], [-3.186181393562205, 50.7998685168238], [-3.185702277179239, 50.79975863198302], [-3.1856855278741776, 50.79973639555756], [-3.185805651247382, 50.7995688370478], [-3.186454850972262, 50.799358049402485], [-3.1867983344096515, 50.79945286251558], [-3.186988700263292, 50.79961226264832], [-3.186849452889165, 50.79977558467336]]]}}, {"type": "Feature", "properties": {"type": "postcode-cell", "postcode": "EX14 1HX", "postcodes": ["EX14 1HX"]}, "geometry": {"type": "Polygon", "coordinates": [[[-3.187105152683103, 50.798235369595126], [-3.186645459327927, 50.79830444592959], [-3.1863936655422247, 50.79816040961273], [-3.187050760132789, 50.7977143430208], [-3.1871701233005156, 50.7977071511998], [-3.1871744765601844, 50.797711603158284], [-3.187105152683103, 50.798235369595126]]]}}, {"type": "Feature", "properties": {"type": "postcode-cell", "postcode": "EX14 1HE", "postcodes": ["EX14 1HE"]}, "geometry": {"type": "Polygon", "coordinates": [[[-3.1866163367776585, 50.79856124463161], [-3.1858390370173506, 50.79866474212585], [-3.185742114348483, 50.79832144145672], [-3.185974989520011, 50.79815476825828], [-3.1863936655422247, 50.79816040961273], [-3.186645459327927, 50.79830444592959], [-3.1866163367776585, 50.79856124463161]]]}}, {"type": "Feature", "properties": {"type": "postcode-cell", "postcode": "EX14 2TT", "postcodes": ["EX14 2TT"]}, "geometry": {"type": "Polygon", "coordinates": [[[-3.1855695191658087, 50.794473473978826], [-3.1852075005902476, 50.79473057013885], [-3.184379757242963, 50.794836688171614], [-3.1833490083852767, 50.7935807534771], [-3.1858770600175994, 50.79329571600046], [-3.1855695191658087, 50.794473473978826]]]}}, {"type": "Feature", "properties": {"type": "postcode-cell", "postcode": "EX14 2DE", "postcodes": ["EX14 2DE"]}, "geometry": {"type": "Polygon", "coordinates": [[[-3.1878733639155685, 50.79567920784078], [-3.1871666543322767, 50.795873395885486], [-3.1867044206650754, 50.795816335155045], [-3.1852075005902476, 50.79473057013885], [-3.1855695191658087, 50.794473473978826], [-3.1871842154369525, 50.794512225115156], [-3.1878733639155685, 50.79567920784078]]]}}, {"type": "Feature", "properties": {"type": "postcode-cell", "postcode": "EX14 2DB", "postcodes": ["EX14 2DB"]}, "geometry": {"type": "Polygon", "coordinates": [[[-3.1867044206650754, 50.795816335155045], [-3.1853779388453485, 50.796215425803], [-3.183705270785298, 50.79585621983478], [-3.183922719466136, 50.795221973680725], [-3.184379757242963, 50.794836688171614], [-3.1852075005902476, 50.79473057013885], [-3.1867044206650754, 50.795816335155045]]]}}, {"type": "Feature", "properties": {"type": "postcode-cell", "postcode": "EX14 1HF", "postcodes": ["EX14 1HF"]}, "geometry": {"type": "Polygon", "coordinates": [[[-3.1863936655422247, 50.79816040961273], [-3.185974989520011, 50.79815476825828], [-3.185974989536982, 50.79753767938284], [-3.187050760132789, 50.7977143430208], [-3.1863936655422247, 50.79816040961273]]]}}, {"type": "Feature", "properties": {"type": "postcode-cell", "postcode": "EX14 2EB", "postcodes": ["EX14 2EB"]}, "geometry": {"type": "Polygon", "coordinates": [[[-3.185575678669117, 50.79723548370433], [-3.1854542877821763, 50.79721594262188], [-3.1853779388453485, 50.796215425803], [-3.1867044206650754, 50.795816335155045], [-3.1871666543322767, 50.795873395885486], [-3.1861599894977033, 50.79614999480593], [-3.186419989497479, 50.79693999480654], [-3.1864327407088684, 50.796953035631375], [-3.185575678669117, 50.79723548370433]]]}}, {"type": "Feature", "properties": {"type": "postcode-cell", "postcode": "EX14 1DQ", "postcodes": ["EX14 1DQ"]}, "geometry": {"type": "Polygon", "coordinates": [[[-3.186256050021856, 50.800209063084246], [-3.1857342663757575, 50.8002614501213], [-3.185702277179239, 50.79975863198302], [-3.186181393562205, 50.7998685168238], [-3.1866163726885635, 50.80011100280426], [-3.186256050021856, 50.800209063084246]]]}}, {"type": "Feature", "properties": {"type": "postcode-cell", "postcode": "EX14 1HU", "postcodes": ["EX14 1HU"]}, "geometry": {"type": "Polygon", "coordinates": [[[-3.186454850972262, 50.799358049402485], [-3.185805651247382, 50.7995688370478], [-3.185396130385978, 50.7989401775281], [-3.185829380470328, 50.7986873213487], [-3.1864695289066733, 50.79906034789535], [-3.186454850972262, 50.799358049402485]]]}}, {"type": "Feature", "properties": {"type": "postcode-cell", "postcode": "EX14 1HQ", "postcodes": ["EX14 1HQ"]}, "geometry": {"type": "Polygon", "coordinates": [[[-3.185829380470328, 50.7986873213487], [-3.185396130385978, 50.7989401775281], [-3.184228229801402, 50.798926705151715], [-3.1838807634907402, 50.79847555781271], [-3.1848900494145, 50.79811721724365], [-3.185742114348483, 50.79832144145672], [-3.1858390370173506, 50.79866474212585], [-3.185829380470328, 50.7986873213487]]]}}, {"type": "Feature", "properties": {"type": "postcode-cell", "postcode": "EX14 2HG", "postcodes": ["EX14 2HG"]}, "geometry": {"type": "Polygon", "coordinates": [[[-3.185742114348483, 50.79832144145672], [-3.1848900494145, 50.79811721724365], [-3.1852420199530784, 50.79726899365093], [-3.1854542877821763, 50.79721594262188], [-3.185575678669117, 50.79723548370433], [-3.185974989536982, 50.79753767938284], [-3.185974989520011, 50.79815476825828], [-3.185742114348483, 50.79832144145672]]]}}, {"type": "Feature", "properties": {"type": "postcode-cell", "postcode": "EX14 1PJ", "postcodes": ["EX14 1PJ"]}, "geometry": {"type": "Polygon", "coordinates": [[[-3.1866073848142222, 50.80042855068805], [-3.1856566949960956, 50.80049304262325], [-3.1857342663757575, 50.8002614501213], [-3.186256050021856, 50.800209063084246], [-3.1866073848142222, 50.80042855068805]]]}}, {"type": "Feature", "properties": {"type": "postcode-cell", "postcode": "EX14 1QQ", "postcodes": ["EX14 1QQ"]}, "geometry": {"type": "Polygon", "coordinates": [[[-3.186863669931302, 50.802402576929886], [-3.1858527585706007, 50.8024368892104], [-3.185865597547299, 50.801484765258934], [-3.1867264502627175, 50.80125363561813], [-3.186892111809002, 50.80229486119395], [-3.186863669931302, 50.802402576929886]]]}}, {"type": "Feature", "properties": {"type": "postcode-cell", "postcode": "EX14 1QH", "postcodes": ["EX14 1QH"]}, "geometry": {"type": "Polygon", "coordinates": [[[-3.1867264502627175, 50.80125363561813], [-3.185865597547299, 50.801484765258934], [-3.1853396003894185, 50.801460126102036], [-3.185112407052054, 50.80125346462948], [-3.185208725930361, 50.80067213740552], [-3.1855587317133294, 50.80059957008296], [-3.1867335405201356, 50.80124528630152], [-3.1867264502627175, 50.80125363561813]]]}}, {"type": "Feature", "properties": {"type": "postcode-cell", "postcode": "EX14 1JE", "postcodes": ["EX14 1JE"]}, "geometry": {"type": "Polygon", "coordinates": [[[-3.1855587317133294, 50.80059957008296], [-3.185208725930361, 50.80067213740552], [-3.1849058709208053, 50.80059974674192], [-3.184105226186963, 50.79974115213744], [-3.1856855278741776, 50.79973639555756], [-3.185702277179239, 50.79975863198302], [-3.1857342663757575, 50.8002614501213], [-3.1856566949960956, 50.80049304262325], [-3.1855587317133294, 50.80059957008296]]]}}, {"type": "Feature", "properties": {"type": "postcode-cell", "postcode": "EX14 1QX", "postcodes": ["EX14 1QX"]}, "geometry": {"type": "Polygon", "coordinates": [[[-3.185193089295531, 50.80323723491023], [-3.1840253002912733, 50.802681560283666], [-3.1842713342552416, 50.80227640520171], [-3.1849802530748965, 50.80214848112269], [-3.185696229385023, 50.80247125618384], [-3.185193089295531, 50.80323723491023]]]}}, {"type": "Feature", "properties": {"type": "postcode-cell", "postcode": "EX14 1QE", "postcodes": ["EX14 1QE"]}, "geometry": {"type": "Polygon", "coordinates": [[[-3.1858527585706007, 50.8024368892104], [-3.185696229385023, 50.80247125618384], [-3.1849802530748965, 50.80214848112269], [-3.184969829754205, 50.801902516255055], [-3.1853396003894185, 50.801460126102036], [-3.185865597547299, 50.801484765258934], [-3.1858527585706007, 50.8024368892104]]]}}, {"type": "Feature", "properties": {"type": "postcode-cell", "postcode": "EX14 1HH", "postcodes": ["EX14 1HH"]}, "geometry": {"type": "Polygon", "coordinates": [[[-3.1856855278741776, 50.79973639555756], [-3.184105226186963, 50.79974115213744], [-3.184073759875594, 50.799730368861646], [-3.184053048523157, 50.799713680899046], [-3.184228229801402, 50.798926705151715], [-3.185396130385978, 50.7989401775281], [-3.185805651247382, 50.7995688370478], [-3.1856855278741776, 50.79973639555756]]]}}, {"type": "Feature", "properties": {"type": "postcode-cell", "postcode": "EX14 1PR", "postcodes": ["EX14 1PR"]}, "geometry": {"type": "Polygon", "coordinates": [[[-3.185112407052054, 50.80125346462948], [-3.184144696282469, 50.801343208663624], [-3.184449932808861, 50.80075992296234], [-3.1849058709208053, 50.80059974674192], [-3.185208725930361, 50.80067213740552], [-3.185112407052054, 50.80125346462948]]]}}, {"type": "Feature", "properties": {"type": "postcode-cell", "postcode": "EX14 2EA", "postcodes": ["EX14 2EA"]}, "geometry": {"type": "Polygon", "coordinates": [[[-3.1853779388453485, 50.796215425803], [-3.1854542877821763, 50.79721594262188], [-3.1852420199530784, 50.79726899365093], [-3.184334099814577, 50.797173275516926], [-3.183335185459388, 50.79609982406599], [-3.183705270785298, 50.79585621983478], [-3.1853779388453485, 50.796215425803]]]}}, {"type": "Feature", "properties": {"type": "postcode-cell", "postcode": "EX14 2HZ", "postcodes": ["EX14 2HZ"]}, "geometry": {"type": "Polygon", "coordinates": [[[-3.1848900494145, 50.79811721724365], [-3.1838807634907402, 50.79847555781271], [-3.182992463339501, 50.798144726757435], [-3.184334099814577, 50.797173275516926], [-3.1852420199530784, 50.79726899365093], [-3.1848900494145, 50.79811721724365]]]}}, {"type": "Feature", "properties": {"type": "postcode-cell", "postcode": "EX14 2HS", "postcodes": ["EX14 2HS"]}, "geometry": {"type": "Polygon", "coordinates": [[[-3.184053048523157, 50.799713680899046], [-3.182931103060867, 50.79973617411054], [-3.182181230465554, 50.79935172958902], [-3.18232407870549, 50.79848373752926], [-3.1829025140499634, 50.79813999137578], [-3.182992463339501, 50.798144726757435], [-3.1838807634907402, 50.79847555781271], [-3.184228229801402, 50.798926705151715], [-3.184053048523157, 50.799713680899046]]]}}, {"type": "Feature", "properties": {"type": "postcode-cell", "postcode": "EX14 1UQ", "postcodes": ["EX14 1UQ"]}, "geometry": {"type": "Polygon", "coordinates": [[[-3.1849058709208053, 50.80059974674192], [-3.184449932808861, 50.80075992296234], [-3.1835325806741595, 50.80066848524554], [-3.184073759875594, 50.799730368861646], [-3.184105226186963, 50.79974115213744], [-3.1849058709208053, 50.80059974674192]]]}}, {"type": "Feature", "properties": {"type": "postcode-cell", "postcode": "EX14 1FZ", "postcodes": ["EX14 1FZ"]}, "geometry": {"type": "Polygon", "coordinates": [[[-3.1853396003894185, 50.801460126102036], [-3.184969829754205, 50.801902516255055], [-3.1839789934256886, 50.80141833229388], [-3.184144696282469, 50.801343208663624], [-3.185112407052054, 50.80125346462948], [-3.1853396003894185, 50.801460126102036]]]}}, {"type": "Feature", "properties": {"type": "postcode-cell", "postcode": "EX14 2GX", "postcodes": ["EX14 2GX"]}, "geometry": {"type": "Polygon", "coordinates": [[[-3.183705270785298, 50.79585621983478], [-3.183335185459388, 50.79609982406599], [-3.1825569459758842, 50.79626538675514], [-3.182242252153611, 50.79619579448401], [-3.181332747296106, 50.79579677903594], [-3.18096972860507, 50.79541677452109], [-3.1810567868232096, 50.79522555893929], [-3.182000766545071, 50.79465924268351], [-3.183922719466136, 50.795221973680725], [-3.183705270785298, 50.79585621983478]]]}}, {"type": "Feature", "properties": {"type": "postcode-cell", "postcode": "EX14 1QU", "postcodes": ["EX14 1QU"]}, "geometry": {"type": "Polygon", "coordinates": [[[-3.185340731019631, 50.80472005115169], [-3.1831866517008836, 50.80372521438224], [-3.1833773643603434, 50.80285821448822], [-3.1840253002912733, 50.802681560283666], [-3.185193089295531, 50.80323723491023], [-3.185340731019631, 50.80472005115169]]]}}, {"type": "Feature", "properties": {"type": "postcode-cell", "postcode": "EX14 1QP", "postcodes": ["EX14 1QP"]}, "geometry": {"type": "Polygon", "coordinates": [[[-3.1849802530748965, 50.80214848112269], [-3.1842713342552416, 50.80227640520171], [-3.1836595945350776, 50.80190791279372], [-3.1838729322706985, 50.80143263848752], [-3.1839789934256886, 50.80141833229388], [-3.184969829754205, 50.801902516255055], [-3.1849802530748965, 50.80214848112269]]]}}, {"type": "Feature", "properties": {"type": "postcode-cell", "postcode": "EX14 1QD", "postcodes": ["EX14 1QD"]}, "geometry": {"type": "Polygon", "coordinates": [[[-3.1840253002912733, 50.802681560283666], [-3.1833773643603434, 50.80285821448822], [-3.1827310175145245, 50.80242701488961], [-3.182980412420673, 50.80208634812233], [-3.1836595945350776, 50.80190791279372], [-3.1842713342552416, 50.80227640520171], [-3.1840253002912733, 50.802681560283666]]]}}, {"type": "Feature", "properties": {"type": "postcode-cell", "postcode": "EX14 2NT", "postcodes": ["EX14 2NT"]}, "geometry": {"type": "Polygon", "coordinates": [[[-3.184334099814577, 50.797173275516926], [-3.182992463339501, 50.798144726757435], [-3.1829025140499634, 50.79813999137578], [-3.1823412788452266, 50.797505806979935], [-3.1825569459758842, 50.79626538675514], [-3.183335185459388, 50.79609982406599], [-3.184334099814577, 50.797173275516926]]]}}, {"type": "Feature", "properties": {"type": "postcode-cell", "postcode": "EX14 1PU", "postcodes": ["EX14 1PU"]}, "geometry": {"type": "Polygon", "coordinates": [[[-3.1838729322706985, 50.80143263848752], [-3.1829818826316485, 50.80095809874303], [-3.1835325806741595, 50.80066848524554], [-3.184449932808861, 50.80075992296234], [-3.184144696282469, 50.801343208663624], [-3.1839789934256886, 50.80141833229388], [-3.1838729322706985, 50.80143263848752]]]}}, {"type": "Feature", "properties": {"type": "postcode-cell", "postcode": "EX14 1HJ", "postcodes": ["EX14 1HJ"]}, "geometry": {"type": "Polygon", "coordinates": [[[-3.1835325806741595, 50.80066848524554], [-3.1829818826316485, 50.80095809874303], [-3.1825013975996943, 50.800944386901186], [-3.182331938414217, 50.800631990121865], [-3.182931103060867, 50.79973617411054], [-3.184053048523157, 50.799713680899046], [-3.184073759875594, 50.799730368861646], [-3.1835325806741595, 50.80066848524554]]]}}, {"type": "Feature", "properties": {"type": "postcode-cell", "postcode": "EX14 1QA", "postcodes": ["EX14 1QA"]}, "geometry": {"type": "Polygon", "coordinates": [[[-3.1831866517008836, 50.80372521438224], [-3.181823166673487, 50.80371828795903], [-3.181725990335943, 50.80280963430532], [-3.182077974154401, 50.80250330870691], [-3.1827310175145245, 50.80242701488961], [-3.1833773643603434, 50.80285821448822], [-3.1831866517008836, 50.80372521438224]]]}}, {"type": "Feature", "properties": {"type": "postcode-cell", "postcode": "EX14 1PY", "postcodes": ["EX14 1PY"]}, "geometry": {"type": "Polygon", "coordinates": [[[-3.1836595945350776, 50.80190791279372], [-3.182980412420673, 50.80208634812233], [-3.1823206813077327, 50.80140245706196], [-3.1824641216024845, 50.800974244492444], [-3.1825013975996943, 50.800944386901186], [-3.1829818826316485, 50.80095809874303], [-3.1838729322706985, 50.80143263848752], [-3.1836595945350776, 50.80190791279372]]]}}, {"type": "Feature", "properties": {"type": "postcode-cell", "postcode": "EX14 2GY", "postcodes": ["EX14 2GY"]}, "geometry": {"type": "Polygon", "coordinates": [[[-3.183922719466136, 50.795221973680725], [-3.182000766545071, 50.79465924268351], [-3.182027963137254, 50.794476374733456], [-3.1830350198122237, 50.793616151585105], [-3.1833490083852767, 50.7935807534771], [-3.184379757242963, 50.794836688171614], [-3.183922719466136, 50.795221973680725]]]}}, {"type": "Feature", "properties": {"type": "postcode-cell", "postcode": "EX14 1PX", "postcodes": ["EX14 1PX"]}, "geometry": {"type": "Polygon", "coordinates": [[[-3.182980412420673, 50.80208634812233], [-3.1827310175145245, 50.80242701488961], [-3.182077974154401, 50.80250330870691], [-3.18149496617831, 50.80189153162267], [-3.1823206813077327, 50.80140245706196], [-3.182980412420673, 50.80208634812233]]]}}, {"type": "Feature", "properties": {"type": "postcode-cell", "postcode": "EX14 2HR", "postcodes": ["EX14 2HR"]}, "geometry": {"type": "Polygon", "coordinates": [[[-3.1829025140499634, 50.79813999137578], [-3.18232407870549, 50.79848373752926], [-3.1815904242115582, 50.798476407767275], [-3.1802693980160543, 50.79780780740386], [-3.180396501647252, 50.79742602779304], [-3.1823412788452266, 50.797505806979935], [-3.1829025140499634, 50.79813999137578]]]}}, {"type": "Feature", "properties": {"type": "postcode-cell", "postcode": "EX14 2HT", "postcodes": ["EX14 2HT"]}, "geometry": {"type": "Polygon", "coordinates": [[[-3.182331938414217, 50.800631990121865], [-3.1812303672688502, 50.80015323795173], [-3.1813562641121975, 50.79962869523386], [-3.182181230465554, 50.79935172958902], [-3.182931103060867, 50.79973617411054], [-3.182331938414217, 50.800631990121865]]]}}, {"type": "Feature", "properties": {"type": "postcode-cell", "postcode": "EX14 2WB", "postcodes": ["EX14 2WB"]}, "geometry": {"type": "Polygon", "coordinates": [[[-3.182027963137254, 50.794476374733456], [-3.17921015560058, 50.79292399741462], [-3.178746827014464, 50.79251857840731], [-3.180806155712734, 50.7917628069057], [-3.181669989496377, 50.79318999480369], [-3.1823799894965696, 50.79368999480405], [-3.1830350198122237, 50.793616151585105], [-3.182027963137254, 50.794476374733456]]]}}, {"type": "Feature", "properties": {"type": "postcode-cell", "postcode": "EX14 2JF", "postcodes": ["EX14 2JF"]}, "geometry": {"type": "Polygon", "coordinates": [[[-3.1825569459758842, 50.79626538675514], [-3.1823412788452266, 50.797505806979935], [-3.180396501647252, 50.79742602779304], [-3.180390877601713, 50.79741811228822], [-3.1803589970364943, 50.79726064534269], [-3.182242252153611, 50.79619579448401], [-3.1825569459758842, 50.79626538675514]]]}}, {"type": "Feature", "properties": {"type": "postcode-cell", "postcode": "EX14 2FJ", "postcodes": ["EX14 2FJ"]}, "geometry": {"type": "Polygon", "coordinates": [[[-3.1824641216024845, 50.800974244492444], [-3.1809370892990962, 50.80109204333289], [-3.1802356600683632, 50.80053350062364], [-3.1812303672688502, 50.80015323795173], [-3.182331938414217, 50.800631990121865], [-3.1825013975996943, 50.800944386901186], [-3.1824641216024845, 50.800974244492444]]]}}, {"type": "Feature", "properties": {"type": "postcode-cell", "postcode": "EX14 4PW", "postcodes": ["EX14 4PW"]}, "geometry": {"type": "Polygon", "coordinates": [[[-3.1735186108590283, 50.80851940800706], [-3.175340480264007, 50.80808018801302], [-3.1774304430271156, 50.807864125441725], [-3.1799919122753475, 50.80823243301439], [-3.18117995772951, 50.808907341366265], [-3.1805699894877066, 50.80959999481654], [-3.1793599894869633, 50.809599994816566], [-3.1783199894857357, 50.810799994817515], [-3.1756299894834537, 50.812079994818575], [-3.1755599894832502, 50.81240999481883], [-3.174549989482589, 50.812489994818904], [-3.174289989482223, 50.812909994819236], [-3.174789989482148, 50.81369999481985], [-3.173359989480989, 50.81426999482033], [-3.1708099894796877, 50.81370999481991], [-3.1687078801901336, 50.81160209478761], [-3.1735186108590283, 50.80851940800706]]]}}, {"type": "Feature", "properties": {"type": "postcode-cell", "postcode": "EX14 1QB", "postcodes": ["EX14 1QB"]}, "geometry": {"type": "Polygon", "coordinates": [[[-3.180739496853201, 50.804207820299865], [-3.1801167849510628, 50.803353279106595], [-3.1801355075699345, 50.80303850168655], [-3.180868040853834, 50.80266148028339], [-3.181725990335943, 50.80280963430532], [-3.181823166673487, 50.80371828795903], [-3.180739496853201, 50.804207820299865]]]}}, {"type": "Feature", "properties": {"type": "postcode-cell", "postcode": "EX14 1HL", "postcodes": ["EX14 1HL"]}, "geometry": {"type": "Polygon", "coordinates": [[[-3.18149496617831, 50.80189153162267], [-3.18069092505084, 50.80181823819787], [-3.1809370892990962, 50.80109204333289], [-3.1824641216024845, 50.800974244492444], [-3.1823206813077327, 50.80140245706196], [-3.18149496617831, 50.80189153162267]]]}}, {"type": "Feature", "properties": {"type": "postcode-cell", "postcode": "EX14 1NU", "postcodes": ["EX14 1NU"]}, "geometry": {"type": "Polygon", "coordinates": [[[-3.182077974154401, 50.80250330870691], [-3.181725990335943, 50.80280963430532], [-3.180868040853834, 50.80266148028339], [-3.1806143964117224, 50.802159202331076], [-3.1806764991114664, 50.801823179309324], [-3.18069092505084, 50.80181823819787], [-3.18149496617831, 50.80189153162267], [-3.182077974154401, 50.80250330870691]]]}}, {"type": "Feature", "properties": {"type": "postcode-cell", "postcode": "EX14 9TF", "postcodes": ["EX14 9TF"]}, "geometry": {"type": "Polygon", "coordinates": [[[-3.178746827014464, 50.79251857840731], [-3.17921015560058, 50.79292399741462], [-3.1810567868232096, 50.79522555893929], [-3.18096972860507, 50.79541677452109], [-3.180079024146453, 50.795444463255485], [-3.175935099054295, 50.794281210820394], [-3.1759887870763768, 50.79290824342705], [-3.178746827014464, 50.79251857840731]]]}}, {"type": "Feature", "properties": {"type": "postcode-cell", "postcode": "EX14 2GZ", "postcodes": ["EX14 2GZ"]}, "geometry": {"type": "Polygon", "coordinates": [[[-3.182000766545071, 50.79465924268351], [-3.1810567868232096, 50.79522555893929], [-3.17921015560058, 50.79292399741462], [-3.182027963137254, 50.794476374733456], [-3.182000766545071, 50.79465924268351]]]}}, {"type": "Feature", "properties": {"type": "postcode-cell", "postcode": "EX14 2JG", "postcodes": ["EX14 2JG"]}, "geometry": {"type": "Polygon", "coordinates": [[[-3.1803589970364943, 50.79726064534269], [-3.1798981524802388, 50.796735469154136], [-3.181332747296106, 50.79579677903594], [-3.182242252153611, 50.79619579448401], [-3.1803589970364943, 50.79726064534269]]]}}, {"type": "Feature", "properties": {"type": "postcode-cell", "postcode": "EX14 1UY", "postcodes": ["EX14 1UY"]}, "geometry": {"type": "Polygon", "coordinates": [[[-3.1809370892990962, 50.80109204333289], [-3.18069092505084, 50.80181823819787], [-3.1806764991114664, 50.801823179309324], [-3.180473627428301, 50.80179690207608], [-3.1797299557099006, 50.80120726019249], [-3.1797364177648775, 50.80080204906427], [-3.17990464690704, 50.800513883002104], [-3.1802356600683632, 50.80053350062364], [-3.1809370892990962, 50.80109204333289]]]}}, {"type": "Feature", "properties": {"type": "postcode-cell", "postcode": "EX14 2HX", "postcodes": ["EX14 2HX"]}, "geometry": {"type": "Polygon", "coordinates": [[[-3.182181230465554, 50.79935172958902], [-3.1813562641121975, 50.79962869523386], [-3.1800600773261327, 50.79911133285322], [-3.1815904242115582, 50.798476407767275], [-3.18232407870549, 50.79848373752926], [-3.182181230465554, 50.79935172958902]]]}}, {"type": "Feature", "properties": {"type": "postcode-cell", "postcode": "EX14 2UR", "postcodes": ["EX14 2UR"]}, "geometry": {"type": "Polygon", "coordinates": [[[-3.180390877601713, 50.79741811228822], [-3.1784672932144713, 50.79741284733035], [-3.178614849994274, 50.7970858426596], [-3.179329682962038, 50.79656843364044], [-3.1798981524802388, 50.796735469154136], [-3.1803589970364943, 50.79726064534269], [-3.180390877601713, 50.79741811228822]]]}}, {"type": "Feature", "properties": {"type": "postcode-cell", "postcode": "EX14 2HU", "postcodes": ["EX14 2HU"]}, "geometry": {"type": "Polygon", "coordinates": [[[-3.1813562641121975, 50.79962869523386], [-3.1812303672688502, 50.80015323795173], [-3.1802356600683632, 50.80053350062364], [-3.17990464690704, 50.800513883002104], [-3.1794693838289745, 50.800251184212854], [-3.1795736654523195, 50.79908687544877], [-3.1800600773261327, 50.79911133285322], [-3.1813562641121975, 50.79962869523386]]]}}, {"type": "Feature", "properties": {"type": "postcode-cell", "postcode": "EX14 2HY", "postcodes": ["EX14 2HY"]}, "geometry": {"type": "Polygon", "coordinates": [[[-3.1815904242115582, 50.798476407767275], [-3.1800600773261327, 50.79911133285322], [-3.1795736654523195, 50.79908687544877], [-3.1790364544363845, 50.79874605371909], [-3.17907746851853, 50.79865687804705], [-3.1802693980160543, 50.79780780740386], [-3.1815904242115582, 50.798476407767275]]]}}, {"type": "Feature", "properties": {"type": "postcode-cell", "postcode": "EX14 1UT", "postcodes": ["EX14 1UT"]}, "geometry": {"type": "Polygon", "coordinates": [[[-3.180473627428301, 50.80179690207608], [-3.1794887901952964, 50.80195722355987], [-3.179144767845725, 50.80155866436321], [-3.1797299557099006, 50.80120726019249], [-3.180473627428301, 50.80179690207608]]]}}, {"type": "Feature", "properties": {"type": "postcode-cell", "postcode": "EX14 2UP", "postcodes": ["EX14 2UP"]}, "geometry": {"type": "Polygon", "coordinates": [[[-3.181332747296106, 50.79579677903594], [-3.1798981524802388, 50.796735469154136], [-3.179329682962038, 50.79656843364044], [-3.179212620455149, 50.79643130246766], [-3.180079024146453, 50.795444463255485], [-3.18096972860507, 50.79541677452109], [-3.181332747296106, 50.79579677903594]]]}}, {"type": "Feature", "properties": {"type": "postcode-cell", "postcode": "EX14 1JS", "postcodes": ["EX14 1JS"]}, "geometry": {"type": "Polygon", "coordinates": [[[-3.1801167849510628, 50.803353279106595], [-3.178848333791435, 50.80323276815959], [-3.178402022634224, 50.80253182088109], [-3.1790251100612053, 50.80242879347916], [-3.1796503522931796, 50.80263357839481], [-3.1801355075699345, 50.80303850168655], [-3.1801167849510628, 50.803353279106595]]]}}, {"type": "Feature", "properties": {"type": "postcode-cell", "postcode": "EX14 1FF", "postcodes": ["EX14 1FF"]}, "geometry": {"type": "Polygon", "coordinates": [[[-3.1796503522931796, 50.80263357839481], [-3.1806143964117224, 50.802159202331076], [-3.180868040853834, 50.80266148028339], [-3.1801355075699345, 50.80303850168655], [-3.1796503522931796, 50.80263357839481]]]}}, {"type": "Feature", "properties": {"type": "postcode-cell", "postcode": "EX14 2QT", "postcodes": ["EX14 2QT"]}, "geometry": {"type": "Polygon", "coordinates": [[[-3.17907746851853, 50.79865687804705], [-3.1784119210084674, 50.79745487230947], [-3.1784672932144713, 50.79741284733035], [-3.180390877601713, 50.79741811228822], [-3.180396501647252, 50.79742602779304], [-3.1802693980160543, 50.79780780740386], [-3.17907746851853, 50.79865687804705]]]}}, {"type": "Feature", "properties": {"type": "postcode-cell", "postcode": "EX14 1PZ", "postcodes": ["EX14 1PZ"]}, "geometry": {"type": "Polygon", "coordinates": [[[-3.1806764991114664, 50.801823179309324], [-3.1806143964117224, 50.802159202331076], [-3.1796503522931796, 50.80263357839481], [-3.1790251100612053, 50.80242879347916], [-3.1794887901952964, 50.80195722355987], [-3.180473627428301, 50.80179690207608], [-3.1806764991114664, 50.801823179309324]]]}}, {"type": "Feature", "properties": {"type": "postcode-cell", "postcode": "EX14 1XG", "postcodes": ["EX14 1XG"]}, "geometry": {"type": "Polygon", "coordinates": [[[-3.180739496853201, 50.804207820299865], [-3.180118133603908, 50.805102146178065], [-3.1785178519797332, 50.80372837576705], [-3.178848333791435, 50.80323276815959], [-3.1801167849510628, 50.803353279106595], [-3.180739496853201, 50.804207820299865]]]}}, {"type": "Feature", "properties": {"type": "postcode-cell", "postcode": "EX14 1UX", "postcodes": ["EX14 1UX"]}, "geometry": {"type": "Polygon", "coordinates": [[[-3.1797299557099006, 50.80120726019249], [-3.179144767845725, 50.80155866436321], [-3.1782633786820558, 50.80136597201539], [-3.1797364177648775, 50.80080204906427], [-3.1797299557099006, 50.80120726019249]]]}}, {"type": "Feature", "properties": {"type": "postcode-cell", "postcode": "EX14 9TL", "postcodes": ["EX14 9TL"]}, "geometry": {"type": "Polygon", "coordinates": [[[-3.175619870771286, 50.79505926022363], [-3.1754478309811343, 50.79527602561416], [-3.1747588002777123, 50.79600015189831], [-3.169567448626603, 50.79628854230067], [-3.1688965483777327, 50.7959524750752], [-3.1739788637994804, 50.79175451644005], [-3.1759887870763768, 50.79290824342705], [-3.175935099054295, 50.794281210820394], [-3.175619870771286, 50.79505926022363]]]}}, {"type": "Feature", "properties": {"type": "postcode-cell", "postcode": "EX14 2UW", "postcodes": ["EX14 2UW"]}, "geometry": {"type": "Polygon", "coordinates": [[[-3.175935099054295, 50.794281210820394], [-3.180079024146453, 50.795444463255485], [-3.179212620455149, 50.79643130246766], [-3.175619870771286, 50.79505926022363], [-3.175935099054295, 50.794281210820394]]]}}, {"type": "Feature", "properties": {"type": "postcode-cell", "postcode": "EX14 1UU", "postcodes": ["EX14 1UU"]}, "geometry": {"type": "Polygon", "coordinates": [[[-3.1790251100612053, 50.80242879347916], [-3.178402022634224, 50.80253182088109], [-3.1760824382976227, 50.802137162628945], [-3.1746727100981063, 50.80133605320993], [-3.1782633786820558, 50.80136597201539], [-3.179144767845725, 50.80155866436321], [-3.1794887901952964, 50.80195722355987], [-3.1790251100612053, 50.80242879347916]]]}}, {"type": "Feature", "properties": {"type": "postcode-cell", "postcode": "EX14 2UL", "postcodes": ["EX14 2UL"]}, "geometry": {"type": "Polygon", "coordinates": [[[-3.1784672932144713, 50.79741284733035], [-3.1784119210084674, 50.79745487230947], [-3.1781043979107197, 50.79744883836776], [-3.174847031633643, 50.79629251403237], [-3.1747588002777123, 50.79600015189831], [-3.1754478309811343, 50.79527602561416], [-3.178614849994274, 50.7970858426596], [-3.1784672932144713, 50.79741284733035]]]}}, {"type": "Feature", "properties": {"type": "postcode-cell", "postcode": "EX14 1HW", "postcodes": ["EX14 1HW"]}, "geometry": {"type": "Polygon", "coordinates": [[[-3.1795736654523195, 50.79908687544877], [-3.1794693838289745, 50.800251184212854], [-3.1736919254610303, 50.800946339431356], [-3.1735581112203812, 50.8009121856747], [-3.1748697250018036, 50.79937087203888], [-3.1758274825369326, 50.7991647089857], [-3.1790364544363845, 50.79874605371909], [-3.1795736654523195, 50.79908687544877]]]}}, {"type": "Feature", "properties": {"type": "postcode-cell", "postcode": "EX14 1HN", "postcodes": ["EX14 1HN"]}, "geometry": {"type": "Polygon", "coordinates": [[[-3.17990464690704, 50.800513883002104], [-3.1797364177648775, 50.80080204906427], [-3.1782633786820558, 50.80136597201539], [-3.1746727100981063, 50.80133605320993], [-3.1736919254610303, 50.800946339431356], [-3.1794693838289745, 50.800251184212854], [-3.17990464690704, 50.800513883002104]]]}}, {"type": "Feature", "properties": {"type": "postcode-cell", "postcode": "EX14 2UN", "postcodes": ["EX14 2UN"]}, "geometry": {"type": "Polygon", "coordinates": [[[-3.178614849994274, 50.7970858426596], [-3.1754478309811343, 50.79527602561416], [-3.175619870771286, 50.79505926022363], [-3.179212620455149, 50.79643130246766], [-3.179329682962038, 50.79656843364044], [-3.178614849994274, 50.7970858426596]]]}}, {"type": "Feature", "properties": {"type": "postcode-cell", "postcode": "EX14 1PT", "postcodes": ["EX14 1PT"]}, "geometry": {"type": "Polygon", "coordinates": [[[-3.180118133603908, 50.805102146178065], [-3.1797622334423954, 50.80680634312381], [-3.1769158082172515, 50.80426336015727], [-3.177056518704206, 50.8035785960793], [-3.1785178519797332, 50.80372837576705], [-3.180118133603908, 50.805102146178065]]]}}, {"type": "Feature", "properties": {"type": "postcode-cell", "postcode": "EX14 1JT", "postcodes": ["EX14 1JT"]}, "geometry": {"type": "Polygon", "coordinates": [[[-3.178402022634224, 50.80253182088109], [-3.178848333791435, 50.80323276815959], [-3.1785178519797332, 50.80372837576705], [-3.177056518704206, 50.8035785960793], [-3.1760824382976227, 50.802137162628945], [-3.178402022634224, 50.80253182088109]]]}}, {"type": "Feature", "properties": {"type": "postcode-cell", "postcode": "EX14 2HP", "postcodes": ["EX14 2HP"]}, "geometry": {"type": "Polygon", "coordinates": [[[-3.1790364544363845, 50.79874605371909], [-3.1758274825369326, 50.7991647089857], [-3.1781043979107197, 50.79744883836776], [-3.1784119210084674, 50.79745487230947], [-3.17907746851853, 50.79865687804705], [-3.1790364544363845, 50.79874605371909]]]}}, {"type": "Feature", "properties": {"type": "postcode-cell", "postcode": "EX14 9UP", "postcodes": ["EX14 9UP"]}, "geometry": {"type": "Polygon", "coordinates": [[[-3.1760824382976227, 50.802137162628945], [-3.177056518704206, 50.8035785960793], [-3.1769158082172515, 50.80426336015727], [-3.1739201925379557, 50.80475678745723], [-3.170736840641551, 50.80333014122253], [-3.172327305576802, 50.80119433037214], [-3.1735581112203812, 50.8009121856747], [-3.1736919254610303, 50.800946339431356], [-3.1746727100981063, 50.80133605320993], [-3.1760824382976227, 50.802137162628945]]]}}, {"type": "Feature", "properties": {"type": "postcode-cell", "postcode": "EX14 9TQ", "postcodes": ["EX14 9TQ"]}, "geometry": {"type": "Polygon", "coordinates": [[[-3.174847031633643, 50.79629251403237], [-3.1748697250018036, 50.79937087203888], [-3.1735581112203812, 50.8009121856747], [-3.172327305576802, 50.80119433037214], [-3.170468622340934, 50.80001171470446], [-3.169567448626603, 50.79628854230067], [-3.1747588002777123, 50.79600015189831], [-3.174847031633643, 50.79629251403237]]]}}, {"type": "Feature", "properties": {"type": "postcode-cell", "postcode": "EX14 9TG", "postcodes": ["EX14 9TG"]}, "geometry": {"type": "Polygon", "coordinates": [[[-3.1781043979107197, 50.79744883836776], [-3.1758274825369326, 50.7991647089857], [-3.1748697250018036, 50.79937087203888], [-3.174847031633643, 50.79629251403237], [-3.1781043979107197, 50.79744883836776]]]}}, {"type": "Feature", "properties": {"type": "postcode-cell", "postcode": "EX14 1NX", "postcodes": ["EX14 1NX"]}, "geometry": {"type": "Polygon", "coordinates": [[[-3.1799919122753475, 50.80823243301439], [-3.1774304430271156, 50.807864125441725], [-3.1739201925379557, 50.80475678745723], [-3.1769158082172515, 50.80426336015727], [-3.1797622334423954, 50.80680634312381], [-3.1799919122753475, 50.80823243301439]]]}}, {"type": "Feature", "properties": {"type": "postcode-cell", "postcode": "EX14 4PA", "postcodes": ["EX14 4PA"]}, "geometry": {"type": "Polygon", "coordinates": [[[-3.1774304430271156, 50.807864125441725], [-3.175340480264007, 50.80808018801302], [-3.1706037202096806, 50.80517326627874], [-3.170564524875571, 50.80514170045718], [-3.1698304166416986, 50.8038064466805], [-3.170736840641551, 50.80333014122253], [-3.1739201925379557, 50.80475678745723], [-3.1774304430271156, 50.807864125441725]]]}}, {"type": "Feature", "properties": {"type": "postcode-cell", "postcode": "EX14 4PU", "postcodes": ["EX14 4PU"]}, "geometry": {"type": "Polygon", "coordinates": [[[-3.1728024379824107, 50.80812222960872], [-3.1706037202096806, 50.80517326627874], [-3.175340480264007, 50.80808018801302], [-3.1735186108590283, 50.80851940800706], [-3.1728024379824107, 50.80812222960872]]]}}, {"type": "Feature", "properties": {"type": "postcode-cell", "postcode": "EX14 4PT", "postcodes": ["EX14 4PT"]}, "geometry": {"type": "Polygon", "coordinates": [[[-3.1735186108590283, 50.80851940800706], [-3.1687078801901336, 50.81160209478761], [-3.1672299894792295, 50.81011999481715], [-3.1664298605311596, 50.80967133627657], [-3.170503123177171, 50.80731424154361], [-3.1728024379824107, 50.80812222960872], [-3.1735186108590283, 50.80851940800706]]]}}, {"type": "Feature", "properties": {"type": "postcode-cell", "postcode": "EX14 4PX", "postcodes": ["EX14 4PX"]}, "geometry": {"type": "Polygon", "coordinates": [[[-3.1706037202096806, 50.80517326627874], [-3.1728024379824107, 50.80812222960872], [-3.170503123177171, 50.80731424154361], [-3.170564524875571, 50.80514170045718], [-3.1706037202096806, 50.80517326627874]]]}}, {"type": "Feature", "properties": {"type": "postcode-cell", "postcode": "EX14 4PR", "postcodes": ["EX14 4PR"]}, "geometry": {"type": "Polygon", "coordinates": [[[-3.170564524875571, 50.80514170045718], [-3.170503123177171, 50.80731424154361], [-3.1664298605311596, 50.80967133627657], [-3.1650899894784965, 50.808919994816236], [-3.163421992021334, 50.807287122793696], [-3.1655421853676997, 50.80459922633953], [-3.1698304166416986, 50.8038064466805], [-3.170564524875571, 50.80514170045718]]]}}, {"type": "Feature", "properties": {"type": "postcode-cell", "postcode": "EX14 9TH", "postcodes": ["EX14 9TH"]}, "geometry": {"type": "Polygon", "coordinates": [[[-3.1698304166416986, 50.8038064466805], [-3.1655421853676997, 50.80459922633953], [-3.1619353272916357, 50.80129967384252], [-3.161879585220011, 50.79905980848817], [-3.170468622340934, 50.80001171470446], [-3.172327305576802, 50.80119433037214], [-3.170736840641551, 50.80333014122253], [-3.1698304166416986, 50.8038064466805]]]}}, {"type": "Feature", "properties": {"type": "postcode-cell", "postcode": "EX14 9TT", "postcodes": ["EX14 9TT"]}, "geometry": {"type": "Polygon", "coordinates": [[[-3.1739788637994804, 50.79175451644005], [-3.1688965483777327, 50.7959524750752], [-3.1653983824866914, 50.79513332629739], [-3.1666699894867745, 50.79392999480449], [-3.164189989486293, 50.79178999480284], [-3.1655999894875637, 50.79095999480215], [-3.1688199894899842, 50.7900599948014], [-3.169849989491038, 50.789199994800725], [-3.17024532922749, 50.78834588251615], [-3.1739788637994804, 50.79175451644005]]]}}, {"type": "Feature", "properties": {"type": "postcode-cell", "postcode": "EX14 9TJ", "postcodes": ["EX14 9TJ"]}, "geometry": {"type": "Polygon", "coordinates": [[[-3.169567448626603, 50.79628854230067], [-3.170468622340934, 50.80001171470446], [-3.161879585220011, 50.79905980848817], [-3.161163823353431, 50.798109634414395], [-3.1616799894819274, 50.7975699948074], [-3.164249989484169, 50.796219994806314], [-3.1653983824866914, 50.79513332629739], [-3.1688965483777327, 50.7959524750752], [-3.169567448626603, 50.79628854230067]]]}}, {"type": "Feature", "properties": {"type": "postcode-cell", "postcode": "EX14 9UX", "postcodes": ["EX14 9UX"]}, "geometry": {"type": "Polygon", "coordinates": [[[-3.1575833137184235, 50.80311282064242], [-3.157434492642329, 50.807076387924724], [-3.155479989473554, 50.80691999481481], [-3.153279989472678, 50.80593999481407], [-3.155159989475424, 50.80267999481151], [-3.155432689514084, 50.80245328074324], [-3.1575833137184235, 50.80311282064242]]]}}, {"type": "Feature", "properties": {"type": "postcode-cell", "postcode": "EX14 9UU", "postcodes": ["EX14 9UU"]}, "geometry": {"type": "Polygon", "coordinates": [[[-3.1575833137184235, 50.80311282064242], [-3.1619353272916357, 50.80129967384252], [-3.1655421853676997, 50.80459922633953], [-3.163421992021334, 50.807287122793696], [-3.1631899894782314, 50.807059994814814], [-3.1612299894768694, 50.8073799948151], [-3.157434492642329, 50.807076387924724], [-3.1575833137184235, 50.80311282064242]]]}}, {"type": "Feature", "properties": {"type": "postcode-cell", "postcode": "EX14 9UY", "postcodes": ["EX14 9UY"]}, "geometry": {"type": "Polygon", "coordinates": [[[-3.161879585220011, 50.79905980848817], [-3.1619353272916357, 50.80129967384252], [-3.1575833137184235, 50.80311282064242], [-3.155432689514084, 50.80245328074324], [-3.1568799894771815, 50.80124999481036], [-3.160359989480443, 50.7989499948085], [-3.161163823353431, 50.798109634414395], [-3.161879585220011, 50.79905980848817]]]}}]}