{"type": "FeatureCollection", "features": [{"type": "Feature", "properties": {"type": "ward-outline", "name": "Ilfracombe West"}, "geometry": {"type": "Polygon", "coordinates": [[[-4.09919, 51.17574], [-4.09933, 51.17579], [-4.10675, 51.17722], [-4.11081, 51.17727], [-4.11605, 51.17874], [-4.1217, 51.1795], [-4.12767, 51.17929], [-4.13325, 51.17952], [-4.13932, 51.17819], [-4.14792, 51.17686], [-4.15944, 51.176], [-4.15948, 51.17773], [-4.15815, 51.17812], [-4.15797, 51.1789], [-4.15872, 51.18113], [-4.16086, 51.18239], [-4.15876, 51.18388], [-4.15979, 51.18773], [-4.15893, 51.18924], [-4.15946, 51.18953], [-4.16076, 51.19218], [-4.16177, 51.19312], [-4.1646, 51.19462], [-4.16558, 51.19459], [-4.16923, 51.19581], [-4.17096, 51.19549], [-4.17219, 51.19578], [-4.1731, 51.19533], [-4.17393, 51.19277], [-4.17361, 51.19218], [-4.17409, 51.19078], [-4.17399, 51.18936], [-4.17313, 51.18658], [-4.17191, 51.18518], [-4.17169, 51.18369], [-4.17239, 51.18294], [-4.17461, 51.18295], [-4.17787, 51.18169], [-4.1788, 51.17966], [-4.17943, 51.1792], [-4.1809, 51.17899], [-4.18462, 51.18027], [-4.18837, 51.18306], [-4.19284, 51.18417], [-4.1936, 51.18682], [-4.19774, 51.18781], [-4.19765, 51.18872], [-4.19646, 51.19046], [-4.19521, 51.19126], [-4.19448, 51.19275], [-4.19612, 51.19579], [-4.19498, 51.1979], [-4.19311, 51.19891], [-4.19311, 51.19886], [-4.19072, 51.19996], [-4.1889, 51.19942], [-4.1876, 51.19956], [-4.18736, 51.19982], [-4.18692, 51.19959], [-4.18365, 51.19962], [-4.18368, 51.19989], [-4.18298, 51.19958], [-4.18303, 51.19917], [-4.18183, 51.19876], [-4.1813, 51.19882], [-4.18133, 51.1991], [-4.18041, 51.19858], [-4.1801, 51.19877], [-4.18017, 51.19805], [-4.17764, 51.19731], [-4.17728, 51.1975], [-4.177, 51.19765], [-4.17723, 51.19825], [-4.17677, 51.19829], [-4.17671, 51.19861], [-4.17638, 51.19827], [-4.17569, 51.19848], [-4.17611, 51.19906], [-4.17494, 51.1987], [-4.17501, 51.19909], [-4.17469, 51.19875], [-4.17396, 51.19883], [-4.17435, 51.19913], [-4.17406, 51.19933], [-4.17307, 51.19896], [-4.17321, 51.19923], [-4.1728, 51.19925], [-4.17157, 51.199], [-4.17113, 51.20101], [-4.17015, 51.2007], [-4.16984, 51.20096], [-4.17052, 51.2016], [-4.16896, 51.20108], [-4.16851, 51.20132], [-4.16813, 51.20116], [-4.16692, 51.20174], [-4.16739, 51.20231], [-4.16669, 51.2021], [-4.16677, 51.20276], [-4.16638, 51.20253], [-4.16613, 51.20282], [-4.16553, 51.20256], [-4.16315, 51.20256], [-4.16265, 51.20227], [-4.16276, 51.20254], [-4.16154, 51.20233], [-4.16156, 51.20258], [-4.1611, 51.20257], [-4.1594, 51.20177], [-4.15862, 51.20198], [-4.15878, 51.20242], [-4.15778, 51.20226], [-4.1571, 51.20269], [-4.15669, 51.20332], [-4.15694, 51.20378], [-4.15624, 51.20383], [-4.15602, 51.20429], [-4.1546, 51.20432], [-4.15388, 51.20398], [-4.15359, 51.2042], [-4.15258, 51.20412], [-4.15175, 51.20346], [-4.1515, 51.20393], [-4.15217, 51.20445], [-4.15152, 51.20444], [-4.15089, 51.20397], [-4.15021, 51.20443], [-4.15018, 51.20442], [-4.1487, 51.20359], [-4.14898, 51.20418], [-4.14796, 51.20374], [-4.14806, 51.20407], [-4.14612, 51.20408], [-4.1461, 51.20409], [-4.14516, 51.20333], [-4.13837, 51.20214], [-4.13246, 51.20148], [-4.13275, 51.2023], [-4.13181, 51.20268], [-4.13167, 51.20362], [-4.12988, 51.2051], [-4.12731, 51.20514], [-4.12725, 51.20549], [-4.12644, 51.20567], [-4.12588, 51.20628], [-4.12506, 51.20551], [-4.12188, 51.20503], [-4.12026, 51.20442], [-4.11664, 51.20209], [-4.11431, 51.20171], [-4.11197, 51.20091], [-4.1107, 51.19956], [-4.10715, 51.19701], [-4.10616, 51.19414], [-4.10658, 51.18893], [-4.10612, 51.18706], [-4.10452, 51.18393], [-4.10229, 51.18147], [-4.10003, 51.17794], [-4.09919, 51.17574]]]}}, {"type": "Feature", "properties": {"type": "postcode-cell", "postcode": "EX34 7EJ", "postcodes": ["EX34 7EJ"]}, "geometry": {"type": "Polygon", "coordinates": [[[-4.175883902802814, 51.19338650049883], [-4.173721180329564, 51.192385004230054], [-4.173609989960529, 51.19217999511849], [-4.174089989961479, 51.190779995117325], [-4.173989989962032, 51.189359995116135], [-4.173129989962654, 51.18657999511381], [-4.171909989962424, 51.185179995112655], [-4.171874749831428, 51.18494133050617], [-4.172838701595527, 51.18294201973353], [-4.174609989965267, 51.18294999511079], [-4.177869989968072, 51.181689995109735], [-4.178799989969601, 51.179659995108025], [-4.179429989970238, 51.17919999510764], [-4.180899989971346, 51.178989995107464], [-4.184619989973353, 51.18026999510854], [-4.188369989974722, 51.183059995110845], [-4.192839989977328, 51.184169995111766], [-4.193599989976694, 51.18681999511397], [-4.197739989979124, 51.18780999511478], [-4.1976499899786655, 51.188719995115555], [-4.1964599899770825, 51.19045999511702], [-4.195209989975866, 51.19125999511769], [-4.194479989974712, 51.19274999511894], [-4.196119989974514, 51.19578999512149], [-4.194979989972806, 51.19789999512324], [-4.194310895508786, 51.19826138612682], [-4.175883902802814, 51.19338650049883]]]}}, {"type": "Feature", "properties": {"type": "postcode-cell", "postcode": "EX34 8NZ", "postcodes": ["EX34 8NZ"]}, "geometry": {"type": "Polygon", "coordinates": [[[-4.146343005203812, 51.184786837051504], [-4.140879728344927, 51.18686269662968], [-4.13834432562159, 51.1865156623333], [-4.133830370405313, 51.17939284456962], [-4.139319989943035, 51.178189995106884], [-4.147919989949539, 51.17685999510575], [-4.1533651928459125, 51.176453640707074], [-4.146343005203812, 51.184786837051504]]]}}, {"type": "Feature", "properties": {"type": "postcode-cell", "postcode": "EX34 8FX", "postcodes": ["EX34 8FX"]}, "geometry": {"type": "Polygon", "coordinates": [[[-4.175883902802814, 51.19338650049883], [-4.194310895508786, 51.19826138612682], [-4.193109989971068, 51.19890999512408], [-4.193109989971091, 51.198859995124074], [-4.190719989968955, 51.19995999512496], [-4.188899989967933, 51.199419995124515], [-4.187599989966972, 51.199559995124645], [-4.187359989966692, 51.19981999512485], [-4.18691998996649, 51.19958999512466], [-4.1836499899642146, 51.19961999512467], [-4.183679989964115, 51.19988999512491], [-4.182979989963768, 51.199579995124644], [-4.183029989963983, 51.19916999512431], [-4.181829989963331, 51.198759995123964], [-4.181299989962941, 51.198819995124026], [-4.181329989962838, 51.19909999512426], [-4.1804099899624285, 51.19857999512383], [-4.180099989962133, 51.19876999512398], [-4.1801699899624944, 51.19804999512337], [-4.17763998996107, 51.19730999512276], [-4.17727998996074, 51.19749999512292], [-4.176999989960478, 51.197649995123044], [-4.1772299899603755, 51.19824999512354], [-4.176769989960042, 51.19828999512358], [-4.176709989959859, 51.198609995123846], [-4.176379989959779, 51.19826999512356], [-4.175689989959211, 51.19847999512374], [-4.176109989959248, 51.199059995124244], [-4.174939989958596, 51.19869999512394], [-4.175009989958474, 51.19908999512427], [-4.174689989958402, 51.19874999512397], [-4.174627943061686, 51.19875679497128], [-4.175883902802814, 51.19338650049883]]]}}, {"type": "Feature", "properties": {"type": "postcode-cell", "postcode": "EX34 8LR", "postcodes": ["EX34 8LR"]}, "geometry": {"type": "MultiPolygon", "coordinates": [[[[-4.175883902802814, 51.19338650049883], [-4.174627943061686, 51.19875679497128], [-4.173959989957862, 51.19882999512404], [-4.174349989958, 51.199129995124274], [-4.174059989957711, 51.19932999512445], [-4.173069989957188, 51.19895999512414], [-4.1732099899571695, 51.19922999512438], [-4.172799989956878, 51.19924999512439], [-4.171569989956136, 51.19899999512418], [-4.171129989954951, 51.20100999512586], [-4.170149989954411, 51.200699995125596], [-4.169839989954081, 51.20095999512583], [-4.170519989954273, 51.20159999512636], [-4.168959989953423, 51.20107999512593], [-4.168509989953008, 51.201319995126134], [-4.168129989952813, 51.20115999512599], [-4.167551684313014, 51.20143720283307], [-4.170530362581698, 51.19556946655821], [-4.170959989957254, 51.19548999512125], [-4.172189989957975, 51.19577999512149], [-4.173099989958802, 51.19532999512113], [-4.173929989960494, 51.19276999511897], [-4.173721180329564, 51.192385004230054], [-4.175883902802814, 51.19338650049883]]], [[[-4.167215807742092, 51.20209875477899], [-4.1673899899518, 51.20230999512695], [-4.167145757136628, 51.20223672598142], [-4.167215807742092, 51.20209875477899]]]]}}, {"type": "Feature", "properties": {"type": "postcode-cell", "postcode": "EX34 8LW", "postcodes": ["EX34 8LW"]}, "geometry": {"type": "MultiPolygon", "coordinates": [[[[-4.1586931155048426, 51.20218109153146], [-4.158779989945805, 51.202419995127045], [-4.158597196520562, 51.20239074890407], [-4.1586931155048426, 51.20218109153146]]], [[[-4.162629425175333, 51.19357554393909], [-4.164599989953243, 51.194619995120526], [-4.165579989953933, 51.19458999512052], [-4.169229989955917, 51.19580999512152], [-4.170530362581698, 51.19556946655821], [-4.167551684313014, 51.20143720283307], [-4.166919989951724, 51.20173999512649], [-4.167215807742092, 51.20209875477899], [-4.167145757136628, 51.20223672598142], [-4.166689989951409, 51.20209999512678], [-4.166769989951174, 51.20275999512734], [-4.166379989951006, 51.20252999512715], [-4.166129989950706, 51.202819995127385], [-4.1655299899504055, 51.20255999512717], [-4.163149989948762, 51.20255999512717], [-4.162649989948543, 51.202269995126926], [-4.162759989948501, 51.20253999512715], [-4.161539989947751, 51.20232999512697], [-4.161559989947655, 51.2025799951272], [-4.161099989947342, 51.20256999512721], [-4.159399989946518, 51.201769995126526], [-4.15880831284716, 51.20192929345452], [-4.162629425175333, 51.19357554393909]]]]}}, {"type": "Feature", "properties": {"type": "postcode-cell", "postcode": "EX34 8EB", "postcodes": ["EX34 8EB"]}, "geometry": {"type": "Polygon", "coordinates": [[[-4.129774176647326, 51.204535077941], [-4.13066588884808, 51.20414223086669], [-4.131145657840584, 51.20405353360944], [-4.130047859993414, 51.204961202664165], [-4.129774176647326, 51.204535077941]]]}}, {"type": "Feature", "properties": {"type": "postcode-cell", "postcode": "EX34 8LN", "postcodes": ["EX34 8LN"]}, "geometry": {"type": "Polygon", "coordinates": [[[-4.14911104408587, 51.20221742855819], [-4.155265552215878, 51.19011472315848], [-4.159967459190682, 51.19056449090997], [-4.160759989951661, 51.1921799951185], [-4.1617699899519485, 51.1931199951193], [-4.162629425175333, 51.19357554393909], [-4.15880831284716, 51.20192929345452], [-4.158619989945889, 51.20197999512669], [-4.1586931155048426, 51.20218109153146], [-4.158597196520562, 51.20239074890407], [-4.157779989945186, 51.20225999512692], [-4.157099989944528, 51.20268999512729], [-4.156689989943969, 51.20331999512781], [-4.156939989943941, 51.20377999512822], [-4.156239989943436, 51.20382999512824], [-4.156019989943081, 51.204289995128605], [-4.1545999899420885, 51.20431999512866], [-4.153879989941741, 51.20397999512837], [-4.153589989941445, 51.20419999512856], [-4.152579989940783, 51.204119995128494], [-4.151749989940499, 51.203459995127936], [-4.15149998994012, 51.203929995128334], [-4.152169989940356, 51.20444999512876], [-4.151519989939911, 51.204439995128745], [-4.150889989939684, 51.20396999512836], [-4.15065202636371, 51.204130971965164], [-4.14911104408587, 51.20221742855819]]]}}, {"type": "Feature", "properties": {"type": "postcode-cell", "postcode": "EX34 8RB", "postcodes": ["EX34 8RB"]}, "geometry": {"type": "MultiPolygon", "coordinates": [[[[-4.15065202636371, 51.204130971965164], [-4.150209989939011, 51.204429995128756], [-4.150179989938994, 51.20441999512872], [-4.148699989938337, 51.203589995128056], [-4.148979989938273, 51.20417999512856], [-4.147959989937761, 51.20373999512819], [-4.1480599899376855, 51.204069995128464], [-4.146119989936344, 51.20407999512846], [-4.146099989936325, 51.20408999512849], [-4.145159989936013, 51.20332999512784], [-4.138369989931856, 51.20213999512684], [-4.133333902051609, 51.20157760944706], [-4.135852331068709, 51.200194415460814], [-4.139145686067338, 51.19909077184305], [-4.1478245019273725, 51.201312099285154], [-4.14911104408587, 51.20221742855819], [-4.15065202636371, 51.204130971965164]]], [[[-4.13225784324742, 51.20230984431521], [-4.132205080315422, 51.20219754686958], [-4.132631028040519, 51.20196362391512], [-4.132749989927911, 51.202299995126985], [-4.132389178549621, 51.20244585666657], [-4.13225784324742, 51.20230984431521]]]]}}, {"type": "Feature", "properties": {"type": "postcode-cell", "postcode": "EX34 8LS", "postcodes": ["EX34 8LS"]}, "geometry": {"type": "MultiPolygon", "coordinates": [[[[-4.171874749831428, 51.18494133050617], [-4.1716899899629265, 51.183689995111415], [-4.172389989963742, 51.18293999511077], [-4.172838701595527, 51.18294201973353], [-4.171874749831428, 51.18494133050617]]], [[[-4.155265552215878, 51.19011472315848], [-4.146343005203812, 51.184786837051504], [-4.1533651928459125, 51.176453640707074], [-4.159439989957852, 51.17599999510501], [-4.159479989957121, 51.177729995106446], [-4.158149989956032, 51.178119995106776], [-4.157969989955564, 51.17889999510742], [-4.1587199899551015, 51.18112999510928], [-4.160859989956025, 51.18238999511033], [-4.158759989953924, 51.18387999511158], [-4.159789989952947, 51.1877299951148], [-4.158929989951693, 51.18923999511607], [-4.15945998995193, 51.189529995116295], [-4.159967459190682, 51.19056449090997], [-4.155265552215878, 51.19011472315848]]]]}}, {"type": "Feature", "properties": {"type": "postcode-cell", "postcode": "EX34 8LL", "postcodes": ["EX34 8LL"]}, "geometry": {"type": "Polygon", "coordinates": [[[-4.155265552215878, 51.19011472315848], [-4.14911104408587, 51.20221742855819], [-4.1478245019273725, 51.201312099285154], [-4.140889661154193, 51.187621281954975], [-4.140879728344927, 51.18686269662968], [-4.146343005203812, 51.184786837051504], [-4.155265552215878, 51.19011472315848]]]}}, {"type": "Feature", "properties": {"type": "postcode-cell", "postcode": "EX34 8LJ", "postcodes": ["EX34 8LJ"]}, "geometry": {"type": "Polygon", "coordinates": [[[-4.1478245019273725, 51.201312099285154], [-4.139145686067338, 51.19909077184305], [-4.135455302038201, 51.197643081907806], [-4.134632015432032, 51.196902791322685], [-4.133918923298983, 51.19529118963408], [-4.140889661154193, 51.187621281954975], [-4.1478245019273725, 51.201312099285154]]]}}, {"type": "Feature", "properties": {"type": "postcode-cell", "postcode": "EX34 8BG", "postcodes": ["EX34 8BG"]}, "geometry": {"type": "Polygon", "coordinates": [[[-4.135852331068709, 51.200194415460814], [-4.131684521606186, 51.20108200436332], [-4.131246405258224, 51.199753776823925], [-4.131797543139991, 51.199377087530124], [-4.135455302038201, 51.197643081907806], [-4.139145686067338, 51.19909077184305], [-4.135852331068709, 51.200194415460814]]]}}, {"type": "Feature", "properties": {"type": "postcode-cell", "postcode": "EX34 8LH", "postcodes": ["EX34 8LH"]}, "geometry": {"type": "Polygon", "coordinates": [[[-4.140889661154193, 51.187621281954975], [-4.133918923298983, 51.19529118963408], [-4.1328724351648765, 51.19505734430675], [-4.131082284306298, 51.19415377127589], [-4.131072066760623, 51.19414569836997], [-4.132284317108726, 51.186643011525206], [-4.13834432562159, 51.1865156623333], [-4.140879728344927, 51.18686269662968], [-4.140889661154193, 51.187621281954975]]]}}, {"type": "Feature", "properties": {"type": "postcode-cell", "postcode": "EX34 8DZ", "postcodes": ["EX34 8DZ"]}, "geometry": {"type": "Polygon", "coordinates": [[[-4.132389178549621, 51.20244585666657], [-4.1318099899271, 51.20267999512732], [-4.131669989926587, 51.203619995128086], [-4.131503987767644, 51.203757253392084], [-4.129398721500289, 51.203241710637734], [-4.129295949365475, 51.20311559278024], [-4.129307446875446, 51.20295787611851], [-4.129796754685064, 51.20272225339296], [-4.13225784324742, 51.20230984431521], [-4.132389178549621, 51.20244585666657]]]}}, {"type": "Feature", "properties": {"type": "postcode-cell", "postcode": "EX34 8DW", "postcodes": ["EX34 8DW"]}, "geometry": {"type": "Polygon", "coordinates": [[[-4.13225784324742, 51.20230984431521], [-4.129796754685064, 51.20272225339296], [-4.13001100750563, 51.20178721445719], [-4.130523031725463, 51.201519979060606], [-4.131557160859089, 51.20148994021536], [-4.132205080315422, 51.20219754686958], [-4.13225784324742, 51.20230984431521]]]}}, {"type": "Feature", "properties": {"type": "postcode-cell", "postcode": "EX34 8RA", "postcodes": ["EX34 8RA"]}, "geometry": {"type": "Polygon", "coordinates": [[[-4.133333902051609, 51.20157760944706], [-4.132459989928072, 51.2014799951263], [-4.132631028040519, 51.20196362391512], [-4.132205080315422, 51.20219754686958], [-4.131557160859089, 51.20148994021536], [-4.131684521606186, 51.20108200436332], [-4.135852331068709, 51.200194415460814], [-4.133333902051609, 51.20157760944706]]]}}, {"type": "Feature", "properties": {"type": "postcode-cell", "postcode": "EX34 8LY", "postcodes": ["EX34 8LY"]}, "geometry": {"type": "Polygon", "coordinates": [[[-4.132284317108726, 51.186643011525206], [-4.131072066760623, 51.19414569836997], [-4.125112953863332, 51.19177789012525], [-4.131443826411506, 51.18661904150566], [-4.132284317108726, 51.186643011525206]]]}}, {"type": "Feature", "properties": {"type": "postcode-cell", "postcode": "EX34 8NB", "postcodes": ["EX34 8NB"]}, "geometry": {"type": "Polygon", "coordinates": [[[-4.131443826411506, 51.18661904150566], [-4.123223579504636, 51.183022894880104], [-4.123861799461864, 51.17942398694167], [-4.127669989934538, 51.179289995107816], [-4.133249989938274, 51.179519995107995], [-4.133830370405313, 51.17939284456962], [-4.13834432562159, 51.1865156623333], [-4.132284317108726, 51.186643011525206], [-4.131443826411506, 51.18661904150566]]]}}, {"type": "Feature", "properties": {"type": "postcode-cell", "postcode": "EX34 8LF", "postcodes": ["EX34 8LF"]}, "geometry": {"type": "Polygon", "coordinates": [[[-4.135455302038201, 51.197643081907806], [-4.131797543139991, 51.199377087530124], [-4.129850157211425, 51.19828656353116], [-4.130568374717492, 51.19740672950174], [-4.134632015432032, 51.196902791322685], [-4.135455302038201, 51.197643081907806]]]}}, {"type": "Feature", "properties": {"type": "postcode-cell", "postcode": "EX34 8ND", "postcodes": ["EX34 8ND"]}, "geometry": {"type": "Polygon", "coordinates": [[[-4.123223579504636, 51.183022894880104], [-4.1165125127859845, 51.18478509801577], [-4.102519204574487, 51.18172286508991], [-4.102289989916142, 51.181469995109666], [-4.10002998991615, 51.17793999510673], [-4.099189989916544, 51.175739995104905], [-4.09932998991662, 51.17578999510494], [-4.106749989921079, 51.17721999510612], [-4.110809989923845, 51.17726999510615], [-4.116049989926793, 51.17873999510737], [-4.121699989930339, 51.179499995108], [-4.123861799461864, 51.17942398694167], [-4.123223579504636, 51.183022894880104]]]}}, {"type": "Feature", "properties": {"type": "postcode-cell", "postcode": "EX34 8LT", "postcodes": ["EX34 8LT"]}, "geometry": {"type": "Polygon", "coordinates": [[[-4.131082284306298, 51.19415377127589], [-4.1286053075421085, 51.19485842510578], [-4.125806481979698, 51.195051048484], [-4.125490138150029, 51.19478236859824], [-4.1240373205173055, 51.192257983697694], [-4.125112953863332, 51.19177789012525], [-4.131072066760623, 51.19414569836997], [-4.131082284306298, 51.19415377127589]]]}}, {"type": "Feature", "properties": {"type": "postcode-cell", "postcode": "EX34 8LE", "postcodes": ["EX34 8LE"]}, "geometry": {"type": "Polygon", "coordinates": [[[-4.134632015432032, 51.196902791322685], [-4.130568374717492, 51.19740672950174], [-4.12985993432578, 51.19727259940915], [-4.128170412940566, 51.1962903696998], [-4.129943679707121, 51.19568792527112], [-4.1328724351648765, 51.19505734430675], [-4.133918923298983, 51.19529118963408], [-4.134632015432032, 51.196902791322685]]]}}, {"type": "Feature", "properties": {"type": "postcode-cell", "postcode": "EX34 8LG", "postcodes": ["EX34 8LG"]}, "geometry": {"type": "Polygon", "coordinates": [[[-4.131797543139991, 51.199377087530124], [-4.131246405258224, 51.199753776823925], [-4.131016911084092, 51.19975153108621], [-4.129146199185711, 51.198598536138775], [-4.129850157211425, 51.19828656353116], [-4.131797543139991, 51.199377087530124]]]}}, {"type": "Feature", "properties": {"type": "postcode-cell", "postcode": "EX34 8DT", "postcodes": ["EX34 8DT"]}, "geometry": {"type": "Polygon", "coordinates": [[[-4.131503987767644, 51.203757253392084], [-4.131145657840584, 51.20405353360944], [-4.13066588884808, 51.20414223086669], [-4.129012284448438, 51.2040143098244], [-4.129398721500289, 51.203241710637734], [-4.131503987767644, 51.203757253392084]]]}}, {"type": "Feature", "properties": {"type": "postcode-cell", "postcode": "EX34 8LU", "postcodes": ["EX34 8LU"]}, "geometry": {"type": "Polygon", "coordinates": [[[-4.131246405258224, 51.199753776823925], [-4.131684521606186, 51.20108200436332], [-4.131557160859089, 51.20148994021536], [-4.130523031725463, 51.201519979060606], [-4.129145151265663, 51.20096636225812], [-4.129001621054732, 51.20010570543241], [-4.131016911084092, 51.19975153108621], [-4.131246405258224, 51.199753776823925]]]}}, {"type": "Feature", "properties": {"type": "postcode-cell", "postcode": "EX34 8PW", "postcodes": ["EX34 8PW"]}, "geometry": {"type": "Polygon", "coordinates": [[[-4.131016911084092, 51.19975153108621], [-4.129001621054732, 51.20010570543241], [-4.128354778882894, 51.199920186876746], [-4.12753677852767, 51.198855709957655], [-4.128396648392599, 51.19862595518894], [-4.129146199185711, 51.198598536138775], [-4.131016911084092, 51.19975153108621]]]}}, {"type": "Feature", "properties": {"type": "postcode-cell", "postcode": "EX34 8LX", "postcodes": ["EX34 8LX"]}, "geometry": {"type": "Polygon", "coordinates": [[[-4.129850157211425, 51.19828656353116], [-4.129146199185711, 51.198598536138775], [-4.128396648392599, 51.19862595518894], [-4.128952323572246, 51.19768933175512], [-4.12985993432578, 51.19727259940915], [-4.130568374717492, 51.19740672950174], [-4.129850157211425, 51.19828656353116]]]}}, {"type": "Feature", "properties": {"type": "postcode-cell", "postcode": "EX34 8RE", "postcodes": ["EX34 8RE"]}, "geometry": {"type": "Polygon", "coordinates": [[[-4.1328724351648765, 51.19505734430675], [-4.129943679707121, 51.19568792527112], [-4.1286053075421085, 51.19485842510578], [-4.131082284306298, 51.19415377127589], [-4.1328724351648765, 51.19505734430675]]]}}, {"type": "Feature", "properties": {"type": "postcode-cell", "postcode": "EX34 8DY", "postcodes": ["EX34 8DY"]}, "geometry": {"type": "Polygon", "coordinates": [[[-4.129307446875446, 51.20295787611851], [-4.128959991080322, 51.20264263383358], [-4.129104254249332, 51.20199284990276], [-4.13001100750563, 51.20178721445719], [-4.129796754685064, 51.20272225339296], [-4.129307446875446, 51.20295787611851]]]}}, {"type": "Feature", "properties": {"type": "postcode-cell", "postcode": "EX34 8DR", "postcodes": ["EX34 8DR"]}, "geometry": {"type": "Polygon", "coordinates": [[[-4.129398721500289, 51.203241710637734], [-4.129012284448438, 51.2040143098244], [-4.128648967558751, 51.20432571204189], [-4.128607827169064, 51.20434161331494], [-4.1281503037343565, 51.20427617938054], [-4.127707063428157, 51.20382975817092], [-4.127808858393751, 51.20368018055226], [-4.128610367826232, 51.20320827830849], [-4.129295949365475, 51.20311559278024], [-4.129398721500289, 51.203241710637734]]]}}, {"type": "Feature", "properties": {"type": "postcode-cell", "postcode": "EX34 8DP", "postcodes": ["EX34 8DP"]}, "geometry": {"type": "Polygon", "coordinates": [[[-4.128607827169064, 51.20434161331494], [-4.128648967558751, 51.20432571204189], [-4.129774176647326, 51.204535077941], [-4.130047859993414, 51.204961202664165], [-4.129879989924705, 51.20509999512935], [-4.128806173699862, 51.20511671509585], [-4.128607827169064, 51.20434161331494]]]}}, {"type": "Feature", "properties": {"type": "postcode-cell", "postcode": "EX34 8LA", "postcodes": ["EX34 8LA"]}, "geometry": {"type": "Polygon", "coordinates": [[[-4.125619684128459, 51.2057949108766], [-4.125651097671121, 51.20577669659549], [-4.126259713055931, 51.205866370165616], [-4.1260325871575665, 51.20611377497635], [-4.125619684128459, 51.2057949108766]]]}}, {"type": "Feature", "properties": {"type": "postcode-cell", "postcode": "EX34 8DX", "postcodes": ["EX34 8DX"]}, "geometry": {"type": "Polygon", "coordinates": [[[-4.13001100750563, 51.20178721445719], [-4.129104254249332, 51.20199284990276], [-4.128169979730017, 51.20153637104992], [-4.129145151265663, 51.20096636225812], [-4.130523031725463, 51.201519979060606], [-4.13001100750563, 51.20178721445719]]]}}, {"type": "Feature", "properties": {"type": "postcode-cell", "postcode": "EX34 8DG", "postcodes": ["EX34 8DG"]}, "geometry": {"type": "Polygon", "coordinates": [[[-4.129295949365475, 51.20311559278024], [-4.128610367826232, 51.20320827830849], [-4.127619792882553, 51.20301140267008], [-4.127288225777285, 51.20281858868099], [-4.12811121519201, 51.2024862165246], [-4.128959991080322, 51.20264263383358], [-4.129307446875446, 51.20295787611851], [-4.129295949365475, 51.20311559278024]]]}}, {"type": "Feature", "properties": {"type": "postcode-cell", "postcode": "EX34 8DS", "postcodes": ["EX34 8DS"]}, "geometry": {"type": "Polygon", "coordinates": [[[-4.129774176647326, 51.204535077941], [-4.128648967558751, 51.20432571204189], [-4.129012284448438, 51.2040143098244], [-4.13066588884808, 51.20414223086669], [-4.129774176647326, 51.204535077941]]]}}, {"type": "Feature", "properties": {"type": "postcode-cell", "postcode": "EX34 8BH", "postcodes": ["EX34 8BH"]}, "geometry": {"type": "Polygon", "coordinates": [[[-4.129145151265663, 51.20096636225812], [-4.128169979730017, 51.20153637104992], [-4.127961289247836, 51.20155758541629], [-4.127165248845332, 51.201266669922916], [-4.126839320962671, 51.20081977442754], [-4.128354778882894, 51.199920186876746], [-4.129001621054732, 51.20010570543241], [-4.129145151265663, 51.20096636225812]]]}}, {"type": "Feature", "properties": {"type": "postcode-cell", "postcode": "EX34 8LD", "postcodes": ["EX34 8LD"]}, "geometry": {"type": "Polygon", "coordinates": [[[-4.12985993432578, 51.19727259940915], [-4.128952323572246, 51.19768933175512], [-4.126717524319169, 51.19720943933589], [-4.126573949632041, 51.19658181489286], [-4.12655665768677, 51.19646505848804], [-4.126663358985218, 51.19620851586746], [-4.128170412940566, 51.1962903696998], [-4.12985993432578, 51.19727259940915]]]}}, {"type": "Feature", "properties": {"type": "postcode-cell", "postcode": "EX34 8LQ", "postcodes": ["EX34 8LQ"]}, "geometry": {"type": "Polygon", "coordinates": [[[-4.128170412940566, 51.1962903696998], [-4.126663358985218, 51.19620851586746], [-4.125806481979698, 51.195051048484], [-4.1286053075421085, 51.19485842510578], [-4.129943679707121, 51.19568792527112], [-4.128170412940566, 51.1962903696998]]]}}, {"type": "Feature", "properties": {"type": "postcode-cell", "postcode": "EX34 8HB", "postcodes": ["EX34 8HB"]}, "geometry": {"type": "Polygon", "coordinates": [[[-4.126346044889302, 51.20534742852454], [-4.126468009222334, 51.205045596406286], [-4.126543757717251, 51.20498447561034], [-4.127207157214454, 51.20497719489636], [-4.1273893886728334, 51.20513876019716], [-4.127309989922919, 51.20513999512937], [-4.127249989922721, 51.20548999512966], [-4.1266179041431625, 51.20563045923416], [-4.126346044889302, 51.20534742852454]]]}}, {"type": "Feature", "properties": {"type": "postcode-cell", "postcode": "EX34 8EE", "postcodes": ["EX34 8EE"]}, "geometry": {"type": "Polygon", "coordinates": [[[-4.128607827169064, 51.20434161331494], [-4.128806173699862, 51.20511671509585], [-4.1273893886728334, 51.20513876019716], [-4.127207157214454, 51.20497719489636], [-4.1276758892953165, 51.20446985871469], [-4.1281503037343565, 51.20427617938054], [-4.128607827169064, 51.20434161331494]]]}}, {"type": "Feature", "properties": {"type": "postcode-cell", "postcode": "EX34 8DU", "postcodes": ["EX34 8DU"]}, "geometry": {"type": "Polygon", "coordinates": [[[-4.128959991080322, 51.20264263383358], [-4.12811121519201, 51.2024862165246], [-4.127888250947684, 51.20181461087808], [-4.127961289247836, 51.20155758541629], [-4.128169979730017, 51.20153637104992], [-4.129104254249332, 51.20199284990276], [-4.128959991080322, 51.20264263383358]]]}}, {"type": "Feature", "properties": {"type": "postcode-cell", "postcode": "EX34 8LB", "postcodes": ["EX34 8LB"]}, "geometry": {"type": "Polygon", "coordinates": [[[-4.128396648392599, 51.19862595518894], [-4.12753677852767, 51.198855709957655], [-4.127239599606333, 51.19877128063422], [-4.1267015683955695, 51.19779215038411], [-4.126717524319169, 51.19720943933589], [-4.128952323572246, 51.19768933175512], [-4.128396648392599, 51.19862595518894]]]}}, {"type": "Feature", "properties": {"type": "postcode-cell", "postcode": "EX34 8BP", "postcodes": ["EX34 8BP"]}, "geometry": {"type": "Polygon", "coordinates": [[[-4.127239599606333, 51.19877128063422], [-4.12753677852767, 51.198855709957655], [-4.128354778882894, 51.199920186876746], [-4.126839320962671, 51.20081977442754], [-4.126809512898846, 51.200813606965816], [-4.126323378049484, 51.1992335659524], [-4.126719284137823, 51.198969992919466], [-4.127239599606333, 51.19877128063422]]]}}, {"type": "Feature", "properties": {"type": "postcode-cell", "postcode": "EX34 8EL", "postcodes": ["EX34 8EL"]}, "geometry": {"type": "Polygon", "coordinates": [[[-4.126719284137823, 51.198969992919466], [-4.124514857311459, 51.19857615509334], [-4.124508199016533, 51.19843081090234], [-4.125173860510148, 51.19809026409426], [-4.1267015683955695, 51.19779215038411], [-4.127239599606333, 51.19877128063422], [-4.126719284137823, 51.198969992919466]]]}}, {"type": "Feature", "properties": {"type": "postcode-cell", "postcode": "EX34 8NA", "postcodes": ["EX34 8NA"]}, "geometry": {"type": "Polygon", "coordinates": [[[-4.1240373205173055, 51.192257983697694], [-4.122380716472063, 51.19228801415356], [-4.116679215769593, 51.191791224812974], [-4.1165125127859845, 51.18478509801577], [-4.123223579504636, 51.183022894880104], [-4.131443826411506, 51.18661904150566], [-4.125112953863332, 51.19177789012525], [-4.1240373205173055, 51.192257983697694]]]}}, {"type": "Feature", "properties": {"type": "postcode-cell", "postcode": "EX34 8EJ", "postcodes": ["EX34 8EJ"]}, "geometry": {"type": "Polygon", "coordinates": [[[-4.1267015683955695, 51.19779215038411], [-4.125173860510148, 51.19809026409426], [-4.124760744311789, 51.197781616026035], [-4.126573949632041, 51.19658181489286], [-4.126717524319169, 51.19720943933589], [-4.1267015683955695, 51.19779215038411]]]}}, {"type": "Feature", "properties": {"type": "postcode-cell", "postcode": "EX34 8DJ", "postcodes": ["EX34 8DJ"]}, "geometry": {"type": "Polygon", "coordinates": [[[-4.127888250947684, 51.20181461087808], [-4.1262730179402265, 51.20278905561467], [-4.125989654753888, 51.20281792105503], [-4.125838767162946, 51.20280935848871], [-4.125627638081371, 51.20253058006792], [-4.127165248845332, 51.201266669922916], [-4.127961289247836, 51.20155758541629], [-4.127888250947684, 51.20181461087808]]]}}, {"type": "Feature", "properties": {"type": "postcode-cell", "postcode": "EX34 8DH", "postcodes": ["EX34 8DH"]}, "geometry": {"type": "Polygon", "coordinates": [[[-4.127288225777285, 51.20281858868099], [-4.1262730179402265, 51.20278905561467], [-4.127888250947684, 51.20181461087808], [-4.12811121519201, 51.2024862165246], [-4.127288225777285, 51.20281858868099]]]}}, {"type": "Feature", "properties": {"type": "postcode-cell", "postcode": "EX34 8DQ", "postcodes": ["EX34 8DQ"]}, "geometry": {"type": "Polygon", "coordinates": [[[-4.127619792882553, 51.20301140267008], [-4.128610367826232, 51.20320827830849], [-4.127808858393751, 51.20368018055226], [-4.127619792882553, 51.20301140267008]]]}}, {"type": "Feature", "properties": {"type": "postcode-cell", "postcode": "EX34 8DF", "postcodes": ["EX34 8DF"]}, "geometry": {"type": "Polygon", "coordinates": [[[-4.127808858393751, 51.20368018055226], [-4.127707063428157, 51.20382975817092], [-4.127578619881645, 51.20380477522859], [-4.125989654753888, 51.20281792105503], [-4.1262730179402265, 51.20278905561467], [-4.127288225777285, 51.20281858868099], [-4.127619792882553, 51.20301140267008], [-4.127808858393751, 51.20368018055226]]]}}, {"type": "Feature", "properties": {"type": "postcode-cell", "postcode": "EX34 8PR", "postcodes": ["EX34 8PR"]}, "geometry": {"type": "Polygon", "coordinates": [[[-4.127207157214454, 51.20497719489636], [-4.126543757717251, 51.20498447561034], [-4.125992660458947, 51.20417829272227], [-4.125996639439783, 51.20417430897013], [-4.1276758892953165, 51.20446985871469], [-4.127207157214454, 51.20497719489636]]]}}, {"type": "Feature", "properties": {"type": "postcode-cell", "postcode": "EX34 8EG", "postcodes": ["EX34 8EG"]}, "geometry": {"type": "Polygon", "coordinates": [[[-4.127578619881645, 51.20380477522859], [-4.1260051613564, 51.204150983872104], [-4.125828508717468, 51.20282346394858], [-4.125838767162946, 51.20280935848871], [-4.125989654753888, 51.20281792105503], [-4.127578619881645, 51.20380477522859]]]}}, {"type": "Feature", "properties": {"type": "postcode-cell", "postcode": "EX34 8DE", "postcodes": ["EX34 8DE"]}, "geometry": {"type": "Polygon", "coordinates": [[[-4.1281503037343565, 51.20427617938054], [-4.1276758892953165, 51.20446985871469], [-4.125996639439783, 51.20417430897013], [-4.1260051613564, 51.204150983872104], [-4.127578619881645, 51.20380477522859], [-4.127707063428157, 51.20382975817092], [-4.1281503037343565, 51.20427617938054]]]}}, {"type": "Feature", "properties": {"type": "postcode-cell", "postcode": "EX34 8HH", "postcodes": ["EX34 8HH"]}, "geometry": {"type": "Polygon", "coordinates": [[[-4.125992660458947, 51.20417829272227], [-4.1253260262278095, 51.20437869910802], [-4.124820255012322, 51.204201838631], [-4.1245149285345075, 51.20339498541914], [-4.125828508717468, 51.20282346394858], [-4.1260051613564, 51.204150983872104], [-4.125996639439783, 51.20417430897013], [-4.125992660458947, 51.20417829272227]]]}}, {"type": "Feature", "properties": {"type": "postcode-cell", "postcode": "EX34 8EN", "postcodes": ["EX34 8EN"]}, "geometry": {"type": "Polygon", "coordinates": [[[-4.126573949632041, 51.19658181489286], [-4.124760744311789, 51.197781616026035], [-4.12410867528936, 51.19763648125229], [-4.124850351769212, 51.19701017237514], [-4.12655665768677, 51.19646505848804], [-4.126573949632041, 51.19658181489286]]]}}, {"type": "Feature", "properties": {"type": "postcode-cell", "postcode": "EX34 8EQ", "postcodes": ["EX34 8EQ"]}, "geometry": {"type": "Polygon", "coordinates": [[[-4.126839320962671, 51.20081977442754], [-4.127165248845332, 51.201266669922916], [-4.125627638081371, 51.20253058006792], [-4.1251142232372295, 51.20224985406529], [-4.124843816318114, 51.201296244071465], [-4.125917077463342, 51.200749408779814], [-4.126809512898846, 51.200813606965816], [-4.126839320962671, 51.20081977442754]]]}}, {"type": "Feature", "properties": {"type": "postcode-cell", "postcode": "EX34 8HD", "postcodes": ["EX34 8HD"]}, "geometry": {"type": "Polygon", "coordinates": [[[-4.126543757717251, 51.20498447561034], [-4.126468009222334, 51.205045596406286], [-4.1257496953196195, 51.205036149369334], [-4.12544716622412, 51.20479063114161], [-4.125281821987558, 51.20444847765582], [-4.1253260262278095, 51.20437869910802], [-4.125992660458947, 51.20417829272227], [-4.126543757717251, 51.20498447561034]]]}}, {"type": "Feature", "properties": {"type": "postcode-cell", "postcode": "EX34 8HU", "postcodes": ["EX34 8HU"]}, "geometry": {"type": "Polygon", "coordinates": [[[-4.125828508717468, 51.20282346394858], [-4.1245149285345075, 51.20339498541914], [-4.123918149137495, 51.20346913972869], [-4.123315431192738, 51.203293249346885], [-4.123557959049731, 51.20254857341168], [-4.124151730116797, 51.202317364049335], [-4.1251142232372295, 51.20224985406529], [-4.125627638081371, 51.20253058006792], [-4.125838767162946, 51.20280935848871], [-4.125828508717468, 51.20282346394858]]]}}, {"type": "Feature", "properties": {"type": "postcode-cell", "postcode": "EX34 9NG", "postcodes": ["EX34 9NG"]}, "geometry": {"type": "Polygon", "coordinates": [[[-4.125619684128459, 51.2057949108766], [-4.1260325871575665, 51.20611377497635], [-4.125879989921434, 51.20627999513032], [-4.1254340918486365, 51.2058612899405], [-4.125619684128459, 51.2057949108766]]]}}, {"type": "Feature", "properties": {"type": "postcode-cell", "postcode": "EX34 8DL", "postcodes": ["EX34 8DL"]}, "geometry": {"type": "Polygon", "coordinates": [[[-4.126323378049484, 51.1992335659524], [-4.126809512898846, 51.200813606965816], [-4.125917077463342, 51.200749408779814], [-4.125553124167304, 51.20029465627501], [-4.125669201994341, 51.199517965248525], [-4.126323378049484, 51.1992335659524]]]}}, {"type": "Feature", "properties": {"type": "postcode-cell", "postcode": "EX34 8EH", "postcodes": ["EX34 8EH"]}, "geometry": {"type": "Polygon", "coordinates": [[[-4.125669201994341, 51.199517965248525], [-4.123859228182037, 51.19936680315903], [-4.123847893137079, 51.19934650664112], [-4.124514857311459, 51.19857615509334], [-4.126719284137823, 51.198969992919466], [-4.126323378049484, 51.1992335659524], [-4.125669201994341, 51.199517965248525]]]}}, {"type": "Feature", "properties": {"type": "postcode-cell", "postcode": "EX34 8JY", "postcodes": ["EX34 8JY"]}, "geometry": {"type": "Polygon", "coordinates": [[[-4.1266179041431625, 51.20563045923416], [-4.126439989922088, 51.20566999512981], [-4.126259713055931, 51.205866370165616], [-4.125651097671121, 51.20577669659549], [-4.125791724119212, 51.205504274348954], [-4.126346044889302, 51.20534742852454], [-4.1266179041431625, 51.20563045923416]]]}}, {"type": "Feature", "properties": {"type": "postcode-cell", "postcode": "EX34 8HE", "postcodes": ["EX34 8HE"]}, "geometry": {"type": "Polygon", "coordinates": [[[-4.126346044889302, 51.20534742852454], [-4.125791724119212, 51.205504274348954], [-4.125699839902819, 51.20544804296863], [-4.125499915793308, 51.20522574683932], [-4.1257496953196195, 51.205036149369334], [-4.126468009222334, 51.205045596406286], [-4.126346044889302, 51.20534742852454]]]}}, {"type": "Feature", "properties": {"type": "postcode-cell", "postcode": "EX34 8JJ", "postcodes": ["EX34 8JJ"]}, "geometry": {"type": "Polygon", "coordinates": [[[-4.125791724119212, 51.205504274348954], [-4.125651097671121, 51.20577669659549], [-4.125619684128459, 51.2057949108766], [-4.1254340918486365, 51.2058612899405], [-4.125059989921206, 51.205509995129674], [-4.124758859551578, 51.2054645456421], [-4.125699839902819, 51.20544804296863], [-4.125791724119212, 51.205504274348954]]]}}, {"type": "Feature", "properties": {"type": "postcode-cell", "postcode": "EX34 8HF", "postcodes": ["EX34 8HF"]}, "geometry": {"type": "Polygon", "coordinates": [[[-4.1257496953196195, 51.205036149369334], [-4.125499915793308, 51.20522574683932], [-4.125223394319603, 51.205186487641406], [-4.12544716622412, 51.20479063114161], [-4.1257496953196195, 51.205036149369334]]]}}, {"type": "Feature", "properties": {"type": "postcode-cell", "postcode": "EX34 8JE", "postcodes": ["EX34 8JE"]}, "geometry": {"type": "Polygon", "coordinates": [[[-4.12544716622412, 51.20479063114161], [-4.125223394319603, 51.205186487641406], [-4.124891712491974, 51.205228842990735], [-4.124695981724057, 51.20482397817068], [-4.125281821987558, 51.20444847765582], [-4.12544716622412, 51.20479063114161]]]}}, {"type": "Feature", "properties": {"type": "postcode-cell", "postcode": "EX34 8EW", "postcodes": ["EX34 8EW"]}, "geometry": {"type": "Polygon", "coordinates": [[[-4.12655665768677, 51.19646505848804], [-4.124850351769212, 51.19701017237514], [-4.122654171191552, 51.19682449980072], [-4.122771737567396, 51.19663234721122], [-4.125490138150029, 51.19478236859824], [-4.125806481979698, 51.195051048484], [-4.126663358985218, 51.19620851586746], [-4.12655665768677, 51.19646505848804]]]}}, {"type": "Feature", "properties": {"type": "postcode-cell", "postcode": "EX34 8PP", "postcodes": ["EX34 8PP"]}, "geometry": {"type": "Polygon", "coordinates": [[[-4.125917077463342, 51.200749408779814], [-4.124843816318114, 51.201296244071465], [-4.124158274095072, 51.2010821023798], [-4.12430697580838, 51.20020418908444], [-4.125553124167304, 51.20029465627501], [-4.125917077463342, 51.200749408779814]]]}}, {"type": "Feature", "properties": {"type": "postcode-cell", "postcode": "EX34 8JD", "postcodes": ["EX34 8JD"]}, "geometry": {"type": "Polygon", "coordinates": [[[-4.125699839902819, 51.20544804296863], [-4.124758859551578, 51.2054645456421], [-4.124724288603982, 51.205459327807034], [-4.124891712491974, 51.205228842990735], [-4.125223394319603, 51.205186487641406], [-4.125499915793308, 51.20522574683932], [-4.125699839902819, 51.20544804296863]]]}}, {"type": "Feature", "properties": {"type": "postcode-cell", "postcode": "EX34 8QB", "postcodes": ["EX34 8QB"]}, "geometry": {"type": "Polygon", "coordinates": [[[-4.125553124167304, 51.20029465627501], [-4.12430697580838, 51.20020418908444], [-4.123728467808715, 51.19966017469796], [-4.123859228182037, 51.19936680315903], [-4.125669201994341, 51.199517965248525], [-4.125553124167304, 51.20029465627501]]]}}, {"type": "Feature", "properties": {"type": "postcode-cell", "postcode": "EX34 8EY", "postcodes": ["EX34 8EY"]}, "geometry": {"type": "Polygon", "coordinates": [[[-4.125173860510148, 51.19809026409426], [-4.124508199016533, 51.19843081090234], [-4.12364199186392, 51.19783166340776], [-4.12410867528936, 51.19763648125229], [-4.124760744311789, 51.197781616026035], [-4.125173860510148, 51.19809026409426]]]}}, {"type": "Feature", "properties": {"type": "postcode-cell", "postcode": "EX34 8JH", "postcodes": ["EX34 8JH"]}, "geometry": {"type": "Polygon", "coordinates": [[[-4.124891712491974, 51.205228842990735], [-4.124724288603982, 51.205459327807034], [-4.124040001452292, 51.20535604516083], [-4.124145929858632, 51.20500371509554], [-4.124415578719514, 51.20481873499781], [-4.124695981724057, 51.20482397817068], [-4.124891712491974, 51.205228842990735]]]}}, {"type": "Feature", "properties": {"type": "postcode-cell", "postcode": "EX34 8FB", "postcodes": ["EX34 8FB"]}, "geometry": {"type": "Polygon", "coordinates": [[[-4.123450510530181, 51.2048658421221], [-4.124145929858632, 51.20500371509554], [-4.124040001452292, 51.20535604516083], [-4.122813901951367, 51.20517097303246], [-4.123450510530181, 51.2048658421221]]]}}, {"type": "Feature", "properties": {"type": "postcode-cell", "postcode": "EX34 8EU", "postcodes": ["EX34 8EU"]}, "geometry": {"type": "Polygon", "coordinates": [[[-4.123847893137079, 51.19934650664112], [-4.122934785435417, 51.19894140727714], [-4.122107931282064, 51.197812549984725], [-4.122156501589104, 51.19772579373978], [-4.12364199186392, 51.19783166340776], [-4.124508199016533, 51.19843081090234], [-4.124514857311459, 51.19857615509334], [-4.123847893137079, 51.19934650664112]]]}}, {"type": "Feature", "properties": {"type": "postcode-cell", "postcode": "EX34 8HG", "postcodes": ["EX34 8HG"]}, "geometry": {"type": "Polygon", "coordinates": [[[-4.124820255012322, 51.204201838631], [-4.12408474452977, 51.204244316319105], [-4.123901201903961, 51.203579064414164], [-4.123918149137495, 51.20346913972869], [-4.1245149285345075, 51.20339498541914], [-4.124820255012322, 51.204201838631]]]}}, {"type": "Feature", "properties": {"type": "postcode-cell", "postcode": "EX34 8JF", "postcodes": ["EX34 8JF"]}, "geometry": {"type": "Polygon", "coordinates": [[[-4.125281821987558, 51.20444847765582], [-4.124695981724057, 51.20482397817068], [-4.124415578719514, 51.20481873499781], [-4.123837806112899, 51.20446679419137], [-4.123827551738589, 51.20440369678933], [-4.12408474452977, 51.204244316319105], [-4.124820255012322, 51.204201838631], [-4.1253260262278095, 51.20437869910802], [-4.125281821987558, 51.20444847765582]]]}}, {"type": "Feature", "properties": {"type": "postcode-cell", "postcode": "EX34 8EF", "postcodes": ["EX34 8EF"]}, "geometry": {"type": "Polygon", "coordinates": [[[-4.12364199186392, 51.19783166340776], [-4.122156501589104, 51.19772579373978], [-4.12201457125926, 51.19731204133092], [-4.122654171191552, 51.19682449980072], [-4.124850351769212, 51.19701017237514], [-4.12410867528936, 51.19763648125229], [-4.12364199186392, 51.19783166340776]]]}}, {"type": "Feature", "properties": {"type": "postcode-cell", "postcode": "EX34 8EP", "postcodes": ["EX34 8EP"]}, "geometry": {"type": "Polygon", "coordinates": [[[-4.122771737567396, 51.19663234721122], [-4.121758955034928, 51.19544880029519], [-4.122380716472063, 51.19228801415356], [-4.1240373205173055, 51.192257983697694], [-4.125490138150029, 51.19478236859824], [-4.122771737567396, 51.19663234721122]]]}}, {"type": "Feature", "properties": {"type": "postcode-cell", "postcode": "EX34 8JG", "postcodes": ["EX34 8JG"]}, "geometry": {"type": "Polygon", "coordinates": [[[-4.123837806112899, 51.20446679419137], [-4.123450510530181, 51.2048658421221], [-4.122813901951367, 51.20517097303246], [-4.121879989919227, 51.205029995129294], [-4.1214234064042685, 51.2048580756501], [-4.121451564738509, 51.20481395045507], [-4.121654786548479, 51.20469063269127], [-4.123567815352018, 51.204331731782474], [-4.123827551738589, 51.20440369678933], [-4.123837806112899, 51.20446679419137]]]}}, {"type": "Feature", "properties": {"type": "postcode-cell", "postcode": "EX34 8JQ", "postcodes": ["EX34 8JQ"]}, "geometry": {"type": "Polygon", "coordinates": [[[-4.124415578719514, 51.20481873499781], [-4.124145929858632, 51.20500371509554], [-4.123450510530181, 51.2048658421221], [-4.123837806112899, 51.20446679419137], [-4.124415578719514, 51.20481873499781]]]}}, {"type": "Feature", "properties": {"type": "postcode-cell", "postcode": "EX34 8EX", "postcodes": ["EX34 8EX"]}, "geometry": {"type": "Polygon", "coordinates": [[[-4.123859228182037, 51.19936680315903], [-4.123728467808715, 51.19966017469796], [-4.122962252607531, 51.200072590115575], [-4.12146413951356, 51.19966023917538], [-4.121685128489725, 51.19948165976221], [-4.122934785435417, 51.19894140727714], [-4.123847893137079, 51.19934650664112], [-4.123859228182037, 51.19936680315903]]]}}, {"type": "Feature", "properties": {"type": "postcode-cell", "postcode": "EX34 8ER", "postcodes": ["EX34 8ER"]}, "geometry": {"type": "Polygon", "coordinates": [[[-4.122654171191552, 51.19682449980072], [-4.12201457125926, 51.19731204133092], [-4.121781244690197, 51.19721976075692], [-4.121132078573908, 51.196066036692116], [-4.121758955034928, 51.19544880029519], [-4.122771737567396, 51.19663234721122], [-4.122654171191552, 51.19682449980072]]]}}, {"type": "Feature", "properties": {"type": "postcode-cell", "postcode": "EX34 8HX", "postcodes": ["EX34 8HX"]}, "geometry": {"type": "Polygon", "coordinates": [[[-4.1251142232372295, 51.20224985406529], [-4.124151730116797, 51.202317364049335], [-4.122417109744442, 51.201211996256376], [-4.122588445241152, 51.20113131765334], [-4.124158274095072, 51.2010821023798], [-4.124843816318114, 51.201296244071465], [-4.1251142232372295, 51.20224985406529]]]}}, {"type": "Feature", "properties": {"type": "postcode-cell", "postcode": "EX34 8HQ", "postcodes": ["EX34 8HQ"]}, "geometry": {"type": "Polygon", "coordinates": [[[-4.12408474452977, 51.204244316319105], [-4.123827551738589, 51.20440369678933], [-4.123567815352018, 51.204331731782474], [-4.1233459159474295, 51.204088808067134], [-4.123901201903961, 51.203579064414164], [-4.12408474452977, 51.204244316319105]]]}}, {"type": "Feature", "properties": {"type": "postcode-cell", "postcode": "EX34 8HY", "postcodes": ["EX34 8HY"]}, "geometry": {"type": "Polygon", "coordinates": [[[-4.12430697580838, 51.20020418908444], [-4.124158274095072, 51.2010821023798], [-4.122588445241152, 51.20113131765334], [-4.122962252607531, 51.200072590115575], [-4.123728467808715, 51.19966017469796], [-4.12430697580838, 51.20020418908444]]]}}, {"type": "Feature", "properties": {"type": "postcode-cell", "postcode": "EX34 8HJ", "postcodes": ["EX34 8HJ"]}, "geometry": {"type": "Polygon", "coordinates": [[[-4.123901201903961, 51.203579064414164], [-4.1233459159474295, 51.204088808067134], [-4.1225792984855945, 51.20386496078587], [-4.122734793698394, 51.20339050277117], [-4.123315431192738, 51.203293249346885], [-4.123918149137495, 51.20346913972869], [-4.123901201903961, 51.203579064414164]]]}}, {"type": "Feature", "properties": {"type": "postcode-cell", "postcode": "EX34 8HN", "postcodes": ["EX34 8HN"]}, "geometry": {"type": "Polygon", "coordinates": [[[-4.124151730116797, 51.202317364049335], [-4.123557959049731, 51.20254857341168], [-4.121548002459673, 51.20212831788486], [-4.1212605165724705, 51.201505553135], [-4.122417109744442, 51.201211996256376], [-4.124151730116797, 51.202317364049335]]]}}, {"type": "Feature", "properties": {"type": "postcode-cell", "postcode": "EX34 8JR", "postcodes": ["EX34 8JR"]}, "geometry": {"type": "Polygon", "coordinates": [[[-4.120955740486754, 51.203205076172516], [-4.121451564738509, 51.20481395045507], [-4.1214234064042685, 51.2048580756501], [-4.120259989918383, 51.204419995128774], [-4.118701889837442, 51.20341717281922], [-4.120955740486754, 51.203205076172516]]]}}, {"type": "Feature", "properties": {"type": "postcode-cell", "postcode": "EX34 8HW", "postcodes": ["EX34 8HW"]}, "geometry": {"type": "Polygon", "coordinates": [[[-4.122417109744442, 51.201211996256376], [-4.1212605165724705, 51.201505553135], [-4.121245204011035, 51.20150087870157], [-4.1208318812276135, 51.199789135456925], [-4.120833123861564, 51.199787153725524], [-4.12146413951356, 51.19966023917538], [-4.122962252607531, 51.200072590115575], [-4.122588445241152, 51.20113131765334], [-4.122417109744442, 51.201211996256376]]]}}, {"type": "Feature", "properties": {"type": "postcode-cell", "postcode": "EX34 8FL", "postcodes": ["EX34 8FL"]}, "geometry": {"type": "Polygon", "coordinates": [[[-4.1233459159474295, 51.204088808067134], [-4.123567815352018, 51.204331731782474], [-4.121654786548479, 51.20469063269127], [-4.1225792984855945, 51.20386496078587], [-4.1233459159474295, 51.204088808067134]]]}}, {"type": "Feature", "properties": {"type": "postcode-cell", "postcode": "EX34 8HL", "postcodes": ["EX34 8HL"]}, "geometry": {"type": "Polygon", "coordinates": [[[-4.123315431192738, 51.203293249346885], [-4.122734793698394, 51.20339050277117], [-4.1214805288566225, 51.20284370218791], [-4.121548002459673, 51.20212831788486], [-4.123557959049731, 51.20254857341168], [-4.123315431192738, 51.203293249346885]]]}}, {"type": "Feature", "properties": {"type": "postcode-cell", "postcode": "EX34 8JS", "postcodes": ["EX34 8JS"]}, "geometry": {"type": "Polygon", "coordinates": [[[-4.120955740486754, 51.203205076172516], [-4.118701889837442, 51.20341717281922], [-4.118105208709378, 51.20303312040861], [-4.120966884063291, 51.201510788148056], [-4.121245204011035, 51.20150087870157], [-4.1212605165724705, 51.201505553135], [-4.121548002459673, 51.20212831788486], [-4.1214805288566225, 51.20284370218791], [-4.120955740486754, 51.203205076172516]]]}}, {"type": "Feature", "properties": {"type": "postcode-cell", "postcode": "EX34 8JT", "postcodes": ["EX34 8JT"]}, "geometry": {"type": "Polygon", "coordinates": [[[-4.1214805288566225, 51.20284370218791], [-4.122734793698394, 51.20339050277117], [-4.1225792984855945, 51.20386496078587], [-4.121654786548479, 51.20469063269127], [-4.121451564738509, 51.20481395045507], [-4.120955740486754, 51.203205076172516], [-4.1214805288566225, 51.20284370218791]]]}}, {"type": "Feature", "properties": {"type": "postcode-cell", "postcode": "EX34 8PQ", "postcodes": ["EX34 8PQ"]}, "geometry": {"type": "Polygon", "coordinates": [[[-4.1165125127859845, 51.18478509801577], [-4.116679215769593, 51.191791224812974], [-4.112975951819825, 51.193886075219666], [-4.111995360916889, 51.19425489750358], [-4.106708764198055, 51.195730933478345], [-4.106159989913214, 51.19413999512021], [-4.1065799899158, 51.188929995115885], [-4.1061199899163086, 51.18705999511432], [-4.1045199899165885, 51.18392999511172], [-4.102519204574487, 51.18172286508991], [-4.1165125127859845, 51.18478509801577]]]}}, {"type": "Feature", "properties": {"type": "postcode-cell", "postcode": "EX34 8DN", "postcodes": ["EX34 8DN"]}, "geometry": {"type": "Polygon", "coordinates": [[[-4.122107931282064, 51.197812549984725], [-4.121561717707402, 51.19809186390914], [-4.120514599630744, 51.198466099532894], [-4.119494679175063, 51.197810776548714], [-4.120034547560593, 51.19699165216009], [-4.121781244690197, 51.19721976075692], [-4.12201457125926, 51.19731204133092], [-4.122156501589104, 51.19772579373978], [-4.122107931282064, 51.197812549984725]]]}}, {"type": "Feature", "properties": {"type": "postcode-cell", "postcode": "EX34 8JN", "postcodes": ["EX34 8JN"]}, "geometry": {"type": "Polygon", "coordinates": [[[-4.122934785435417, 51.19894140727714], [-4.121685128489725, 51.19948165976221], [-4.121561717707402, 51.19809186390914], [-4.122107931282064, 51.197812549984725], [-4.122934785435417, 51.19894140727714]]]}}, {"type": "Feature", "properties": {"type": "postcode-cell", "postcode": "EX34 8HZ", "postcodes": ["EX34 8HZ"]}, "geometry": {"type": "Polygon", "coordinates": [[[-4.120833123861564, 51.199787153725524], [-4.120131877758714, 51.19888886300863], [-4.120514599630744, 51.198466099532894], [-4.121561717707402, 51.19809186390914], [-4.121685128489725, 51.19948165976221], [-4.12146413951356, 51.19966023917538], [-4.120833123861564, 51.199787153725524]]]}}, {"type": "Feature", "properties": {"type": "postcode-cell", "postcode": "EX34 8FS", "postcodes": ["EX34 8FS"]}, "geometry": {"type": "Polygon", "coordinates": [[[-4.121132078573908, 51.196066036692116], [-4.118207570473606, 51.1958986359015], [-4.112975951819825, 51.193886075219666], [-4.116679215769593, 51.191791224812974], [-4.122380716472063, 51.19228801415356], [-4.121758955034928, 51.19544880029519], [-4.121132078573908, 51.196066036692116]]]}}, {"type": "Feature", "properties": {"type": "postcode-cell", "postcode": "EX34 8JA", "postcodes": ["EX34 8JA"]}, "geometry": {"type": "Polygon", "coordinates": [[[-4.121245204011035, 51.20150087870157], [-4.120966884063291, 51.201510788148056], [-4.119664284872605, 51.20118593822734], [-4.119375663148174, 51.200066383790166], [-4.1208318812276135, 51.199789135456925], [-4.121245204011035, 51.20150087870157]]]}}, {"type": "Feature", "properties": {"type": "postcode-cell", "postcode": "EX34 8ET", "postcodes": ["EX34 8ET"]}, "geometry": {"type": "Polygon", "coordinates": [[[-4.120514599630744, 51.198466099532894], [-4.120131877758714, 51.19888886300863], [-4.118856541750913, 51.19896094295021], [-4.1185761228478395, 51.19872515548113], [-4.118417583630987, 51.19792332274961], [-4.119494679175063, 51.197810776548714], [-4.120514599630744, 51.198466099532894]]]}}, {"type": "Feature", "properties": {"type": "postcode-cell", "postcode": "EX34 8ES", "postcodes": ["EX34 8ES"]}, "geometry": {"type": "Polygon", "coordinates": [[[-4.121781244690197, 51.19721976075692], [-4.120034547560593, 51.19699165216009], [-4.118207570473606, 51.1958986359015], [-4.121132078573908, 51.196066036692116], [-4.121781244690197, 51.19721976075692]]]}}, {"type": "Feature", "properties": {"type": "postcode-cell", "postcode": "EX34 8EZ", "postcodes": ["EX34 8EZ"]}, "geometry": {"type": "Polygon", "coordinates": [[[-4.119494679175063, 51.197810776548714], [-4.118417583630987, 51.19792332274961], [-4.111995360916889, 51.19425489750358], [-4.112975951819825, 51.193886075219666], [-4.118207570473606, 51.1958986359015], [-4.120034547560593, 51.19699165216009], [-4.119494679175063, 51.197810776548714]]]}}, {"type": "Feature", "properties": {"type": "postcode-cell", "postcode": "EX34 8PD", "postcodes": ["EX34 8PD"]}, "geometry": {"type": "Polygon", "coordinates": [[[-4.116606387417559, 51.20049702691189], [-4.117096494648777, 51.20114613531237], [-4.116974669087298, 51.202305424962866], [-4.116639989916915, 51.202089995126826], [-4.114373818597068, 51.201720405659636], [-4.116606387417559, 51.20049702691189]]]}}, {"type": "Feature", "properties": {"type": "postcode-cell", "postcode": "EX34 8JX", "postcodes": ["EX34 8JX"]}, "geometry": {"type": "Polygon", "coordinates": [[[-4.118105208709378, 51.20303312040861], [-4.116974669087298, 51.202305424962866], [-4.117096494648777, 51.20114613531237], [-4.119664284872605, 51.20118593822734], [-4.120966884063291, 51.201510788148056], [-4.118105208709378, 51.20303312040861]]]}}, {"type": "Feature", "properties": {"type": "postcode-cell", "postcode": "EX34 8HR", "postcodes": ["EX34 8HR"]}, "geometry": {"type": "Polygon", "coordinates": [[[-4.1208318812276135, 51.199789135456925], [-4.119375663148174, 51.200066383790166], [-4.118197344787633, 51.19983126838639], [-4.118856541750913, 51.19896094295021], [-4.120131877758714, 51.19888886300863], [-4.120833123861564, 51.199787153725524], [-4.1208318812276135, 51.199789135456925]]]}}, {"type": "Feature", "properties": {"type": "postcode-cell", "postcode": "EX34 8HP", "postcodes": ["EX34 8HP"]}, "geometry": {"type": "Polygon", "coordinates": [[[-4.119664284872605, 51.20118593822734], [-4.117096494648777, 51.20114613531237], [-4.116606387417559, 51.20049702691189], [-4.116579730881643, 51.20043692311981], [-4.118197344787633, 51.19983126838639], [-4.119375663148174, 51.200066383790166], [-4.119664284872605, 51.20118593822734]]]}}, {"type": "Feature", "properties": {"type": "postcode-cell", "postcode": "EX34 8HT", "postcodes": ["EX34 8HT"]}, "geometry": {"type": "Polygon", "coordinates": [[[-4.1185761228478395, 51.19872515548113], [-4.113401022663721, 51.198684099003], [-4.106739155777342, 51.195819037541746], [-4.106708764198055, 51.195730933478345], [-4.111995360916889, 51.19425489750358], [-4.118417583630987, 51.19792332274961], [-4.1185761228478395, 51.19872515548113]]]}}, {"type": "Feature", "properties": {"type": "postcode-cell", "postcode": "EX34 8HS", "postcodes": ["EX34 8HS"]}, "geometry": {"type": "Polygon", "coordinates": [[[-4.118856541750913, 51.19896094295021], [-4.118197344787633, 51.19983126838639], [-4.116579730881643, 51.20043692311981], [-4.113401022663721, 51.198684099003], [-4.1185761228478395, 51.19872515548113], [-4.118856541750913, 51.19896094295021]]]}}, {"type": "Feature", "properties": {"type": "postcode-cell", "postcode": "EX34 8PF", "postcodes": ["EX34 8PF"]}, "geometry": {"type": "Polygon", "coordinates": [[[-4.113401022663721, 51.198684099003], [-4.116579730881643, 51.20043692311981], [-4.116606387417559, 51.20049702691189], [-4.114373818597068, 51.201720405659636], [-4.114309989915482, 51.201709995126514], [-4.111969989914227, 51.200909995125855], [-4.110699989913946, 51.19955999512473], [-4.10714998991263, 51.19700999512261], [-4.106739155777342, 51.195819037541746], [-4.113401022663721, 51.198684099003]]]}}]}