{"type": "FeatureCollection", "features": [{"type": "Feature", "properties": {"type": "ward-outline", "name": "Ipplepen"}, "geometry": {"type": "Polygon", "coordinates": [[[-3.60259, 50.49616], [-3.60309, 50.4944], [-3.60206, 50.48905], [-3.60296, 50.48584], [-3.60236, 50.48438], [-3.6031, 50.48451], [-3.60442, 50.48404], [-3.60707, 50.48206], [-3.60858, 50.48159], [-3.6098, 50.48071], [-3.61322, 50.4756], [-3.61259, 50.47225], [-3.61439, 50.47239], [-3.6132, 50.4696], [-3.61421, 50.46921], [-3.61659, 50.46966], [-3.62096, 50.46971], [-3.62142, 50.46828], [-3.62345, 50.46667], [-3.62624, 50.46678], [-3.62734, 50.46618], [-3.63136, 50.46622], [-3.63238, 50.46692], [-3.63326, 50.46638], [-3.63398, 50.46642], [-3.63448, 50.46704], [-3.63719, 50.46785], [-3.63806, 50.46686], [-3.64062, 50.4656], [-3.64248, 50.46303], [-3.64501, 50.46116], [-3.64739, 50.46216], [-3.65306, 50.46382], [-3.65881, 50.46462], [-3.65774, 50.465], [-3.65581, 50.4665], [-3.65362, 50.4674], [-3.65409, 50.46779], [-3.65294, 50.46874], [-3.65245, 50.46814], [-3.65016, 50.46847], [-3.65012, 50.47055], [-3.65224, 50.47021], [-3.65272, 50.46977], [-3.65487, 50.4697], [-3.65516, 50.4698], [-3.65469, 50.47032], [-3.6533, 50.47064], [-3.65471, 50.47187], [-3.65549, 50.47206], [-3.65686, 50.47145], [-3.65801, 50.47169], [-3.66198, 50.46966], [-3.66259, 50.46979], [-3.66406, 50.46922], [-3.6639, 50.47103], [-3.66247, 50.47246], [-3.66355, 50.47395], [-3.66298, 50.47489], [-3.66327, 50.47566], [-3.66241, 50.47683], [-3.66245, 50.47841], [-3.66139, 50.47949], [-3.66132, 50.48018], [-3.65862, 50.47986], [-3.65754, 50.48101], [-3.65701, 50.48228], [-3.65746, 50.48275], [-3.65659, 50.48433], [-3.65421, 50.48679], [-3.65296, 50.48691], [-3.65306, 50.48848], [-3.64947, 50.48886], [-3.64964, 50.48954], [-3.64836, 50.49066], [-3.64786, 50.49295], [-3.64958, 50.49462], [-3.64915, 50.49488], [-3.64956, 50.49584], [-3.64906, 50.49624], [-3.64821, 50.49589], [-3.64534, 50.49646], [-3.64357, 50.49639], [-3.64332, 50.49668], [-3.64474, 50.49838], [-3.64205, 50.49802], [-3.64032, 50.49815], [-3.63885, 50.4978], [-3.63969, 50.49945], [-3.63872, 50.49968], [-3.63935, 50.50067], [-3.63933, 50.50184], [-3.64016, 50.50202], [-3.64061, 50.50264], [-3.64217, 50.50294], [-3.6422, 50.50319], [-3.64071, 50.50319], [-3.63878, 50.50266], [-3.63702, 50.5031], [-3.63333, 50.50507], [-3.63254, 50.5037], [-3.63267, 50.50293], [-3.63128, 50.5016], [-3.63162, 50.50106], [-3.63001, 50.4977], [-3.62871, 50.49712], [-3.62639, 50.4967], [-3.62646, 50.49585], [-3.62399, 50.49546], [-3.62367, 50.49491], [-3.62188, 50.49516], [-3.62101, 50.49466], [-3.61838, 50.49405], [-3.61151, 50.49303], [-3.6065, 50.49419], [-3.60447, 50.49565], [-3.60259, 50.49616]]]}}, {"type": "Feature", "properties": {"type": "postcode-cell", "postcode": "TQ12 5UL", "postcodes": ["TQ12 5UL"]}, "geometry": {"type": "Polygon", "coordinates": [[[-3.6569399038039854, 50.48020949154387], [-3.6550649145213625, 50.475249608680414], [-3.663494962410936, 50.47404074343552], [-3.662979989950281, 50.474889994547276], [-3.663269989950096, 50.47565999454785], [-3.6624099899489955, 50.476829994548794], [-3.6624499899482696, 50.47840999455003], [-3.6613899899470845, 50.47948999455084], [-3.6613199899467124, 50.4801799945514], [-3.658619989945157, 50.47985999455121], [-3.6580151774430787, 50.48050401588458], [-3.6569399038039854, 50.48020949154387]]]}}, {"type": "Feature", "properties": {"type": "postcode-cell", "postcode": "TQ12 5UN", "postcodes": ["TQ12 5UN"]}, "geometry": {"type": "Polygon", "coordinates": [[[-3.6550649145213625, 50.475249608680414], [-3.6506040319106896, 50.4721515557916], [-3.652244439075331, 50.47020591622122], [-3.652719989946229, 50.469769994543526], [-3.6548699899476196, 50.46969999454345], [-3.6551599899477556, 50.46979999454352], [-3.6546899899472116, 50.47031999454393], [-3.653299989946182, 50.47063999454422], [-3.654709989946486, 50.471869994545145], [-3.6554899899468882, 50.47205999454525], [-3.6568599899480447, 50.47144999454475], [-3.6580099899486576, 50.471689994544896], [-3.6619799899521346, 50.46965999454326], [-3.662589989952459, 50.46978999454336], [-3.664059989953661, 50.469219994542875], [-3.663899989952698, 50.47102999454426], [-3.6624699899511124, 50.472459994545396], [-3.6635499899510866, 50.47394999454654], [-3.663494962410936, 50.47404074343552], [-3.6550649145213625, 50.475249608680414]]]}}, {"type": "Feature", "properties": {"type": "postcode-cell", "postcode": "TQ12 5UJ", "postcodes": ["TQ12 5UJ"]}, "geometry": {"type": "Polygon", "coordinates": [[[-3.6550649145213625, 50.475249608680414], [-3.6569399038039854, 50.48020949154387], [-3.650584740891353, 50.48189248530048], [-3.646301803188067, 50.479061193229995], [-3.6451206618490612, 50.47342691122959], [-3.6506040319106896, 50.4721515557916], [-3.6550649145213625, 50.475249608680414]]]}}, {"type": "Feature", "properties": {"type": "postcode-cell", "postcode": "TQ9 6NG", "postcodes": ["TQ9 6NG"]}, "geometry": {"type": "Polygon", "coordinates": [[[-3.645804804138372, 50.461493960282276], [-3.647389989946489, 50.46215999453778], [-3.653059989949279, 50.46381999453896], [-3.6588099899525295, 50.46461999453943], [-3.6577399899516725, 50.46499999453975], [-3.655809989949739, 50.46649999454097], [-3.6536199899479245, 50.467399994541694], [-3.654089989948038, 50.46778999454201], [-3.652939989946859, 50.46873999454275], [-3.652449989946834, 50.468139994542305], [-3.6517256846921997, 50.46824437576316], [-3.645804804138372, 50.461493960282276]]]}}, {"type": "Feature", "properties": {"type": "postcode-cell", "postcode": "TQ12 5UT", "postcodes": ["TQ12 5UT"]}, "geometry": {"type": "Polygon", "coordinates": [[[-3.649757063104981, 50.48332497499159], [-3.649743620589352, 50.48321826293257], [-3.650584740891353, 50.48189248530048], [-3.6569399038039854, 50.48020949154387], [-3.6580151774430787, 50.48050401588458], [-3.657539989943926, 50.48100999455213], [-3.657009989942986, 50.48227999455311], [-3.6574599899430478, 50.48274999455348], [-3.6565899899417427, 50.4843299945547], [-3.654209989939068, 50.486789994556666], [-3.6529599899382195, 50.486909994556775], [-3.653044975370521, 50.48824427376788], [-3.649757063104981, 50.48332497499159]]]}}, {"type": "Feature", "properties": {"type": "postcode-cell", "postcode": "TQ12 5SA", "postcodes": ["TQ12 5SA"]}, "geometry": {"type": "Polygon", "coordinates": [[[-3.653044975370521, 50.48824427376788], [-3.6530599899375376, 50.488479994558], [-3.6494699899350853, 50.48885999455835], [-3.64963998993487, 50.48953999455887], [-3.649562608036225, 50.4896077056064], [-3.648868871137774, 50.489255519811756], [-3.6466390806592277, 50.48603823156438], [-3.6467730453573446, 50.48550821608234], [-3.649757063104981, 50.48332497499159], [-3.653044975370521, 50.48824427376788]]]}}, {"type": "Feature", "properties": {"type": "postcode-cell", "postcode": "TQ12 5SB", "postcodes": ["TQ12 5SB"]}, "geometry": {"type": "Polygon", "coordinates": [[[-3.6466390806592277, 50.48603823156438], [-3.6457227043653226, 50.48734326083489], [-3.6455385745177815, 50.48725559797635], [-3.6449136453756004, 50.48645927594399], [-3.645317038724077, 50.48581793252303], [-3.6467730453573446, 50.48550821608234], [-3.6466390806592277, 50.48603823156438]]]}}, {"type": "Feature", "properties": {"type": "postcode-cell", "postcode": "TQ9 6NQ", "postcodes": ["TQ9 6NQ"]}, "geometry": {"type": "Polygon", "coordinates": [[[-3.6517256846921997, 50.46824437576316], [-3.6501599899452315, 50.46846999454259], [-3.6501199899442147, 50.47054999454421], [-3.6522399899457176, 50.470209994543886], [-3.652244439075331, 50.47020591622122], [-3.6506040319106896, 50.4721515557916], [-3.6451206618490612, 50.47342691122959], [-3.639845056027102, 50.47275346101183], [-3.6367528841842693, 50.46771935288306], [-3.637189989937338, 50.4678499945424], [-3.6380599899383608, 50.46685999454161], [-3.6406199899405753, 50.4655999945406], [-3.6424799899429754, 50.463029994538566], [-3.6450099899454633, 50.46115999453706], [-3.645804804138372, 50.461493960282276], [-3.6517256846921997, 50.46824437576316]]]}}, {"type": "Feature", "properties": {"type": "postcode-cell", "postcode": "TQ12 5RY", "postcodes": ["TQ12 5RY"]}, "geometry": {"type": "Polygon", "coordinates": [[[-3.649562608036225, 50.4896077056064], [-3.6488074481501496, 50.49026847617096], [-3.646258120345633, 50.49030455305075], [-3.6450027838880623, 50.49000111109004], [-3.6438942637850227, 50.4883869150208], [-3.6440144191574397, 50.488241181902616], [-3.6460741332599556, 50.48807711901273], [-3.648868871137774, 50.489255519811756], [-3.649562608036225, 50.4896077056064]]]}}, {"type": "Feature", "properties": {"type": "postcode-cell", "postcode": "TQ12 5QH", "postcodes": ["TQ12 5QH"]}, "geometry": {"type": "Polygon", "coordinates": [[[-3.649757063104981, 50.48332497499159], [-3.6467730453573446, 50.48550821608234], [-3.645317038724077, 50.48581793252303], [-3.6442972882566766, 50.48570170881812], [-3.6446928225043926, 50.483514396310966], [-3.649743620589352, 50.48321826293257], [-3.649757063104981, 50.48332497499159]]]}}, {"type": "Feature", "properties": {"type": "postcode-cell", "postcode": "TQ12 5RX", "postcodes": ["TQ12 5RX"]}, "geometry": {"type": "Polygon", "coordinates": [[[-3.6445269588335774, 50.493337605771174], [-3.6441958195898723, 50.4911932722448], [-3.646258120345633, 50.49030455305075], [-3.6488074481501496, 50.49026847617096], [-3.6483599899335255, 50.49065999455976], [-3.6478599899321202, 50.492949994561535], [-3.648264289902475, 50.49334255471712], [-3.6445269588335774, 50.493337605771174]]]}}, {"type": "Feature", "properties": {"type": "postcode-cell", "postcode": "TQ12 5TQ", "postcodes": ["TQ12 5TQ"]}, "geometry": {"type": "Polygon", "coordinates": [[[-3.648868871137774, 50.489255519811756], [-3.6460741332599556, 50.48807711901273], [-3.6457227043653226, 50.48734326083489], [-3.6466390806592277, 50.48603823156438], [-3.648868871137774, 50.489255519811756]]]}}, {"type": "Feature", "properties": {"type": "postcode-cell", "postcode": "TQ12 5UF", "postcodes": ["TQ12 5UF"]}, "geometry": {"type": "Polygon", "coordinates": [[[-3.649743620589352, 50.48321826293257], [-3.6446928225043926, 50.483514396310966], [-3.6430076343441136, 50.483464839915875], [-3.6425842297607263, 50.48340536409647], [-3.639789313235045, 50.481338100173545], [-3.646301803188067, 50.479061193229995], [-3.650584740891353, 50.48189248530048], [-3.649743620589352, 50.48321826293257]]]}}, {"type": "Feature", "properties": {"type": "postcode-cell", "postcode": "TQ12 5UX", "postcodes": ["TQ12 5UX"]}, "geometry": {"type": "Polygon", "coordinates": [[[-3.6255543893670037, 50.476857642016164], [-3.620731142746602, 50.47852541359158], [-3.6129197127163435, 50.47604870177909], [-3.613219989918529, 50.47559999454888], [-3.6125899899197336, 50.472249994546324], [-3.6143899899208005, 50.47238999454638], [-3.6131999899213847, 50.46959999454426], [-3.614209989922206, 50.46920999454393], [-3.6165899899234897, 50.46965999454422], [-3.6209599899262184, 50.46970999454416], [-3.6214199899271904, 50.468279994543074], [-3.6234499899292403, 50.466669994541775], [-3.6242317291108455, 50.466700822604075], [-3.6255543893670037, 50.476857642016164]]]}}, {"type": "Feature", "properties": {"type": "postcode-cell", "postcode": "TQ12 5RZ", "postcodes": ["TQ12 5RZ"]}, "geometry": {"type": "Polygon", "coordinates": [[[-3.6457227043653226, 50.48734326083489], [-3.6460741332599556, 50.48807711901273], [-3.6440144191574397, 50.488241181902616], [-3.64380186534604, 50.488066783174], [-3.6434905300909866, 50.48741091745525], [-3.644188215529788, 50.487029843791355], [-3.6455385745177815, 50.48725559797635], [-3.6457227043653226, 50.48734326083489]]]}}, {"type": "Feature", "properties": {"type": "postcode-cell", "postcode": "TQ12 5QQ", "postcodes": ["TQ12 5QQ"]}, "geometry": {"type": "Polygon", "coordinates": [[[-3.6449136453756004, 50.48645927594399], [-3.644136968117692, 50.486604066578586], [-3.6432380183040975, 50.486064827917424], [-3.6437465800061712, 50.485784975427265], [-3.6442972882566766, 50.48570170881812], [-3.645317038724077, 50.48581793252303], [-3.6449136453756004, 50.48645927594399]]]}}, {"type": "Feature", "properties": {"type": "postcode-cell", "postcode": "TQ12 5QA", "postcodes": ["TQ12 5QA"]}, "geometry": {"type": "Polygon", "coordinates": [[[-3.6455385745177815, 50.48725559797635], [-3.644188215529788, 50.487029843791355], [-3.644136968117692, 50.486604066578586], [-3.6449136453756004, 50.48645927594399], [-3.6455385745177815, 50.48725559797635]]]}}, {"type": "Feature", "properties": {"type": "postcode-cell", "postcode": "TQ12 5TJ", "postcodes": ["TQ12 5TJ"]}, "geometry": {"type": "Polygon", "coordinates": [[[-3.6450027838880623, 50.49000111109004], [-3.6434915861772112, 50.48988577217412], [-3.64347456010883, 50.48864771313981], [-3.6438942637850227, 50.4883869150208], [-3.6450027838880623, 50.49000111109004]]]}}, {"type": "Feature", "properties": {"type": "postcode-cell", "postcode": "TQ12 5TP", "postcodes": ["TQ12 5TP"]}, "geometry": {"type": "Polygon", "coordinates": [[[-3.6400522603547856, 50.494622183213856], [-3.6411433766520873, 50.493794268484486], [-3.6445269588335774, 50.493337605771174], [-3.648264289902475, 50.49334255471712], [-3.6495799899324135, 50.494619994562775], [-3.6491499899320177, 50.49487999456301], [-3.64955998993182, 50.49583999456374], [-3.6490599899313128, 50.49623999456407], [-3.64820998993094, 50.49588999456382], [-3.645339989928855, 50.49645999456431], [-3.6435699899277694, 50.4963899945643], [-3.643319989927474, 50.49667999456454], [-3.6447399899275625, 50.49837999456581], [-3.643495262130406, 50.49821342233166], [-3.6400522603547856, 50.494622183213856]]]}}, {"type": "Feature", "properties": {"type": "postcode-cell", "postcode": "TQ12 5SF", "postcodes": ["TQ12 5SF"]}, "geometry": {"type": "Polygon", "coordinates": [[[-3.640802658329549, 50.48955399915936], [-3.640691483216247, 50.48961620275006], [-3.6398660480991825, 50.489135571250415], [-3.63987400774966, 50.489126321051344], [-3.640857567243699, 50.488985640810576], [-3.6410591688417755, 50.48910017855832], [-3.640802658329549, 50.48955399915936]]]}}, {"type": "Feature", "properties": {"type": "postcode-cell", "postcode": "TQ12 5FF", "postcodes": ["TQ12 5FF"]}, "geometry": {"type": "Polygon", "coordinates": [[[-3.6410591688417755, 50.48910017855832], [-3.6413504826842753, 50.489060447413515], [-3.6419051256016512, 50.489468117149954], [-3.6417810537974695, 50.4895402687403], [-3.640802658329549, 50.48955399915936], [-3.6410591688417755, 50.48910017855832]]]}}, {"type": "Feature", "properties": {"type": "postcode-cell", "postcode": "TQ12 5QG", "postcodes": ["TQ12 5QG"]}, "geometry": {"type": "Polygon", "coordinates": [[[-3.6437465800061712, 50.485784975427265], [-3.6430076343441136, 50.483464839915875], [-3.6446928225043926, 50.483514396310966], [-3.6442972882566766, 50.48570170881812], [-3.6437465800061712, 50.485784975427265]]]}}, {"type": "Feature", "properties": {"type": "postcode-cell", "postcode": "TQ12 5QL", "postcodes": ["TQ12 5QL"]}, "geometry": {"type": "Polygon", "coordinates": [[[-3.6437465800061712, 50.485784975427265], [-3.6432380183040975, 50.486064827917424], [-3.642670519197412, 50.486146127730365], [-3.64234441197305, 50.486057106911765], [-3.6422415562825825, 50.48592880839679], [-3.6425538250521257, 50.483443546428006], [-3.6425842297607263, 50.48340536409647], [-3.6430076343441136, 50.483464839915875], [-3.6437465800061712, 50.485784975427265]]]}}, {"type": "Feature", "properties": {"type": "postcode-cell", "postcode": "TQ12 5UG", "postcodes": ["TQ12 5UG"]}, "geometry": {"type": "Polygon", "coordinates": [[[-3.646301803188067, 50.479061193229995], [-3.639789313235045, 50.481338100173545], [-3.6349292899167978, 50.4807726736695], [-3.6320948089564884, 50.477367491310375], [-3.639845056027102, 50.47275346101183], [-3.6451206618490612, 50.47342691122959], [-3.646301803188067, 50.479061193229995]]]}}, {"type": "Feature", "properties": {"type": "postcode-cell", "postcode": "TQ12 5RW", "postcodes": ["TQ12 5RW"]}, "geometry": {"type": "Polygon", "coordinates": [[[-3.6440144191574397, 50.488241181902616], [-3.6438942637850227, 50.4883869150208], [-3.64347456010883, 50.48864771313981], [-3.6424586053021053, 50.48878447868378], [-3.642454244096874, 50.48878263958145], [-3.6423242229937265, 50.48826352888549], [-3.642559254370547, 50.48800609758755], [-3.64380186534604, 50.488066783174], [-3.6440144191574397, 50.488241181902616]]]}}, {"type": "Feature", "properties": {"type": "postcode-cell", "postcode": "TQ12 5RQ", "postcodes": ["TQ12 5RQ"]}, "geometry": {"type": "Polygon", "coordinates": [[[-3.646258120345633, 50.49030455305075], [-3.6441958195898723, 50.4911932722448], [-3.6422598606580645, 50.49117950534803], [-3.642322042473687, 50.490734348781956], [-3.643227999686888, 50.48994460720425], [-3.6434915861772112, 50.48988577217412], [-3.6450027838880623, 50.49000111109004], [-3.646258120345633, 50.49030455305075]]]}}, {"type": "Feature", "properties": {"type": "postcode-cell", "postcode": "TQ12 5SD", "postcodes": ["TQ12 5SD"]}, "geometry": {"type": "Polygon", "coordinates": [[[-3.644188215529788, 50.487029843791355], [-3.6434905300909866, 50.48741091745525], [-3.6428494925658437, 50.48714570749289], [-3.642670519197412, 50.486146127730365], [-3.6432380183040975, 50.486064827917424], [-3.644136968117692, 50.486604066578586], [-3.644188215529788, 50.487029843791355]]]}}, {"type": "Feature", "properties": {"type": "postcode-cell", "postcode": "TQ12 5RT", "postcodes": ["TQ12 5RT"]}, "geometry": {"type": "Polygon", "coordinates": [[[-3.643227999686888, 50.48994460720425], [-3.6423188579724672, 50.48942138039701], [-3.6424586053021053, 50.48878447868378], [-3.64347456010883, 50.48864771313981], [-3.6434915861772112, 50.48988577217412], [-3.643227999686888, 50.48994460720425]]]}}, {"type": "Feature", "properties": {"type": "postcode-cell", "postcode": "TQ12 5RH", "postcodes": ["TQ12 5RH"]}, "geometry": {"type": "Polygon", "coordinates": [[[-3.64380186534604, 50.488066783174], [-3.642559254370547, 50.48800609758755], [-3.6418410541270734, 50.48753382501236], [-3.6428494925658437, 50.48714570749289], [-3.6434905300909866, 50.48741091745525], [-3.64380186534604, 50.488066783174]]]}}, {"type": "Feature", "properties": {"type": "postcode-cell", "postcode": "TQ12 5RU", "postcodes": ["TQ12 5RU"]}, "geometry": {"type": "Polygon", "coordinates": [[[-3.6445269588335774, 50.493337605771174], [-3.6411433766520873, 50.493794268484486], [-3.641171670052085, 50.49216603152629], [-3.6422598606580645, 50.49117950534803], [-3.6441958195898723, 50.4911932722448], [-3.6445269588335774, 50.493337605771174]]]}}, {"type": "Feature", "properties": {"type": "postcode-cell", "postcode": "TQ12 5GG", "postcodes": ["TQ12 5GG"]}, "geometry": {"type": "Polygon", "coordinates": [[[-3.643227999686888, 50.48994460720425], [-3.642322042473687, 50.490734348781956], [-3.6415263920949577, 50.49019283165682], [-3.6417810537974695, 50.4895402687403], [-3.6419051256016512, 50.489468117149954], [-3.6423188579724672, 50.48942138039701], [-3.643227999686888, 50.48994460720425]]]}}, {"type": "Feature", "properties": {"type": "postcode-cell", "postcode": "TQ12 5RJ", "postcodes": ["TQ12 5RJ"]}, "geometry": {"type": "Polygon", "coordinates": [[[-3.6418410541270734, 50.48753382501236], [-3.6418079225797504, 50.48753578494286], [-3.6409916196047547, 50.48715917777229], [-3.6409084914147556, 50.48694599202969], [-3.6411169525154254, 50.48660695876023], [-3.64234441197305, 50.486057106911765], [-3.642670519197412, 50.486146127730365], [-3.6428494925658437, 50.48714570749289], [-3.6418410541270734, 50.48753382501236]]]}}, {"type": "Feature", "properties": {"type": "postcode-cell", "postcode": "TQ12 5UD", "postcodes": ["TQ12 5UD"]}, "geometry": {"type": "Polygon", "coordinates": [[[-3.6425538250521257, 50.483443546428006], [-3.640420741557051, 50.48494573869356], [-3.6366494627877257, 50.484688484278834], [-3.6343064481978242, 50.483252876705286], [-3.6349292899167978, 50.4807726736695], [-3.639789313235045, 50.481338100173545], [-3.6425842297607263, 50.48340536409647], [-3.6425538250521257, 50.483443546428006]]]}}, {"type": "Feature", "properties": {"type": "postcode-cell", "postcode": "TQ12 5RR", "postcodes": ["TQ12 5RR"]}, "geometry": {"type": "Polygon", "coordinates": [[[-3.642454244096874, 50.48878263958145], [-3.6422236721828525, 50.48875550212897], [-3.6416697249075844, 50.48838003153771], [-3.642053284900362, 50.488218377518315], [-3.6423242229937265, 50.48826352888549], [-3.642454244096874, 50.48878263958145]]]}}, {"type": "Feature", "properties": {"type": "postcode-cell", "postcode": "TQ12 5RP", "postcodes": ["TQ12 5RP"]}, "geometry": {"type": "Polygon", "coordinates": [[[-3.6418410541270734, 50.48753382501236], [-3.642559254370547, 50.48800609758755], [-3.6423242229937265, 50.48826352888549], [-3.642053284900362, 50.488218377518315], [-3.641690071352564, 50.48773313791507], [-3.6418079225797504, 50.48753578494286], [-3.6418410541270734, 50.48753382501236]]]}}, {"type": "Feature", "properties": {"type": "postcode-cell", "postcode": "TQ12 5TL", "postcodes": ["TQ12 5TL"]}, "geometry": {"type": "Polygon", "coordinates": [[[-3.6424586053021053, 50.48878447868378], [-3.6423188579724672, 50.48942138039701], [-3.6419051256016512, 50.489468117149954], [-3.6413504826842753, 50.489060447413515], [-3.641548438730178, 50.4888772656665], [-3.6422236721828525, 50.48875550212897], [-3.642454244096874, 50.48878263958145], [-3.6424586053021053, 50.48878447868378]]]}}, {"type": "Feature", "properties": {"type": "postcode-cell", "postcode": "TQ12 5RS", "postcodes": ["TQ12 5RS"]}, "geometry": {"type": "Polygon", "coordinates": [[[-3.6416697249075844, 50.48838003153771], [-3.641153692874636, 50.488255294708054], [-3.641690071352564, 50.48773313791507], [-3.642053284900362, 50.488218377518315], [-3.6416697249075844, 50.48838003153771]]]}}, {"type": "Feature", "properties": {"type": "postcode-cell", "postcode": "TQ12 5BZ", "postcodes": ["TQ12 5BZ"]}, "geometry": {"type": "Polygon", "coordinates": [[[-3.6422598606580645, 50.49117950534803], [-3.641171670052085, 50.49216603152629], [-3.64023454105639, 50.49143764123135], [-3.6404209872891777, 50.49006473805346], [-3.6405921735717013, 50.48999211100574], [-3.6415263920949577, 50.49019283165682], [-3.642322042473687, 50.490734348781956], [-3.6422598606580645, 50.49117950534803]]]}}, {"type": "Feature", "properties": {"type": "postcode-cell", "postcode": "TQ12 5RN", "postcodes": ["TQ12 5RN"]}, "geometry": {"type": "Polygon", "coordinates": [[[-3.641690071352564, 50.48773313791507], [-3.641153692874636, 50.488255294708054], [-3.640980997410074, 50.488310387706726], [-3.6406604279318437, 50.48833186591029], [-3.6403236242887846, 50.48826727244318], [-3.6403453245618063, 50.487637723882166], [-3.6409916196047547, 50.48715917777229], [-3.6418079225797504, 50.48753578494286], [-3.641690071352564, 50.48773313791507]]]}}, {"type": "Feature", "properties": {"type": "postcode-cell", "postcode": "TQ12 5GF", "postcodes": ["TQ12 5GF"]}, "geometry": {"type": "Polygon", "coordinates": [[[-3.6415263920949577, 50.49019283165682], [-3.6405921735717013, 50.48999211100574], [-3.640691483216247, 50.48961620275006], [-3.640802658329549, 50.48955399915936], [-3.6417810537974695, 50.4895402687403], [-3.6415263920949577, 50.49019283165682]]]}}, {"type": "Feature", "properties": {"type": "postcode-cell", "postcode": "TQ12 5QN", "postcodes": ["TQ12 5QN"]}, "geometry": {"type": "Polygon", "coordinates": [[[-3.6366494627877257, 50.484688484278834], [-3.640420741557051, 50.48494573869356], [-3.640637917786994, 50.48538236651163], [-3.6401220185643863, 50.48598908471137], [-3.6395059061278947, 50.486105355426226], [-3.6374333195039985, 50.485628849947304], [-3.6366494627877257, 50.484688484278834]]]}}, {"type": "Feature", "properties": {"type": "postcode-cell", "postcode": "TQ12 5QW", "postcodes": ["TQ12 5QW"]}, "geometry": {"type": "Polygon", "coordinates": [[[-3.6374333195039985, 50.485628849947304], [-3.6375340413827244, 50.4862675898363], [-3.636881982843222, 50.487030649426316], [-3.6361706549022923, 50.48706288178321], [-3.6325161286684504, 50.48474025444628], [-3.6343064481978242, 50.483252876705286], [-3.6366494627877257, 50.484688484278834], [-3.6374333195039985, 50.485628849947304]]]}}, {"type": "Feature", "properties": {"type": "postcode-cell", "postcode": "TQ12 5QJ", "postcodes": ["TQ12 5QJ"]}, "geometry": {"type": "Polygon", "coordinates": [[[-3.6422415562825825, 50.48592880839679], [-3.640637917786994, 50.48538236651163], [-3.640420741557051, 50.48494573869356], [-3.6425538250521257, 50.483443546428006], [-3.6422415562825825, 50.48592880839679]]]}}, {"type": "Feature", "properties": {"type": "postcode-cell", "postcode": "TQ12 5SE", "postcodes": ["TQ12 5SE"]}, "geometry": {"type": "Polygon", "coordinates": [[[-3.641153692874636, 50.488255294708054], [-3.6416697249075844, 50.48838003153771], [-3.6422236721828525, 50.48875550212897], [-3.641548438730178, 50.4888772656665], [-3.640980997410074, 50.488310387706726], [-3.641153692874636, 50.488255294708054]]]}}, {"type": "Feature", "properties": {"type": "postcode-cell", "postcode": "TQ12 5RL", "postcodes": ["TQ12 5RL"]}, "geometry": {"type": "Polygon", "coordinates": [[[-3.64234441197305, 50.486057106911765], [-3.6411169525154254, 50.48660695876023], [-3.6401220185643863, 50.48598908471137], [-3.640637917786994, 50.48538236651163], [-3.6422415562825825, 50.48592880839679], [-3.64234441197305, 50.486057106911765]]]}}, {"type": "Feature", "properties": {"type": "postcode-cell", "postcode": "TQ12 5UY", "postcodes": ["TQ12 5UY"]}, "geometry": {"type": "Polygon", "coordinates": [[[-3.641548438730178, 50.4888772656665], [-3.6413504826842753, 50.489060447413515], [-3.6410591688417755, 50.48910017855832], [-3.640857567243699, 50.488985640810576], [-3.6406604279318437, 50.48833186591029], [-3.640980997410074, 50.488310387706726], [-3.641548438730178, 50.4888772656665]]]}}, {"type": "Feature", "properties": {"type": "postcode-cell", "postcode": "TQ12 5SJ", "postcodes": ["TQ12 5SJ"]}, "geometry": {"type": "Polygon", "coordinates": [[[-3.641171670052085, 50.49216603152629], [-3.6411433766520873, 50.493794268484486], [-3.6400522603547856, 50.494622183213856], [-3.6362757990972123, 50.49456710233878], [-3.6353137804099718, 50.49274230909887], [-3.6368675675134443, 50.49130210310728], [-3.6395115513013776, 50.49117111239892], [-3.64023454105639, 50.49143764123135], [-3.641171670052085, 50.49216603152629]]]}}, {"type": "Feature", "properties": {"type": "postcode-cell", "postcode": "TQ12 5XB", "postcodes": ["TQ12 5XB"]}, "geometry": {"type": "Polygon", "coordinates": [[[-3.640857567243699, 50.488985640810576], [-3.63987400774966, 50.489126321051344], [-3.640055776610717, 50.48834663066034], [-3.6403236242887846, 50.48826727244318], [-3.6406604279318437, 50.48833186591029], [-3.640857567243699, 50.488985640810576]]]}}, {"type": "Feature", "properties": {"type": "postcode-cell", "postcode": "TQ12 5QZ", "postcodes": ["TQ12 5QZ"]}, "geometry": {"type": "Polygon", "coordinates": [[[-3.6409916196047547, 50.48715917777229], [-3.6403453245618063, 50.487637723882166], [-3.639581434007075, 50.48747674417218], [-3.63921625789257, 50.487138317669384], [-3.6392124949966997, 50.48710815525988], [-3.6397095950039042, 50.48684713751604], [-3.6409084914147556, 50.48694599202969], [-3.6409916196047547, 50.48715917777229]]]}}, {"type": "Feature", "properties": {"type": "postcode-cell", "postcode": "TQ12 5TE", "postcodes": ["TQ12 5TE"]}, "geometry": {"type": "Polygon", "coordinates": [[[-3.6409084914147556, 50.48694599202969], [-3.6397095950039042, 50.48684713751604], [-3.6395059061278947, 50.486105355426226], [-3.6401220185643863, 50.48598908471137], [-3.6411169525154254, 50.48660695876023], [-3.6409084914147556, 50.48694599202969]]]}}, {"type": "Feature", "properties": {"type": "postcode-cell", "postcode": "TQ12 5SH", "postcodes": ["TQ12 5SH"]}, "geometry": {"type": "Polygon", "coordinates": [[[-3.64023454105639, 50.49143764123135], [-3.6395115513013776, 50.49117111239892], [-3.6390408325406236, 50.490395088189345], [-3.639078327131325, 50.4903218225407], [-3.640288360024901, 50.49005012405761], [-3.6404209872891777, 50.49006473805346], [-3.64023454105639, 50.49143764123135]]]}}, {"type": "Feature", "properties": {"type": "postcode-cell", "postcode": "TQ12 5SQ", "postcodes": ["TQ12 5SQ"]}, "geometry": {"type": "Polygon", "coordinates": [[[-3.640691483216247, 50.48961620275006], [-3.6405921735717013, 50.48999211100574], [-3.6404209872891777, 50.49006473805346], [-3.640288360024901, 50.49005012405761], [-3.6393619518160003, 50.48955597746915], [-3.639473126561457, 50.489254092474184], [-3.6398660480991825, 50.489135571250415], [-3.640691483216247, 50.48961620275006]]]}}, {"type": "Feature", "properties": {"type": "postcode-cell", "postcode": "TQ12 5SW", "postcodes": ["TQ12 5SW"]}, "geometry": {"type": "Polygon", "coordinates": [[[-3.6398660480991825, 50.489135571250415], [-3.639473126561457, 50.489254092474184], [-3.6386872578929226, 50.48892206413858], [-3.6383554449279343, 50.488697960849365], [-3.639124732622867, 50.48823353130319], [-3.640055776610717, 50.48834663066034], [-3.63987400774966, 50.489126321051344], [-3.6398660480991825, 50.489135571250415]]]}}, {"type": "Feature", "properties": {"type": "postcode-cell", "postcode": "TQ12 5RA", "postcodes": ["TQ12 5RA"]}, "geometry": {"type": "Polygon", "coordinates": [[[-3.6392124949966997, 50.48710815525988], [-3.63921625789257, 50.487138317669384], [-3.638826941623162, 50.48747444853734], [-3.6380848781949418, 50.48764358720369], [-3.6380558438050614, 50.487640107318946], [-3.6380714376508148, 50.48671554823984], [-3.6392124949966997, 50.48710815525988]]]}}, {"type": "Feature", "properties": {"type": "postcode-cell", "postcode": "TQ12 5TG", "postcodes": ["TQ12 5TG"]}, "geometry": {"type": "Polygon", "coordinates": [[[-3.6380714376508148, 50.48671554823984], [-3.6375340413827244, 50.4862675898363], [-3.6374333195039985, 50.485628849947304], [-3.6395059061278947, 50.486105355426226], [-3.6397095950039042, 50.48684713751604], [-3.6392124949966997, 50.48710815525988], [-3.6380714376508148, 50.48671554823984]]]}}, {"type": "Feature", "properties": {"type": "postcode-cell", "postcode": "TQ12 5RE", "postcodes": ["TQ12 5RE"]}, "geometry": {"type": "Polygon", "coordinates": [[[-3.6403236242887846, 50.48826727244318], [-3.640055776610717, 50.48834663066034], [-3.639124732622867, 50.48823353130319], [-3.6391099972860452, 50.488196326121944], [-3.6391246430132242, 50.488126898435326], [-3.639581434007075, 50.48747674417218], [-3.6403453245618063, 50.487637723882166], [-3.6403236242887846, 50.48826727244318]]]}}, {"type": "Feature", "properties": {"type": "postcode-cell", "postcode": "TQ12 5QP", "postcodes": ["TQ12 5QP"]}, "geometry": {"type": "Polygon", "coordinates": [[[-3.6375340413827244, 50.4862675898363], [-3.6380714376508148, 50.48671554823984], [-3.6380558438050614, 50.487640107318946], [-3.6377281914965796, 50.48776961314947], [-3.6368848751214524, 50.48761180853917], [-3.636881982843222, 50.487030649426316], [-3.6375340413827244, 50.4862675898363]]]}}, {"type": "Feature", "properties": {"type": "postcode-cell", "postcode": "TQ12 5SG", "postcodes": ["TQ12 5SG"]}, "geometry": {"type": "Polygon", "coordinates": [[[-3.640288360024901, 50.49005012405761], [-3.639078327131325, 50.4903218225407], [-3.6388866563174562, 50.489827346456686], [-3.6393619518160003, 50.48955597746915], [-3.640288360024901, 50.49005012405761]]]}}, {"type": "Feature", "properties": {"type": "postcode-cell", "postcode": "TQ12 5SL", "postcodes": ["TQ12 5SL"]}, "geometry": {"type": "Polygon", "coordinates": [[[-3.6395115513013776, 50.49117111239892], [-3.6368675675134443, 50.49130210310728], [-3.636872162060438, 50.491286647709416], [-3.6376567656593664, 50.49049443304696], [-3.6390408325406236, 50.490395088189345], [-3.6395115513013776, 50.49117111239892]]]}}, {"type": "Feature", "properties": {"type": "postcode-cell", "postcode": "TQ12 5ST", "postcodes": ["TQ12 5ST"]}, "geometry": {"type": "Polygon", "coordinates": [[[-3.6391099972860452, 50.488196326121944], [-3.6380848781949418, 50.48764358720369], [-3.638826941623162, 50.48747444853734], [-3.6391246430132242, 50.488126898435326], [-3.6391099972860452, 50.488196326121944]]]}}, {"type": "Feature", "properties": {"type": "postcode-cell", "postcode": "TQ12 5SX", "postcodes": ["TQ12 5SX"]}, "geometry": {"type": "Polygon", "coordinates": [[[-3.6393619518160003, 50.48955597746915], [-3.6388866563174562, 50.489827346456686], [-3.6385008621954706, 50.48975408922184], [-3.6386872578929226, 50.48892206413858], [-3.639473126561457, 50.489254092474184], [-3.6393619518160003, 50.48955597746915]]]}}, {"type": "Feature", "properties": {"type": "postcode-cell", "postcode": "TQ12 5SS", "postcodes": ["TQ12 5SS"]}, "geometry": {"type": "Polygon", "coordinates": [[[-3.639581434007075, 50.48747674417218], [-3.6391246430132242, 50.488126898435326], [-3.638826941623162, 50.48747444853734], [-3.63921625789257, 50.487138317669384], [-3.639581434007075, 50.48747674417218]]]}}, {"type": "Feature", "properties": {"type": "postcode-cell", "postcode": "TQ12 5SP", "postcodes": ["TQ12 5SP"]}, "geometry": {"type": "Polygon", "coordinates": [[[-3.639124732622867, 50.48823353130319], [-3.6383554449279343, 50.488697960849365], [-3.6381443409998337, 50.488705418059155], [-3.6378872095075585, 50.48862095383885], [-3.6377281914965796, 50.48776961314947], [-3.6380558438050614, 50.487640107318946], [-3.6380848781949418, 50.48764358720369], [-3.6391099972860452, 50.488196326121944], [-3.639124732622867, 50.48823353130319]]]}}, {"type": "Feature", "properties": {"type": "postcode-cell", "postcode": "TQ12 5SN", "postcodes": ["TQ12 5SN"]}, "geometry": {"type": "Polygon", "coordinates": [[[-3.639078327131325, 50.4903218225407], [-3.6390408325406236, 50.490395088189345], [-3.6376567656593664, 50.49049443304696], [-3.6376977342804415, 50.489753231412], [-3.6385008621954706, 50.48975408922184], [-3.6388866563174562, 50.489827346456686], [-3.639078327131325, 50.4903218225407]]]}}, {"type": "Feature", "properties": {"type": "postcode-cell", "postcode": "TQ12 5TF", "postcodes": ["TQ12 5TF"]}, "geometry": {"type": "Polygon", "coordinates": [[[-3.6386872578929226, 50.48892206413858], [-3.6385008621954706, 50.48975408922184], [-3.6376977342804415, 50.489753231412], [-3.63768006280554, 50.48973877857902], [-3.6381443409998337, 50.488705418059155], [-3.6383554449279343, 50.488697960849365], [-3.6386872578929226, 50.48892206413858]]]}}, {"type": "Feature", "properties": {"type": "postcode-cell", "postcode": "TQ12 5TS", "postcodes": ["TQ12 5TS"]}, "geometry": {"type": "Polygon", "coordinates": [[[-3.643495262130406, 50.49821342233166], [-3.6420499899260323, 50.498019994565574], [-3.640319989924878, 50.49814999456572], [-3.638849989924113, 50.49779999456548], [-3.6396899899238586, 50.49944999456674], [-3.6387199899231346, 50.49967999456695], [-3.639178992771998, 50.50040128929403], [-3.634831657339927, 50.49972672092943], [-3.630913290323555, 50.49798097163091], [-3.6362757990972123, 50.49456710233878], [-3.6400522603547856, 50.494622183213856], [-3.643495262130406, 50.49821342233166]]]}}, {"type": "Feature", "properties": {"type": "postcode-cell", "postcode": "TQ12 5YJ", "postcodes": ["TQ12 5YJ"]}, "geometry": {"type": "Polygon", "coordinates": [[[-3.6376977342804415, 50.489753231412], [-3.6376567656593664, 50.49049443304696], [-3.636872162060438, 50.491286647709416], [-3.6361283008651752, 50.48993383628979], [-3.636269033350157, 50.489478084966606], [-3.63768006280554, 50.48973877857902], [-3.6376977342804415, 50.489753231412]]]}}, {"type": "Feature", "properties": {"type": "postcode-cell", "postcode": "TQ12 5SU", "postcodes": ["TQ12 5SU"]}, "geometry": {"type": "Polygon", "coordinates": [[[-3.6381443409998337, 50.488705418059155], [-3.63768006280554, 50.48973877857902], [-3.636269033350157, 50.489478084966606], [-3.6361355518187275, 50.489318841884526], [-3.636167376430926, 50.48922133366413], [-3.6368596491341294, 50.48865703444776], [-3.6378872095075585, 50.48862095383885], [-3.6381443409998337, 50.488705418059155]]]}}, {"type": "Feature", "properties": {"type": "postcode-cell", "postcode": "TQ12 6DD", "postcodes": ["TQ12 6DD"]}, "geometry": {"type": "Polygon", "coordinates": [[[-3.634831657339927, 50.49972672092943], [-3.639178992771998, 50.50040128929403], [-3.6393499899230637, 50.500669994567694], [-3.6393299899224933, 50.5018399945686], [-3.640159989922932, 50.502019994568734], [-3.640609989922924, 50.5026399945692], [-3.642169989923766, 50.50293999456939], [-3.6421999899236672, 50.50318999456959], [-3.640709989922724, 50.50318999456962], [-3.6387799899217543, 50.502659994569235], [-3.637019989920433, 50.50309999456963], [-3.634475765400666, 50.50445832317386], [-3.634831657339927, 50.49972672092943]]]}}, {"type": "Feature", "properties": {"type": "postcode-cell", "postcode": "TQ12 5YH", "postcodes": ["TQ12 5YH"]}, "geometry": {"type": "Polygon", "coordinates": [[[-3.636872162060438, 50.491286647709416], [-3.6368675675134443, 50.49130210310728], [-3.6353137804099718, 50.49274230909887], [-3.6336618601269324, 50.49178693197073], [-3.6333340791411013, 50.491332358258866], [-3.6342854481291065, 50.49051214066405], [-3.6361283008651752, 50.48993383628979], [-3.636872162060438, 50.491286647709416]]]}}, {"type": "Feature", "properties": {"type": "postcode-cell", "postcode": "TQ12 5QS", "postcodes": ["TQ12 5QS"]}, "geometry": {"type": "Polygon", "coordinates": [[[-3.6368848751214524, 50.48761180853917], [-3.636800018286544, 50.487662557948774], [-3.6352945359178808, 50.4874892766349], [-3.6361706549022923, 50.48706288178321], [-3.636881982843222, 50.487030649426316], [-3.6368848751214524, 50.48761180853917]]]}}, {"type": "Feature", "properties": {"type": "postcode-cell", "postcode": "TQ12 5SR", "postcodes": ["TQ12 5SR"]}, "geometry": {"type": "Polygon", "coordinates": [[[-3.636800018286544, 50.487662557948774], [-3.6368848751214524, 50.48761180853917], [-3.6377281914965796, 50.48776961314947], [-3.6378872095075585, 50.48862095383885], [-3.6368596491341294, 50.48865703444776], [-3.6365258661995075, 50.48816848459603], [-3.636800018286544, 50.487662557948774]]]}}, {"type": "Feature", "properties": {"type": "postcode-cell", "postcode": "TQ12 5QT", "postcodes": ["TQ12 5QT"]}, "geometry": {"type": "Polygon", "coordinates": [[[-3.6365258661995075, 50.48816848459603], [-3.6354509904210577, 50.488126626551434], [-3.634905814536387, 50.48753838952637], [-3.6352945359178808, 50.4874892766349], [-3.636800018286544, 50.487662557948774], [-3.6365258661995075, 50.48816848459603]]]}}, {"type": "Feature", "properties": {"type": "postcode-cell", "postcode": "TQ12 5QU", "postcodes": ["TQ12 5QU"]}, "geometry": {"type": "Polygon", "coordinates": [[[-3.6368596491341294, 50.48865703444776], [-3.636167376430926, 50.48922133366413], [-3.6353104840712405, 50.48849818488115], [-3.6354509904210577, 50.488126626551434], [-3.6365258661995075, 50.48816848459603], [-3.6368596491341294, 50.48865703444776]]]}}, {"type": "Feature", "properties": {"type": "postcode-cell", "postcode": "TQ12 5QR", "postcodes": ["TQ12 5QR"]}, "geometry": {"type": "Polygon", "coordinates": [[[-3.6352945359178808, 50.4874892766349], [-3.634905814536387, 50.48753838952637], [-3.6340228363323934, 50.487262251054325], [-3.6334376027322, 50.48687055171726], [-3.6318291850309397, 50.48525667617033], [-3.6325161286684504, 50.48474025444628], [-3.6361706549022923, 50.48706288178321], [-3.6352945359178808, 50.4874892766349]]]}}, {"type": "Feature", "properties": {"type": "postcode-cell", "postcode": "TQ12 5UB", "postcodes": ["TQ12 5UB"]}, "geometry": {"type": "Polygon", "coordinates": [[[-3.6343064481978242, 50.483252876705286], [-3.6325161286684504, 50.48474025444628], [-3.6318291850309397, 50.48525667617033], [-3.631732064632038, 50.485288401666274], [-3.628649413413243, 50.4860964944619], [-3.6216642407233786, 50.48446658126502], [-3.619749533135191, 50.483308012780874], [-3.620731142746602, 50.47852541359158], [-3.6255543893670037, 50.476857642016164], [-3.6320948089564884, 50.477367491310375], [-3.6349292899167978, 50.4807726736695], [-3.6343064481978242, 50.483252876705286]]]}}, {"type": "Feature", "properties": {"type": "postcode-cell", "postcode": "TQ12 5US", "postcodes": ["TQ12 5US"]}, "geometry": {"type": "Polygon", "coordinates": [[[-3.6334376027322, 50.48687055171726], [-3.633023675502748, 50.48861603475609], [-3.6323124757446252, 50.48860850561237], [-3.631732064632038, 50.485288401666274], [-3.6318291850309397, 50.48525667617033], [-3.6334376027322, 50.48687055171726]]]}}, {"type": "Feature", "properties": {"type": "postcode-cell", "postcode": "TQ12 5YN", "postcodes": ["TQ12 5YN"]}, "geometry": {"type": "Polygon", "coordinates": [[[-3.636269033350157, 50.489478084966606], [-3.6361283008651752, 50.48993383628979], [-3.6342854481291065, 50.49051214066405], [-3.6348533949604436, 50.489409418286925], [-3.6361355518187275, 50.489318841884526], [-3.636269033350157, 50.489478084966606]]]}}, {"type": "Feature", "properties": {"type": "postcode-cell", "postcode": "TQ12 5FZ", "postcodes": ["TQ12 5FZ"]}, "geometry": {"type": "Polygon", "coordinates": [[[-3.6362757990972123, 50.49456710233878], [-3.630913290323555, 50.49798097163091], [-3.6301618832154317, 50.498017011223666], [-3.630009989918574, 50.49769999456558], [-3.62870998991803, 50.49711999456517], [-3.6282623486167775, 50.49703896025354], [-3.6297606931655237, 50.49294012167838], [-3.6336618601269324, 50.49178693197073], [-3.6353137804099718, 50.49274230909887], [-3.6362757990972123, 50.49456710233878]]]}}, {"type": "Feature", "properties": {"type": "postcode-cell", "postcode": "TQ12 5YL", "postcodes": ["TQ12 5YL"]}, "geometry": {"type": "Polygon", "coordinates": [[[-3.632788688468409, 50.490144653843394], [-3.6343808996898477, 50.48914888952588], [-3.6348533949604436, 50.489409418286925], [-3.6342854481291065, 50.49051214066405], [-3.6333340791411013, 50.491332358258866], [-3.6327442272453716, 50.4909661431729], [-3.632788688468409, 50.490144653843394]]]}}, {"type": "Feature", "properties": {"type": "postcode-cell", "postcode": "TQ12 5TA", "postcodes": ["TQ12 5TA"]}, "geometry": {"type": "Polygon", "coordinates": [[[-3.6327442272453716, 50.4909661431729], [-3.630580562560359, 50.490628355060075], [-3.6304692973461874, 50.48979082490712], [-3.63076809483633, 50.48886333365615], [-3.631628442091482, 50.488945124408815], [-3.632640735637619, 50.489644265015144], [-3.632788688468409, 50.490144653843394], [-3.6327442272453716, 50.4909661431729]]]}}, {"type": "Feature", "properties": {"type": "postcode-cell", "postcode": "TQ12 5QY", "postcodes": ["TQ12 5QY"]}, "geometry": {"type": "Polygon", "coordinates": [[[-3.6342077926806624, 50.48874963183328], [-3.6341397908407034, 50.488831296376524], [-3.633407410488382, 50.48885030460277], [-3.633023675502748, 50.48861603475609], [-3.6334376027322, 50.48687055171726], [-3.6340228363323934, 50.487262251054325], [-3.6342077926806624, 50.48874963183328]]]}}, {"type": "Feature", "properties": {"type": "postcode-cell", "postcode": "TQ12 5QX", "postcodes": ["TQ12 5QX"]}, "geometry": {"type": "Polygon", "coordinates": [[[-3.6340228363323934, 50.487262251054325], [-3.634905814536387, 50.48753838952637], [-3.6354509904210577, 50.488126626551434], [-3.6353104840712405, 50.48849818488115], [-3.6342077926806624, 50.48874963183328], [-3.6340228363323934, 50.487262251054325]]]}}, {"type": "Feature", "properties": {"type": "postcode-cell", "postcode": "TQ12 5TT", "postcodes": ["TQ12 5TT"]}, "geometry": {"type": "Polygon", "coordinates": [[[-3.6336618601269324, 50.49178693197073], [-3.6297606931655237, 50.49294012167838], [-3.628872149289995, 50.491622528913354], [-3.6290175132270015, 50.49103606566645], [-3.630580562560359, 50.490628355060075], [-3.6327442272453716, 50.4909661431729], [-3.6333340791411013, 50.491332358258866], [-3.6336618601269324, 50.49178693197073]]]}}, {"type": "Feature", "properties": {"type": "postcode-cell", "postcode": "TQ12 5RG", "postcodes": ["TQ12 5RG"]}, "geometry": {"type": "Polygon", "coordinates": [[[-3.6361355518187275, 50.489318841884526], [-3.6348533949604436, 50.489409418286925], [-3.6343808996898477, 50.48914888952588], [-3.6341397908407034, 50.488831296376524], [-3.6342077926806624, 50.48874963183328], [-3.6353104840712405, 50.48849818488115], [-3.636167376430926, 50.48922133366413], [-3.6361355518187275, 50.489318841884526]]]}}, {"type": "Feature", "properties": {"type": "postcode-cell", "postcode": "TQ12 5SY", "postcodes": ["TQ12 5SY"]}, "geometry": {"type": "Polygon", "coordinates": [[[-3.632640735637619, 50.489644265015144], [-3.633407410488382, 50.48885030460277], [-3.6341397908407034, 50.488831296376524], [-3.6343808996898477, 50.48914888952588], [-3.632788688468409, 50.490144653843394], [-3.632640735637619, 50.489644265015144]]]}}, {"type": "Feature", "properties": {"type": "postcode-cell", "postcode": "TQ12 5SZ", "postcodes": ["TQ12 5SZ"]}, "geometry": {"type": "Polygon", "coordinates": [[[-3.632640735637619, 50.489644265015144], [-3.631628442091482, 50.488945124408815], [-3.6323124757446252, 50.48860850561237], [-3.633023675502748, 50.48861603475609], [-3.633407410488382, 50.48885030460277], [-3.632640735637619, 50.489644265015144]]]}}, {"type": "Feature", "properties": {"type": "postcode-cell", "postcode": "TQ12 5UQ", "postcodes": ["TQ12 5UQ"]}, "geometry": {"type": "Polygon", "coordinates": [[[-3.6320948089564884, 50.477367491310375], [-3.6255543893670037, 50.476857642016164], [-3.6242317291108455, 50.466700822604075], [-3.6262399899309434, 50.46677999454178], [-3.627339989931926, 50.46617999454131], [-3.6313599899344395, 50.466219994541255], [-3.6323799899347478, 50.46691999454176], [-3.633259989935561, 50.46637999454136], [-3.6339799899359964, 50.466419994541354], [-3.6344799899360156, 50.467039994541835], [-3.6367528841842693, 50.46771935288306], [-3.639845056027102, 50.47275346101183], [-3.6320948089564884, 50.477367491310375]]]}}, {"type": "Feature", "properties": {"type": "postcode-cell", "postcode": "TQ12 6DE", "postcodes": ["TQ12 6DE"]}, "geometry": {"type": "Polygon", "coordinates": [[[-3.630913290323555, 50.49798097163091], [-3.634831657339927, 50.49972672092943], [-3.634475765400666, 50.50445832317386], [-3.6333299899171623, 50.50506999457123], [-3.6325399899173156, 50.50369999457017], [-3.632669989917764, 50.502929994569584], [-3.6312799899175183, 50.50159999456858], [-3.6316199899179904, 50.50105999456815], [-3.6301618832154317, 50.498017011223666], [-3.630913290323555, 50.49798097163091]]]}}, {"type": "Feature", "properties": {"type": "postcode-cell", "postcode": "TQ12 5LL", "postcodes": ["TQ12 5LL"]}, "geometry": {"type": "Polygon", "coordinates": [[[-3.608632989173632, 50.488580970769206], [-3.610960302175408, 50.491156587261], [-3.611937568207975, 50.493093490968704], [-3.611509989909129, 50.49302999456236], [-3.6064999899054158, 50.49418999456337], [-3.604469989903441, 50.49564999456454], [-3.6025899899020137, 50.49615999456497], [-3.6030899899031676, 50.4943999945636], [-3.602059989905077, 50.48904999455948], [-3.6026049357946532, 50.48710640501784], [-3.608632989173632, 50.488580970769206]]]}}, {"type": "Feature", "properties": {"type": "postcode-cell", "postcode": "TQ12 5FP", "postcodes": ["TQ12 5FP"]}, "geometry": {"type": "Polygon", "coordinates": [[[-3.6304692973461874, 50.48979082490712], [-3.6292868538205942, 50.48946874191425], [-3.6302072707174395, 50.48834491884865], [-3.63076809483633, 50.48886333365615], [-3.6304692973461874, 50.48979082490712]]]}}, {"type": "Feature", "properties": {"type": "postcode-cell", "postcode": "TQ12 5TD", "postcodes": ["TQ12 5TD"]}, "geometry": {"type": "Polygon", "coordinates": [[[-3.631628442091482, 50.488945124408815], [-3.63076809483633, 50.48886333365615], [-3.6302072707174395, 50.48834491884865], [-3.628652428203087, 50.48655854866153], [-3.628649413413243, 50.4860964944619], [-3.631732064632038, 50.485288401666274], [-3.6323124757446252, 50.48860850561237], [-3.631628442091482, 50.488945124408815]]]}}, {"type": "Feature", "properties": {"type": "postcode-cell", "postcode": "TQ12 5TN", "postcodes": ["TQ12 5TN"]}, "geometry": {"type": "Polygon", "coordinates": [[[-3.6282623486167775, 50.49703896025354], [-3.626389989916766, 50.49669999456489], [-3.6264599899172145, 50.49584999456422], [-3.6239899899158408, 50.49545999456397], [-3.6236699899159026, 50.49490999456356], [-3.622983648989885, 50.495005855791376], [-3.62373283015711, 50.49315688422197], [-3.628872149289995, 50.491622528913354], [-3.6297606931655237, 50.49294012167838], [-3.6282623486167775, 50.49703896025354]]]}}, {"type": "Feature", "properties": {"type": "postcode-cell", "postcode": "TQ12 5TB", "postcodes": ["TQ12 5TB"]}, "geometry": {"type": "Polygon", "coordinates": [[[-3.6290175132270015, 50.49103606566645], [-3.6267119669842733, 50.48981171819269], [-3.62695800970459, 50.48952845390205], [-3.6292868538205942, 50.48946874191425], [-3.6304692973461874, 50.48979082490712], [-3.630580562560359, 50.490628355060075], [-3.6290175132270015, 50.49103606566645]]]}}, {"type": "Feature", "properties": {"type": "postcode-cell", "postcode": "TQ12 5UE", "postcodes": ["TQ12 5UE"]}, "geometry": {"type": "Polygon", "coordinates": [[[-3.6292868538205942, 50.48946874191425], [-3.62695800970459, 50.48952845390205], [-3.628652428203087, 50.48655854866153], [-3.6302072707174395, 50.48834491884865], [-3.6292868538205942, 50.48946874191425]]]}}, {"type": "Feature", "properties": {"type": "postcode-cell", "postcode": "TQ12 5TY", "postcodes": ["TQ12 5TY"]}, "geometry": {"type": "Polygon", "coordinates": [[[-3.6267119669842733, 50.48981171819269], [-3.623797383144021, 50.49040193915587], [-3.62294802569097, 50.48984603835834], [-3.6216642407233786, 50.48446658126502], [-3.628649413413243, 50.4860964944619], [-3.628652428203087, 50.48655854866153], [-3.62695800970459, 50.48952845390205], [-3.6267119669842733, 50.48981171819269]]]}}, {"type": "Feature", "properties": {"type": "postcode-cell", "postcode": "TQ12 5TU", "postcodes": ["TQ12 5TU"]}, "geometry": {"type": "Polygon", "coordinates": [[[-3.6290175132270015, 50.49103606566645], [-3.628872149289995, 50.491622528913354], [-3.62373283015711, 50.49315688422197], [-3.623797383144021, 50.49040193915587], [-3.6267119669842733, 50.48981171819269], [-3.6290175132270015, 50.49103606566645]]]}}, {"type": "Feature", "properties": {"type": "postcode-cell", "postcode": "TQ12 5TZ", "postcodes": ["TQ12 5TZ"]}, "geometry": {"type": "Polygon", "coordinates": [[[-3.62294802569097, 50.48984603835834], [-3.610960302175408, 50.491156587261], [-3.608632989173632, 50.488580970769206], [-3.619749533135191, 50.483308012780874], [-3.6216642407233786, 50.48446658126502], [-3.62294802569097, 50.48984603835834]]]}}, {"type": "Feature", "properties": {"type": "postcode-cell", "postcode": "TQ12 5TX", "postcodes": ["TQ12 5TX"]}, "geometry": {"type": "Polygon", "coordinates": [[[-3.622983648989885, 50.495005855791376], [-3.6218799899146514, 50.4951599945638], [-3.621009989914342, 50.49465999456342], [-3.6183799899129725, 50.494049994563014], [-3.611937568207975, 50.493093490968704], [-3.610960302175408, 50.491156587261], [-3.62294802569097, 50.48984603835834], [-3.623797383144021, 50.49040193915587], [-3.62373283015711, 50.49315688422197], [-3.622983648989885, 50.495005855791376]]]}}, {"type": "Feature", "properties": {"type": "postcode-cell", "postcode": "TQ12 5UA", "postcodes": ["TQ12 5UA"]}, "geometry": {"type": "Polygon", "coordinates": [[[-3.620731142746602, 50.47852541359158], [-3.619749533135191, 50.483308012780874], [-3.608632989173632, 50.488580970769206], [-3.6026049357946532, 50.48710640501784], [-3.6029599899071765, 50.485839994557], [-3.602359989907495, 50.48437999455586], [-3.6030999899079004, 50.48450999455595], [-3.6044199899089544, 50.48403999455557], [-3.607069989911572, 50.48205999455399], [-3.608579989912746, 50.4815899945536], [-3.6097999899139346, 50.4807099945529], [-3.6129197127163435, 50.47604870177909], [-3.620731142746602, 50.47852541359158]]]}}]}