{"type": "FeatureCollection", "features": [{"type": "Feature", "properties": {"type": "ward-outline", "name": "Kenton & Starcross"}, "geometry": {"type": "MultiPolygon", "coordinates": [[[[-3.44725, 50.61871], [-3.44717, 50.61718], [-3.44747, 50.61863], [-3.44725, 50.61871]]], [[[-3.50935, 50.65535], [-3.50469, 50.65367], [-3.50472, 50.65436], [-3.5025, 50.65452], [-3.49865, 50.65382], [-3.49856, 50.6532], [-3.49717, 50.65252], [-3.4959, 50.6524], [-3.49567, 50.65268], [-3.49418, 50.65269], [-3.4937, 50.65247], [-3.49348, 50.65277], [-3.49209, 50.65219], [-3.49185, 50.65142], [-3.49095, 50.65125], [-3.49047, 50.65153], [-3.4901, 50.65127], [-3.49016, 50.65162], [-3.48949, 50.6517], [-3.48764, 50.65115], [-3.48733, 50.6514], [-3.48661, 50.65119], [-3.48517, 50.65137], [-3.48378, 50.65066], [-3.48291, 50.65078], [-3.48207, 50.65044], [-3.48145, 50.65073], [-3.47992, 50.65039], [-3.47924, 50.64984], [-3.47895, 50.64997], [-3.47895, 50.64963], [-3.47835, 50.64992], [-3.47756, 50.64922], [-3.47804, 50.64883], [-3.47753, 50.64809], [-3.47619, 50.64787], [-3.47607, 50.64723], [-3.47454, 50.64667], [-3.4745, 50.64639], [-3.4736, 50.64625], [-3.47313, 50.64554], [-3.47251, 50.64547], [-3.47099, 50.64411], [-3.46982, 50.64356], [-3.46901, 50.64375], [-3.46779, 50.64357], [-3.46397, 50.64191], [-3.46027, 50.64195], [-3.45527, 50.64125], [-3.45252, 50.64222], [-3.45252, 50.64221], [-3.45252, 50.64221], [-3.44979, 50.63573], [-3.44945, 50.63254], [-3.45016, 50.63225], [-3.44945, 50.63248], [-3.44611, 50.62482], [-3.44706, 50.62062], [-3.44725, 50.61881], [-3.4481, 50.61874], [-3.44905, 50.61834], [-3.44889, 50.61736], [-3.44907, 50.61738], [-3.44969, 50.61776], [-3.45272, 50.61707], [-3.45335, 50.61664], [-3.45592, 50.61672], [-3.45626, 50.61611], [-3.4586, 50.61522], [-3.45887, 50.61567], [-3.46007, 50.61567], [-3.46092, 50.61498], [-3.4632, 50.61492], [-3.46449, 50.61458], [-3.46498, 50.61427], [-3.46487, 50.61366], [-3.46645, 50.61291], [-3.46936, 50.61251], [-3.47247, 50.61279], [-3.47991, 50.60997], [-3.48263, 50.61018], [-3.4876, 50.61144], [-3.48775, 50.60944], [-3.48878, 50.60732], [-3.48861, 50.60539], [-3.49121, 50.60405], [-3.49533, 50.60274], [-3.50623, 50.60609], [-3.51077, 50.60597], [-3.5133, 50.60765], [-3.51638, 50.60903], [-3.51751, 50.60858], [-3.51993, 50.60842], [-3.52769, 50.60985], [-3.52974, 50.61113], [-3.53294, 50.61604], [-3.53565, 50.61609], [-3.54295, 50.61537], [-3.54727, 50.6142], [-3.54971, 50.6129], [-3.55331, 50.61375], [-3.55117, 50.62161], [-3.54798, 50.62514], [-3.54492, 50.62735], [-3.54392, 50.62691], [-3.54097, 50.6287], [-3.53656, 50.63019], [-3.53488, 50.63131], [-3.52966, 50.63211], [-3.52218, 50.63607], [-3.51943, 50.63661], [-3.52064, 50.63923], [-3.51963, 50.64095], [-3.5208, 50.64199], [-3.5201, 50.64298], [-3.51984, 50.6449], [-3.51616, 50.64751], [-3.51506, 50.64913], [-3.51467, 50.64909], [-3.51403, 50.65054], [-3.51273, 50.65077], [-3.51153, 50.65206], [-3.51061, 50.65437], [-3.50935, 50.65535]]]]}}, {"type": "Feature", "properties": {"type": "postcode-cell", "postcode": "EX6 8HG", "postcodes": ["EX6 8HG"]}, "geometry": {"type": "Polygon", "coordinates": [[[-3.5179072457818825, 50.614809051555355], [-3.510805004753834, 50.6062142060432], [-3.5108716001734788, 50.60603747056533], [-3.5132999897924964, 50.60764999465315], [-3.516379989793773, 50.609029994654165], [-3.5175099897947, 50.608579994653795], [-3.5199299897963012, 50.60841999465364], [-3.527689989800505, 50.6098499946546], [-3.5297399898011856, 50.61112999465558], [-3.5329399898008575, 50.61603999465932], [-3.5356499898025406, 50.616089994659305], [-3.542949989807491, 50.61536999465861], [-3.5472699898107773, 50.61419999465764], [-3.5497099898129383, 50.61289999465656], [-3.553309989814809, 50.61374999465718], [-3.5511699898097064, 50.62160999466333], [-3.5510103626901817, 50.62178664981835], [-3.5179072457818825, 50.614809051555355]]]}}, {"type": "Feature", "properties": {"type": "postcode-cell", "postcode": "EX6 7XG", "postcodes": ["EX6 7XG"]}, "geometry": {"type": "Polygon", "coordinates": [[[-3.5100027835999024, 50.6499260321398], [-3.514647690622799, 50.64056273357571], [-3.5185105549775852, 50.63935015880455], [-3.5205606925240778, 50.63936504033443], [-3.519629989780567, 50.64094999467899], [-3.520799989780809, 50.64198999467978], [-3.5200999897798937, 50.64297999468055], [-3.5198399897788155, 50.64489999468208], [-3.516159989775247, 50.64750999468417], [-3.5150599897737793, 50.64912999468547], [-3.5146699897735516, 50.64908999468543], [-3.514029989772457, 50.65053999468659], [-3.5127299897715245, 50.650769994686776], [-3.5116834173825193, 50.651895064587684], [-3.5100027835999024, 50.6499260321398]]]}}, {"type": "Feature", "properties": {"type": "postcode-cell", "postcode": "EX7 0QS", "postcodes": ["EX7 0QS"]}, "geometry": {"type": "Polygon", "coordinates": [[[-3.494364551873801, 50.60657631053069], [-3.4906425052281693, 50.60434247884028], [-3.491209989780341, 50.604049994650765], [-3.495329989783554, 50.602739994649646], [-3.5007477136543272, 50.604405263176055], [-3.494364551873801, 50.60657631053069]]]}}, {"type": "Feature", "properties": {"type": "postcode-cell", "postcode": "EX6 8EX", "postcodes": ["EX6 8EX"]}, "geometry": {"type": "Polygon", "coordinates": [[[-3.5185105549775852, 50.63935015880455], [-3.510585050965723, 50.63087383248644], [-3.517998837349869, 50.627654403471276], [-3.548352139845882, 50.623654517336604], [-3.54938306336617, 50.62358745229952], [-3.5479799898060094, 50.62513999466615], [-3.544919989803022, 50.627349994667924], [-3.5439199898025997, 50.6269099946676], [-3.5409699897998808, 50.62869999466905], [-3.536559989796386, 50.630189994670275], [-3.534879989794793, 50.6313099946712], [-3.5296599897911154, 50.63210999467191], [-3.522179989784506, 50.63606999467515], [-3.519429989782512, 50.636609994675595], [-3.520639989782026, 50.639229994677656], [-3.5205606925240778, 50.63936504033443], [-3.5185105549775852, 50.63935015880455]]]}}, {"type": "Feature", "properties": {"type": "postcode-cell", "postcode": "EX6 8HX", "postcodes": ["EX6 8HX"]}, "geometry": {"type": "Polygon", "coordinates": [[[-3.517998837349869, 50.627654403471276], [-3.5077579409479482, 50.62159103725652], [-3.5077984782729343, 50.621541071604156], [-3.5228226254024695, 50.621314001012045], [-3.548352139845882, 50.623654517336604], [-3.517998837349869, 50.627654403471276]]]}}, {"type": "Feature", "properties": {"type": "postcode-cell", "postcode": "EX6 8EU", "postcodes": ["EX6 8EU"]}, "geometry": {"type": "Polygon", "coordinates": [[[-3.5100027835999024, 50.6499260321398], [-3.4993078164899902, 50.64595886142927], [-3.4982464695457116, 50.64192735082175], [-3.507590552756278, 50.639650792087046], [-3.514647690622799, 50.64056273357571], [-3.5100027835999024, 50.6499260321398]]]}}, {"type": "Feature", "properties": {"type": "postcode-cell", "postcode": "EX6 8HE", "postcodes": ["EX6 8HE"]}, "geometry": {"type": "Polygon", "coordinates": [[[-3.5179072457818825, 50.614809051555355], [-3.5510103626901817, 50.62178664981835], [-3.54938306336617, 50.62358745229952], [-3.548352139845882, 50.623654517336604], [-3.5228226254024695, 50.621314001012045], [-3.50885083566771, 50.61765703032167], [-3.5088253680567036, 50.61727927608892], [-3.5179072457818825, 50.614809051555355]]]}}, {"type": "Feature", "properties": {"type": "postcode-cell", "postcode": "EX6 8HF", "postcodes": ["EX6 8HF"]}, "geometry": {"type": "Polygon", "coordinates": [[[-3.5088253680567036, 50.61727927608892], [-3.5058501273729297, 50.615066075468945], [-3.5055195587318746, 50.611122077428455], [-3.510805004753834, 50.6062142060432], [-3.5179072457818825, 50.614809051555355], [-3.5088253680567036, 50.61727927608892]]]}}, {"type": "Feature", "properties": {"type": "postcode-cell", "postcode": "EX6 8HB", "postcodes": ["EX6 8HB"]}, "geometry": {"type": "Polygon", "coordinates": [[[-3.517998837349869, 50.627654403471276], [-3.510585050965723, 50.63087383248644], [-3.5093820810055805, 50.63087181851354], [-3.506211869225277, 50.6300940037743], [-3.50435776938371, 50.62311713969277], [-3.5077579409479482, 50.62159103725652], [-3.517998837349869, 50.627654403471276]]]}}, {"type": "Feature", "properties": {"type": "postcode-cell", "postcode": "EX6 8HP", "postcodes": ["EX6 8HP"]}, "geometry": {"type": "Polygon", "coordinates": [[[-3.5077579409479482, 50.62159103725652], [-3.50435776938371, 50.62311713969277], [-3.4986885275437816, 50.62254750133962], [-3.496117273315762, 50.617479476240256], [-3.5058501273729297, 50.615066075468945], [-3.5088253680567036, 50.61727927608892], [-3.50885083566771, 50.61765703032167], [-3.5077984782729343, 50.621541071604156], [-3.5077579409479482, 50.62159103725652]]]}}, {"type": "Feature", "properties": {"type": "postcode-cell", "postcode": "EX6 8HD", "postcodes": ["EX6 8HD"]}, "geometry": {"type": "Polygon", "coordinates": [[[-3.5077984782729343, 50.621541071604156], [-3.50885083566771, 50.61765703032167], [-3.5228226254024695, 50.621314001012045], [-3.5077984782729343, 50.621541071604156]]]}}, {"type": "Feature", "properties": {"type": "postcode-cell", "postcode": "EX6 8HQ", "postcodes": ["EX6 8HQ"]}, "geometry": {"type": "Polygon", "coordinates": [[[-3.510805004753834, 50.6062142060432], [-3.5055195587318746, 50.611122077428455], [-3.498238819111698, 50.610895195077724], [-3.4942907527996097, 50.60721901555994], [-3.494364551873801, 50.60657631053069], [-3.5007477136543272, 50.604405263176055], [-3.5062299897887974, 50.60608999465205], [-3.5107699897917084, 50.60596999465189], [-3.5108716001734788, 50.60603747056533], [-3.510805004753834, 50.6062142060432]]]}}, {"type": "Feature", "properties": {"type": "postcode-cell", "postcode": "EX6 8EY", "postcodes": ["EX6 8EY"]}, "geometry": {"type": "Polygon", "coordinates": [[[-3.5185105549775852, 50.63935015880455], [-3.514647690622799, 50.64056273357571], [-3.507590552756278, 50.639650792087046], [-3.5067921304220926, 50.63659313915129], [-3.5093820810055805, 50.63087181851354], [-3.510585050965723, 50.63087383248644], [-3.5185105549775852, 50.63935015880455]]]}}, {"type": "Feature", "properties": {"type": "postcode-cell", "postcode": "EX6 8EZ", "postcodes": ["EX6 8EZ"]}, "geometry": {"type": "Polygon", "coordinates": [[[-3.5067921304220926, 50.63659313915129], [-3.49870942309579, 50.63432467733242], [-3.4984667444483333, 50.63210072073837], [-3.5017102917916048, 50.63104949822422], [-3.506211869225277, 50.6300940037743], [-3.5093820810055805, 50.63087181851354], [-3.5067921304220926, 50.63659313915129]]]}}, {"type": "Feature", "properties": {"type": "postcode-cell", "postcode": "EX6 8ET", "postcodes": ["EX6 8ET"]}, "geometry": {"type": "Polygon", "coordinates": [[[-3.4920166095072087, 50.65072282889411], [-3.4993078164899902, 50.64595886142927], [-3.5100027835999024, 50.6499260321398], [-3.5116834173825193, 50.651895064587684], [-3.5115299897701533, 50.652059994687804], [-3.5106099897684695, 50.65436999468963], [-3.5093499897672062, 50.65534999469041], [-3.5046899897650716, 50.65366999468919], [-3.5047199897647605, 50.654359994689734], [-3.5024999897632854, 50.6545199946899], [-3.4986499897611916, 50.65381999468941], [-3.4985599897614317, 50.653199994688926], [-3.4971699897608826, 50.65251999468843], [-3.4958999897601384, 50.652399994688345], [-3.495669989759861, 50.65267999468857], [-3.494179989758917, 50.652689994688615], [-3.4936999897587193, 50.652469994688445], [-3.4934799897584377, 50.652769994688676], [-3.4920899897578415, 50.65218999468824], [-3.4918499897580584, 50.65141999468767], [-3.4918365353113865, 50.65141745335266], [-3.4920166095072087, 50.65072282889411]]]}}, {"type": "Feature", "properties": {"type": "postcode-cell", "postcode": "EX6 8HA", "postcodes": ["EX6 8HA"]}, "geometry": {"type": "Polygon", "coordinates": [[[-3.506211869225277, 50.6300940037743], [-3.5017102917916048, 50.63104949822422], [-3.4971903013839767, 50.62335790065382], [-3.4986885275437816, 50.62254750133962], [-3.50435776938371, 50.62311713969277], [-3.506211869225277, 50.6300940037743]]]}}, {"type": "Feature", "properties": {"type": "postcode-cell", "postcode": "EX6 8NN", "postcodes": ["EX6 8NN"]}, "geometry": {"type": "Polygon", "coordinates": [[[-3.507590552756278, 50.639650792087046], [-3.4982464695457116, 50.64192735082175], [-3.496766042667775, 50.64104396375861], [-3.49870942309579, 50.63432467733242], [-3.5067921304220926, 50.63659313915129], [-3.507590552756278, 50.639650792087046]]]}}, {"type": "Feature", "properties": {"type": "postcode-cell", "postcode": "EX6 8NW", "postcodes": ["EX6 8NW"]}, "geometry": {"type": "Polygon", "coordinates": [[[-3.49870942309579, 50.63432467733242], [-3.496766042667775, 50.64104396375861], [-3.4867533143880944, 50.639937500826456], [-3.483754671312731, 50.635307576417844], [-3.4830096320213317, 50.633519550016025], [-3.4827159099314247, 50.63221537871], [-3.490514534238934, 50.62997690532439], [-3.4984667444483333, 50.63210072073837], [-3.49870942309579, 50.63432467733242]]]}}, {"type": "Feature", "properties": {"type": "postcode-cell", "postcode": "EX6 8HN", "postcodes": ["EX6 8HN"]}, "geometry": {"type": "Polygon", "coordinates": [[[-3.498238819111698, 50.610895195077724], [-3.4918599716192507, 50.6157435198524], [-3.490353730219639, 50.6156713908394], [-3.4843297912688818, 50.613138237761234], [-3.4873112175880827, 50.611366792495055], [-3.48759998977453, 50.61143999465657], [-3.4876192060278317, 50.611183786119874], [-3.4942907527996097, 50.60721901555994], [-3.498238819111698, 50.610895195077724]]]}}, {"type": "Feature", "properties": {"type": "postcode-cell", "postcode": "EX6 8HW", "postcodes": ["EX6 8HW"]}, "geometry": {"type": "Polygon", "coordinates": [[[-3.5058501273729297, 50.615066075468945], [-3.496117273315762, 50.617479476240256], [-3.4918599716192507, 50.6157435198524], [-3.498238819111698, 50.610895195077724], [-3.5055195587318746, 50.611122077428455], [-3.5058501273729297, 50.615066075468945]]]}}, {"type": "Feature", "properties": {"type": "postcode-cell", "postcode": "EX6 8HR", "postcodes": ["EX6 8HR"]}, "geometry": {"type": "Polygon", "coordinates": [[[-3.5017102917916048, 50.63104949822422], [-3.4984667444483333, 50.63210072073837], [-3.490514534238934, 50.62997690532439], [-3.492532422993297, 50.62515430357846], [-3.4971903013839767, 50.62335790065382], [-3.5017102917916048, 50.63104949822422]]]}}, {"type": "Feature", "properties": {"type": "postcode-cell", "postcode": "EX6 8GZ", "postcodes": ["EX6 8GZ"]}, "geometry": {"type": "Polygon", "coordinates": [[[-3.4971903013839767, 50.62335790065382], [-3.492532422993297, 50.62515430357846], [-3.487502253621518, 50.622067759549665], [-3.490353730219639, 50.6156713908394], [-3.4918599716192507, 50.6157435198524], [-3.496117273315762, 50.617479476240256], [-3.4986885275437816, 50.62254750133962], [-3.4971903013839767, 50.62335790065382]]]}}, {"type": "Feature", "properties": {"type": "postcode-cell", "postcode": "EX6 8NL", "postcodes": ["EX6 8NL"]}, "geometry": {"type": "Polygon", "coordinates": [[[-3.4982464695457116, 50.64192735082175], [-3.4993078164899902, 50.64595886142927], [-3.4920166095072087, 50.65072282889411], [-3.482845233302873, 50.645226129241436], [-3.4841572589231586, 50.642255897644475], [-3.4842987146593956, 50.642107246910754], [-3.4867533143880944, 50.639937500826456], [-3.496766042667775, 50.64104396375861], [-3.4982464695457116, 50.64192735082175]]]}}, {"type": "Feature", "properties": {"type": "postcode-cell", "postcode": "EX6 8JR", "postcodes": ["EX6 8JR"]}, "geometry": {"type": "Polygon", "coordinates": [[[-3.482845233302873, 50.645226129241436], [-3.4920166095072087, 50.65072282889411], [-3.4918365353113865, 50.65141745335266], [-3.4909499897575724, 50.65124999468754], [-3.4904699897571367, 50.65152999468776], [-3.490099989757027, 50.65126999468757], [-3.4901599897568976, 50.65161999468786], [-3.4894899897564366, 50.651699994687895], [-3.487639989755537, 50.65114999468753], [-3.4873299897552226, 50.65139999468774], [-3.4866099897548684, 50.65118999468756], [-3.485169989753877, 50.651369994687734], [-3.4837799897533426, 50.650659994687196], [-3.4829099897527374, 50.65077999468729], [-3.482069989752372, 50.65043999468706], [-3.481449989751843, 50.6507299946873], [-3.479919989751043, 50.65038999468706], [-3.479239989750881, 50.649839994686644], [-3.4789499897506366, 50.649969994686764], [-3.478949989750798, 50.6496299946865], [-3.478349989750281, 50.64991999468673], [-3.4775599897501195, 50.6492199946862], [-3.4780399897506085, 50.64882999468586], [-3.477529989750642, 50.64808999468531], [-3.476623409244061, 50.64794115502783], [-3.482845233302873, 50.645226129241436]]]}}, {"type": "Feature", "properties": {"type": "postcode-cell", "postcode": "EX6 8HS", "postcodes": ["EX6 8HS"]}, "geometry": {"type": "Polygon", "coordinates": [[[-3.490353730219639, 50.6156713908394], [-3.487502253621518, 50.622067759549665], [-3.4774990927461458, 50.62297521530429], [-3.471557128884483, 50.612707816798554], [-3.4724699897643907, 50.612789994657895], [-3.4750733203721995, 50.61180334035081], [-3.4843297912688818, 50.613138237761234], [-3.490353730219639, 50.6156713908394]]]}}, {"type": "Feature", "properties": {"type": "postcode-cell", "postcode": "EX6 8HH", "postcodes": ["EX6 8HH"]}, "geometry": {"type": "MultiPolygon", "coordinates": [[[[-3.4942907527996097, 50.60721901555994], [-3.4876192060278317, 50.611183786119874], [-3.4877499897755837, 50.609439994655006], [-3.4887799897772465, 50.607319994653345], [-3.4886099897780647, 50.605389994651865], [-3.4906425052281693, 50.60434247884028], [-3.494364551873801, 50.60657631053069], [-3.4942907527996097, 50.60721901555994]]], [[[-3.4843297912688818, 50.613138237761234], [-3.4750733203721995, 50.61180334035081], [-3.4799099897704093, 50.60996999465557], [-3.482629989772015, 50.6101799946557], [-3.4873112175880827, 50.611366792495055], [-3.4843297912688818, 50.613138237761234]]]]}}, {"type": "Feature", "properties": {"type": "postcode-cell", "postcode": "EX6 8HY", "postcodes": ["EX6 8HY"]}, "geometry": {"type": "Polygon", "coordinates": [[[-3.4827159099314247, 50.63221537871], [-3.4756248575558186, 50.62946701662274], [-3.4774990927461458, 50.62297521530429], [-3.487502253621518, 50.622067759549665], [-3.492532422993297, 50.62515430357846], [-3.490514534238934, 50.62997690532439], [-3.4827159099314247, 50.63221537871]]]}}, {"type": "Feature", "properties": {"type": "postcode-cell", "postcode": "EX6 8NX", "postcodes": ["EX6 8NX"]}, "geometry": {"type": "Polygon", "coordinates": [[[-3.4867533143880944, 50.639937500826456], [-3.4842987146593956, 50.642107246910754], [-3.4765667825629603, 50.639797675197684], [-3.476383819229252, 50.63905062664551], [-3.483754671312731, 50.635307576417844], [-3.4867533143880944, 50.639937500826456]]]}}, {"type": "Feature", "properties": {"type": "postcode-cell", "postcode": "EX6 8QZ", "postcodes": ["EX6 8QZ"]}, "geometry": {"type": "Polygon", "coordinates": [[[-3.4622735590578047, 50.619959826873846], [-3.455892893493084, 50.62024796850458], [-3.4530114128904863, 50.61872865362687], [-3.45224863222526, 50.61717733998473], [-3.452719989749965, 50.617069994661605], [-3.4533499897505644, 50.61663999466124], [-3.4559199897521355, 50.61671999466127], [-3.4562599897526427, 50.61610999466081], [-3.4585999897545334, 50.61521999466006], [-3.4588699897544877, 50.61566999466041], [-3.46006998975524, 50.61566999466037], [-3.460919989756101, 50.61497999465981], [-3.46319998975756, 50.61491999465974], [-3.464489989758532, 50.61457999465945], [-3.464979989758987, 50.61426999465918], [-3.464869989759212, 50.61365999465873], [-3.4664499897605605, 50.61290999465809], [-3.469359989762576, 50.61250999465774], [-3.470540790322856, 50.61261631486654], [-3.4622735590578047, 50.619959826873846]]]}}, {"type": "Feature", "properties": {"type": "postcode-cell", "postcode": "EX6 8RS", "postcodes": ["EX6 8RS"]}, "geometry": {"type": "Polygon", "coordinates": [[[-3.470540790322856, 50.61261631486654], [-3.471557128884483, 50.612707816798554], [-3.4774990927461458, 50.62297521530429], [-3.4756248575558186, 50.62946701662274], [-3.4711414523432267, 50.630196775470615], [-3.468053564018784, 50.630035256133496], [-3.462407134108218, 50.62381037617167], [-3.4622735590578047, 50.619959826873846], [-3.470540790322856, 50.61261631486654]]]}}, {"type": "Feature", "properties": {"type": "postcode-cell", "postcode": "EX6 8LZ", "postcodes": ["EX6 8LZ"]}, "geometry": {"type": "Polygon", "coordinates": [[[-3.483754671312731, 50.635307576417844], [-3.476383819229252, 50.63905062664551], [-3.476076684374546, 50.63904681456006], [-3.474990811994749, 50.63777083272284], [-3.4830096320213317, 50.633519550016025], [-3.483754671312731, 50.635307576417844]]]}}, {"type": "Feature", "properties": {"type": "postcode-cell", "postcode": "EX6 8LW", "postcodes": ["EX6 8LW"]}, "geometry": {"type": "Polygon", "coordinates": [[[-3.474990811994749, 50.63777083272284], [-3.4747997153978534, 50.63783383612969], [-3.4729642557742224, 50.63780968682441], [-3.4723475316553767, 50.63760859768182], [-3.4705930755600365, 50.63618090754659], [-3.4711414523432267, 50.630196775470615], [-3.4756248575558186, 50.62946701662274], [-3.4827159099314247, 50.63221537871], [-3.4830096320213317, 50.633519550016025], [-3.474990811994749, 50.63777083272284]]]}}, {"type": "Feature", "properties": {"type": "postcode-cell", "postcode": "EX6 8NE", "postcodes": ["EX6 8NE"]}, "geometry": {"type": "Polygon", "coordinates": [[[-3.4838350119810384, 50.642230593373185], [-3.476296772330527, 50.64075462653511], [-3.476479434698055, 50.639859915386296], [-3.4765667825629603, 50.639797675197684], [-3.4842987146593956, 50.642107246910754], [-3.4841572589231586, 50.642255897644475], [-3.4838350119810384, 50.642230593373185]]]}}, {"type": "Feature", "properties": {"type": "postcode-cell", "postcode": "EX6 8NJ", "postcodes": ["EX6 8NJ"]}, "geometry": {"type": "Polygon", "coordinates": [[[-3.4841572589231586, 50.642255897644475], [-3.482845233302873, 50.645226129241436], [-3.476623409244061, 50.64794115502783], [-3.4761899897499036, 50.64786999468515], [-3.4760699897501364, 50.64722999468464], [-3.4745399897494424, 50.64666999468425], [-3.474499989749552, 50.646389994684036], [-3.473599989749055, 50.64624999468394], [-3.473129989749099, 50.64553999468338], [-3.4726940025140007, 50.64549077068509], [-3.473371690896885, 50.644310741345016], [-3.474892023976729, 50.64220911645692], [-3.475009396998634, 50.642134779193604], [-3.4838350119810384, 50.642230593373185], [-3.4841572589231586, 50.642255897644475]]]}}, {"type": "Feature", "properties": {"type": "postcode-cell", "postcode": "EX6 8NB", "postcodes": ["EX6 8NB"]}, "geometry": {"type": "Polygon", "coordinates": [[[-3.476479434698055, 50.639859915386296], [-3.475290490924387, 50.640111446863465], [-3.4752742503851626, 50.64007238133262], [-3.4757547307180054, 50.63909204541866], [-3.476076684374546, 50.63904681456006], [-3.476383819229252, 50.63905062664551], [-3.4765667825629603, 50.639797675197684], [-3.476479434698055, 50.639859915386296]]]}}, {"type": "Feature", "properties": {"type": "postcode-cell", "postcode": "EX6 8ND", "postcodes": ["EX6 8ND"]}, "geometry": {"type": "Polygon", "coordinates": [[[-3.476296772330527, 50.64075462653511], [-3.4762304380278364, 50.64076160735223], [-3.475193036357782, 50.64037003458362], [-3.475196329961981, 50.640278913476614], [-3.475290490924387, 50.640111446863465], [-3.476479434698055, 50.639859915386296], [-3.476296772330527, 50.64075462653511]]]}}, {"type": "Feature", "properties": {"type": "postcode-cell", "postcode": "EX6 8NG", "postcodes": ["EX6 8NG"]}, "geometry": {"type": "Polygon", "coordinates": [[[-3.4838350119810384, 50.642230593373185], [-3.475009396998634, 50.642134779193604], [-3.474995659601248, 50.64184691810772], [-3.4762304380278364, 50.64076160735223], [-3.476296772330527, 50.64075462653511], [-3.4838350119810384, 50.642230593373185]]]}}, {"type": "Feature", "properties": {"type": "postcode-cell", "postcode": "EX6 8NF", "postcodes": ["EX6 8NF"]}, "geometry": {"type": "Polygon", "coordinates": [[[-3.4762304380278364, 50.64076160735223], [-3.474995659601248, 50.64184691810772], [-3.474477517544335, 50.64103147545342], [-3.4750843748040086, 50.64043817452244], [-3.475193036357782, 50.64037003458362], [-3.4762304380278364, 50.64076160735223]]]}}, {"type": "Feature", "properties": {"type": "postcode-cell", "postcode": "EX6 8NH", "postcodes": ["EX6 8NH"]}, "geometry": {"type": "Polygon", "coordinates": [[[-3.473371690896885, 50.644310741345016], [-3.472679002747106, 50.641721209105995], [-3.473101930719504, 50.641625688745066], [-3.474892023976729, 50.64220911645692], [-3.473371690896885, 50.644310741345016]]]}}, {"type": "Feature", "properties": {"type": "postcode-cell", "postcode": "EX6 8JT", "postcodes": ["EX6 8JT"]}, "geometry": {"type": "Polygon", "coordinates": [[[-3.474995659601248, 50.64184691810772], [-3.475009396998634, 50.642134779193604], [-3.474892023976729, 50.64220911645692], [-3.473101930719504, 50.641625688745066], [-3.473173698333045, 50.64103368400998], [-3.473749972043147, 50.640822714058146], [-3.474477517544335, 50.64103147545342], [-3.474995659601248, 50.64184691810772]]]}}, {"type": "Feature", "properties": {"type": "postcode-cell", "postcode": "EX6 8LY", "postcodes": ["EX6 8LY"]}, "geometry": {"type": "Polygon", "coordinates": [[[-3.474990811994749, 50.63777083272284], [-3.476076684374546, 50.63904681456006], [-3.4757547307180054, 50.63909204541866], [-3.475079553687132, 50.639058506399856], [-3.474724075268674, 50.63896466222928], [-3.4747997153978534, 50.63783383612969], [-3.474990811994749, 50.63777083272284]]]}}, {"type": "Feature", "properties": {"type": "postcode-cell", "postcode": "EX6 8LT", "postcodes": ["EX6 8LT"]}, "geometry": {"type": "Polygon", "coordinates": [[[-3.475193036357782, 50.64037003458362], [-3.4750843748040086, 50.64043817452244], [-3.4742359091534376, 50.640309515026665], [-3.47413147498373, 50.6399674439444], [-3.475196329961981, 50.640278913476614], [-3.475193036357782, 50.64037003458362]]]}}, {"type": "Feature", "properties": {"type": "postcode-cell", "postcode": "EX6 8LU", "postcodes": ["EX6 8LU"]}, "geometry": {"type": "Polygon", "coordinates": [[[-3.475290490924387, 50.640111446863465], [-3.475196329961981, 50.640278913476614], [-3.47413147498373, 50.6399674439444], [-3.47382714780761, 50.63977162498293], [-3.473969002535635, 50.63969417501482], [-3.474872944210042, 50.63975262361135], [-3.4752742503851626, 50.64007238133262], [-3.475290490924387, 50.640111446863465]]]}}, {"type": "Feature", "properties": {"type": "postcode-cell", "postcode": "EX6 8NA", "postcodes": ["EX6 8NA"]}, "geometry": {"type": "Polygon", "coordinates": [[[-3.4752742503851626, 50.64007238133262], [-3.474872944210042, 50.63975262361135], [-3.475079553687132, 50.639058506399856], [-3.4757547307180054, 50.63909204541866], [-3.4752742503851626, 50.64007238133262]]]}}, {"type": "Feature", "properties": {"type": "postcode-cell", "postcode": "EX6 8LX", "postcodes": ["EX6 8LX"]}, "geometry": {"type": "Polygon", "coordinates": [[[-3.475079553687132, 50.639058506399856], [-3.474872944210042, 50.63975262361135], [-3.473969002535635, 50.63969417501482], [-3.474482460401751, 50.6390078746748], [-3.474724075268674, 50.63896466222928], [-3.475079553687132, 50.639058506399856]]]}}, {"type": "Feature", "properties": {"type": "postcode-cell", "postcode": "EX6 8LN", "postcodes": ["EX6 8LN"]}, "geometry": {"type": "Polygon", "coordinates": [[[-3.474482460401751, 50.6390078746748], [-3.4736190488152476, 50.638797034108755], [-3.4729642557742224, 50.63780968682441], [-3.4747997153978534, 50.63783383612969], [-3.474724075268674, 50.63896466222928], [-3.474482460401751, 50.6390078746748]]]}}, {"type": "Feature", "properties": {"type": "postcode-cell", "postcode": "EX6 8LS", "postcodes": ["EX6 8LS"]}, "geometry": {"type": "Polygon", "coordinates": [[[-3.47413147498373, 50.6399674439444], [-3.4742359091534376, 50.640309515026665], [-3.473684139313414, 50.640636226871074], [-3.473619826427606, 50.64055828139091], [-3.4737579940564176, 50.63978124660805], [-3.47382714780761, 50.63977162498293], [-3.47413147498373, 50.6399674439444]]]}}, {"type": "Feature", "properties": {"type": "postcode-cell", "postcode": "EX6 8LL", "postcodes": ["EX6 8LL"]}, "geometry": {"type": "Polygon", "coordinates": [[[-3.47382714780761, 50.63977162498293], [-3.4737579940564176, 50.63978124660805], [-3.47358315131935, 50.6397504831526], [-3.4732395688536903, 50.63953389268974], [-3.473236149181312, 50.639097360786174], [-3.4736190488152476, 50.638797034108755], [-3.474482460401751, 50.6390078746748], [-3.473969002535635, 50.63969417501482], [-3.47382714780761, 50.63977162498293]]]}}, {"type": "Feature", "properties": {"type": "postcode-cell", "postcode": "EX6 8LA", "postcodes": ["EX6 8LA"]}, "geometry": {"type": "Polygon", "coordinates": [[[-3.474477517544335, 50.64103147545342], [-3.473749972043147, 50.640822714058146], [-3.473684139313414, 50.640636226871074], [-3.4742359091534376, 50.640309515026665], [-3.4750843748040086, 50.64043817452244], [-3.474477517544335, 50.64103147545342]]]}}, {"type": "Feature", "properties": {"type": "postcode-cell", "postcode": "EX6 8LQ", "postcodes": ["EX6 8LQ"]}, "geometry": {"type": "Polygon", "coordinates": [[[-3.4723475316553767, 50.63760859768182], [-3.472008620476502, 50.63889401493938], [-3.4711536706673654, 50.639319197684124], [-3.470096632626532, 50.63679025722088], [-3.470127517578613, 50.63665015280206], [-3.4705930755600365, 50.63618090754659], [-3.4723475316553767, 50.63760859768182]]]}}, {"type": "Feature", "properties": {"type": "postcode-cell", "postcode": "EX6 8LJ", "postcodes": ["EX6 8LJ"]}, "geometry": {"type": "Polygon", "coordinates": [[[-3.4723475316553767, 50.63760859768182], [-3.4729642557742224, 50.63780968682441], [-3.4736190488152476, 50.638797034108755], [-3.473236149181312, 50.639097360786174], [-3.4722102271570248, 50.638989088495535], [-3.472008620476502, 50.63889401493938], [-3.4723475316553767, 50.63760859768182]]]}}, {"type": "Feature", "properties": {"type": "postcode-cell", "postcode": "EX6 8LB", "postcodes": ["EX6 8LB"]}, "geometry": {"type": "Polygon", "coordinates": [[[-3.473619826427606, 50.64055828139091], [-3.472801456901742, 50.64030502939927], [-3.4728399144531954, 50.64013771806746], [-3.47358315131935, 50.6397504831526], [-3.4737579940564176, 50.63978124660805], [-3.473619826427606, 50.64055828139091]]]}}, {"type": "Feature", "properties": {"type": "postcode-cell", "postcode": "EX6 8LD", "postcodes": ["EX6 8LD"]}, "geometry": {"type": "Polygon", "coordinates": [[[-3.47358315131935, 50.6397504831526], [-3.4728399144531954, 50.64013771806746], [-3.4723547851991734, 50.639821347429454], [-3.4726162515311807, 50.63956061384706], [-3.4732395688536903, 50.63953389268974], [-3.47358315131935, 50.6397504831526]]]}}, {"type": "Feature", "properties": {"type": "postcode-cell", "postcode": "EX6 8NQ", "postcodes": ["EX6 8NQ"]}, "geometry": {"type": "Polygon", "coordinates": [[[-3.4726940025140007, 50.64549077068509], [-3.4725099897487435, 50.64546999468337], [-3.47098998974844, 50.64410999468231], [-3.470784639145819, 50.6440134641438], [-3.4720506210340134, 50.64168179113126], [-3.472679002747106, 50.641721209105995], [-3.473371690896885, 50.644310741345016], [-3.4726940025140007, 50.64549077068509]]]}}, {"type": "Feature", "properties": {"type": "postcode-cell", "postcode": "EX6 8JX", "postcodes": ["EX6 8JX"]}, "geometry": {"type": "Polygon", "coordinates": [[[-3.473684139313414, 50.640636226871074], [-3.473749972043147, 50.640822714058146], [-3.473173698333045, 50.64103368400998], [-3.472310471335707, 50.640848615460065], [-3.472241905257574, 50.64077737455247], [-3.4724744034688144, 50.64047114437553], [-3.472801456901742, 50.64030502939927], [-3.473619826427606, 50.64055828139091], [-3.473684139313414, 50.640636226871074]]]}}, {"type": "Feature", "properties": {"type": "postcode-cell", "postcode": "EX6 8LE", "postcodes": ["EX6 8LE"]}, "geometry": {"type": "Polygon", "coordinates": [[[-3.472801456901742, 50.64030502939927], [-3.4724744034688144, 50.64047114437553], [-3.47181647308616, 50.63991027646307], [-3.4723547851991734, 50.639821347429454], [-3.4728399144531954, 50.64013771806746], [-3.472801456901742, 50.64030502939927]]]}}, {"type": "Feature", "properties": {"type": "postcode-cell", "postcode": "EX6 8JU", "postcodes": ["EX6 8JU"]}, "geometry": {"type": "Polygon", "coordinates": [[[-3.473101930719504, 50.641625688745066], [-3.472679002747106, 50.641721209105995], [-3.4720506210340134, 50.64168179113126], [-3.471978142290707, 50.641610905534456], [-3.472310471335707, 50.640848615460065], [-3.473173698333045, 50.64103368400998], [-3.473101930719504, 50.641625688745066]]]}}, {"type": "Feature", "properties": {"type": "postcode-cell", "postcode": "EX6 8HT", "postcodes": ["EX6 8HT"]}, "geometry": {"type": "Polygon", "coordinates": [[[-3.470096632626532, 50.63679025722088], [-3.4693280285914216, 50.63875724505512], [-3.4681917088491767, 50.63919584824571], [-3.468022125609125, 50.63918266841651], [-3.467283543757134, 50.637904825441964], [-3.4679137452406623, 50.63748768152538], [-3.470127517578613, 50.63665015280206], [-3.470096632626532, 50.63679025722088]]]}}, {"type": "Feature", "properties": {"type": "postcode-cell", "postcode": "EX6 8LH", "postcodes": ["EX6 8LH"]}, "geometry": {"type": "Polygon", "coordinates": [[[-3.4732395688536903, 50.63953389268974], [-3.4726162515311807, 50.63956061384706], [-3.4726148706408195, 50.63955939194723], [-3.4722102271570248, 50.638989088495535], [-3.473236149181312, 50.639097360786174], [-3.4732395688536903, 50.63953389268974]]]}}, {"type": "Feature", "properties": {"type": "postcode-cell", "postcode": "EX6 8LF", "postcodes": ["EX6 8LF"]}, "geometry": {"type": "Polygon", "coordinates": [[[-3.4726148706408195, 50.63955939194723], [-3.4711664881568933, 50.63936580571977], [-3.47114579980734, 50.63932673342676], [-3.4711536706673654, 50.639319197684124], [-3.472008620476502, 50.63889401493938], [-3.4722102271570248, 50.638989088495535], [-3.4726148706408195, 50.63955939194723]]]}}, {"type": "Feature", "properties": {"type": "postcode-cell", "postcode": "EX6 8NT", "postcodes": ["EX6 8NT"]}, "geometry": {"type": "Polygon", "coordinates": [[[-3.472241905257574, 50.64077737455247], [-3.471344804428689, 50.640644980185165], [-3.4711271570588225, 50.64015636709521], [-3.471353256446102, 50.639870206760726], [-3.47181647308616, 50.63991027646307], [-3.4724744034688144, 50.64047114437553], [-3.472241905257574, 50.64077737455247]]]}}, {"type": "Feature", "properties": {"type": "postcode-cell", "postcode": "EX6 8JZ", "postcodes": ["EX6 8JZ"]}, "geometry": {"type": "Polygon", "coordinates": [[[-3.4683762192756844, 50.641789606292804], [-3.4705685518646843, 50.641287864523484], [-3.471978142290707, 50.641610905534456], [-3.4720506210340134, 50.64168179113126], [-3.470784639145819, 50.6440134641438], [-3.4698199897479682, 50.643559994681915], [-3.469009989747369, 50.64374999468207], [-3.4677899897466897, 50.643569994681975], [-3.466614371530437, 50.643059149969936], [-3.4683762192756844, 50.641789606292804]]]}}, {"type": "Feature", "properties": {"type": "postcode-cell", "postcode": "EX6 8LG", "postcodes": ["EX6 8LG"]}, "geometry": {"type": "Polygon", "coordinates": [[[-3.47181647308616, 50.63991027646307], [-3.471353256446102, 50.639870206760726], [-3.4711664881568933, 50.63936580571977], [-3.4726148706408195, 50.63955939194723], [-3.4726162515311807, 50.63956061384706], [-3.4723547851991734, 50.639821347429454], [-3.47181647308616, 50.63991027646307]]]}}, {"type": "Feature", "properties": {"type": "postcode-cell", "postcode": "EX6 8JY", "postcodes": ["EX6 8JY"]}, "geometry": {"type": "Polygon", "coordinates": [[[-3.472310471335707, 50.640848615460065], [-3.471978142290707, 50.641610905534456], [-3.4705685518646843, 50.641287864523484], [-3.471344804428689, 50.640644980185165], [-3.472241905257574, 50.64077737455247], [-3.472310471335707, 50.640848615460065]]]}}, {"type": "Feature", "properties": {"type": "postcode-cell", "postcode": "EX6 8NP", "postcodes": ["EX6 8NP"]}, "geometry": {"type": "Polygon", "coordinates": [[[-3.47114579980734, 50.63932673342676], [-3.470115366111307, 50.63926652224059], [-3.4693280285914216, 50.63875724505512], [-3.470096632626532, 50.63679025722088], [-3.4711536706673654, 50.639319197684124], [-3.47114579980734, 50.63932673342676]]]}}, {"type": "Feature", "properties": {"type": "postcode-cell", "postcode": "EX6 8NS", "postcodes": ["EX6 8NS"]}, "geometry": {"type": "Polygon", "coordinates": [[[-3.4711271570588225, 50.64015636709521], [-3.4695634043126464, 50.64023519903369], [-3.470115366111307, 50.63926652224059], [-3.47114579980734, 50.63932673342676], [-3.4711664881568933, 50.63936580571977], [-3.471353256446102, 50.639870206760726], [-3.4711271570588225, 50.64015636709521]]]}}, {"type": "Feature", "properties": {"type": "postcode-cell", "postcode": "EX6 8NR", "postcodes": ["EX6 8NR"]}, "geometry": {"type": "Polygon", "coordinates": [[[-3.471344804428689, 50.640644980185165], [-3.4705685518646843, 50.641287864523484], [-3.4683762192756844, 50.641789606292804], [-3.46911817843997, 50.640449995179694], [-3.4695634043126464, 50.64023519903369], [-3.4711271570588225, 50.64015636709521], [-3.471344804428689, 50.640644980185165]]]}}, {"type": "Feature", "properties": {"type": "postcode-cell", "postcode": "EX6 8LP", "postcodes": ["EX6 8LP"]}, "geometry": {"type": "Polygon", "coordinates": [[[-3.470127517578613, 50.63665015280206], [-3.4679137452406623, 50.63748768152538], [-3.46589013559107, 50.63688997190359], [-3.4628100262492265, 50.63383079806827], [-3.4620220458544693, 50.632221531145895], [-3.462326432522504, 50.631978960588235], [-3.468053564018784, 50.630035256133496], [-3.4711414523432267, 50.630196775470615], [-3.4705930755600365, 50.63618090754659], [-3.470127517578613, 50.63665015280206]]]}}, {"type": "Feature", "properties": {"type": "postcode-cell", "postcode": "EX6 8JB", "postcodes": ["EX6 8JB"]}, "geometry": {"type": "Polygon", "coordinates": [[[-3.4652936766260987, 50.63987840666645], [-3.468022125609125, 50.63918266841651], [-3.4681917088491767, 50.63919584824571], [-3.46911817843997, 50.640449995179694], [-3.4683762192756844, 50.641789606292804], [-3.466614371530437, 50.643059149969936], [-3.4639699897450873, 50.64190999468072], [-3.4628029165745913, 50.641922624379156], [-3.4652936766260987, 50.63987840666645]]]}}, {"type": "Feature", "properties": {"type": "postcode-cell", "postcode": "EX6 8JG", "postcodes": ["EX6 8JG"]}, "geometry": {"type": "Polygon", "coordinates": [[[-3.4605289118059632, 50.63290172253997], [-3.4620220458544693, 50.632221531145895], [-3.4628100262492265, 50.63383079806827], [-3.463391248187677, 50.63588230734633], [-3.4629224072232607, 50.63884812050285], [-3.461202416833916, 50.64193992546676], [-3.460269989742747, 50.64194999468082], [-3.4552699897399477, 50.64124999468038], [-3.452519989737758, 50.642219994681184], [-3.452519989737763, 50.64220999468117], [-3.451733577159388, 50.64034353992884], [-3.4605289118059632, 50.63290172253997]]]}}, {"type": "Feature", "properties": {"type": "postcode-cell", "postcode": "EX6 8JA", "postcodes": ["EX6 8JA"]}, "geometry": {"type": "Polygon", "coordinates": [[[-3.4681917088491767, 50.63919584824571], [-3.4693280285914216, 50.63875724505512], [-3.470115366111307, 50.63926652224059], [-3.4695634043126464, 50.64023519903369], [-3.46911817843997, 50.640449995179694], [-3.4681917088491767, 50.63919584824571]]]}}, {"type": "Feature", "properties": {"type": "postcode-cell", "postcode": "EX6 8FL", "postcodes": ["EX6 8FL"]}, "geometry": {"type": "Polygon", "coordinates": [[[-3.462407134108218, 50.62381037617167], [-3.4558346031014855, 50.6254662594002], [-3.455099038437832, 50.6249785383103], [-3.454556002270512, 50.62404683613001], [-3.454290612833801, 50.62145481060259], [-3.455892893493084, 50.62024796850458], [-3.4622735590578047, 50.619959826873846], [-3.462407134108218, 50.62381037617167]]]}}, {"type": "Feature", "properties": {"type": "postcode-cell", "postcode": "EX6 8JD", "postcodes": ["EX6 8JD"]}, "geometry": {"type": "Polygon", "coordinates": [[[-3.468022125609125, 50.63918266841651], [-3.4652936766260987, 50.63987840666645], [-3.4658554524339387, 50.63826060391594], [-3.4661502822453816, 50.63810990340608], [-3.467283543757134, 50.637904825441964], [-3.468022125609125, 50.63918266841651]]]}}, {"type": "Feature", "properties": {"type": "postcode-cell", "postcode": "EX6 8JE", "postcodes": ["EX6 8JE"]}, "geometry": {"type": "Polygon", "coordinates": [[[-3.4652936766260987, 50.63987840666645], [-3.4628029165745913, 50.641922624379156], [-3.461202416833916, 50.64193992546676], [-3.4629224072232607, 50.63884812050285], [-3.464779732521966, 50.637754552150035], [-3.4658554524339387, 50.63826060391594], [-3.4652936766260987, 50.63987840666645]]]}}, {"type": "Feature", "properties": {"type": "postcode-cell", "postcode": "EX6 8SQ", "postcodes": ["EX6 8SQ"]}, "geometry": {"type": "Polygon", "coordinates": [[[-3.46589013559107, 50.63688997190359], [-3.4661502822453816, 50.63810990340608], [-3.4658554524339387, 50.63826060391594], [-3.464779732521966, 50.637754552150035], [-3.463391248187677, 50.63588230734633], [-3.4628100262492265, 50.63383079806827], [-3.46589013559107, 50.63688997190359]]]}}, {"type": "Feature", "properties": {"type": "postcode-cell", "postcode": "EX6 8LR", "postcodes": ["EX6 8LR"]}, "geometry": {"type": "Polygon", "coordinates": [[[-3.467283543757134, 50.637904825441964], [-3.4661502822453816, 50.63810990340608], [-3.46589013559107, 50.63688997190359], [-3.4679137452406623, 50.63748768152538], [-3.467283543757134, 50.637904825441964]]]}}, {"type": "Feature", "properties": {"type": "postcode-cell", "postcode": "EX6 8JF", "postcodes": ["EX6 8JF"]}, "geometry": {"type": "Polygon", "coordinates": [[[-3.464779732521966, 50.637754552150035], [-3.4629224072232607, 50.63884812050285], [-3.463391248187677, 50.63588230734633], [-3.464779732521966, 50.637754552150035]]]}}, {"type": "Feature", "properties": {"type": "postcode-cell", "postcode": "EX6 8PG", "postcodes": ["EX6 8PG"]}, "geometry": {"type": "Polygon", "coordinates": [[[-3.462326432522504, 50.631978960588235], [-3.458520538221919, 50.62990204768662], [-3.4554607402081268, 50.62788643900351], [-3.4553578720958273, 50.626368414118886], [-3.4558346031014855, 50.6254662594002], [-3.462407134108218, 50.62381037617167], [-3.468053564018784, 50.630035256133496], [-3.462326432522504, 50.631978960588235]]]}}, {"type": "Feature", "properties": {"type": "postcode-cell", "postcode": "EX6 8PB", "postcodes": ["EX6 8PB"]}, "geometry": {"type": "Polygon", "coordinates": [[[-3.45211006203781, 50.63173206326789], [-3.4515297992391414, 50.639859872055936], [-3.449789989739165, 50.635729994676176], [-3.449449989740483, 50.63253999467371], [-3.4501599897410675, 50.63224999467346], [-3.4494499897405126, 50.63247999467367], [-3.4491528333797126, 50.63179860012409], [-3.45211006203781, 50.63173206326789]]]}}, {"type": "Feature", "properties": {"type": "postcode-cell", "postcode": "EX6 8PD", "postcodes": ["EX6 8PD"]}, "geometry": {"type": "Polygon", "coordinates": [[[-3.451733577159388, 50.64034353992884], [-3.4515297992391414, 50.639859872055936], [-3.45211006203781, 50.63173206326789], [-3.4525485851110482, 50.63164120760546], [-3.4605289118059632, 50.63290172253997], [-3.451733577159388, 50.64034353992884]]]}}, {"type": "Feature", "properties": {"type": "postcode-cell", "postcode": "EX6 8PE", "postcodes": ["EX6 8PE"]}, "geometry": {"type": "Polygon", "coordinates": [[[-3.462326432522504, 50.631978960588235], [-3.4620220458544693, 50.632221531145895], [-3.4605289118059632, 50.63290172253997], [-3.4525485851110482, 50.63164120760546], [-3.4525102421765532, 50.6306522932456], [-3.45449694704544, 50.62999129482736], [-3.458520538221919, 50.62990204768662], [-3.462326432522504, 50.631978960588235]]]}}, {"type": "Feature", "properties": {"type": "postcode-cell", "postcode": "EX6 8QL", "postcodes": ["EX6 8QL"]}, "geometry": {"type": "Polygon", "coordinates": [[[-3.455099038437832, 50.6249785383103], [-3.453270737649877, 50.624913986536214], [-3.4522429514817983, 50.624589140150505], [-3.452075912620297, 50.62374000071615], [-3.454556002270512, 50.62404683613001], [-3.455099038437832, 50.6249785383103]]]}}, {"type": "Feature", "properties": {"type": "postcode-cell", "postcode": "EX6 8QY", "postcodes": ["EX6 8QY"]}, "geometry": {"type": "MultiPolygon", "coordinates": [[[[-3.4530114128904863, 50.61872865362687], [-3.447496483593193, 50.620252365666566], [-3.447105422526173, 50.62018719910998], [-3.447249989745706, 50.61880999466307], [-3.4480999897462716, 50.61873999466298], [-3.449049989747058, 50.61833999466267], [-3.4488899897474288, 50.61735999466192], [-3.4490699897475334, 50.61737999466192], [-3.449689989747737, 50.6177599946622], [-3.45224863222526, 50.61717733998473], [-3.4530114128904863, 50.61872865362687]]], [[[-3.447169989746438, 50.6171799946618], [-3.4474699897459287, 50.6186299946629], [-3.4472499897457514, 50.61870999466298], [-3.447169989746438, 50.6171799946618]]]]}}, {"type": "Feature", "properties": {"type": "postcode-cell", "postcode": "EX6 8PF", "postcodes": ["EX6 8PF"]}, "geometry": {"type": "Polygon", "coordinates": [[[-3.458520538221919, 50.62990204768662], [-3.45449694704544, 50.62999129482736], [-3.4525877886403973, 50.629895377473495], [-3.453021340003167, 50.628752847561486], [-3.453168086276343, 50.62861298443186], [-3.4546911415409736, 50.62804719002571], [-3.4554607402081268, 50.62788643900351], [-3.458520538221919, 50.62990204768662]]]}}, {"type": "Feature", "properties": {"type": "postcode-cell", "postcode": "EX6 8QN", "postcodes": ["EX6 8QN"]}, "geometry": {"type": "Polygon", "coordinates": [[[-3.4553578720958273, 50.626368414118886], [-3.452550162534082, 50.626325060431384], [-3.4520121932224135, 50.62605761984639], [-3.4519961940341837, 50.62553325098656], [-3.4531305181864647, 50.62496425289598], [-3.453270737649877, 50.624913986536214], [-3.455099038437832, 50.6249785383103], [-3.4558346031014855, 50.6254662594002], [-3.4553578720958273, 50.626368414118886]]]}}, {"type": "Feature", "properties": {"type": "postcode-cell", "postcode": "EX6 8QT", "postcodes": ["EX6 8QT"]}, "geometry": {"type": "Polygon", "coordinates": [[[-3.454556002270512, 50.62404683613001], [-3.452075912620297, 50.62374000071615], [-3.4515600187419064, 50.62346540781215], [-3.4530153740998974, 50.621759147963516], [-3.454290612833801, 50.62145481060259], [-3.454556002270512, 50.62404683613001]]]}}, {"type": "Feature", "properties": {"type": "postcode-cell", "postcode": "EX6 8SD", "postcodes": ["EX6 8SD"]}, "geometry": {"type": "Polygon", "coordinates": [[[-3.453168086276343, 50.62861298443186], [-3.4517299972743025, 50.628233464040775], [-3.4512319243649774, 50.62758391206296], [-3.4515075486999196, 50.62721529999418], [-3.4546911415409736, 50.62804719002571], [-3.453168086276343, 50.62861298443186]]]}}, {"type": "Feature", "properties": {"type": "postcode-cell", "postcode": "EX6 8FD", "postcodes": ["EX6 8FD"]}, "geometry": {"type": "Polygon", "coordinates": [[[-3.4525102421765532, 50.6306522932456], [-3.4524255891317934, 50.630067793431685], [-3.4525877886403973, 50.629895377473495], [-3.45449694704544, 50.62999129482736], [-3.4525102421765532, 50.6306522932456]]]}}, {"type": "Feature", "properties": {"type": "postcode-cell", "postcode": "EX6 8QW", "postcodes": ["EX6 8QW"]}, "geometry": {"type": "Polygon", "coordinates": [[[-3.4522429514817983, 50.624589140150505], [-3.450621226226115, 50.62471748960273], [-3.4503822071142243, 50.62460297115043], [-3.4501811537005858, 50.62445835248929], [-3.450219853742009, 50.623942885993856], [-3.450469442942524, 50.62373242084318], [-3.4515600187419064, 50.62346540781215], [-3.452075912620297, 50.62374000071615], [-3.4522429514817983, 50.624589140150505]]]}}, {"type": "Feature", "properties": {"type": "postcode-cell", "postcode": "EX6 8QX", "postcodes": ["EX6 8QX"]}, "geometry": {"type": "Polygon", "coordinates": [[[-3.454290612833801, 50.62145481060259], [-3.4530153740998974, 50.621759147963516], [-3.4495946082742077, 50.621643792329905], [-3.447496483593193, 50.620252365666566], [-3.4530114128904863, 50.61872865362687], [-3.455892893493084, 50.62024796850458], [-3.454290612833801, 50.62145481060259]]]}}, {"type": "Feature", "properties": {"type": "postcode-cell", "postcode": "EX6 8QJ", "postcodes": ["EX6 8QJ"]}, "geometry": {"type": "Polygon", "coordinates": [[[-3.453270737649877, 50.624913986536214], [-3.4531305181864647, 50.62496425289598], [-3.4513181792540304, 50.62520975415959], [-3.451027789664978, 50.62513948345932], [-3.4509077505948857, 50.62508217827881], [-3.450621226226115, 50.62471748960273], [-3.4522429514817983, 50.624589140150505], [-3.453270737649877, 50.624913986536214]]]}}, {"type": "Feature", "properties": {"type": "postcode-cell", "postcode": "EX6 8SE", "postcodes": ["EX6 8SE"]}, "geometry": {"type": "Polygon", "coordinates": [[[-3.4554607402081268, 50.62788643900351], [-3.4546911415409736, 50.62804719002571], [-3.4515075486999196, 50.62721529999418], [-3.4514383856739945, 50.6270385975668], [-3.452550162534082, 50.626325060431384], [-3.4553578720958273, 50.626368414118886], [-3.4554607402081268, 50.62788643900351]]]}}, {"type": "Feature", "properties": {"type": "postcode-cell", "postcode": "EX6 8QR", "postcodes": ["EX6 8QR"]}, "geometry": {"type": "Polygon", "coordinates": [[[-3.4520121932224135, 50.62605761984639], [-3.4515097369251015, 50.62602538968921], [-3.451027789664978, 50.62513948345932], [-3.4513181792540304, 50.62520975415959], [-3.4519961940341837, 50.62553325098656], [-3.4520121932224135, 50.62605761984639]]]}}, {"type": "Feature", "properties": {"type": "postcode-cell", "postcode": "EX6 8SJ", "postcodes": ["EX6 8SJ"]}, "geometry": {"type": "Polygon", "coordinates": [[[-3.4525102421765532, 50.6306522932456], [-3.4525485851110482, 50.63164120760546], [-3.45211006203781, 50.63173206326789], [-3.4491528333797126, 50.63179860012409], [-3.448559937168452, 50.63043899626737], [-3.448806544706438, 50.63027484516819], [-3.448851707125398, 50.63025873498636], [-3.450949793536688, 50.629769275915834], [-3.4524255891317934, 50.630067793431685], [-3.4525102421765532, 50.6306522932456]]]}}, {"type": "Feature", "properties": {"type": "postcode-cell", "postcode": "EX6 8PQ", "postcodes": ["EX6 8PQ"]}, "geometry": {"type": "Polygon", "coordinates": [[[-3.450949793536688, 50.629769275915834], [-3.4511877926968793, 50.629098340651474], [-3.453021340003167, 50.628752847561486], [-3.4525877886403973, 50.629895377473495], [-3.4524255891317934, 50.630067793431685], [-3.450949793536688, 50.629769275915834]]]}}, {"type": "Feature", "properties": {"type": "postcode-cell", "postcode": "EX6 8SA", "postcodes": ["EX6 8SA"]}, "geometry": {"type": "Polygon", "coordinates": [[[-3.452550162534082, 50.626325060431384], [-3.4514383856739945, 50.6270385975668], [-3.4508481185333855, 50.626818781401454], [-3.45081528636912, 50.62616175775077], [-3.4515097369251015, 50.62602538968921], [-3.4520121932224135, 50.62605761984639], [-3.452550162534082, 50.626325060431384]]]}}, {"type": "Feature", "properties": {"type": "postcode-cell", "postcode": "EX6 8QP", "postcodes": ["EX6 8QP"]}, "geometry": {"type": "Polygon", "coordinates": [[[-3.4519961940341837, 50.62553325098656], [-3.4513181792540304, 50.62520975415959], [-3.4531305181864647, 50.62496425289598], [-3.4519961940341837, 50.62553325098656]]]}}, {"type": "Feature", "properties": {"type": "postcode-cell", "postcode": "EX6 8PL", "postcodes": ["EX6 8PL"]}, "geometry": {"type": "Polygon", "coordinates": [[[-3.453021340003167, 50.628752847561486], [-3.4511877926968793, 50.629098340651474], [-3.450636894364019, 50.62879437907894], [-3.45049198174936, 50.6284992678825], [-3.4517299972743025, 50.628233464040775], [-3.453168086276343, 50.62861298443186], [-3.453021340003167, 50.628752847561486]]]}}, {"type": "Feature", "properties": {"type": "postcode-cell", "postcode": "EX6 8QF", "postcodes": ["EX6 8QF"]}, "geometry": {"type": "Polygon", "coordinates": [[[-3.4515097369251015, 50.62602538968921], [-3.45081528636912, 50.62616175775077], [-3.4504656544571253, 50.62600095413345], [-3.4509077505948857, 50.62508217827881], [-3.451027789664978, 50.62513948345932], [-3.4515097369251015, 50.62602538968921]]]}}, {"type": "Feature", "properties": {"type": "postcode-cell", "postcode": "EX6 8QD", "postcodes": ["EX6 8QD"]}, "geometry": {"type": "Polygon", "coordinates": [[[-3.4509077505948857, 50.62508217827881], [-3.4504656544571253, 50.62600095413345], [-3.4500708455926614, 50.62600588047042], [-3.4497826063088617, 50.62576306768191], [-3.4503822071142243, 50.62460297115043], [-3.450621226226115, 50.62471748960273], [-3.4509077505948857, 50.62508217827881]]]}}, {"type": "Feature", "properties": {"type": "postcode-cell", "postcode": "EX6 8SF", "postcodes": ["EX6 8SF"]}, "geometry": {"type": "Polygon", "coordinates": [[[-3.4515075486999196, 50.62721529999418], [-3.4512319243649774, 50.62758391206296], [-3.4501661554795846, 50.62781295018974], [-3.449523653176825, 50.62729666808926], [-3.449544109937747, 50.627180900370064], [-3.449664942872301, 50.62702063721223], [-3.4508481185333855, 50.626818781401454], [-3.4514383856739945, 50.6270385975668], [-3.4515075486999196, 50.62721529999418]]]}}, {"type": "Feature", "properties": {"type": "postcode-cell", "postcode": "EX6 8PY", "postcodes": ["EX6 8PY"]}, "geometry": {"type": "Polygon", "coordinates": [[[-3.450219853742009, 50.623942885993856], [-3.449467549277074, 50.62373764604596], [-3.448317321845316, 50.62314131545583], [-3.4495850399060033, 50.62168934790015], [-3.450469442942524, 50.62373242084318], [-3.450219853742009, 50.623942885993856]]]}}, {"type": "Feature", "properties": {"type": "postcode-cell", "postcode": "EX6 8QU", "postcodes": ["EX6 8QU"]}, "geometry": {"type": "Polygon", "coordinates": [[[-3.4515600187419064, 50.62346540781215], [-3.450469442942524, 50.62373242084318], [-3.4495850399060033, 50.62168934790015], [-3.4495946082742077, 50.621643792329905], [-3.4530153740998974, 50.621759147963516], [-3.4515600187419064, 50.62346540781215]]]}}, {"type": "Feature", "properties": {"type": "postcode-cell", "postcode": "EX6 8PW", "postcodes": ["EX6 8PW"]}, "geometry": {"type": "Polygon", "coordinates": [[[-3.4517299972743025, 50.628233464040775], [-3.45049198174936, 50.6284992678825], [-3.4501186615952912, 50.628334602469295], [-3.4501661554795846, 50.62781295018974], [-3.4512319243649774, 50.62758391206296], [-3.4517299972743025, 50.628233464040775]]]}}, {"type": "Feature", "properties": {"type": "postcode-cell", "postcode": "EX6 8HZ", "postcodes": ["EX6 8HZ"]}, "geometry": {"type": "Polygon", "coordinates": [[[-3.4476415728131284, 50.626723126306906], [-3.447092612833032, 50.62707383150601], [-3.446799324439921, 50.62640114173308], [-3.4476415728131284, 50.626723126306906]]]}}, {"type": "Feature", "properties": {"type": "postcode-cell", "postcode": "EX6 8PH", "postcodes": ["EX6 8PH"]}, "geometry": {"type": "Polygon", "coordinates": [[[-3.450949793536688, 50.629769275915834], [-3.448851707125398, 50.63025873498636], [-3.450636894364019, 50.62879437907894], [-3.4511877926968793, 50.629098340651474], [-3.450949793536688, 50.629769275915834]]]}}, {"type": "Feature", "properties": {"type": "postcode-cell", "postcode": "EX6 8PJ", "postcodes": ["EX6 8PJ"]}, "geometry": {"type": "Polygon", "coordinates": [[[-3.450636894364019, 50.62879437907894], [-3.448851707125398, 50.63025873498636], [-3.448806544706438, 50.63027484516819], [-3.4494052741009367, 50.62852672459203], [-3.4501186615952912, 50.628334602469295], [-3.45049198174936, 50.6284992678825], [-3.450636894364019, 50.62879437907894]]]}}, {"type": "Feature", "properties": {"type": "postcode-cell", "postcode": "EX6 8QB", "postcodes": ["EX6 8QB"]}, "geometry": {"type": "Polygon", "coordinates": [[[-3.4503822071142243, 50.62460297115043], [-3.4497826063088617, 50.62576306768191], [-3.4492354203219593, 50.625640754784584], [-3.4489926272183458, 50.62502505580361], [-3.449739561553488, 50.62459690598098], [-3.4501811537005858, 50.62445835248929], [-3.4503822071142243, 50.62460297115043]]]}}, {"type": "Feature", "properties": {"type": "postcode-cell", "postcode": "EX6 8SB", "postcodes": ["EX6 8SB"]}, "geometry": {"type": "Polygon", "coordinates": [[[-3.4508481185333855, 50.626818781401454], [-3.449664942872301, 50.62702063721223], [-3.4494155118462877, 50.626485643701244], [-3.4500708455926614, 50.62600588047042], [-3.4504656544571253, 50.62600095413345], [-3.45081528636912, 50.62616175775077], [-3.4508481185333855, 50.626818781401454]]]}}, {"type": "Feature", "properties": {"type": "postcode-cell", "postcode": "EX6 8PN", "postcodes": ["EX6 8PN"]}, "geometry": {"type": "Polygon", "coordinates": [[[-3.4501186615952912, 50.628334602469295], [-3.4494052741009367, 50.62852672459203], [-3.4480104330296273, 50.628020106296184], [-3.448219192969055, 50.62786479173413], [-3.449523653176825, 50.62729666808926], [-3.4501661554795846, 50.62781295018974], [-3.4501186615952912, 50.628334602469295]]]}}, {"type": "Feature", "properties": {"type": "postcode-cell", "postcode": "EX6 8QH", "postcodes": ["EX6 8QH"]}, "geometry": {"type": "Polygon", "coordinates": [[[-3.449544109937747, 50.627180900370064], [-3.4482129726607518, 50.626874946471766], [-3.448179600508328, 50.62680377610524], [-3.448328483706203, 50.626597202555075], [-3.449292159585531, 50.62644479678819], [-3.4494155118462877, 50.626485643701244], [-3.449664942872301, 50.62702063721223], [-3.449544109937747, 50.627180900370064]]]}}, {"type": "Feature", "properties": {"type": "postcode-cell", "postcode": "EX6 8QE", "postcodes": ["EX6 8QE"]}, "geometry": {"type": "Polygon", "coordinates": [[[-3.4500708455926614, 50.62600588047042], [-3.4494155118462877, 50.626485643701244], [-3.449292159585531, 50.62644479678819], [-3.448722011925414, 50.62597270847252], [-3.4492354203219593, 50.625640754784584], [-3.4497826063088617, 50.62576306768191], [-3.4500708455926614, 50.62600588047042]]]}}, {"type": "Feature", "properties": {"type": "postcode-cell", "postcode": "EX6 8PX", "postcodes": ["EX6 8PX"]}, "geometry": {"type": "Polygon", "coordinates": [[[-3.447496483593193, 50.620252365666566], [-3.4495946082742077, 50.621643792329905], [-3.4495850399060033, 50.62168934790015], [-3.448317321845316, 50.62314131545583], [-3.447801472376126, 50.62323718669716], [-3.446505814367217, 50.623070121168745], [-3.4470599897447167, 50.62061999466447], [-3.447105422526173, 50.62018719910998], [-3.447496483593193, 50.620252365666566]]]}}, {"type": "Feature", "properties": {"type": "postcode-cell", "postcode": "EX6 8PA", "postcodes": ["EX6 8PA"]}, "geometry": {"type": "Polygon", "coordinates": [[[-3.4480104330296273, 50.628020106296184], [-3.4494052741009367, 50.62852672459203], [-3.448806544706438, 50.63027484516819], [-3.448559937168452, 50.63043899626737], [-3.4475432617625414, 50.62810740532997], [-3.4480104330296273, 50.628020106296184]]]}}, {"type": "Feature", "properties": {"type": "postcode-cell", "postcode": "EX6 8EP", "postcodes": ["EX6 8EP"]}, "geometry": {"type": "Polygon", "coordinates": [[[-3.450219853742009, 50.623942885993856], [-3.4501811537005858, 50.62445835248929], [-3.449739561553488, 50.62459690598098], [-3.4479171188144884, 50.62423498073625], [-3.4479839305086415, 50.624106693677994], [-3.449467549277074, 50.62373764604596], [-3.450219853742009, 50.623942885993856]]]}}, {"type": "Feature", "properties": {"type": "postcode-cell", "postcode": "EX6 8QA", "postcodes": ["EX6 8QA"]}, "geometry": {"type": "Polygon", "coordinates": [[[-3.448722011925414, 50.62597270847252], [-3.4483394167261703, 50.62593799616118], [-3.4482562354329893, 50.62547818249629], [-3.448968727765722, 50.625027938773414], [-3.4489926272183458, 50.62502505580361], [-3.4492354203219593, 50.625640754784584], [-3.448722011925414, 50.62597270847252]]]}}, {"type": "Feature", "properties": {"type": "postcode-cell", "postcode": "EX6 8QG", "postcodes": ["EX6 8QG"]}, "geometry": {"type": "Polygon", "coordinates": [[[-3.448722011925414, 50.62597270847252], [-3.449292159585531, 50.62644479678819], [-3.448328483706203, 50.626597202555075], [-3.4481378859061524, 50.62628824788166], [-3.448207132338615, 50.62599174757162], [-3.4483394167261703, 50.62593799616118], [-3.448722011925414, 50.62597270847252]]]}}, {"type": "Feature", "properties": {"type": "postcode-cell", "postcode": "EX6 8EH", "postcodes": ["EX6 8EH"]}, "geometry": {"type": "Polygon", "coordinates": [[[-3.448968727765722, 50.625027938773414], [-3.447806917998205, 50.624778917225214], [-3.4476249074148213, 50.62458086953422], [-3.4478673530430113, 50.624264120784076], [-3.4479171188144884, 50.62423498073625], [-3.449739561553488, 50.62459690598098], [-3.4489926272183458, 50.62502505580361], [-3.448968727765722, 50.625027938773414]]]}}, {"type": "Feature", "properties": {"type": "postcode-cell", "postcode": "EX6 8EW", "postcodes": ["EX6 8EW"]}, "geometry": {"type": "Polygon", "coordinates": [[[-3.449467549277074, 50.62373764604596], [-3.4479839305086415, 50.624106693677994], [-3.447801472376126, 50.62323718669716], [-3.448317321845316, 50.62314131545583], [-3.449467549277074, 50.62373764604596]]]}}, {"type": "Feature", "properties": {"type": "postcode-cell", "postcode": "EX6 8NZ", "postcodes": ["EX6 8NZ"]}, "geometry": {"type": "Polygon", "coordinates": [[[-3.449544109937747, 50.627180900370064], [-3.449523653176825, 50.62729666808926], [-3.448219192969055, 50.62786479173413], [-3.4481567038769425, 50.62694986288586], [-3.4482129726607518, 50.626874946471766], [-3.449544109937747, 50.627180900370064]]]}}, {"type": "Feature", "properties": {"type": "postcode-cell", "postcode": "EX6 8EN", "postcodes": ["EX6 8EN"]}, "geometry": {"type": "Polygon", "coordinates": [[[-3.4482562354329893, 50.62547818249629], [-3.447653937924862, 50.62533680951643], [-3.447588914717207, 50.62526769477979], [-3.447806917998205, 50.624778917225214], [-3.448968727765722, 50.625027938773414], [-3.4482562354329893, 50.62547818249629]]]}}, {"type": "Feature", "properties": {"type": "postcode-cell", "postcode": "EX6 8FB", "postcodes": ["EX6 8FB"]}, "geometry": {"type": "Polygon", "coordinates": [[[-3.448179600508328, 50.62680377610524], [-3.4477029012220477, 50.62670711098518], [-3.4476567099230273, 50.626443190741035], [-3.4481378859061524, 50.62628824788166], [-3.448328483706203, 50.626597202555075], [-3.448179600508328, 50.62680377610524]]]}}, {"type": "Feature", "properties": {"type": "postcode-cell", "postcode": "EX6 8EJ", "postcodes": ["EX6 8EJ"]}, "geometry": {"type": "Polygon", "coordinates": [[[-3.4479171188144884, 50.62423498073625], [-3.4478673530430113, 50.624264120784076], [-3.446371265119847, 50.62366495466156], [-3.446505814367217, 50.623070121168745], [-3.447801472376126, 50.62323718669716], [-3.4479839305086415, 50.624106693677994], [-3.4479171188144884, 50.62423498073625]]]}}, {"type": "Feature", "properties": {"type": "postcode-cell", "postcode": "EX6 8PP", "postcodes": ["EX6 8PP"]}, "geometry": {"type": "Polygon", "coordinates": [[[-3.4481567038769425, 50.62694986288586], [-3.447171362241998, 50.627254448601846], [-3.447092612833032, 50.62707383150601], [-3.4476415728131284, 50.626723126306906], [-3.4477029012220477, 50.62670711098518], [-3.448179600508328, 50.62680377610524], [-3.4482129726607518, 50.626874946471766], [-3.4481567038769425, 50.62694986288586]]]}}, {"type": "Feature", "properties": {"type": "postcode-cell", "postcode": "EX6 8NY", "postcodes": ["EX6 8NY"]}, "geometry": {"type": "Polygon", "coordinates": [[[-3.4480104330296273, 50.628020106296184], [-3.4475432617625414, 50.62810740532997], [-3.447171362241998, 50.627254448601846], [-3.4481567038769425, 50.62694986288586], [-3.448219192969055, 50.62786479173413], [-3.4480104330296273, 50.628020106296184]]]}}, {"type": "Feature", "properties": {"type": "postcode-cell", "postcode": "EX6 8PZ", "postcodes": ["EX6 8PZ"]}, "geometry": {"type": "Polygon", "coordinates": [[[-3.448207132338615, 50.62599174757162], [-3.4473522930966216, 50.62592497793144], [-3.447653937924862, 50.62533680951643], [-3.4482562354329893, 50.62547818249629], [-3.4483394167261703, 50.62593799616118], [-3.448207132338615, 50.62599174757162]]]}}, {"type": "Feature", "properties": {"type": "postcode-cell", "postcode": "EX6 8EL", "postcodes": ["EX6 8EL"]}, "geometry": {"type": "Polygon", "coordinates": [[[-3.4478673530430113, 50.624264120784076], [-3.4476249074148213, 50.62458086953422], [-3.4461508294177525, 50.624639455207515], [-3.446371265119847, 50.62366495466156], [-3.4478673530430113, 50.624264120784076]]]}}, {"type": "Feature", "properties": {"type": "postcode-cell", "postcode": "EX6 8QQ", "postcodes": ["EX6 8QQ"]}, "geometry": {"type": "Polygon", "coordinates": [[[-3.4476567099230273, 50.626443190741035], [-3.446929717413249, 50.626146879312586], [-3.4472918787540365, 50.6259407593053], [-3.4473522930966216, 50.62592497793144], [-3.448207132338615, 50.62599174757162], [-3.4481378859061524, 50.62628824788166], [-3.4476567099230273, 50.626443190741035]]]}}, {"type": "Feature", "properties": {"type": "postcode-cell", "postcode": "EX6 8EQ", "postcodes": ["EX6 8EQ"]}, "geometry": {"type": "Polygon", "coordinates": [[[-3.447588914717207, 50.62526769477979], [-3.4467925219618207, 50.625268346882486], [-3.4462415495350918, 50.62512176594249], [-3.4461099897421033, 50.62481999466775], [-3.4461508294177525, 50.624639455207515], [-3.4476249074148213, 50.62458086953422], [-3.447806917998205, 50.624778917225214], [-3.447588914717207, 50.62526769477979]]]}}, {"type": "Feature", "properties": {"type": "postcode-cell", "postcode": "EX6 8PR", "postcodes": ["EX6 8PR"]}, "geometry": {"type": "Polygon", "coordinates": [[[-3.4476567099230273, 50.626443190741035], [-3.4477029012220477, 50.62670711098518], [-3.4476415728131284, 50.626723126306906], [-3.446799324439921, 50.62640114173308], [-3.4467143914589102, 50.626206334601], [-3.446929717413249, 50.626146879312586], [-3.4476567099230273, 50.626443190741035]]]}}, {"type": "Feature", "properties": {"type": "postcode-cell", "postcode": "EX6 8PS", "postcodes": ["EX6 8PS"]}, "geometry": {"type": "Polygon", "coordinates": [[[-3.4473522930966216, 50.62592497793144], [-3.4472918787540365, 50.6259407593053], [-3.4467925219618207, 50.625268346882486], [-3.447588914717207, 50.62526769477979], [-3.447653937924862, 50.62533680951643], [-3.4473522930966216, 50.62592497793144]]]}}, {"type": "Feature", "properties": {"type": "postcode-cell", "postcode": "EX6 8PT", "postcodes": ["EX6 8PT"]}, "geometry": {"type": "Polygon", "coordinates": [[[-3.4467925219618207, 50.625268346882486], [-3.4472918787540365, 50.6259407593053], [-3.446929717413249, 50.626146879312586], [-3.4467143914589102, 50.626206334601], [-3.4462415495350918, 50.62512176594249], [-3.4467925219618207, 50.625268346882486]]]}}]}