{"type": "FeatureCollection", "features": [{"type": "Feature", "properties": {"type": "ward-outline", "name": "Kerswell-with-Combe"}, "geometry": {"type": "MultiPolygon", "coordinates": [[[[-3.58461, 50.53791], [-3.58532, 50.53756], [-3.58444, 50.53789], [-3.58519, 50.53719], [-3.58379, 50.53795], [-3.58337, 50.53789], [-3.58352, 50.53744], [-3.58643, 50.53683], [-3.58654, 50.53679], [-3.58698, 50.5377], [-3.5842, 50.5384], [-3.58424, 50.53839], [-3.58434, 50.53812], [-3.58509, 50.53802], [-3.58461, 50.53791]]], [[[-3.58042, 50.53935], [-3.58064, 50.5393], [-3.58066, 50.5393], [-3.58043, 50.53936], [-3.58042, 50.53935]]], [[[-3.551, 50.54111], [-3.54881, 50.54003], [-3.54353, 50.53975], [-3.54039, 50.53809], [-3.54033, 50.53822], [-3.5397, 50.53751], [-3.53839, 50.53424], [-3.53987, 50.53369], [-3.53956, 50.53226], [-3.53993, 50.53128], [-3.54212, 50.52998], [-3.53827, 50.5271], [-3.53878, 50.5267], [-3.53858, 50.52644], [-3.54221, 50.52482], [-3.54293, 50.52404], [-3.54688, 50.5232], [-3.54777, 50.52147], [-3.54725, 50.51997], [-3.54724, 50.51778], [-3.5461, 50.51635], [-3.54548, 50.5161], [-3.54545, 50.51483], [-3.54631, 50.51308], [-3.54757, 50.51227], [-3.54794, 50.51095], [-3.54688, 50.50932], [-3.54379, 50.50735], [-3.5417, 50.50652], [-3.53914, 50.50453], [-3.53902, 50.50217], [-3.54129, 50.50076], [-3.54226, 50.49884], [-3.54328, 50.49897], [-3.5438, 50.49735], [-3.55157, 50.49489], [-3.55369, 50.49509], [-3.55637, 50.4948], [-3.55841, 50.49503], [-3.56107, 50.49446], [-3.56283, 50.49333], [-3.5621, 50.49149], [-3.56239, 50.48848], [-3.56477, 50.48697], [-3.56725, 50.48791], [-3.56751, 50.48941], [-3.56899, 50.48996], [-3.56897, 50.49039], [-3.56964, 50.49071], [-3.57019, 50.49044], [-3.57032, 50.48929], [-3.57124, 50.48825], [-3.57199, 50.48784], [-3.57283, 50.48787], [-3.57295, 50.48746], [-3.5741, 50.48767], [-3.57492, 50.48686], [-3.57485, 50.486], [-3.57529, 50.48581], [-3.57564, 50.48454], [-3.57665, 50.48316], [-3.57922, 50.4822], [-3.58085, 50.48032], [-3.58196, 50.48029], [-3.58208, 50.47983], [-3.58447, 50.47924], [-3.58417, 50.478], [-3.58425, 50.47772], [-3.58756, 50.47856], [-3.58885, 50.47857], [-3.59073, 50.47962], [-3.59145, 50.47966], [-3.59243, 50.48092], [-3.59511, 50.48271], [-3.59522, 50.48324], [-3.59805, 50.4844], [-3.59833, 50.48416], [-3.59932, 50.48443], [-3.60236, 50.48438], [-3.60296, 50.48584], [-3.60206, 50.48905], [-3.60309, 50.4944], [-3.60259, 50.49616], [-3.59973, 50.49745], [-3.59777, 50.49907], [-3.59683, 50.50084], [-3.59697, 50.5052], [-3.59659, 50.5065], [-3.59008, 50.51131], [-3.58914, 50.51242], [-3.58864, 50.51396], [-3.58809, 50.51396], [-3.58792, 50.51351], [-3.58106, 50.51428], [-3.58009, 50.51563], [-3.57956, 50.51802], [-3.5784, 50.51941], [-3.57029, 50.51567], [-3.57027, 50.51585], [-3.57246, 50.52431], [-3.57332, 50.52529], [-3.57322, 50.52586], [-3.57543, 50.52747], [-3.5794, 50.52886], [-3.58077, 50.52992], [-3.58251, 50.53193], [-3.58214, 50.53392], [-3.58256, 50.53412], [-3.58474, 50.53313], [-3.58635, 50.53641], [-3.58621, 50.53645], [-3.57661, 50.53838], [-3.57282, 50.53836], [-3.5717, 50.53872], [-3.57042, 50.53872], [-3.5673, 50.53864], [-3.5663, 50.53822], [-3.56598, 50.53844], [-3.56647, 50.53905], [-3.56538, 50.53945], [-3.55935, 50.53921], [-3.55824, 50.53979], [-3.55395, 50.54075], [-3.55223, 50.54008], [-3.551, 50.54111]]]]}}, {"type": "Feature", "properties": {"type": "postcode-cell", "postcode": "TQ12 5LN", "postcodes": ["TQ12 5LN"]}, "geometry": {"type": "Polygon", "coordinates": [[[-3.595313570840168, 50.493130104486156], [-3.602048522303674, 50.48516423319005], [-3.6025185394118093, 50.484765807696505], [-3.6029599899071765, 50.485839994557], [-3.602059989905077, 50.48904999455948], [-3.6030899899031676, 50.4943999945636], [-3.602621383922432, 50.49604949137961], [-3.595313570840168, 50.493130104486156]]]}}, {"type": "Feature", "properties": {"type": "postcode-cell", "postcode": "TQ12 5LP", "postcodes": ["TQ12 5LP"]}, "geometry": {"type": "Polygon", "coordinates": [[[-3.602048522303674, 50.48516423319005], [-3.593389084011667, 50.48756914867012], [-3.5935178844328943, 50.484580783015694], [-3.595833307210016, 50.483491400394854], [-3.598049989904776, 50.48439999455597], [-3.5983299899050647, 50.48415999455579], [-3.599319989905559, 50.48442999455598], [-3.602359989907495, 50.48437999455586], [-3.6025185394118093, 50.484765807696505], [-3.602048522303674, 50.48516423319005]]]}}, {"type": "Feature", "properties": {"type": "postcode-cell", "postcode": "TQ12 5LF", "postcodes": ["TQ12 5LF"]}, "geometry": {"type": "Polygon", "coordinates": [[[-3.602621383922432, 50.49604949137961], [-3.6025899899020137, 50.49615999456497], [-3.5997299898995943, 50.497449994566026], [-3.5977699898975852, 50.499069994567336], [-3.5968299898961473, 50.50083999456868], [-3.59688141848556, 50.50244175490552], [-3.592943221519223, 50.501747232532374], [-3.5905281784619087, 50.499088403591344], [-3.590419738762944, 50.49724014397849], [-3.590951397089543, 50.49569475671211], [-3.5951995534212484, 50.493127052786626], [-3.595313570840168, 50.493130104486156], [-3.602621383922432, 50.49604949137961]]]}}, {"type": "Feature", "properties": {"type": "postcode-cell", "postcode": "TQ12 5LW", "postcodes": ["TQ12 5LW"]}, "geometry": {"type": "Polygon", "coordinates": [[[-3.595313570840168, 50.493130104486156], [-3.5951995534212484, 50.493127052786626], [-3.5943980910409956, 50.49263971807946], [-3.590863792436998, 50.48926147434664], [-3.593389084011667, 50.48756914867012], [-3.602048522303674, 50.48516423319005], [-3.595313570840168, 50.493130104486156]]]}}, {"type": "Feature", "properties": {"type": "postcode-cell", "postcode": "TQ12 5FL", "postcodes": ["TQ12 5FL"]}, "geometry": {"type": "Polygon", "coordinates": [[[-3.589295887685912, 50.50552772462794], [-3.5925455572229965, 50.50189444300337], [-3.592943221519223, 50.501747232532374], [-3.59688141848556, 50.50244175490552], [-3.5969699898941556, 50.505199994572074], [-3.5965899898932934, 50.50649999457308], [-3.5935936875762398, 50.50871401769838], [-3.589295887685912, 50.50552772462794]]]}}, {"type": "Feature", "properties": {"type": "postcode-cell", "postcode": "TQ12 5LE", "postcodes": ["TQ12 5LE"]}, "geometry": {"type": "Polygon", "coordinates": [[[-3.5925455572229965, 50.50189444300337], [-3.5877844121634213, 50.50255991390451], [-3.586800680554714, 50.50215075055672], [-3.586354988006408, 50.50040256353125], [-3.5875283059535272, 50.499585027326184], [-3.5905281784619087, 50.499088403591344], [-3.592943221519223, 50.501747232532374], [-3.5925455572229965, 50.50189444300337]]]}}, {"type": "Feature", "properties": {"type": "postcode-cell", "postcode": "TQ3 1SB", "postcodes": ["TQ3 1SB"]}, "geometry": {"type": "Polygon", "coordinates": [[[-3.5891919089640067, 50.48198996638764], [-3.584895075542206, 50.47788371186794], [-3.587559989900972, 50.4785599945517], [-3.588849989901779, 50.47856999455169], [-3.5907299899024565, 50.479619994552436], [-3.5914499899028907, 50.47965999455248], [-3.5924299899029037, 50.48091999455343], [-3.5951099899037335, 50.48270999455476], [-3.5951184646658927, 50.48275082795051], [-3.5891919089640067, 50.48198996638764]]]}}, {"type": "Feature", "properties": {"type": "postcode-cell", "postcode": "TQ12 5LR", "postcodes": ["TQ12 5LR"]}, "geometry": {"type": "Polygon", "coordinates": [[[-3.590863792436998, 50.48926147434664], [-3.5905677939408296, 50.48912535062914], [-3.5898547595463577, 50.485574166013], [-3.5935178844328943, 50.484580783015694], [-3.593389084011667, 50.48756914867012], [-3.590863792436998, 50.48926147434664]]]}}, {"type": "Feature", "properties": {"type": "postcode-cell", "postcode": "TQ12 5YB", "postcodes": ["TQ12 5YB"]}, "geometry": {"type": "Polygon", "coordinates": [[[-3.5898547595463577, 50.485574166013], [-3.588192282606963, 50.484876416150186], [-3.5891919089640067, 50.48198996638764], [-3.5951184646658927, 50.48275082795051], [-3.5952199899035477, 50.48323999455514], [-3.595833307210016, 50.483491400394854], [-3.5935178844328943, 50.484580783015694], [-3.5898547595463577, 50.485574166013]]]}}, {"type": "Feature", "properties": {"type": "postcode-cell", "postcode": "TQ12 5DY", "postcodes": ["TQ12 5DY"]}, "geometry": {"type": "Polygon", "coordinates": [[[-3.590863792436998, 50.48926147434664], [-3.5943980910409956, 50.49263971807946], [-3.586983351184076, 50.49228745714169], [-3.58602758103422, 50.491980624088114], [-3.5854260305721897, 50.491040696310954], [-3.5860522565509494, 50.48907389145943], [-3.5905677939408296, 50.48912535062914], [-3.590863792436998, 50.48926147434664]]]}}, {"type": "Feature", "properties": {"type": "postcode-cell", "postcode": "TQ12 5LT", "postcodes": ["TQ12 5LT"]}, "geometry": {"type": "Polygon", "coordinates": [[[-3.5891919089640067, 50.48198996638764], [-3.588192282606963, 50.484876416150186], [-3.5833502833759217, 50.48528633183441], [-3.5774903292705122, 50.482846103936495], [-3.579219989893989, 50.482199994554676], [-3.5808499898959156, 50.48031999455319], [-3.5819599898966263, 50.480289994553154], [-3.582079989896921, 50.47982999455281], [-3.584469989898706, 50.4792399945523], [-3.5841699898991104, 50.47799999455135], [-3.584249989899295, 50.47771999455113], [-3.584895075542206, 50.47788371186794], [-3.5891919089640067, 50.48198996638764]]]}}, {"type": "Feature", "properties": {"type": "postcode-cell", "postcode": "TQ12 4SA", "postcodes": ["TQ12 4SA"]}, "geometry": {"type": "MultiPolygon", "coordinates": [[[[-3.5730994959362317, 50.53251706583099], [-3.5810724794971636, 50.53026943665738], [-3.582509989872277, 50.53192999459305], [-3.5821399898710915, 50.5339199945946], [-3.58255998987126, 50.53411999459474], [-3.5847399898731074, 50.53312999459393], [-3.586349989872558, 50.53640999459643], [-3.5862099898724487, 50.53644999459644], [-3.5766099898654757, 50.53837999459816], [-3.573099498723309, 50.538361473794346], [-3.5730994959362317, 50.53251706583099]]], [[[-3.5806399898675756, 50.53929999459878], [-3.580659989867589, 50.53929999459877], [-3.580429989867416, 50.53935999459883], [-3.5804199898674134, 50.53934999459881], [-3.5806399898675756, 50.53929999459878]]], [[[-3.5853199898713597, 50.53755999459736], [-3.5844399898706456, 50.5378899945976], [-3.5851899898714525, 50.53718999459705], [-3.583789989870209, 50.53794999459768], [-3.5833699898699707, 50.537889994597634], [-3.5835199898702816, 50.53743999459728], [-3.5864299898724057, 50.53682999459676], [-3.5865399898724926, 50.536789994596724], [-3.58697998987234, 50.537699994597425], [-3.584240019004849, 50.538389915935106], [-3.584339989870473, 50.5381199945978], [-3.585089989870993, 50.53801999459771], [-3.584609989870742, 50.53790999459762], [-3.5853199898713597, 50.53755999459736]]]]}}, {"type": "Feature", "properties": {"type": "postcode-cell", "postcode": "TQ12 5LS", "postcodes": ["TQ12 5LS"]}, "geometry": {"type": "Polygon", "coordinates": [[[-3.5905677939408296, 50.48912535062914], [-3.5860522565509494, 50.48907389145943], [-3.5849951696173443, 50.488641211215636], [-3.5833502833759217, 50.48528633183441], [-3.588192282606963, 50.484876416150186], [-3.5898547595463577, 50.485574166013], [-3.5905677939408296, 50.48912535062914]]]}}, {"type": "Feature", "properties": {"type": "postcode-cell", "postcode": "TQ12 5GJ", "postcodes": ["TQ12 5GJ"]}, "geometry": {"type": "Polygon", "coordinates": [[[-3.5935936875762398, 50.50871401769838], [-3.591694738736091, 50.51011704007494], [-3.586404880901189, 50.507775065191666], [-3.585817894934235, 50.506792587614974], [-3.5858722633351547, 50.50662053096236], [-3.5869372343966717, 50.50546812146978], [-3.589295887685912, 50.50552772462794], [-3.5935936875762398, 50.50871401769838]]]}}, {"type": "Feature", "properties": {"type": "postcode-cell", "postcode": "TQ12 5LB", "postcodes": ["TQ12 5LB"]}, "geometry": {"type": "Polygon", "coordinates": [[[-3.589295887685912, 50.50552772462794], [-3.5869372343966717, 50.50546812146978], [-3.5862927660043398, 50.504432829411805], [-3.5877844121634213, 50.50255991390451], [-3.5925455572229965, 50.50189444300337], [-3.589295887685912, 50.50552772462794]]]}}, {"type": "Feature", "properties": {"type": "postcode-cell", "postcode": "TQ12 5FS", "postcodes": ["TQ12 5FS"]}, "geometry": {"type": "Polygon", "coordinates": [[[-3.5841100256165164, 50.511106639717944], [-3.585121072902658, 50.50976902340392], [-3.5906257250182074, 50.510906822041115], [-3.5900799898868945, 50.51130999457694], [-3.5891399898857714, 50.512419994577805], [-3.5886399898847205, 50.513959994579], [-3.5880899898843754, 50.513959994579004], [-3.5879199898844845, 50.51350999457868], [-3.5840013130263917, 50.51394989852593], [-3.5841100256165164, 50.511106639717944]]]}}, {"type": "Feature", "properties": {"type": "postcode-cell", "postcode": "TQ12 5FE", "postcodes": ["TQ12 5FE"]}, "geometry": {"type": "Polygon", "coordinates": [[[-3.5862927660043398, 50.504432829411805], [-3.5861138080027954, 50.50440259739949], [-3.5846470287490635, 50.503568290787044], [-3.584781541018421, 50.50240144612978], [-3.5860302387130836, 50.502108504286994], [-3.586800680554714, 50.50215075055672], [-3.5877844121634213, 50.50255991390451], [-3.5862927660043398, 50.504432829411805]]]}}, {"type": "Feature", "properties": {"type": "postcode-cell", "postcode": "TQ12 5DX", "postcodes": ["TQ12 5DX"]}, "geometry": {"type": "Polygon", "coordinates": [[[-3.585745245150399, 50.49454597601431], [-3.5851506253886947, 50.493157103692496], [-3.585402058985187, 50.492372300516045], [-3.58602758103422, 50.491980624088114], [-3.586983351184076, 50.49228745714169], [-3.585745245150399, 50.49454597601431]]]}}, {"type": "Feature", "properties": {"type": "postcode-cell", "postcode": "TQ12 5ED", "postcodes": ["TQ12 5ED"]}, "geometry": {"type": "Polygon", "coordinates": [[[-3.586983351184076, 50.49228745714169], [-3.5943980910409956, 50.49263971807946], [-3.5951995534212484, 50.493127052786626], [-3.590951397089543, 50.49569475671211], [-3.5873942353761716, 50.49531266925368], [-3.5857425114910164, 50.49487191080509], [-3.585745245150399, 50.49454597601431], [-3.586983351184076, 50.49228745714169]]]}}, {"type": "Feature", "properties": {"type": "postcode-cell", "postcode": "TQ12 5DZ", "postcodes": ["TQ12 5DZ"]}, "geometry": {"type": "Polygon", "coordinates": [[[-3.585402058985187, 50.492372300516045], [-3.581229845805379, 50.4927715093102], [-3.5808379212386554, 50.492454592795426], [-3.5808175805605997, 50.4924034134844], [-3.5807986989239824, 50.4921925165208], [-3.5854260305721897, 50.491040696310954], [-3.58602758103422, 50.491980624088114], [-3.585402058985187, 50.492372300516045]]]}}, {"type": "Feature", "properties": {"type": "postcode-cell", "postcode": "TQ12 5LD", "postcodes": ["TQ12 5LD"]}, "geometry": {"type": "Polygon", "coordinates": [[[-3.586354988006408, 50.50040256353125], [-3.585291063510021, 50.50038973301897], [-3.5847091926431345, 50.49992845085347], [-3.584633491092169, 50.49952504505434], [-3.5851023452147173, 50.498796768267496], [-3.5875283059535272, 50.499585027326184], [-3.586354988006408, 50.50040256353125]]]}}, {"type": "Feature", "properties": {"type": "postcode-cell", "postcode": "TQ12 5AX", "postcodes": ["TQ12 5AX"]}, "geometry": {"type": "Polygon", "coordinates": [[[-3.586800680554714, 50.50215075055672], [-3.5860302387130836, 50.502108504286994], [-3.5850459630294753, 50.50143763960672], [-3.584850109730046, 50.50073744677886], [-3.585291063510021, 50.50038973301897], [-3.586354988006408, 50.50040256353125], [-3.586800680554714, 50.50215075055672]]]}}, {"type": "Feature", "properties": {"type": "postcode-cell", "postcode": "TQ12 5DT", "postcodes": ["TQ12 5DT"]}, "geometry": {"type": "Polygon", "coordinates": [[[-3.590951397089543, 50.49569475671211], [-3.590419738762944, 50.49724014397849], [-3.5861914740157537, 50.497815321911446], [-3.5850943767703347, 50.49718082769898], [-3.5873942353761716, 50.49531266925368], [-3.590951397089543, 50.49569475671211]]]}}, {"type": "Feature", "properties": {"type": "postcode-cell", "postcode": "TQ12 5DS", "postcodes": ["TQ12 5DS"]}, "geometry": {"type": "Polygon", "coordinates": [[[-3.5905281784619087, 50.499088403591344], [-3.5875283059535272, 50.499585027326184], [-3.5851023452147173, 50.498796768267496], [-3.5850859109519435, 50.498773026893694], [-3.5861914740157537, 50.497815321911446], [-3.590419738762944, 50.49724014397849], [-3.5905281784619087, 50.499088403591344]]]}}, {"type": "Feature", "properties": {"type": "postcode-cell", "postcode": "TQ12 5DR", "postcodes": ["TQ12 5DR"]}, "geometry": {"type": "Polygon", "coordinates": [[[-3.5861914740157537, 50.497815321911446], [-3.5850859109519435, 50.498773026893694], [-3.584728397786454, 50.49864053977794], [-3.5838985906544054, 50.49783427294502], [-3.584320952209219, 50.49724329990489], [-3.584407799412547, 50.49721216190121], [-3.5850943767703347, 50.49718082769898], [-3.5861914740157537, 50.497815321911446]]]}}, {"type": "Feature", "properties": {"type": "postcode-cell", "postcode": "TQ12 5LX", "postcodes": ["TQ12 5LX"]}, "geometry": {"type": "Polygon", "coordinates": [[[-3.5857425114910164, 50.49487191080509], [-3.5845881146729206, 50.49494701204675], [-3.5824465614597614, 50.49481933402793], [-3.5812904226775553, 50.492848702771525], [-3.5851506253886947, 50.493157103692496], [-3.585745245150399, 50.49454597601431], [-3.5857425114910164, 50.49487191080509]]]}}, {"type": "Feature", "properties": {"type": "postcode-cell", "postcode": "TQ12 5EF", "postcodes": ["TQ12 5EF"]}, "geometry": {"type": "Polygon", "coordinates": [[[-3.5873942353761716, 50.49531266925368], [-3.5850943767703347, 50.49718082769898], [-3.584407799412547, 50.49721216190121], [-3.5845881146729206, 50.49494701204675], [-3.5857425114910164, 50.49487191080509], [-3.5873942353761716, 50.49531266925368]]]}}, {"type": "Feature", "properties": {"type": "postcode-cell", "postcode": "TQ12 5FJ", "postcodes": ["TQ12 5FJ"]}, "geometry": {"type": "Polygon", "coordinates": [[[-3.584850109730046, 50.50073744677886], [-3.5834327930554224, 50.50089089945076], [-3.583389025585083, 50.50078938247987], [-3.5837230851007638, 50.50020824171227], [-3.5847091926431345, 50.49992845085347], [-3.585291063510021, 50.50038973301897], [-3.584850109730046, 50.50073744677886]]]}}, {"type": "Feature", "properties": {"type": "postcode-cell", "postcode": "TQ12 5BP", "postcodes": ["TQ12 5BP"]}, "geometry": {"type": "Polygon", "coordinates": [[[-3.5869372343966717, 50.50546812146978], [-3.5858722633351547, 50.50662053096236], [-3.5831300165272424, 50.505420052994694], [-3.582946451462371, 50.50488310106563], [-3.582933703751888, 50.504773888928156], [-3.5861138080027954, 50.50440259739949], [-3.5862927660043398, 50.504432829411805], [-3.5869372343966717, 50.50546812146978]]]}}, {"type": "Feature", "properties": {"type": "postcode-cell", "postcode": "TQ12 5AU", "postcodes": ["TQ12 5AU"]}, "geometry": {"type": "Polygon", "coordinates": [[[-3.591694738736091, 50.51011704007494], [-3.5906257250182074, 50.510906822041115], [-3.585121072902658, 50.50976902340392], [-3.584995039773379, 50.509670962451565], [-3.584935153469855, 50.509258788130104], [-3.5854872800990165, 50.508277462734384], [-3.586404880901189, 50.507775065191666], [-3.591694738736091, 50.51011704007494]]]}}, {"type": "Feature", "properties": {"type": "postcode-cell", "postcode": "TQ12 5GB", "postcodes": ["TQ12 5GB"]}, "geometry": {"type": "Polygon", "coordinates": [[[-3.5854872800990165, 50.508277462734384], [-3.583925436388482, 50.50848857255785], [-3.5828758150612066, 50.507629251073205], [-3.585227834711268, 50.5068655079951], [-3.585817894934235, 50.506792587614974], [-3.586404880901189, 50.507775065191666], [-3.5854872800990165, 50.508277462734384]]]}}, {"type": "Feature", "properties": {"type": "postcode-cell", "postcode": "TQ12 5DP", "postcodes": ["TQ12 5DP"]}, "geometry": {"type": "Polygon", "coordinates": [[[-3.5851023452147173, 50.498796768267496], [-3.584633491092169, 50.49952504505434], [-3.5834072005557975, 50.49956542814285], [-3.5830770235021268, 50.49899939953694], [-3.584728397786454, 50.49864053977794], [-3.5850859109519435, 50.498773026893694], [-3.5851023452147173, 50.498796768267496]]]}}, {"type": "Feature", "properties": {"type": "postcode-cell", "postcode": "TQ12 5JT", "postcodes": ["TQ12 5JT"]}, "geometry": {"type": "Polygon", "coordinates": [[[-3.5850459630294753, 50.50143763960672], [-3.5837117795102174, 50.50145565901822], [-3.5833571040429937, 50.501025792669346], [-3.5834327930554224, 50.50089089945076], [-3.584850109730046, 50.50073744677886], [-3.5850459630294753, 50.50143763960672]]]}}, {"type": "Feature", "properties": {"type": "postcode-cell", "postcode": "TQ12 5DW", "postcodes": ["TQ12 5DW"]}, "geometry": {"type": "Polygon", "coordinates": [[[-3.5847091926431345, 50.49992845085347], [-3.5837230851007638, 50.50020824171227], [-3.583227540854794, 50.49976882823256], [-3.5834072005557975, 50.49956542814285], [-3.584633491092169, 50.49952504505434], [-3.5847091926431345, 50.49992845085347]]]}}, {"type": "Feature", "properties": {"type": "postcode-cell", "postcode": "TQ12 5RF", "postcodes": ["TQ12 5RF"]}, "geometry": {"type": "Polygon", "coordinates": [[[-3.5851506253886947, 50.493157103692496], [-3.5812904226775553, 50.492848702771525], [-3.581229845805379, 50.4927715093102], [-3.585402058985187, 50.492372300516045], [-3.5851506253886947, 50.493157103692496]]]}}, {"type": "Feature", "properties": {"type": "postcode-cell", "postcode": "TQ12 5GA", "postcodes": ["TQ12 5GA"]}, "geometry": {"type": "Polygon", "coordinates": [[[-3.584935153469855, 50.509258788130104], [-3.583640650441275, 50.50917542209777], [-3.5838171731664348, 50.508562595256194], [-3.583925436388482, 50.50848857255785], [-3.5854872800990165, 50.508277462734384], [-3.584935153469855, 50.509258788130104]]]}}, {"type": "Feature", "properties": {"type": "postcode-cell", "postcode": "TQ12 5HD", "postcodes": ["TQ12 5HD"]}, "geometry": {"type": "Polygon", "coordinates": [[[-3.5812904226775553, 50.492848702771525], [-3.5824465614597614, 50.49481933402793], [-3.5815773585679382, 50.49562416896771], [-3.5782219889751317, 50.49453328354384], [-3.5779558886378697, 50.49426621025719], [-3.5779476223997073, 50.4941182123582], [-3.5808379212386554, 50.492454592795426], [-3.581229845805379, 50.4927715093102], [-3.5812904226775553, 50.492848702771525]]]}}, {"type": "Feature", "properties": {"type": "postcode-cell", "postcode": "TQ12 5LU", "postcodes": ["TQ12 5LU"]}, "geometry": {"type": "Polygon", "coordinates": [[[-3.5854260305721897, 50.491040696310954], [-3.5807986989239824, 50.4921925165208], [-3.57981810819286, 50.490548374345344], [-3.5797565141074723, 50.49032210392403], [-3.5849951696173443, 50.488641211215636], [-3.5860522565509494, 50.48907389145943], [-3.5854260305721897, 50.491040696310954]]]}}, {"type": "Feature", "properties": {"type": "postcode-cell", "postcode": "TQ12 5EA", "postcodes": ["TQ12 5EA"]}, "geometry": {"type": "Polygon", "coordinates": [[[-3.584320952209219, 50.49724329990489], [-3.5817105181045963, 50.49601883057035], [-3.5815184709491428, 50.495741686442635], [-3.58154650696699, 50.49567028432615], [-3.5815773585679382, 50.49562416896771], [-3.5824465614597614, 50.49481933402793], [-3.5845881146729206, 50.49494701204675], [-3.584407799412547, 50.49721216190121], [-3.584320952209219, 50.49724329990489]]]}}, {"type": "Feature", "properties": {"type": "postcode-cell", "postcode": "TQ12 5BJ", "postcodes": ["TQ12 5BJ"]}, "geometry": {"type": "Polygon", "coordinates": [[[-3.5860302387130836, 50.502108504286994], [-3.584781541018421, 50.50240144612978], [-3.583768121400179, 50.502323104862064], [-3.583678431824851, 50.50225219342964], [-3.5837117795102174, 50.50145565901822], [-3.5850459630294753, 50.50143763960672], [-3.5860302387130836, 50.502108504286994]]]}}, {"type": "Feature", "properties": {"type": "postcode-cell", "postcode": "TQ12 5HY", "postcodes": ["TQ12 5HY"]}, "geometry": {"type": "Polygon", "coordinates": [[[-3.5817105181045963, 50.49601883057035], [-3.582003481156337, 50.49754130944696], [-3.581330213687654, 50.49803933600502], [-3.5811495600871512, 50.49810296177298], [-3.580748801504897, 50.49811012375584], [-3.579971132296324, 50.49727122211374], [-3.5801159457003897, 50.496740957449056], [-3.5808777430243044, 50.49604420511936], [-3.5815184709491428, 50.495741686442635], [-3.5817105181045963, 50.49601883057035]]]}}, {"type": "Feature", "properties": {"type": "postcode-cell", "postcode": "TQ12 5DJ", "postcodes": ["TQ12 5DJ"]}, "geometry": {"type": "Polygon", "coordinates": [[[-3.583389025585083, 50.50078938247987], [-3.582200404303107, 50.500121978404934], [-3.582543717410628, 50.49991248720092], [-3.583227540854794, 50.49976882823256], [-3.5837230851007638, 50.50020824171227], [-3.583389025585083, 50.50078938247987]]]}}, {"type": "Feature", "properties": {"type": "postcode-cell", "postcode": "TQ12 5BY", "postcodes": ["TQ12 5BY"]}, "geometry": {"type": "Polygon", "coordinates": [[[-3.5846470287490635, 50.503568290787044], [-3.5836673909190626, 50.50347084389816], [-3.583339243972853, 50.502949878722774], [-3.583768121400179, 50.502323104862064], [-3.584781541018421, 50.50240144612978], [-3.5846470287490635, 50.503568290787044]]]}}, {"type": "Feature", "properties": {"type": "postcode-cell", "postcode": "TQ12 5DN", "postcodes": ["TQ12 5DN"]}, "geometry": {"type": "Polygon", "coordinates": [[[-3.5834327930554224, 50.50089089945076], [-3.5833571040429937, 50.501025792669346], [-3.581543941938516, 50.50148580031057], [-3.5813596508434737, 50.501367555754356], [-3.5815740709092285, 50.50034341534052], [-3.5818249783929423, 50.50014491137834], [-3.582200404303107, 50.500121978404934], [-3.583389025585083, 50.50078938247987], [-3.5834327930554224, 50.50089089945076]]]}}, {"type": "Feature", "properties": {"type": "postcode-cell", "postcode": "TQ12 5FR", "postcodes": ["TQ12 5FR"]}, "geometry": {"type": "Polygon", "coordinates": [[[-3.585121072902658, 50.50976902340392], [-3.5841100256165164, 50.511106639717944], [-3.5835229996822133, 50.509835225353385], [-3.584995039773379, 50.509670962451565], [-3.585121072902658, 50.50976902340392]]]}}, {"type": "Feature", "properties": {"type": "postcode-cell", "postcode": "TQ12 5BL", "postcodes": ["TQ12 5BL"]}, "geometry": {"type": "Polygon", "coordinates": [[[-3.582933703751888, 50.504773888928156], [-3.5824375976816683, 50.50444906322768], [-3.5824124346897097, 50.504413568866006], [-3.5836673909190626, 50.50347084389816], [-3.5846470287490635, 50.503568290787044], [-3.5861138080027954, 50.50440259739949], [-3.582933703751888, 50.504773888928156]]]}}, {"type": "Feature", "properties": {"type": "postcode-cell", "postcode": "TQ12 5BS", "postcodes": ["TQ12 5BS"]}, "geometry": {"type": "Polygon", "coordinates": [[[-3.585817894934235, 50.506792587614974], [-3.585227834711268, 50.5068655079951], [-3.58214714151805, 50.50638429040105], [-3.5831300165272424, 50.505420052994694], [-3.5858722633351547, 50.50662053096236], [-3.585817894934235, 50.506792587614974]]]}}, {"type": "Feature", "properties": {"type": "postcode-cell", "postcode": "TQ12 5FN", "postcodes": ["TQ12 5FN"]}, "geometry": {"type": "Polygon", "coordinates": [[[-3.5840013130263917, 50.51394989852593], [-3.582908820527529, 50.514072514942214], [-3.5797430579800973, 50.510271474421], [-3.5811661795887346, 50.50951231591292], [-3.583043490668529, 50.509590777102865], [-3.5835229996822133, 50.509835225353385], [-3.5841100256165164, 50.511106639717944], [-3.5840013130263917, 50.51394989852593]]]}}, {"type": "Feature", "properties": {"type": "postcode-cell", "postcode": "TQ12 5BH", "postcodes": ["TQ12 5BH"]}, "geometry": {"type": "Polygon", "coordinates": [[[-3.5837117795102174, 50.50145565901822], [-3.583678431824851, 50.50225219342964], [-3.582199239105023, 50.50206283457082], [-3.581631569633638, 50.50176678513011], [-3.581543941938516, 50.50148580031057], [-3.5833571040429937, 50.501025792669346], [-3.5837117795102174, 50.50145565901822]]]}}, {"type": "Feature", "properties": {"type": "postcode-cell", "postcode": "TQ12 5AN", "postcodes": ["TQ12 5AN"]}, "geometry": {"type": "Polygon", "coordinates": [[[-3.584995039773379, 50.509670962451565], [-3.5835229996822133, 50.509835225353385], [-3.583043490668529, 50.509590777102865], [-3.583640650441275, 50.50917542209777], [-3.584935153469855, 50.509258788130104], [-3.584995039773379, 50.509670962451565]]]}}, {"type": "Feature", "properties": {"type": "postcode-cell", "postcode": "TQ12 5GD", "postcodes": ["TQ12 5GD"]}, "geometry": {"type": "Polygon", "coordinates": [[[-3.5817105181045963, 50.49601883057035], [-3.584320952209219, 50.49724329990489], [-3.5838985906544054, 50.49783427294502], [-3.58315901974188, 50.49789055929575], [-3.582003481156337, 50.49754130944696], [-3.5817105181045963, 50.49601883057035]]]}}, {"type": "Feature", "properties": {"type": "postcode-cell", "postcode": "TQ12 5FY", "postcodes": ["TQ12 5FY"]}, "geometry": {"type": "Polygon", "coordinates": [[[-3.5849951696173443, 50.488641211215636], [-3.5797565141074723, 50.49032210392403], [-3.579197263247416, 50.48999198917143], [-3.5770105690710894, 50.488184314683686], [-3.57540010793992, 50.48541043052085], [-3.57563998989062, 50.48453999455656], [-3.5766499898919166, 50.483159994555486], [-3.5774903292705122, 50.482846103936495], [-3.5833502833759217, 50.48528633183441], [-3.5849951696173443, 50.488641211215636]]]}}, {"type": "Feature", "properties": {"type": "postcode-cell", "postcode": "TQ12 5AZ", "postcodes": ["TQ12 5AZ"]}, "geometry": {"type": "Polygon", "coordinates": [[[-3.583925436388482, 50.50848857255785], [-3.5838171731664348, 50.508562595256194], [-3.581746098807749, 50.50867999760627], [-3.582783643015483, 50.5076308713607], [-3.5828758150612066, 50.507629251073205], [-3.583925436388482, 50.50848857255785]]]}}, {"type": "Feature", "properties": {"type": "postcode-cell", "postcode": "TQ12 5DH", "postcodes": ["TQ12 5DH"]}, "geometry": {"type": "Polygon", "coordinates": [[[-3.583227540854794, 50.49976882823256], [-3.582543717410628, 50.49991248720092], [-3.582451373499653, 50.49901666292982], [-3.5826874712998307, 50.49890474027219], [-3.5830770235021268, 50.49899939953694], [-3.5834072005557975, 50.49956542814285], [-3.583227540854794, 50.49976882823256]]]}}, {"type": "Feature", "properties": {"type": "postcode-cell", "postcode": "TQ12 5JX", "postcodes": ["TQ12 5JX"]}, "geometry": {"type": "Polygon", "coordinates": [[[-3.584728397786454, 50.49864053977794], [-3.5830770235021268, 50.49899939953694], [-3.5826874712998307, 50.49890474027219], [-3.582662667320437, 50.49879264386443], [-3.58315901974188, 50.49789055929575], [-3.5838985906544054, 50.49783427294502], [-3.584728397786454, 50.49864053977794]]]}}, {"type": "Feature", "properties": {"type": "postcode-cell", "postcode": "TQ12 5AW", "postcodes": ["TQ12 5AW"]}, "geometry": {"type": "Polygon", "coordinates": [[[-3.583640650441275, 50.50917542209777], [-3.583043490668529, 50.509590777102865], [-3.5811661795887346, 50.50951231591292], [-3.5815888983711406, 50.50876751323754], [-3.581746098807749, 50.50867999760627], [-3.5838171731664348, 50.508562595256194], [-3.583640650441275, 50.50917542209777]]]}}, {"type": "Feature", "properties": {"type": "postcode-cell", "postcode": "TQ12 5BE", "postcodes": ["TQ12 5BE"]}, "geometry": {"type": "Polygon", "coordinates": [[[-3.583768121400179, 50.502323104862064], [-3.583339243972853, 50.502949878722774], [-3.5822304266506495, 50.5030311904948], [-3.582199239105023, 50.50206283457082], [-3.583678431824851, 50.50225219342964], [-3.583768121400179, 50.502323104862064]]]}}, {"type": "Feature", "properties": {"type": "postcode-cell", "postcode": "TQ12 5JY", "postcodes": ["TQ12 5JY"]}, "geometry": {"type": "Polygon", "coordinates": [[[-3.58315901974188, 50.49789055929575], [-3.582662667320437, 50.49879264386443], [-3.581330213687654, 50.49803933600502], [-3.582003481156337, 50.49754130944696], [-3.58315901974188, 50.49789055929575]]]}}, {"type": "Feature", "properties": {"type": "postcode-cell", "postcode": "TQ12 5BN", "postcodes": ["TQ12 5BN"]}, "geometry": {"type": "Polygon", "coordinates": [[[-3.5831300165272424, 50.505420052994694], [-3.58214714151805, 50.50638429040105], [-3.5820222769917147, 50.50642678151404], [-3.5813352742033127, 50.506033503527895], [-3.581235435184705, 50.50582238679795], [-3.582946451462371, 50.50488310106563], [-3.5831300165272424, 50.505420052994694]]]}}, {"type": "Feature", "properties": {"type": "postcode-cell", "postcode": "TQ12 5AS", "postcodes": ["TQ12 5AS"]}, "geometry": {"type": "Polygon", "coordinates": [[[-3.5828758150612066, 50.507629251073205], [-3.582783643015483, 50.5076308713607], [-3.5817847497172273, 50.50693100648535], [-3.5820222769917147, 50.50642678151404], [-3.58214714151805, 50.50638429040105], [-3.585227834711268, 50.5068655079951], [-3.5828758150612066, 50.507629251073205]]]}}, {"type": "Feature", "properties": {"type": "postcode-cell", "postcode": "TQ12 5BQ", "postcodes": ["TQ12 5BQ"]}, "geometry": {"type": "Polygon", "coordinates": [[[-3.5836673909190626, 50.50347084389816], [-3.5824124346897097, 50.504413568866006], [-3.582162425786732, 50.50428332716401], [-3.581711509013453, 50.50332457324964], [-3.5822304266506495, 50.5030311904948], [-3.583339243972853, 50.502949878722774], [-3.5836673909190626, 50.50347084389816]]]}}, {"type": "Feature", "properties": {"type": "postcode-cell", "postcode": "TQ12 5BW", "postcodes": ["TQ12 5BW"]}, "geometry": {"type": "Polygon", "coordinates": [[[-3.582946451462371, 50.50488310106563], [-3.581235435184705, 50.50582238679795], [-3.5808326710933565, 50.505411542183914], [-3.5824375976816683, 50.50444906322768], [-3.582933703751888, 50.504773888928156], [-3.582946451462371, 50.50488310106563]]]}}, {"type": "Feature", "properties": {"type": "postcode-cell", "postcode": "TQ12 5AR", "postcodes": ["TQ12 5AR"]}, "geometry": {"type": "Polygon", "coordinates": [[[-3.5815888983711406, 50.50876751323754], [-3.580593889231025, 50.50751592936104], [-3.581086119543309, 50.50713696768202], [-3.5817847497172273, 50.50693100648535], [-3.582783643015483, 50.5076308713607], [-3.581746098807749, 50.50867999760627], [-3.5815888983711406, 50.50876751323754]]]}}, {"type": "Feature", "properties": {"type": "postcode-cell", "postcode": "TQ12 5GE", "postcodes": ["TQ12 5GE"]}, "geometry": {"type": "Polygon", "coordinates": [[[-3.582200404303107, 50.500121978404934], [-3.5818249783929423, 50.50014491137834], [-3.5814877197766593, 50.49969265121209], [-3.5814660651623242, 50.49946675403558], [-3.581777697217166, 50.4991260960583], [-3.582451373499653, 50.49901666292982], [-3.582543717410628, 50.49991248720092], [-3.582200404303107, 50.500121978404934]]]}}, {"type": "Feature", "properties": {"type": "postcode-cell", "postcode": "TQ12 5BG", "postcodes": ["TQ12 5BG"]}, "geometry": {"type": "Polygon", "coordinates": [[[-3.581711509013453, 50.50332457324964], [-3.5812712339911643, 50.50317951343115], [-3.5807199176566287, 50.50262759764102], [-3.581631569633638, 50.50176678513011], [-3.582199239105023, 50.50206283457082], [-3.5822304266506495, 50.5030311904948], [-3.581711509013453, 50.50332457324964]]]}}, {"type": "Feature", "properties": {"type": "postcode-cell", "postcode": "TQ12 5AL", "postcodes": ["TQ12 5AL"]}, "geometry": {"type": "Polygon", "coordinates": [[[-3.5797430579800973, 50.510271474421], [-3.576764430640329, 50.50954906514913], [-3.5777221180686296, 50.50890586156529], [-3.5804607106020563, 50.50752426537679], [-3.580593889231025, 50.50751592936104], [-3.5815888983711406, 50.50876751323754], [-3.5811661795887346, 50.50951231591292], [-3.5797430579800973, 50.510271474421]]]}}, {"type": "Feature", "properties": {"type": "postcode-cell", "postcode": "TQ12 5HU", "postcodes": ["TQ12 5HU"]}, "geometry": {"type": "Polygon", "coordinates": [[[-3.5813751276974317, 50.498815929317495], [-3.5804361725058533, 50.49908488023288], [-3.579978597832871, 50.49871992808024], [-3.5802193507887274, 50.498337671372695], [-3.580748801504897, 50.49811012375584], [-3.5811495600871512, 50.49810296177298], [-3.5813751276974317, 50.498815929317495]]]}}, {"type": "Feature", "properties": {"type": "postcode-cell", "postcode": "TQ12 5DQ", "postcodes": ["TQ12 5DQ"]}, "geometry": {"type": "Polygon", "coordinates": [[[-3.5811495600871512, 50.49810296177298], [-3.581330213687654, 50.49803933600502], [-3.582662667320437, 50.49879264386443], [-3.5826874712998307, 50.49890474027219], [-3.582451373499653, 50.49901666292982], [-3.581777697217166, 50.4991260960583], [-3.5813751276974317, 50.498815929317495], [-3.5811495600871512, 50.49810296177298]]]}}, {"type": "Feature", "properties": {"type": "postcode-cell", "postcode": "TQ12 5EB", "postcodes": ["TQ12 5EB"]}, "geometry": {"type": "Polygon", "coordinates": [[[-3.5818249783929423, 50.50014491137834], [-3.5815740709092285, 50.50034341534052], [-3.5804904537889515, 50.50022405883917], [-3.580592608331762, 50.49976162673649], [-3.5814877197766593, 50.49969265121209], [-3.5818249783929423, 50.50014491137834]]]}}, {"type": "Feature", "properties": {"type": "postcode-cell", "postcode": "TQ12 5HT", "postcodes": ["TQ12 5HT"]}, "geometry": {"type": "Polygon", "coordinates": [[[-3.5814660651623242, 50.49946675403558], [-3.5804919979435135, 50.499224546098766], [-3.5804361725058533, 50.49908488023288], [-3.5813751276974317, 50.498815929317495], [-3.581777697217166, 50.4991260960583], [-3.5814660651623242, 50.49946675403558]]]}}, {"type": "Feature", "properties": {"type": "postcode-cell", "postcode": "TQ12 5HG", "postcodes": ["TQ12 5HG"]}, "geometry": {"type": "Polygon", "coordinates": [[[-3.579197263247416, 50.48999198917143], [-3.5757520441423023, 50.49137306513509], [-3.574120031298214, 50.490963786084485], [-3.5770105690710894, 50.488184314683686], [-3.579197263247416, 50.48999198917143]]]}}, {"type": "Feature", "properties": {"type": "postcode-cell", "postcode": "TQ12 5BT", "postcodes": ["TQ12 5BT"]}, "geometry": {"type": "Polygon", "coordinates": [[[-3.5817847497172273, 50.50693100648535], [-3.581086119543309, 50.50713696768202], [-3.579850025714348, 50.50633240292014], [-3.5813352742033127, 50.506033503527895], [-3.5820222769917147, 50.50642678151404], [-3.5817847497172273, 50.50693100648535]]]}}, {"type": "Feature", "properties": {"type": "postcode-cell", "postcode": "TQ12 5BD", "postcodes": ["TQ12 5BD"]}, "geometry": {"type": "Polygon", "coordinates": [[[-3.581543941938516, 50.50148580031057], [-3.581631569633638, 50.50176678513011], [-3.5807199176566287, 50.50262759764102], [-3.579762038282279, 50.50260418743182], [-3.5797285360103412, 50.50259765800047], [-3.5794294961926747, 50.502334838585064], [-3.5792964066000197, 50.50180171530427], [-3.5796767951511166, 50.501426930826035], [-3.5802416312461802, 50.50127114567196], [-3.5813596508434737, 50.501367555754356], [-3.581543941938516, 50.50148580031057]]]}}, {"type": "Feature", "properties": {"type": "postcode-cell", "postcode": "TQ12 5BA", "postcodes": ["TQ12 5BA"]}, "geometry": {"type": "Polygon", "coordinates": [[[-3.5824375976816683, 50.50444906322768], [-3.5808326710933565, 50.505411542183914], [-3.579658512215896, 50.50519727243348], [-3.5795944645730233, 50.504938182347225], [-3.579960831221635, 50.50433557906639], [-3.582162425786732, 50.50428332716401], [-3.5824124346897097, 50.504413568866006], [-3.5824375976816683, 50.50444906322768]]]}}, {"type": "Feature", "properties": {"type": "postcode-cell", "postcode": "TQ12 5DG", "postcodes": ["TQ12 5DG"]}, "geometry": {"type": "Polygon", "coordinates": [[[-3.5814877197766593, 50.49969265121209], [-3.580592608331762, 50.49976162673649], [-3.5802234589465924, 50.49954262255794], [-3.5804919979435135, 50.499224546098766], [-3.5814660651623242, 50.49946675403558], [-3.5814877197766593, 50.49969265121209]]]}}, {"type": "Feature", "properties": {"type": "postcode-cell", "postcode": "TQ12 5BB", "postcodes": ["TQ12 5BB"]}, "geometry": {"type": "Polygon", "coordinates": [[[-3.582162425786732, 50.50428332716401], [-3.579960831221635, 50.50433557906639], [-3.5797691160247433, 50.50404244683896], [-3.5801406493722845, 50.503670493628995], [-3.5812712339911643, 50.50317951343115], [-3.581711509013453, 50.50332457324964], [-3.582162425786732, 50.50428332716401]]]}}, {"type": "Feature", "properties": {"type": "postcode-cell", "postcode": "TQ12 5DB", "postcodes": ["TQ12 5DB"]}, "geometry": {"type": "Polygon", "coordinates": [[[-3.5813596508434737, 50.501367555754356], [-3.5802416312461802, 50.50127114567196], [-3.580007697421714, 50.50048036414139], [-3.5801421981500012, 50.50029458876571], [-3.5804904537889515, 50.50022405883917], [-3.5815740709092285, 50.50034341534052], [-3.5813596508434737, 50.501367555754356]]]}}, {"type": "Feature", "properties": {"type": "postcode-cell", "postcode": "TQ12 5DE", "postcodes": ["TQ12 5DE"]}, "geometry": {"type": "Polygon", "coordinates": [[[-3.5804919979435135, 50.499224546098766], [-3.5802234589465924, 50.49954262255794], [-3.5801592269734193, 50.499559913506666], [-3.5794978089437004, 50.499304637898625], [-3.579337174865384, 50.49898340856629], [-3.5796025683592303, 50.49882781162775], [-3.579978597832871, 50.49871992808024], [-3.5804361725058533, 50.49908488023288], [-3.5804919979435135, 50.499224546098766]]]}}, {"type": "Feature", "properties": {"type": "postcode-cell", "postcode": "TQ12 5HX", "postcodes": ["TQ12 5HX"]}, "geometry": {"type": "Polygon", "coordinates": [[[-3.5802193507887274, 50.498337671372695], [-3.579547450025036, 50.49809941275178], [-3.5795894522137397, 50.497457176970094], [-3.579971132296324, 50.49727122211374], [-3.580748801504897, 50.49811012375584], [-3.5802193507887274, 50.498337671372695]]]}}, {"type": "Feature", "properties": {"type": "postcode-cell", "postcode": "TQ12 5HE", "postcodes": ["TQ12 5HE"]}, "geometry": {"type": "Polygon", "coordinates": [[[-3.58154650696699, 50.49567028432615], [-3.5783278017224096, 50.4953774327712], [-3.5782219889751317, 50.49453328354384], [-3.5815773585679382, 50.49562416896771], [-3.58154650696699, 50.49567028432615]]]}}, {"type": "Feature", "properties": {"type": "postcode-cell", "postcode": "TQ12 5DF", "postcodes": ["TQ12 5DF"]}, "geometry": {"type": "Polygon", "coordinates": [[[-3.580592608331762, 50.49976162673649], [-3.5804904537889515, 50.50022405883917], [-3.5801421981500012, 50.50029458876571], [-3.579730799159065, 50.49990535018334], [-3.5801592269734193, 50.499559913506666], [-3.5802234589465924, 50.49954262255794], [-3.580592608331762, 50.49976162673649]]]}}, {"type": "Feature", "properties": {"type": "postcode-cell", "postcode": "TQ12 5AG", "postcodes": ["TQ12 5AG"]}, "geometry": {"type": "Polygon", "coordinates": [[[-3.5797691160247433, 50.50404244683896], [-3.5793374467674752, 50.50386652889397], [-3.5790312146709953, 50.50318087778052], [-3.5797285360103412, 50.50259765800047], [-3.579762038282279, 50.50260418743182], [-3.5801406493722845, 50.503670493628995], [-3.5797691160247433, 50.50404244683896]]]}}, {"type": "Feature", "properties": {"type": "postcode-cell", "postcode": "TQ12 5BU", "postcodes": ["TQ12 5BU"]}, "geometry": {"type": "Polygon", "coordinates": [[[-3.5813352742033127, 50.506033503527895], [-3.579850025714348, 50.50633240292014], [-3.5796932293151227, 50.50630760698789], [-3.579394065105382, 50.505497098623245], [-3.579658512215896, 50.50519727243348], [-3.5808326710933565, 50.505411542183914], [-3.581235435184705, 50.50582238679795], [-3.5813352742033127, 50.506033503527895]]]}}, {"type": "Feature", "properties": {"type": "postcode-cell", "postcode": "TQ12 5EG", "postcodes": ["TQ12 5EG"]}, "geometry": {"type": "Polygon", "coordinates": [[[-3.5812712339911643, 50.50317951343115], [-3.5801406493722845, 50.503670493628995], [-3.579762038282279, 50.50260418743182], [-3.5807199176566287, 50.50262759764102], [-3.5812712339911643, 50.50317951343115]]]}}, {"type": "Feature", "properties": {"type": "postcode-cell", "postcode": "TQ12 5AT", "postcodes": ["TQ12 5AT"]}, "geometry": {"type": "Polygon", "coordinates": [[[-3.581086119543309, 50.50713696768202], [-3.580593889231025, 50.50751592936104], [-3.5804607106020563, 50.50752426537679], [-3.5793547854667, 50.50703423401735], [-3.5791389769520077, 50.506707060469225], [-3.5796932293151227, 50.50630760698789], [-3.579850025714348, 50.50633240292014], [-3.581086119543309, 50.50713696768202]]]}}, {"type": "Feature", "properties": {"type": "postcode-cell", "postcode": "TQ12 5DA", "postcodes": ["TQ12 5DA"]}, "geometry": {"type": "Polygon", "coordinates": [[[-3.580007697421714, 50.50048036414139], [-3.5788008527726287, 50.50046824144121], [-3.578624890904641, 50.50024408379094], [-3.5795850340636126, 50.4998914333772], [-3.579730799159065, 50.49990535018334], [-3.5801421981500012, 50.50029458876571], [-3.580007697421714, 50.50048036414139]]]}}, {"type": "Feature", "properties": {"type": "postcode-cell", "postcode": "TQ12 5DD", "postcodes": ["TQ12 5DD"]}, "geometry": {"type": "Polygon", "coordinates": [[[-3.579730799159065, 50.49990535018334], [-3.5795850340636126, 50.4998914333772], [-3.5793124673994847, 50.49962017568132], [-3.5794978089437004, 50.499304637898625], [-3.5801592269734193, 50.499559913506666], [-3.579730799159065, 50.49990535018334]]]}}, {"type": "Feature", "properties": {"type": "postcode-cell", "postcode": "TQ12 5AQ", "postcodes": ["TQ12 5AQ"]}, "geometry": {"type": "Polygon", "coordinates": [[[-3.5795944645730233, 50.504938182347225], [-3.576754896610546, 50.504390124723336], [-3.576927291695801, 50.50424456595769], [-3.5774476471222605, 50.50401302547813], [-3.5793374467674752, 50.50386652889397], [-3.5797691160247433, 50.50404244683896], [-3.579960831221635, 50.50433557906639], [-3.5795944645730233, 50.504938182347225]]]}}, {"type": "Feature", "properties": {"type": "postcode-cell", "postcode": "TQ12 4SP", "postcodes": ["TQ12 4SP"]}, "geometry": {"type": "Polygon", "coordinates": [[[-3.576736114333797, 50.51864277849751], [-3.571752609943071, 50.51634458138379], [-3.5712419873029435, 50.51302383390758], [-3.5719414143255523, 50.51155991112034], [-3.5747796210189793, 50.50942136198405], [-3.576764430640329, 50.50954906514913], [-3.5797430579800973, 50.510271474421], [-3.582908820527529, 50.514072514942214], [-3.5810599898797957, 50.514279994579404], [-3.58008998987854, 50.515629994580465], [-3.5795599898770627, 50.51801999458235], [-3.5787145517845893, 50.51903307174499], [-3.576736114333797, 50.51864277849751]]]}}, {"type": "Feature", "properties": {"type": "postcode-cell", "postcode": "TQ12 5FH", "postcodes": ["TQ12 5FH"]}, "geometry": {"type": "Polygon", "coordinates": [[[-3.5777221180686296, 50.50890586156529], [-3.5793547854667, 50.50703423401735], [-3.5804607106020563, 50.50752426537679], [-3.5777221180686296, 50.50890586156529]]]}}, {"type": "Feature", "properties": {"type": "postcode-cell", "postcode": "TQ12 5HZ", "postcodes": ["TQ12 5HZ"]}, "geometry": {"type": "Polygon", "coordinates": [[[-3.5796025683592303, 50.49882781162775], [-3.5790078923142037, 50.4984322378322], [-3.5790561860171737, 50.498077904079004], [-3.579547450025036, 50.49809941275178], [-3.5802193507887274, 50.498337671372695], [-3.579978597832871, 50.49871992808024], [-3.5796025683592303, 50.49882781162775]]]}}, {"type": "Feature", "properties": {"type": "postcode-cell", "postcode": "TQ12 5HF", "postcodes": ["TQ12 5HF"]}, "geometry": {"type": "Polygon", "coordinates": [[[-3.5808379212386554, 50.492454592795426], [-3.5779476223997073, 50.4941182123582], [-3.576719242931745, 50.493795570010164], [-3.5766162078097614, 50.49316926529272], [-3.576818492756841, 50.49277974287665], [-3.5808175805605997, 50.4924034134844], [-3.5808379212386554, 50.492454592795426]]]}}, {"type": "Feature", "properties": {"type": "postcode-cell", "postcode": "TQ12 5EJ", "postcodes": ["TQ12 5EJ"]}, "geometry": {"type": "Polygon", "coordinates": [[[-3.5787710732776166, 50.5008367794926], [-3.5779397760864926, 50.501100601807124], [-3.5774451552313327, 50.50099036494303], [-3.5776248453738106, 50.50031787427587], [-3.578145115012049, 50.5000318802796], [-3.578624890904641, 50.50024408379094], [-3.5788008527726287, 50.50046824144121], [-3.5787710732776166, 50.5008367794926]]]}}, {"type": "Feature", "properties": {"type": "postcode-cell", "postcode": "TQ12 5EQ", "postcodes": ["TQ12 5EQ"]}, "geometry": {"type": "Polygon", "coordinates": [[[-3.5788008527726287, 50.50046824144121], [-3.580007697421714, 50.50048036414139], [-3.5802416312461802, 50.50127114567196], [-3.5796767951511166, 50.501426930826035], [-3.5787710732776166, 50.5008367794926], [-3.5788008527726287, 50.50046824144121]]]}}, {"type": "Feature", "properties": {"type": "postcode-cell", "postcode": "TQ12 5AH", "postcodes": ["TQ12 5AH"]}, "geometry": {"type": "Polygon", "coordinates": [[[-3.5796932293151227, 50.50630760698789], [-3.5791389769520077, 50.506707060469225], [-3.5743021668150012, 50.506671406250184], [-3.574151217627011, 50.506364564497595], [-3.579394065105382, 50.505497098623245], [-3.5796932293151227, 50.50630760698789]]]}}, {"type": "Feature", "properties": {"type": "postcode-cell", "postcode": "TQ12 5EZ", "postcodes": ["TQ12 5EZ"]}, "geometry": {"type": "Polygon", "coordinates": [[[-3.5782219889751317, 50.49453328354384], [-3.5783278017224096, 50.4953774327712], [-3.5777463849570705, 50.49589652501781], [-3.577090875731621, 50.49551613819156], [-3.5770920650607825, 50.49492236274513], [-3.5779558886378697, 50.49426621025719], [-3.5782219889751317, 50.49453328354384]]]}}, {"type": "Feature", "properties": {"type": "postcode-cell", "postcode": "TQ12 5EX", "postcodes": ["TQ12 5EX"]}, "geometry": {"type": "Polygon", "coordinates": [[[-3.5795894522137397, 50.497457176970094], [-3.5790999336272127, 50.49753611049959], [-3.57844901176643, 50.49731607343991], [-3.5785173424730283, 50.49698425110284], [-3.5801159457003897, 50.496740957449056], [-3.579971132296324, 50.49727122211374], [-3.5795894522137397, 50.497457176970094]]]}}, {"type": "Feature", "properties": {"type": "postcode-cell", "postcode": "TQ12 5HR", "postcodes": ["TQ12 5HR"]}, "geometry": {"type": "Polygon", "coordinates": [[[-3.5808175805605997, 50.4924034134844], [-3.576818492756841, 50.49277974287665], [-3.576256784771979, 50.49221066354952], [-3.57981810819286, 50.490548374345344], [-3.5807986989239824, 50.4921925165208], [-3.5808175805605997, 50.4924034134844]]]}}, {"type": "Feature", "properties": {"type": "postcode-cell", "postcode": "TQ12 5EE", "postcodes": ["TQ12 5EE"]}, "geometry": {"type": "Polygon", "coordinates": [[[-3.5794978089437004, 50.499304637898625], [-3.5793124673994847, 50.49962017568132], [-3.578020532528462, 50.49951266676954], [-3.577896290898843, 50.49932565609579], [-3.5782317847382936, 50.499097874391], [-3.579337174865384, 50.49898340856629], [-3.5794978089437004, 50.499304637898625]]]}}, {"type": "Feature", "properties": {"type": "postcode-cell", "postcode": "TQ12 5FB", "postcodes": ["TQ12 5FB"]}, "geometry": {"type": "Polygon", "coordinates": [[[-3.579547450025036, 50.49809941275178], [-3.5790561860171737, 50.498077904079004], [-3.578954754113231, 50.49803570464511], [-3.5790999336272127, 50.49753611049959], [-3.5795894522137397, 50.497457176970094], [-3.579547450025036, 50.49809941275178]]]}}, {"type": "Feature", "properties": {"type": "postcode-cell", "postcode": "TQ12 5FG", "postcodes": ["TQ12 5FG"]}, "geometry": {"type": "Polygon", "coordinates": [[[-3.579337174865384, 50.49898340856629], [-3.5782317847382936, 50.499097874391], [-3.5782863154386884, 50.49864995977228], [-3.5790078923142037, 50.4984322378322], [-3.5796025683592303, 50.49882781162775], [-3.579337174865384, 50.49898340856629]]]}}, {"type": "Feature", "properties": {"type": "postcode-cell", "postcode": "TQ12 5AE", "postcodes": ["TQ12 5AE"]}, "geometry": {"type": "Polygon", "coordinates": [[[-3.5797285360103412, 50.50259765800047], [-3.5790312146709953, 50.50318087778052], [-3.5784972524896754, 50.50314606874087], [-3.5781762286260417, 50.50256209384532], [-3.5794294961926747, 50.502334838585064], [-3.5797285360103412, 50.50259765800047]]]}}, {"type": "Feature", "properties": {"type": "postcode-cell", "postcode": "TQ12 5EH", "postcodes": ["TQ12 5EH"]}, "geometry": {"type": "Polygon", "coordinates": [[[-3.578624890904641, 50.50024408379094], [-3.578145115012049, 50.5000318802796], [-3.578020532528462, 50.49951266676954], [-3.5793124673994847, 50.49962017568132], [-3.5795850340636126, 50.4998914333772], [-3.578624890904641, 50.50024408379094]]]}}, {"type": "Feature", "properties": {"type": "postcode-cell", "postcode": "TQ12 4BY", "postcodes": ["TQ12 4BY"]}, "geometry": {"type": "Polygon", "coordinates": [[[-3.570627635393001, 50.52821150784474], [-3.5705431483331607, 50.527755702190085], [-3.573708352523324, 50.5262157833165], [-3.5754299898699458, 50.52746999458973], [-3.579399989871782, 50.528859994590725], [-3.5807699898721386, 50.529919994591516], [-3.5810724794971636, 50.53026943665738], [-3.5730994959362317, 50.53251706583099], [-3.572738234701513, 50.53229700946348], [-3.570627635393001, 50.52821150784474]]]}}, {"type": "Feature", "properties": {"type": "postcode-cell", "postcode": "TQ12 4RP", "postcodes": ["TQ12 4RP"]}, "geometry": {"type": "Polygon", "coordinates": [[[-3.572738234701513, 50.53229700946348], [-3.568009582203613, 50.53217928123833], [-3.564446894178069, 50.52944730593949], [-3.570627635393001, 50.52821150784474], [-3.572738234701513, 50.53229700946348]]]}}, {"type": "Feature", "properties": {"type": "postcode-cell", "postcode": "TQ12 5EY", "postcodes": ["TQ12 5EY"]}, "geometry": {"type": "Polygon", "coordinates": [[[-3.5785173424730283, 50.49698425110284], [-3.5783977163287752, 50.49689174145041], [-3.579067330583232, 50.496127928302904], [-3.5808777430243044, 50.49604420511936], [-3.5801159457003897, 50.496740957449056], [-3.5785173424730283, 50.49698425110284]]]}}, {"type": "Feature", "properties": {"type": "postcode-cell", "postcode": "TQ12 5JA", "postcodes": ["TQ12 5JA"]}, "geometry": {"type": "Polygon", "coordinates": [[[-3.5790561860171737, 50.498077904079004], [-3.5790078923142037, 50.4984322378322], [-3.5782863154386884, 50.49864995977228], [-3.578074653959779, 50.49811772641804], [-3.578157299527391, 50.498046233726484], [-3.578954754113231, 50.49803570464511], [-3.5790561860171737, 50.498077904079004]]]}}, {"type": "Feature", "properties": {"type": "postcode-cell", "postcode": "TQ12 5HB", "postcodes": ["TQ12 5HB"]}, "geometry": {"type": "Polygon", "coordinates": [[[-3.5815184709491428, 50.495741686442635], [-3.5808777430243044, 50.49604420511936], [-3.579067330583232, 50.496127928302904], [-3.577769583494357, 50.495980795282215], [-3.5777463849570705, 50.49589652501781], [-3.5783278017224096, 50.4953774327712], [-3.58154650696699, 50.49567028432615], [-3.5815184709491428, 50.495741686442635]]]}}, {"type": "Feature", "properties": {"type": "postcode-cell", "postcode": "TQ12 5EU", "postcodes": ["TQ12 5EU"]}, "geometry": {"type": "Polygon", "coordinates": [[[-3.578954754113231, 50.49803570464511], [-3.578157299527391, 50.498046233726484], [-3.5780954027009004, 50.497540523650216], [-3.57844901176643, 50.49731607343991], [-3.5790999336272127, 50.49753611049959], [-3.578954754113231, 50.49803570464511]]]}}, {"type": "Feature", "properties": {"type": "postcode-cell", "postcode": "TQ12 5AA", "postcodes": ["TQ12 5AA"]}, "geometry": {"type": "Polygon", "coordinates": [[[-3.5796767951511166, 50.501426930826035], [-3.5792964066000197, 50.50180171530427], [-3.578307840091848, 50.50172943098051], [-3.5779397760864926, 50.501100601807124], [-3.5787710732776166, 50.5008367794926], [-3.5796767951511166, 50.501426930826035]]]}}, {"type": "Feature", "properties": {"type": "postcode-cell", "postcode": "TQ12 5AY", "postcodes": ["TQ12 5AY"]}, "geometry": {"type": "Polygon", "coordinates": [[[-3.576764430640329, 50.50954906514913], [-3.5747796210189793, 50.50942136198405], [-3.5743021668150012, 50.506671406250184], [-3.5791389769520077, 50.506707060469225], [-3.5793547854667, 50.50703423401735], [-3.5777221180686296, 50.50890586156529], [-3.576764430640329, 50.50954906514913]]]}}, {"type": "Feature", "properties": {"type": "postcode-cell", "postcode": "TQ12 5HS", "postcodes": ["TQ12 5HS"]}, "geometry": {"type": "Polygon", "coordinates": [[[-3.577896290898843, 50.49932565609579], [-3.573878533674615, 50.498734981993515], [-3.573872776541545, 50.4986941992873], [-3.5740163002160017, 50.49858754199509], [-3.5745351503656715, 50.49840455407871], [-3.578074653959779, 50.49811772641804], [-3.5782863154386884, 50.49864995977228], [-3.5782317847382936, 50.499097874391], [-3.577896290898843, 50.49932565609579]]]}}, {"type": "Feature", "properties": {"type": "postcode-cell", "postcode": "TQ12 5ET", "postcodes": ["TQ12 5ET"]}, "geometry": {"type": "Polygon", "coordinates": [[[-3.5785173424730283, 50.49698425110284], [-3.57844901176643, 50.49731607343991], [-3.5780954027009004, 50.497540523650216], [-3.577338333849968, 50.497388673279765], [-3.5779045891580123, 50.496669115758195], [-3.5783977163287752, 50.49689174145041], [-3.5785173424730283, 50.49698425110284]]]}}, {"type": "Feature", "properties": {"type": "postcode-cell", "postcode": "TQ12 5ES", "postcodes": ["TQ12 5ES"]}, "geometry": {"type": "Polygon", "coordinates": [[[-3.578020532528462, 50.49951266676954], [-3.578145115012049, 50.5000318802796], [-3.5776248453738106, 50.50031787427587], [-3.574480264749396, 50.49999040068459], [-3.5735522433769464, 50.499675252907124], [-3.573878533674615, 50.498734981993515], [-3.577896290898843, 50.49932565609579], [-3.578020532528462, 50.49951266676954]]]}}, {"type": "Feature", "properties": {"type": "postcode-cell", "postcode": "TQ12 5JQ", "postcodes": ["TQ12 5JQ"]}, "geometry": {"type": "Polygon", "coordinates": [[[-3.577769583494357, 50.495980795282215], [-3.577533686359033, 50.496322317624596], [-3.5768930440475093, 50.49649526365602], [-3.575466741569693, 50.4959615305893], [-3.575601026552775, 50.49567728540276], [-3.577090875731621, 50.49551613819156], [-3.5777463849570705, 50.49589652501781], [-3.577769583494357, 50.495980795282215]]]}}, {"type": "Feature", "properties": {"type": "postcode-cell", "postcode": "TQ12 5JB", "postcodes": ["TQ12 5JB"]}, "geometry": {"type": "Polygon", "coordinates": [[[-3.578074653959779, 50.49811772641804], [-3.5745351503656715, 50.49840455407871], [-3.5762904370951705, 50.49746377635044], [-3.577338333849968, 50.497388673279765], [-3.5780954027009004, 50.497540523650216], [-3.578157299527391, 50.498046233726484], [-3.578074653959779, 50.49811772641804]]]}}, {"type": "Feature", "properties": {"type": "postcode-cell", "postcode": "TQ12 5FT", "postcodes": ["TQ12 5FT"]}, "geometry": {"type": "Polygon", "coordinates": [[[-3.5783977163287752, 50.49689174145041], [-3.5779045891580123, 50.496669115758195], [-3.577533686359033, 50.496322317624596], [-3.577769583494357, 50.495980795282215], [-3.579067330583232, 50.496127928302904], [-3.5783977163287752, 50.49689174145041]]]}}, {"type": "Feature", "properties": {"type": "postcode-cell", "postcode": "TQ12 5AJ", "postcodes": ["TQ12 5AJ"]}, "geometry": {"type": "Polygon", "coordinates": [[[-3.579658512215896, 50.50519727243348], [-3.579394065105382, 50.505497098623245], [-3.574151217627011, 50.506364564497595], [-3.5736038054748236, 50.505701889149826], [-3.576754896610546, 50.504390124723336], [-3.5795944645730233, 50.504938182347225], [-3.579658512215896, 50.50519727243348]]]}}, {"type": "Feature", "properties": {"type": "postcode-cell", "postcode": "TQ12 5AF", "postcodes": ["TQ12 5AF"]}, "geometry": {"type": "Polygon", "coordinates": [[[-3.5790312146709953, 50.50318087778052], [-3.5793374467674752, 50.50386652889397], [-3.5774476471222605, 50.50401302547813], [-3.577984706754694, 50.50333355591298], [-3.5784972524896754, 50.50314606874087], [-3.5790312146709953, 50.50318087778052]]]}}, {"type": "Feature", "properties": {"type": "postcode-cell", "postcode": "TQ12 5AB", "postcodes": ["TQ12 5AB"]}, "geometry": {"type": "Polygon", "coordinates": [[[-3.5792964066000197, 50.50180171530427], [-3.5794294961926747, 50.502334838585064], [-3.5781762286260417, 50.50256209384532], [-3.577453262238118, 50.502405927295015], [-3.5772207849604833, 50.502201547207264], [-3.578307840091848, 50.50172943098051], [-3.5792964066000197, 50.50180171530427]]]}}, {"type": "Feature", "properties": {"type": "postcode-cell", "postcode": "TQ12 5EW", "postcodes": ["TQ12 5EW"]}, "geometry": {"type": "Polygon", "coordinates": [[[-3.5774476471222605, 50.50401302547813], [-3.576927291695801, 50.50424456595769], [-3.57687613559994, 50.50329177390475], [-3.577444581849758, 50.50274606241709], [-3.577984706754694, 50.50333355591298], [-3.5774476471222605, 50.50401302547813]]]}}, {"type": "Feature", "properties": {"type": "postcode-cell", "postcode": "TQ12 5AD", "postcodes": ["TQ12 5AD"]}, "geometry": {"type": "Polygon", "coordinates": [[[-3.5781762286260417, 50.50256209384532], [-3.5784972524896754, 50.50314606874087], [-3.577984706754694, 50.50333355591298], [-3.577444581849758, 50.50274606241709], [-3.577453262238118, 50.502405927295015], [-3.5781762286260417, 50.50256209384532]]]}}, {"type": "Feature", "properties": {"type": "postcode-cell", "postcode": "TQ12 4SW", "postcodes": ["TQ12 4SW"]}, "geometry": {"type": "Polygon", "coordinates": [[[-3.5743021668150012, 50.506671406250184], [-3.5747796210189793, 50.50942136198405], [-3.5719414143255523, 50.51155991112034], [-3.5682854876969317, 50.5087811887666], [-3.570455465848519, 50.50402664604624], [-3.5736038054748236, 50.505701889149826], [-3.574151217627011, 50.506364564497595], [-3.5743021668150012, 50.506671406250184]]]}}, {"type": "Feature", "properties": {"type": "postcode-cell", "postcode": "TQ12 5HW", "postcodes": ["TQ12 5HW"]}, "geometry": {"type": "Polygon", "coordinates": [[[-3.5772207849604833, 50.502201547207264], [-3.5771183416075583, 50.502178572635906], [-3.5767363978896496, 50.50190606711692], [-3.5768271530674793, 50.50116381310278], [-3.5774451552313327, 50.50099036494303], [-3.5779397760864926, 50.501100601807124], [-3.578307840091848, 50.50172943098051], [-3.5772207849604833, 50.502201547207264]]]}}, {"type": "Feature", "properties": {"type": "postcode-cell", "postcode": "TQ12 5EP", "postcodes": ["TQ12 5EP"]}, "geometry": {"type": "Polygon", "coordinates": [[[-3.576927291695801, 50.50424456595769], [-3.576754896610546, 50.504390124723336], [-3.5736038054748236, 50.505701889149826], [-3.570455465848519, 50.50402664604624], [-3.5703655371421226, 50.503948759141224], [-3.570310686636217, 50.50383614689645], [-3.5762809961223727, 50.502787141885726], [-3.57687613559994, 50.50329177390475], [-3.576927291695801, 50.50424456595769]]]}}, {"type": "Feature", "properties": {"type": "postcode-cell", "postcode": "TQ12 5HA", "postcodes": ["TQ12 5HA"]}, "geometry": {"type": "Polygon", "coordinates": [[[-3.577338333849968, 50.497388673279765], [-3.5762904370951705, 50.49746377635044], [-3.5768930440475093, 50.49649526365602], [-3.577533686359033, 50.496322317624596], [-3.5779045891580123, 50.496669115758195], [-3.577338333849968, 50.497388673279765]]]}}, {"type": "Feature", "properties": {"type": "postcode-cell", "postcode": "TQ12 5HJ", "postcodes": ["TQ12 5HJ"]}, "geometry": {"type": "Polygon", "coordinates": [[[-3.5779558886378697, 50.49426621025719], [-3.5770920650607825, 50.49492236274513], [-3.5755805503870115, 50.49485907812648], [-3.5764108486677757, 50.493868107673414], [-3.576719242931745, 50.493795570010164], [-3.5779476223997073, 50.4941182123582], [-3.5779558886378697, 50.49426621025719]]]}}, {"type": "Feature", "properties": {"type": "postcode-cell", "postcode": "TQ12 5EN", "postcodes": ["TQ12 5EN"]}, "geometry": {"type": "Polygon", "coordinates": [[[-3.577444581849758, 50.50274606241709], [-3.57687613559994, 50.50329177390475], [-3.5762809961223727, 50.502787141885726], [-3.5771183416075583, 50.502178572635906], [-3.5772207849604833, 50.502201547207264], [-3.577453262238118, 50.502405927295015], [-3.577444581849758, 50.50274606241709]]]}}, {"type": "Feature", "properties": {"type": "postcode-cell", "postcode": "TQ12 5EL", "postcodes": ["TQ12 5EL"]}, "geometry": {"type": "Polygon", "coordinates": [[[-3.5774451552313327, 50.50099036494303], [-3.5768271530674793, 50.50116381310278], [-3.574480264749396, 50.49999040068459], [-3.5776248453738106, 50.50031787427587], [-3.5774451552313327, 50.50099036494303]]]}}, {"type": "Feature", "properties": {"type": "postcode-cell", "postcode": "TQ12 5ER", "postcodes": ["TQ12 5ER"]}, "geometry": {"type": "Polygon", "coordinates": [[[-3.571116430079892, 50.502044381082506], [-3.5767363978896496, 50.50190606711692], [-3.5771183416075583, 50.502178572635906], [-3.5762809961223727, 50.502787141885726], [-3.570310686636217, 50.50383614689645], [-3.56974952461738, 50.502990714706925], [-3.571116430079892, 50.502044381082506]]]}}, {"type": "Feature", "properties": {"type": "postcode-cell", "postcode": "TQ12 4SY", "postcodes": ["TQ12 4SY"]}, "geometry": {"type": "Polygon", "coordinates": [[[-3.56974952461738, 50.502990714706925], [-3.5603136176832657, 50.49984194246244], [-3.560035044754502, 50.49907375675963], [-3.566808008762736, 50.49696245115228], [-3.5710365388460352, 50.49744012613332], [-3.5723079822728567, 50.497881056547584], [-3.573872776541545, 50.4986941992873], [-3.573878533674615, 50.498734981993515], [-3.5735522433769464, 50.499675252907124], [-3.571116430079892, 50.502044381082506], [-3.56974952461738, 50.502990714706925]]]}}, {"type": "Feature", "properties": {"type": "postcode-cell", "postcode": "TQ12 5HH", "postcodes": ["TQ12 5HH"]}, "geometry": {"type": "Polygon", "coordinates": [[[-3.5766162078097614, 50.49316926529272], [-3.5747589529509085, 50.492874966897794], [-3.574922445762214, 50.49245226904089], [-3.5760225505607792, 50.492174598719544], [-3.576256784771979, 50.49221066354952], [-3.576818492756841, 50.49277974287665], [-3.5766162078097614, 50.49316926529272]]]}}, {"type": "Feature", "properties": {"type": "postcode-cell", "postcode": "TQ12 5HP", "postcodes": ["TQ12 5HP"]}, "geometry": {"type": "Polygon", "coordinates": [[[-3.57981810819286, 50.490548374345344], [-3.576256784771979, 50.49221066354952], [-3.5760225505607792, 50.492174598719544], [-3.5757520441423023, 50.49137306513509], [-3.579197263247416, 50.48999198917143], [-3.5797565141074723, 50.49032210392403], [-3.57981810819286, 50.490548374345344]]]}}, {"type": "Feature", "properties": {"type": "postcode-cell", "postcode": "TQ12 5JF", "postcodes": ["TQ12 5JF"]}, "geometry": {"type": "Polygon", "coordinates": [[[-3.5762904370951705, 50.49746377635044], [-3.5745351503656715, 50.49840455407871], [-3.5740163002160017, 50.49858754199509], [-3.5748334458484585, 50.49631086703285], [-3.575466741569693, 50.4959615305893], [-3.5768930440475093, 50.49649526365602], [-3.5762904370951705, 50.49746377635044]]]}}, {"type": "Feature", "properties": {"type": "postcode-cell", "postcode": "TQ12 5HN", "postcodes": ["TQ12 5HN"]}, "geometry": {"type": "Polygon", "coordinates": [[[-3.574480264749396, 50.49999040068459], [-3.5768271530674793, 50.50116381310278], [-3.5767363978896496, 50.50190606711692], [-3.571116430079892, 50.502044381082506], [-3.5735522433769464, 50.499675252907124], [-3.574480264749396, 50.49999040068459]]]}}, {"type": "Feature", "properties": {"type": "postcode-cell", "postcode": "TQ12 5HL", "postcodes": ["TQ12 5HL"]}, "geometry": {"type": "Polygon", "coordinates": [[[-3.575601026552775, 50.49567728540276], [-3.5753326848856783, 50.49496651586459], [-3.5755805503870115, 50.49485907812648], [-3.5770920650607825, 50.49492236274513], [-3.577090875731621, 50.49551613819156], [-3.575601026552775, 50.49567728540276]]]}}, {"type": "Feature", "properties": {"type": "postcode-cell", "postcode": "TQ12 5JD", "postcodes": ["TQ12 5JD"]}, "geometry": {"type": "Polygon", "coordinates": [[[-3.573872776541545, 50.4986941992873], [-3.5723079822728567, 50.497881056547584], [-3.573248134809076, 50.49572291359732], [-3.5736673193343815, 50.49572581767917], [-3.5748334458484585, 50.49631086703285], [-3.5740163002160017, 50.49858754199509], [-3.573872776541545, 50.4986941992873]]]}}, {"type": "Feature", "properties": {"type": "postcode-cell", "postcode": "TQ12 5HQ", "postcodes": ["TQ12 5HQ"]}, "geometry": {"type": "Polygon", "coordinates": [[[-3.576719242931745, 50.493795570010164], [-3.5764108486677757, 50.493868107673414], [-3.574701911373263, 50.49358576843585], [-3.574347994526335, 50.49331164375656], [-3.5747589529509085, 50.492874966897794], [-3.5766162078097614, 50.49316926529272], [-3.576719242931745, 50.493795570010164]]]}}, {"type": "Feature", "properties": {"type": "postcode-cell", "postcode": "TQ12 5JN", "postcodes": ["TQ12 5JN"]}, "geometry": {"type": "Polygon", "coordinates": [[[-3.5760225505607792, 50.492174598719544], [-3.574922445762214, 50.49245226904089], [-3.573511225831752, 50.4912968669597], [-3.5734716590537685, 50.49121788783103], [-3.574120031298214, 50.490963786084485], [-3.5757520441423023, 50.49137306513509], [-3.5760225505607792, 50.492174598719544]]]}}, {"type": "Feature", "properties": {"type": "postcode-cell", "postcode": "TQ12 5JH", "postcodes": ["TQ12 5JH"]}, "geometry": {"type": "Polygon", "coordinates": [[[-3.575466741569693, 50.4959615305893], [-3.5748334458484585, 50.49631086703285], [-3.5736673193343815, 50.49572581767917], [-3.5745034061532617, 50.49481863664348], [-3.5747040292282946, 50.494788799218135], [-3.5753326848856783, 50.49496651586459], [-3.575601026552775, 50.49567728540276], [-3.575466741569693, 50.4959615305893]]]}}, {"type": "Feature", "properties": {"type": "postcode-cell", "postcode": "TQ12 5JG", "postcodes": ["TQ12 5JG"]}, "geometry": {"type": "Polygon", "coordinates": [[[-3.5755805503870115, 50.49485907812648], [-3.5753326848856783, 50.49496651586459], [-3.5747040292282946, 50.494788799218135], [-3.574701911373263, 50.49358576843585], [-3.5764108486677757, 50.493868107673414], [-3.5755805503870115, 50.49485907812648]]]}}, {"type": "Feature", "properties": {"type": "postcode-cell", "postcode": "TQ2 7HX", "postcodes": ["TQ2 7HX", "TQ2 7HY"]}, "geometry": {"type": "MultiPolygon", "coordinates": [[[[-3.5770105690710894, 50.488184314683686], [-3.574120031298214, 50.490963786084485], [-3.5734716590537685, 50.49121788783103], [-3.569969674935867, 50.49054814984992], [-3.570189989884372, 50.49043999456123], [-3.570319989885006, 50.489289994560345], [-3.5712399898860814, 50.48824999455953], [-3.571989989886749, 50.48783999455919], [-3.572829989887262, 50.487869994559176], [-3.572949989887533, 50.487459994558876], [-3.574099989888155, 50.48766999455901], [-3.574919989889058, 50.48685999455839], [-3.574849989889426, 50.48599999455772], [-3.5752899898897934, 50.48580999455755], [-3.57540010793992, 50.48541043052085], [-3.5770105690710894, 50.488184314683686]]], [[[-3.5671550294353307, 50.490009771612804], [-3.563786475100139, 50.48759400668307], [-3.5647699898826346, 50.486969994558656], [-3.56724998988374, 50.48790999455936], [-3.567509989883184, 50.489409994560496], [-3.5689899898838497, 50.489959994560884], [-3.5689715136714275, 50.49035723333317], [-3.5671550294353307, 50.490009771612804]]]]}}, {"type": "Feature", "properties": {"type": "postcode-cell", "postcode": "TQ12 5JL", "postcodes": ["TQ12 5JL"]}, "geometry": {"type": "Polygon", "coordinates": [[[-3.5747589529509085, 50.492874966897794], [-3.574347994526335, 50.49331164375656], [-3.574136152646581, 50.49332512305564], [-3.5734569894247743, 50.4931247020421], [-3.5729603071357254, 50.49278479641309], [-3.573511225831752, 50.4912968669597], [-3.574922445762214, 50.49245226904089], [-3.5747589529509085, 50.492874966897794]]]}}, {"type": "Feature", "properties": {"type": "postcode-cell", "postcode": "TQ12 5JJ", "postcodes": ["TQ12 5JJ"]}, "geometry": {"type": "Polygon", "coordinates": [[[-3.574701911373263, 50.49358576843585], [-3.5747040292282946, 50.494788799218135], [-3.5745034061532617, 50.49481863664348], [-3.572800056242727, 50.49449858236947], [-3.574136152646581, 50.49332512305564], [-3.574347994526335, 50.49331164375656], [-3.574701911373263, 50.49358576843585]]]}}, {"type": "Feature", "properties": {"type": "postcode-cell", "postcode": "TQ12 4RL", "postcodes": ["TQ12 4RL"]}, "geometry": {"type": "Polygon", "coordinates": [[[-3.5730994959362317, 50.53251706583099], [-3.573099498723309, 50.538361473794346], [-3.572819989863097, 50.538359994598196], [-3.571699989862221, 50.53871999459851], [-3.570419989861415, 50.538719994598544], [-3.567603983287975, 50.5386477929926], [-3.5619346915177403, 50.535827048398325], [-3.563317527281807, 50.53270375996297], [-3.568009582203613, 50.53217928123833], [-3.572738234701513, 50.53229700946348], [-3.5730994959362317, 50.53251706583099]]]}}, {"type": "Feature", "properties": {"type": "postcode-cell", "postcode": "TQ12 5FQ", "postcodes": ["TQ12 5FQ"]}, "geometry": {"type": "Polygon", "coordinates": [[[-3.5736673193343815, 50.49572581767917], [-3.573248134809076, 50.49572291359732], [-3.572119499834747, 50.49522851271894], [-3.5717937346140305, 50.49468629436411], [-3.572800056242727, 50.49449858236947], [-3.5745034061532617, 50.49481863664348], [-3.5736673193343815, 50.49572581767917]]]}}, {"type": "Feature", "properties": {"type": "postcode-cell", "postcode": "TQ12 5LY", "postcodes": ["TQ12 5LY"]}, "geometry": {"type": "Polygon", "coordinates": [[[-3.574136152646581, 50.49332512305564], [-3.572800056242727, 50.49449858236947], [-3.5717937346140305, 50.49468629436411], [-3.5707132167630196, 50.49429471628821], [-3.5734569894247743, 50.4931247020421], [-3.574136152646581, 50.49332512305564]]]}}, {"type": "Feature", "properties": {"type": "postcode-cell", "postcode": "TQ12 5JW", "postcodes": ["TQ12 5JW"]}, "geometry": {"type": "Polygon", "coordinates": [[[-3.573511225831752, 50.4912968669597], [-3.5729603071357254, 50.49278479641309], [-3.569082614696726, 50.49272084401055], [-3.5671550294353307, 50.490009771612804], [-3.5689715136714275, 50.49035723333317], [-3.568969989883631, 50.490389994561205], [-3.5696399898838975, 50.490709994561456], [-3.569969674935867, 50.49054814984992], [-3.5734716590537685, 50.49121788783103], [-3.573511225831752, 50.4912968669597]]]}}, {"type": "Feature", "properties": {"type": "postcode-cell", "postcode": "TQ12 5JE", "postcodes": ["TQ12 5JE"]}, "geometry": {"type": "Polygon", "coordinates": [[[-3.572119499834747, 50.49522851271894], [-3.5710365388460352, 50.49744012613332], [-3.566808008762736, 50.49696245115228], [-3.5695055312145483, 50.494013559224136], [-3.5707132167630196, 50.49429471628821], [-3.5717937346140305, 50.49468629436411], [-3.572119499834747, 50.49522851271894]]]}}, {"type": "Feature", "properties": {"type": "postcode-cell", "postcode": "TQ12 5JR", "postcodes": ["TQ12 5JR"]}, "geometry": {"type": "Polygon", "coordinates": [[[-3.5710365388460352, 50.49744012613332], [-3.572119499834747, 50.49522851271894], [-3.573248134809076, 50.49572291359732], [-3.5723079822728567, 50.497881056547584], [-3.5710365388460352, 50.49744012613332]]]}}, {"type": "Feature", "properties": {"type": "postcode-cell", "postcode": "TQ12 4SX", "postcodes": ["TQ12 4SX"]}, "geometry": {"type": "Polygon", "coordinates": [[[-3.5671550294353307, 50.490009771612804], [-3.569082614696726, 50.49272084401055], [-3.5695055312145483, 50.494013559224136], [-3.566808008762736, 50.49696245115228], [-3.560035044754502, 50.49907375675963], [-3.554956762464416, 50.49495292654292], [-3.5563699898736116, 50.49479999456489], [-3.5584099898747814, 50.495029994565016], [-3.5610699898767213, 50.494459994564515], [-3.5628299898783675, 50.493329994563624], [-3.5620999898787904, 50.4914899945622], [-3.562389989880417, 50.48847999455989], [-3.563786475100139, 50.48759400668307], [-3.5671550294353307, 50.490009771612804]]]}}, {"type": "Feature", "properties": {"type": "postcode-cell", "postcode": "TQ12 5JS", "postcodes": ["TQ12 5JS"]}, "geometry": {"type": "Polygon", "coordinates": [[[-3.5734569894247743, 50.4931247020421], [-3.5707132167630196, 50.49429471628821], [-3.5695055312145483, 50.494013559224136], [-3.569082614696726, 50.49272084401055], [-3.5729603071357254, 50.49278479641309], [-3.5734569894247743, 50.4931247020421]]]}}, {"type": "Feature", "properties": {"type": "postcode-cell", "postcode": "TQ12 4SH", "postcodes": ["TQ12 4SH"]}, "geometry": {"type": "MultiPolygon", "coordinates": [[[[-3.5787145517845893, 50.51903307174499], [-3.578399989875668, 50.51940999458342], [-3.576736114333797, 50.51864277849751], [-3.5787145517845893, 50.51903307174499]]], [[[-3.5705431483331607, 50.527755702190085], [-3.5633596990851903, 50.52308546794184], [-3.5655595513929503, 50.51938630935157], [-3.57082634099601, 50.517999491163145], [-3.572459989869587, 50.52430999458735], [-3.5733199898696597, 50.52528999458807], [-3.573219989869326, 50.52585999458852], [-3.573708352523324, 50.5262157833165], [-3.5705431483331607, 50.527755702190085]]]]}}, {"type": "Feature", "properties": {"type": "postcode-cell", "postcode": "TQ12 4RU", "postcodes": ["TQ12 4RU"]}, "geometry": {"type": "Polygon", "coordinates": [[[-3.5705431483331607, 50.527755702190085], [-3.570627635393001, 50.52821150784474], [-3.564446894178069, 50.52944730593949], [-3.562122156698137, 50.529094738395905], [-3.5593490035668784, 50.52512062661013], [-3.5633596990851903, 50.52308546794184], [-3.5705431483331607, 50.527755702190085]]]}}, {"type": "Feature", "properties": {"type": "postcode-cell", "postcode": "TQ12 4SN", "postcodes": ["TQ12 4SN"]}, "geometry": {"type": "Polygon", "coordinates": [[[-3.570455465848519, 50.50402664604624], [-3.5682854876969317, 50.5087811887666], [-3.5650549544930232, 50.508293045146566], [-3.567137540013869, 50.50581411500291], [-3.5703655371421226, 50.503948759141224], [-3.570455465848519, 50.50402664604624]]]}}, {"type": "Feature", "properties": {"type": "postcode-cell", "postcode": "TQ12 4SS", "postcodes": ["TQ12 4SS"]}, "geometry": {"type": "Polygon", "coordinates": [[[-3.570310686636217, 50.50383614689645], [-3.5703655371421226, 50.503948759141224], [-3.567137540013869, 50.50581411500291], [-3.555886419232011, 50.50665180031532], [-3.5603136176832657, 50.49984194246244], [-3.56974952461738, 50.502990714706925], [-3.570310686636217, 50.50383614689645]]]}}, {"type": "Feature", "properties": {"type": "postcode-cell", "postcode": "TQ12 4SL", "postcodes": ["TQ12 4SL"]}, "geometry": {"type": "Polygon", "coordinates": [[[-3.5712419873029435, 50.51302383390758], [-3.558880707333977, 50.5094726936537], [-3.5650549544930232, 50.508293045146566], [-3.5682854876969317, 50.5087811887666], [-3.5719414143255523, 50.51155991112034], [-3.5712419873029435, 50.51302383390758]]]}}, {"type": "Feature", "properties": {"type": "postcode-cell", "postcode": "TQ12 4SR", "postcodes": ["TQ12 4SR"]}, "geometry": {"type": "Polygon", "coordinates": [[[-3.5650549544930232, 50.508293045146566], [-3.558880707333977, 50.5094726936537], [-3.5540176549912887, 50.50928461845386], [-3.5540318184258806, 50.5089074868524], [-3.555886419232011, 50.50665180031532], [-3.567137540013869, 50.50581411500291], [-3.5650549544930232, 50.508293045146566]]]}}, {"type": "Feature", "properties": {"type": "postcode-cell", "postcode": "TQ12 4ST", "postcodes": ["TQ12 4ST"]}, "geometry": {"type": "Polygon", "coordinates": [[[-3.560035044754502, 50.49907375675963], [-3.5603136176832657, 50.49984194246244], [-3.555886419232011, 50.50665180031532], [-3.5540318184258806, 50.5089074868524], [-3.5416278757690653, 50.500091207707634], [-3.542259989862828, 50.498839994568314], [-3.5432799898634055, 50.49896999456838], [-3.543799989864507, 50.49734999456711], [-3.5515699898705573, 50.49488999456506], [-3.5536899898717915, 50.49508999456516], [-3.554956762464416, 50.49495292654292], [-3.560035044754502, 50.49907375675963]]]}}, {"type": "Feature", "properties": {"type": "postcode-cell", "postcode": "TQ12 4SE", "postcodes": ["TQ12 4SE"]}, "geometry": {"type": "Polygon", "coordinates": [[[-3.571752609943071, 50.51634458138379], [-3.5702899898723546, 50.51566999458071], [-3.5702699898722567, 50.51584999458085], [-3.57082634099601, 50.517999491163145], [-3.5655595513929503, 50.51938630935157], [-3.5513468846170495, 50.51268640184396], [-3.5540176549912887, 50.50928461845386], [-3.558880707333977, 50.5094726936537], [-3.5712419873029435, 50.51302383390758], [-3.571752609943071, 50.51634458138379]]]}}, {"type": "Feature", "properties": {"type": "postcode-cell", "postcode": "TQ12 4RN", "postcodes": ["TQ12 4RN"]}, "geometry": {"type": "Polygon", "coordinates": [[[-3.5551535864241792, 50.53855461476851], [-3.5551856732683813, 50.53835987648128], [-3.555473785358481, 50.53822250161023], [-3.5610032845743094, 50.53589818492162], [-3.5619346915177403, 50.535827048398325], [-3.567603983287975, 50.5386477929926], [-3.567299989859488, 50.53863999459855], [-3.5662999898590586, 50.53821999459822], [-3.5659799898587523, 50.53843999459842], [-3.566469989858769, 50.53904999459888], [-3.565379989857892, 50.539449994599224], [-3.559349989854212, 50.53920999459913], [-3.558239989853235, 50.53978999459961], [-3.555967576226399, 50.540298531195695], [-3.5551535864241792, 50.53855461476851]]]}}, {"type": "Feature", "properties": {"type": "postcode-cell", "postcode": "TQ12 4RJ", "postcodes": ["TQ12 4RJ"]}, "geometry": {"type": "Polygon", "coordinates": [[[-3.5619346915177403, 50.535827048398325], [-3.5610032845743094, 50.53589818492162], [-3.5573734523075364, 50.5334681076004], [-3.5562170325305926, 50.53245767576714], [-3.5560661463216223, 50.532076635816225], [-3.561861590653434, 50.53167229971162], [-3.563317527281807, 50.53270375996297], [-3.5619346915177403, 50.535827048398325]]]}}, {"type": "Feature", "properties": {"type": "postcode-cell", "postcode": "TQ12 4RH", "postcodes": ["TQ12 4RH"]}, "geometry": {"type": "Polygon", "coordinates": [[[-3.5593490035668784, 50.52512062661013], [-3.562122156698137, 50.529094738395905], [-3.561861590653434, 50.53167229971162], [-3.5560661463216223, 50.532076635816225], [-3.5551289566211204, 50.531554842554264], [-3.552893086621995, 50.52961797168328], [-3.5519172125804377, 50.527887619759575], [-3.5517798739548345, 50.52631619429628], [-3.5593490035668784, 50.52512062661013]]]}}, {"type": "Feature", "properties": {"type": "postcode-cell", "postcode": "TQ12 4SJ", "postcodes": ["TQ12 4SJ"]}, "geometry": {"type": "Polygon", "coordinates": [[[-3.5517798739548345, 50.52631619429628], [-3.5451359413502153, 50.523570900982385], [-3.5468799898540406, 50.523199994586996], [-3.547769989855429, 50.52146999458566], [-3.547249989855822, 50.5199699945845], [-3.547239989856866, 50.517779994582824], [-3.546099989856835, 50.516349994581745], [-3.5454799898565668, 50.51609999458155], [-3.5454499898571554, 50.514829994580566], [-3.5455178230439097, 50.51469196676766], [-3.5513468846170495, 50.51268640184396], [-3.5655595513929503, 50.51938630935157], [-3.5633596990851903, 50.52308546794184], [-3.5593490035668784, 50.52512062661013], [-3.5517798739548345, 50.52631619429628]]]}}, {"type": "Feature", "properties": {"type": "postcode-cell", "postcode": "TQ12 4RW", "postcodes": ["TQ12 4RW"]}, "geometry": {"type": "Polygon", "coordinates": [[[-3.564446894178069, 50.52944730593949], [-3.568009582203613, 50.53217928123833], [-3.563317527281807, 50.53270375996297], [-3.561861590653434, 50.53167229971162], [-3.562122156698137, 50.529094738395905], [-3.564446894178069, 50.52944730593949]]]}}, {"type": "Feature", "properties": {"type": "postcode-cell", "postcode": "TQ12 4SB", "postcodes": ["TQ12 4SB"]}, "geometry": {"type": "Polygon", "coordinates": [[[-3.5540318184258806, 50.5089074868524], [-3.5540176549912887, 50.50928461845386], [-3.5513468846170495, 50.51268640184396], [-3.5455178230439097, 50.51469196676766], [-3.546309989858535, 50.513079994579215], [-3.5475699898597135, 50.51226999457855], [-3.5479399898605783, 50.51094999457753], [-3.5468799898606944, 50.5093199945763], [-3.543789989859703, 50.50734999457483], [-3.541699989858791, 50.50651999457423], [-3.539139989858142, 50.50452999457276], [-3.5390199898591987, 50.50216999457093], [-3.5412899898612986, 50.50075999456978], [-3.5416278757690653, 50.500091207707634], [-3.5540318184258806, 50.5089074868524]]]}}, {"type": "Feature", "properties": {"type": "postcode-cell", "postcode": "TQ12 4RQ", "postcodes": ["TQ12 4RQ"]}, "geometry": {"type": "Polygon", "coordinates": [[[-3.5551856732683813, 50.53835987648128], [-3.553847987926324, 50.537087637183056], [-3.5562170325305926, 50.53245767576714], [-3.5573734523075364, 50.5334681076004], [-3.555473785358481, 50.53822250161023], [-3.5551856732683813, 50.53835987648128]]]}}, {"type": "Feature", "properties": {"type": "postcode-cell", "postcode": "TQ12 4RG", "postcodes": ["TQ12 4RG"]}, "geometry": {"type": "Polygon", "coordinates": [[[-3.5562170325305926, 50.53245767576714], [-3.553847987926324, 50.537087637183056], [-3.5512326074896907, 50.53584061030742], [-3.5551289566211204, 50.531554842554264], [-3.5560661463216223, 50.532076635816225], [-3.5562170325305926, 50.53245767576714]]]}}, {"type": "Feature", "properties": {"type": "postcode-cell", "postcode": "TQ12 4RX", "postcodes": ["TQ12 4RX"]}, "geometry": {"type": "Polygon", "coordinates": [[[-3.555473785358481, 50.53822250161023], [-3.5573734523075364, 50.5334681076004], [-3.5610032845743094, 50.53589818492162], [-3.555473785358481, 50.53822250161023]]]}}, {"type": "Feature", "properties": {"type": "postcode-cell", "postcode": "TQ12 4RR", "postcodes": ["TQ12 4RR"]}, "geometry": {"type": "Polygon", "coordinates": [[[-3.5551535864241792, 50.53855461476851], [-3.544528925378671, 50.539802987098255], [-3.5435299898440076, 50.539749994599866], [-3.5403899898428306, 50.53808999459865], [-3.54032998984273, 50.53821999459874], [-3.539699989842675, 50.53750999459821], [-3.539287768117062, 50.53648106562939], [-3.5415106822068956, 50.535883010185216], [-3.5448177508806187, 50.535618710648656], [-3.5469751381854127, 50.53550117713853], [-3.550584799812804, 50.5356891794041], [-3.5512326074896907, 50.53584061030742], [-3.553847987926324, 50.537087637183056], [-3.5551856732683813, 50.53835987648128], [-3.5551535864241792, 50.53855461476851]]]}}, {"type": "Feature", "properties": {"type": "postcode-cell", "postcode": "TQ12 4RF", "postcodes": ["TQ12 4RF"]}, "geometry": {"type": "Polygon", "coordinates": [[[-3.5551289566211204, 50.531554842554264], [-3.5512326074896907, 50.53584061030742], [-3.550584799812804, 50.5356891794041], [-3.551693644674257, 50.53143816076262], [-3.552308186195392, 50.530447362794824], [-3.552893086621995, 50.52961797168328], [-3.5551289566211204, 50.531554842554264]]]}}, {"type": "Feature", "properties": {"type": "postcode-cell", "postcode": "TQ12 4RD", "postcodes": ["TQ12 4RD"]}, "geometry": {"type": "Polygon", "coordinates": [[[-3.552308186195392, 50.530447362794824], [-3.5448177508806187, 50.535618710648656], [-3.5415106822068956, 50.535883010185216], [-3.5519172125804377, 50.527887619759575], [-3.552893086621995, 50.52961797168328], [-3.552308186195392, 50.530447362794824]]]}}, {"type": "Feature", "properties": {"type": "postcode-cell", "postcode": "TQ12 4RB", "postcodes": ["TQ12 4RB"]}, "geometry": {"type": "Polygon", "coordinates": [[[-3.551693644674257, 50.53143816076262], [-3.5469751381854127, 50.53550117713853], [-3.5448177508806187, 50.535618710648656], [-3.552308186195392, 50.530447362794824], [-3.551693644674257, 50.53143816076262]]]}}, {"type": "Feature", "properties": {"type": "postcode-cell", "postcode": "TQ12 4RT", "postcodes": ["TQ12 4RT"]}, "geometry": {"type": "Polygon", "coordinates": [[[-3.5551535864241792, 50.53855461476851], [-3.555967576226399, 50.540298531195695], [-3.5539499898500777, 50.540749994600446], [-3.5522299898493177, 50.540079994599964], [-3.550999989848052, 50.541109994600774], [-3.548809989847191, 50.54002999459998], [-3.544528925378671, 50.539802987098255], [-3.5551535864241792, 50.53855461476851]]]}}, {"type": "Feature", "properties": {"type": "postcode-cell", "postcode": "TQ12 4RA", "postcodes": ["TQ12 4RA"]}, "geometry": {"type": "Polygon", "coordinates": [[[-3.550584799812804, 50.5356891794041], [-3.5469751381854127, 50.53550117713853], [-3.551693644674257, 50.53143816076262], [-3.550584799812804, 50.5356891794041]]]}}, {"type": "Feature", "properties": {"type": "postcode-cell", "postcode": "TQ12 4RE", "postcodes": ["TQ12 4RE"]}, "geometry": {"type": "Polygon", "coordinates": [[[-3.5517798739548345, 50.52631619429628], [-3.5519172125804377, 50.527887619759575], [-3.5415106822068956, 50.535883010185216], [-3.539287768117062, 50.53648106562939], [-3.538389989843422, 50.534239994595715], [-3.5398699898446138, 50.53368999459528], [-3.5395599898451033, 50.532259994594156], [-3.539929989845807, 50.5312799945934], [-3.5421199898478037, 50.529979994592345], [-3.5382699898467678, 50.527099994590195], [-3.538779989847281, 50.52669999458986], [-3.538579989847279, 50.52643999458968], [-3.5422099898503334, 50.52481999458834], [-3.542929989851161, 50.52403999458773], [-3.5451359413502153, 50.523570900982385], [-3.5517798739548345, 50.52631619429628]]]}}]}