{"type": "FeatureCollection", "features": [{"type": "Feature", "properties": {"type": "ward-outline", "name": "Kingsteignton East"}, "geometry": {"type": "MultiPolygon", "coordinates": [[[[-3.59278, 50.53408], [-3.5931, 50.53403], [-3.59285, 50.53408], [-3.59278, 50.53408]]], [[[-3.58698, 50.5377], [-3.58932, 50.53711], [-3.58829, 50.53903], [-3.58539, 50.53903], [-3.58526, 50.53877], [-3.58376, 50.53859], [-3.5842, 50.5384], [-3.58698, 50.5377]]], [[[-3.55325, 50.58821], [-3.55671, 50.5857], [-3.55842, 50.58301], [-3.56057, 50.58074], [-3.56237, 50.57701], [-3.57054, 50.56628], [-3.57178, 50.56538], [-3.57481, 50.56485], [-3.57517, 50.56443], [-3.575, 50.56319], [-3.57326, 50.56137], [-3.57061, 50.56059], [-3.56767, 50.55841], [-3.56881, 50.55776], [-3.56983, 50.55479], [-3.57222, 50.55391], [-3.57594, 50.55388], [-3.57753, 50.55321], [-3.57798, 50.55068], [-3.57717, 50.54984], [-3.57649, 50.54957], [-3.57562, 50.54974], [-3.57522, 50.5491], [-3.57384, 50.54871], [-3.5736, 50.54802], [-3.57195, 50.5475], [-3.56651, 50.54302], [-3.56662, 50.54293], [-3.56815, 50.5424], [-3.5698, 50.54274], [-3.57332, 50.54275], [-3.57739, 50.54211], [-3.57899, 50.54163], [-3.58006, 50.54076], [-3.58011, 50.54019], [-3.58058, 50.53998], [-3.58043, 50.53936], [-3.58066, 50.5393], [-3.58235, 50.53962], [-3.59087, 50.53885], [-3.59069, 50.53862], [-3.59153, 50.53851], [-3.5909, 50.53839], [-3.5888, 50.53893], [-3.58952, 50.53757], [-3.58953, 50.53698], [-3.58902, 50.53614], [-3.58976, 50.53484], [-3.59173, 50.53453], [-3.59242, 50.53467], [-3.59301, 50.53464], [-3.59333, 50.53458], [-3.59371, 50.53483], [-3.59363, 50.53531], [-3.59344, 50.53547], [-3.59176, 50.53542], [-3.59308, 50.53553], [-3.59334, 50.53551], [-3.59346, 50.53549], [-3.59357, 50.53543], [-3.59365, 50.53536], [-3.59377, 50.53484], [-3.59373, 50.53471], [-3.59354, 50.53459], [-3.59329, 50.53453], [-3.59286, 50.53461], [-3.59196, 50.53451], [-3.59604, 50.53369], [-3.5962, 50.53396], [-3.59483, 50.53456], [-3.59385, 50.53456], [-3.60136, 50.53995], [-3.5981, 50.54334], [-3.59812, 50.54397], [-3.59657, 50.54597], [-3.59609, 50.54637], [-3.59422, 50.5464], [-3.59385, 50.54906], [-3.5929, 50.55024], [-3.59333, 50.5509], [-3.59506, 50.55129], [-3.59745, 50.5546], [-3.59772, 50.55567], [-3.5957, 50.55676], [-3.59598, 50.55988], [-3.59387, 50.5603], [-3.59611, 50.56346], [-3.59706, 50.56671], [-3.59877, 50.56577], [-3.59737, 50.57119], [-3.59464, 50.57796], [-3.59076, 50.58363], [-3.58914, 50.5851], [-3.58662, 50.58697], [-3.58326, 50.58727], [-3.58019, 50.58799], [-3.57802, 50.5882], [-3.5759, 50.58798], [-3.57421, 50.58729], [-3.57308, 50.58819], [-3.5673, 50.59067], [-3.56598, 50.59185], [-3.56444, 50.59456], [-3.56001, 50.59696], [-3.55513, 50.59925], [-3.55076, 50.59962], [-3.5515, 50.59429], [-3.55136, 50.59249], [-3.55248, 50.59071], [-3.55325, 50.58821]]]]}}, {"type": "Feature", "properties": {"type": "postcode-cell", "postcode": "TQ12 3QN", "postcodes": ["TQ12 3QN"]}, "geometry": {"type": "Polygon", "coordinates": [[[-3.597895376213041, 50.568442870123064], [-3.5928919294265294, 50.56569769059865], [-3.59628258678795, 50.5640504930736], [-3.5970599898648734, 50.566709994619735], [-3.598769989866403, 50.56576999461899], [-3.598067717291341, 50.568488943847846], [-3.597895376213041, 50.568442870123064]]]}}, {"type": "Feature", "properties": {"type": "postcode-cell", "postcode": "TQ12 3AF", "postcodes": ["TQ12 3AF"]}, "geometry": {"type": "MultiPolygon", "coordinates": [[[[-3.5989715506047957, 50.54138863005442], [-3.5969322200500478, 50.536772351221394], [-3.6013599898803412, 50.53994999459888], [-3.5996436542126307, 50.54173484432287], [-3.5989715506047957, 50.54138863005442]]], [[[-3.5956090252352375, 50.533776618106465], [-3.5960399898799675, 50.53368999459412], [-3.5961999898799384, 50.53395999459435], [-3.5957726740546674, 50.53414714355621], [-3.5956090252352375, 50.533776618106465]]]]}}, {"type": "Feature", "properties": {"type": "postcode-cell", "postcode": "TQ12 3HS", "postcodes": ["TQ12 3HS"]}, "geometry": {"type": "Polygon", "coordinates": [[[-3.5996436542126307, 50.54173484432287], [-3.5980999898766677, 50.54333999460159], [-3.598101253243072, 50.543379791322586], [-3.597259185045311, 50.5418090219679], [-3.5989715506047957, 50.54138863005442], [-3.5996436542126307, 50.54173484432287]]]}}, {"type": "Feature", "properties": {"type": "postcode-cell", "postcode": "TQ12 3SH", "postcodes": ["TQ12 3SH"]}, "geometry": {"type": "Polygon", "coordinates": [[[-3.598101253243072, 50.543379791322586], [-3.5981138529583983, 50.543776684121674], [-3.596422036202609, 50.543506582744286], [-3.596700635115192, 50.5419061779859], [-3.5970813997817435, 50.54180037732987], [-3.597259185045311, 50.5418090219679], [-3.598101253243072, 50.543379791322586]]]}}, {"type": "Feature", "properties": {"type": "postcode-cell", "postcode": "TQ12 3LU", "postcodes": ["TQ12 3LU"]}, "geometry": {"type": "Polygon", "coordinates": [[[-3.5970052127602945, 50.554627563420475], [-3.5962260606128438, 50.55445330404912], [-3.5957982392638033, 50.55384115377508], [-3.5964562034478793, 50.5532237263657], [-3.597449989870888, 50.55459999461031], [-3.597456435802917, 50.55462554020073], [-3.5970052127602945, 50.554627563420475]]]}}, {"type": "Feature", "properties": {"type": "postcode-cell", "postcode": "TQ12 3YP", "postcodes": ["TQ12 3YP"]}, "geometry": {"type": "Polygon", "coordinates": [[[-3.5942235497265758, 50.55866682212324], [-3.5941675865168765, 50.55865904512053], [-3.593998057649233, 50.557964851391475], [-3.594352166216192, 50.55747248661402], [-3.59576151461361, 50.55744559610259], [-3.5958571989075248, 50.55851180998921], [-3.5942235497265758, 50.55866682212324]]]}}, {"type": "Feature", "properties": {"type": "postcode-cell", "postcode": "TQ12 3LY", "postcodes": ["TQ12 3LY"]}, "geometry": {"type": "Polygon", "coordinates": [[[-3.59642553917447, 50.55631222173091], [-3.596109846561219, 50.555858246650715], [-3.5970052127602945, 50.554627563420475], [-3.597456435802917, 50.55462554020073], [-3.59771998987055, 50.55566999461114], [-3.5964808736041616, 50.55633863670901], [-3.59642553917447, 50.55631222173091]]]}}, {"type": "Feature", "properties": {"type": "postcode-cell", "postcode": "TQ12 3SL", "postcodes": ["TQ12 3SL"]}, "geometry": {"type": "MultiPolygon", "coordinates": [[[[-3.5924140080045692, 50.53456044197851], [-3.5919599898770027, 50.53450999459485], [-3.5924096938310357, 50.53441962129431], [-3.5924140080045692, 50.53456044197851]]], [[[-3.592440962995662, 50.53544026458944], [-3.591759989876442, 50.53541999459555], [-3.5924420835094124, 50.535476837668234], [-3.592449876693285, 50.535731201625865], [-3.59104103820443, 50.53841686129718], [-3.5908999898744804, 50.538389994597864], [-3.588799989872898, 50.538929994598334], [-3.589519989874003, 50.53756999459728], [-3.589529989874289, 50.536979994596805], [-3.589019989874371, 50.536139994596184], [-3.5897599898754553, 50.53483999459516], [-3.591729989876848, 50.53452999459487], [-3.5924173478533765, 50.53466945854157], [-3.592440962995662, 50.53544026458944]]], [[[-3.5908363563752, 50.53880701865545], [-3.5906899898742393, 50.53861999459804], [-3.5909525065197774, 50.53858561812256], [-3.5908363563752, 50.53880701865545]]], [[[-3.589238720804027, 50.54185214666127], [-3.5890431796175797, 50.5419381440613], [-3.588889362929832, 50.54197549577896], [-3.588438664626052, 50.54185602519652], [-3.5886873392374756, 50.53904731461391], [-3.5908110129755095, 50.53885532689535], [-3.589238720804027, 50.54185214666127]]], [[[-3.5888483200796832, 50.53722892483626], [-3.589319989874095, 50.53710999459691], [-3.5887677078111073, 50.53813951139576], [-3.5888483200796832, 50.53722892483626]]]]}}, {"type": "Feature", "properties": {"type": "postcode-cell", "postcode": "TQ12 3RS", "postcodes": ["TQ12 3RS"]}, "geometry": {"type": "MultiPolygon", "coordinates": [[[[-3.5924420835094124, 50.535476837668234], [-3.593079989877222, 50.5355299945956], [-3.593339989877396, 50.53550999459561], [-3.5934599898774815, 50.53548999459558], [-3.593569989877577, 50.53542999459552], [-3.5936499898776617, 50.53535999459545], [-3.5937699898779876, 50.53483999459506], [-3.593729989878025, 50.53470999459498], [-3.59353998987796, 50.53458999459488], [-3.5932899898778308, 50.53452999459482], [-3.592859989877523, 50.534609994594916], [-3.5924140080045692, 50.53456044197851], [-3.5924096938310357, 50.53441962129431], [-3.593568901142339, 50.53418665537718], [-3.5970813997817435, 50.54180037732987], [-3.596700635115192, 50.5419061779859], [-3.5947705012058084, 50.54173526344227], [-3.5930480805913985, 50.54056578460069], [-3.592990894303386, 50.54035503960381], [-3.592449876693285, 50.535731201625865], [-3.5924420835094124, 50.535476837668234]]], [[[-3.5924173478533765, 50.53466945854157], [-3.592419989877217, 50.53466999459496], [-3.5930099898776033, 50.53463999459492], [-3.5933299898778324, 50.534579994594864], [-3.593709989877954, 50.53482999459507], [-3.593629989877673, 50.53530999459546], [-3.593439989877477, 50.53546999459557], [-3.592440962995662, 50.53544026458944], [-3.5924173478533765, 50.53466945854157]]], [[[-3.593099989877949, 50.53402999459444], [-3.5928499898777675, 50.53407999459449], [-3.5927799898777235, 50.5340799945945], [-3.593099989877949, 50.53402999459444]]]]}}, {"type": "Feature", "properties": {"type": "postcode-cell", "postcode": "TQ12 3BN", "postcodes": ["TQ12 3BN"]}, "geometry": {"type": "Polygon", "coordinates": [[[-3.597259185045311, 50.5418090219679], [-3.5970813997817435, 50.54180037732987], [-3.593568901142339, 50.53418665537718], [-3.5956090252352375, 50.533776618106465], [-3.5957726740546674, 50.53414714355621], [-3.594829989878789, 50.534559994594844], [-3.5938499898781693, 50.53455999459486], [-3.5969322200500478, 50.536772351221394], [-3.5989715506047957, 50.54138863005442], [-3.597259185045311, 50.5418090219679]]]}}, {"type": "Feature", "properties": {"type": "postcode-cell", "postcode": "TQ12 3AN", "postcodes": ["TQ12 3AN"]}, "geometry": {"type": "Polygon", "coordinates": [[[-3.5958330200517743, 50.545201516114986], [-3.595626453427901, 50.54497269436207], [-3.595776878346761, 50.543533962666345], [-3.596422036202609, 50.543506582744286], [-3.5981138529583983, 50.543776684121674], [-3.598119989876379, 50.54396999460206], [-3.5972303695296852, 50.54511791473914], [-3.5958330200517743, 50.545201516114986]]]}}, {"type": "Feature", "properties": {"type": "postcode-cell", "postcode": "TQ12 3AL", "postcodes": ["TQ12 3AL"]}, "geometry": {"type": "Polygon", "coordinates": [[[-3.5954147757580834, 50.54570702492438], [-3.5958330200517743, 50.545201516114986], [-3.5972303695296852, 50.54511791473914], [-3.5965699898744465, 50.545969994603624], [-3.5960899898739527, 50.54636999460396], [-3.5958929521243155, 50.54637315705438], [-3.5954147757580834, 50.54570702492438]]]}}, {"type": "Feature", "properties": {"type": "postcode-cell", "postcode": "TQ12 3BW", "postcodes": ["TQ12 3BW"]}, "geometry": {"type": "Polygon", "coordinates": [[[-3.595626453427901, 50.54497269436207], [-3.5940815648016335, 50.54473048098876], [-3.5940123602325325, 50.54452939877033], [-3.5954532118582203, 50.54346981843398], [-3.595776878346761, 50.543533962666345], [-3.595626453427901, 50.54497269436207]]]}}, {"type": "Feature", "properties": {"type": "postcode-cell", "postcode": "TQ12 3SN", "postcodes": ["TQ12 3SN"]}, "geometry": {"type": "Polygon", "coordinates": [[[-3.592990894303386, 50.54035503960381], [-3.5898915601679744, 50.54190606039718], [-3.589238720804027, 50.54185214666127], [-3.5908110129755095, 50.53885532689535], [-3.5908699898742436, 50.538849994598245], [-3.5908363563752, 50.53880701865545], [-3.5909525065197774, 50.53858561812256], [-3.591529989874824, 50.53850999459797], [-3.59104103820443, 50.53841686129718], [-3.592449876693285, 50.535731201625865], [-3.592990894303386, 50.54035503960381]]]}}, {"type": "Feature", "properties": {"type": "postcode-cell", "postcode": "TQ12 3LX", "postcodes": ["TQ12 3LX"]}, "geometry": {"type": "Polygon", "coordinates": [[[-3.5970052127602945, 50.554627563420475], [-3.596109846561219, 50.555858246650715], [-3.5952086877517586, 50.55516833719575], [-3.5962260606128438, 50.55445330404912], [-3.5970052127602945, 50.554627563420475]]]}}, {"type": "Feature", "properties": {"type": "postcode-cell", "postcode": "TQ12 3LT", "postcodes": ["TQ12 3LT"]}, "geometry": {"type": "Polygon", "coordinates": [[[-3.5957982392638033, 50.55384115377508], [-3.594855195503481, 50.55386308021294], [-3.5940652853470167, 50.553654872744545], [-3.5934456120443636, 50.553130108330976], [-3.5959023047986745, 50.552456607655664], [-3.5964562034478793, 50.5532237263657], [-3.5957982392638033, 50.55384115377508]]]}}, {"type": "Feature", "properties": {"type": "postcode-cell", "postcode": "TQ12 3BQ", "postcodes": ["TQ12 3BQ"]}, "geometry": {"type": "Polygon", "coordinates": [[[-3.5958330200517743, 50.545201516114986], [-3.5954147757580834, 50.54570702492438], [-3.5950841909886044, 50.54570083336759], [-3.5946403546927743, 50.54564945297466], [-3.59395440589622, 50.545493017954946], [-3.593849824040492, 50.54520262044303], [-3.5940815648016335, 50.54473048098876], [-3.595626453427901, 50.54497269436207], [-3.5958330200517743, 50.545201516114986]]]}}, {"type": "Feature", "properties": {"type": "postcode-cell", "postcode": "TQ12 3SB", "postcodes": ["TQ12 3SB"]}, "geometry": {"type": "Polygon", "coordinates": [[[-3.596422036202609, 50.543506582744286], [-3.595776878346761, 50.543533962666345], [-3.5954532118582203, 50.54346981843398], [-3.595295594913871, 50.54337181501421], [-3.5947705012058084, 50.54173526344227], [-3.596700635115192, 50.5419061779859], [-3.596422036202609, 50.543506582744286]]]}}, {"type": "Feature", "properties": {"type": "postcode-cell", "postcode": "TQ12 3TD", "postcodes": ["TQ12 3TD"]}, "geometry": {"type": "Polygon", "coordinates": [[[-3.595295594913871, 50.54337181501421], [-3.5950423064173127, 50.543357149580714], [-3.5934863739756953, 50.54299011166255], [-3.5928637770815786, 50.54093725578229], [-3.5930480805913985, 50.54056578460069], [-3.5947705012058084, 50.54173526344227], [-3.595295594913871, 50.54337181501421]]]}}, {"type": "Feature", "properties": {"type": "postcode-cell", "postcode": "TQ12 3YN", "postcodes": ["TQ12 3YN"]}, "geometry": {"type": "Polygon", "coordinates": [[[-3.5962260606128438, 50.55445330404912], [-3.5952086877517586, 50.55516833719575], [-3.594767479888445, 50.55512096061008], [-3.594855195503481, 50.55386308021294], [-3.5957982392638033, 50.55384115377508], [-3.5962260606128438, 50.55445330404912]]]}}, {"type": "Feature", "properties": {"type": "postcode-cell", "postcode": "TQ12 3TL", "postcodes": ["TQ12 3TL"]}, "geometry": {"type": "Polygon", "coordinates": [[[-3.5942235497265758, 50.55866682212324], [-3.5958571989075248, 50.55851180998921], [-3.595979989867444, 50.55987999461445], [-3.5956084527612835, 50.55995395317151], [-3.5942235497265758, 50.55866682212324]]]}}, {"type": "Feature", "properties": {"type": "postcode-cell", "postcode": "TQ12 3GU", "postcodes": ["TQ12 3GU"]}, "geometry": {"type": "Polygon", "coordinates": [[[-3.582747659016278, 50.575932633859715], [-3.5887231514666356, 50.57558314686612], [-3.595198995879341, 50.576573900701106], [-3.5946399898579875, 50.57795999462851], [-3.5907599898528333, 50.583629994633], [-3.589898465876501, 50.58441176194336], [-3.582747659016278, 50.575932633859715]]]}}, {"type": "Feature", "properties": {"type": "postcode-cell", "postcode": "TQ12 3RY", "postcodes": ["TQ12 3RY"]}, "geometry": {"type": "Polygon", "coordinates": [[[-3.5930981824921533, 50.57042105704638], [-3.597895376213041, 50.568442870123064], [-3.598067717291341, 50.568488943847846], [-3.597369989862938, 50.57118999462321], [-3.5968822326190675, 50.572399704504456], [-3.5930981824921533, 50.57042105704638]]]}}, {"type": "Feature", "properties": {"type": "postcode-cell", "postcode": "TQ12 3GS", "postcodes": ["TQ12 3GS"]}, "geometry": {"type": "Polygon", "coordinates": [[[-3.5968822326190675, 50.572399704504456], [-3.595198995879341, 50.576573900701106], [-3.5887231514666356, 50.57558314686612], [-3.591923031847725, 50.570142581568426], [-3.5930981824921533, 50.57042105704638], [-3.5968822326190675, 50.572399704504456]]]}}, {"type": "Feature", "properties": {"type": "postcode-cell", "postcode": "TQ12 3ST", "postcodes": ["TQ12 3ST"]}, "geometry": {"type": "Polygon", "coordinates": [[[-3.5954532118582203, 50.54346981843398], [-3.5940123602325325, 50.54452939877033], [-3.5935592534408554, 50.544388468739456], [-3.593187579466934, 50.544093451101354], [-3.5932522293358136, 50.543758183804655], [-3.5950423064173127, 50.543357149580714], [-3.595295594913871, 50.54337181501421], [-3.5954532118582203, 50.54346981843398]]]}}, {"type": "Feature", "properties": {"type": "postcode-cell", "postcode": "TQ12 3YU", "postcodes": ["TQ12 3YU"]}, "geometry": {"type": "Polygon", "coordinates": [[[-3.5964808736041616, 50.55633863670901], [-3.5956999898687556, 50.55675999461201], [-3.59576151461361, 50.55744559610259], [-3.594352166216192, 50.55747248661402], [-3.5939761057892623, 50.55702862318125], [-3.5940937080325503, 50.55646499253693], [-3.594283509628668, 50.556398427494464], [-3.59642553917447, 50.55631222173091], [-3.5964808736041616, 50.55633863670901]]]}}, {"type": "Feature", "properties": {"type": "postcode-cell", "postcode": "TQ12 3LR", "postcodes": ["TQ12 3LR"]}, "geometry": {"type": "Polygon", "coordinates": [[[-3.5934456120443636, 50.553130108330976], [-3.593414730709269, 50.553121415412605], [-3.593590909826481, 50.55208563573719], [-3.5954323086795745, 50.55180566721464], [-3.5959023047986745, 50.552456607655664], [-3.5934456120443636, 50.553130108330976]]]}}, {"type": "Feature", "properties": {"type": "postcode-cell", "postcode": "TQ12 3RL", "postcodes": ["TQ12 3RL"]}, "geometry": {"type": "Polygon", "coordinates": [[[-3.593590909826481, 50.55208563573719], [-3.5930935469800094, 50.551358140464345], [-3.5931092251105277, 50.55120496319314], [-3.5932730321391726, 50.55103458054255], [-3.593444696401647, 50.55092585430578], [-3.595059989870955, 50.55128999460781], [-3.5954323086795745, 50.55180566721464], [-3.593590909826481, 50.55208563573719]]]}}, {"type": "Feature", "properties": {"type": "postcode-cell", "postcode": "TQ12 3QD", "postcodes": ["TQ12 3QD"]}, "geometry": {"type": "Polygon", "coordinates": [[[-3.5928919294265294, 50.56569769059865], [-3.5923906109554635, 50.56575178165438], [-3.5901914074903067, 50.5613976549626], [-3.5911187753109015, 50.56026860901831], [-3.594328055506107, 50.560946233052746], [-3.596109989865821, 50.563459994617226], [-3.59628258678795, 50.5640504930736], [-3.5928919294265294, 50.56569769059865]]]}}, {"type": "Feature", "properties": {"type": "postcode-cell", "postcode": "TQ12 3GR", "postcodes": ["TQ12 3GR"]}, "geometry": {"type": "Polygon", "coordinates": [[[-3.597895376213041, 50.568442870123064], [-3.5930981824921533, 50.57042105704638], [-3.591923031847725, 50.570142581568426], [-3.5890658513412, 50.56722548886601], [-3.5923906109554635, 50.56575178165438], [-3.5928919294265294, 50.56569769059865], [-3.597895376213041, 50.568442870123064]]]}}, {"type": "Feature", "properties": {"type": "postcode-cell", "postcode": "TQ12 3YS", "postcodes": ["TQ12 3YS"]}, "geometry": {"type": "Polygon", "coordinates": [[[-3.59642553917447, 50.55631222173091], [-3.594283509628668, 50.556398427494464], [-3.5945839623490548, 50.5551468368313], [-3.594767479888445, 50.55512096061008], [-3.5952086877517586, 50.55516833719575], [-3.596109846561219, 50.555858246650715], [-3.59642553917447, 50.55631222173091]]]}}, {"type": "Feature", "properties": {"type": "postcode-cell", "postcode": "TQ12 3AS", "postcodes": ["TQ12 3AS"]}, "geometry": {"type": "MultiPolygon", "coordinates": [[[[-3.5958929521243155, 50.54637315705438], [-3.5944331654671204, 50.54639657619297], [-3.5950841909886044, 50.54570083336759], [-3.5954147757580834, 50.54570702492438], [-3.5958929521243155, 50.54637315705438]]], [[[-3.594102796928134, 50.546749627787925], [-3.59418332931881, 50.54666356662136], [-3.5941608296319973, 50.54682532736547], [-3.594102796928134, 50.546749627787925]]]]}}, {"type": "Feature", "properties": {"type": "postcode-cell", "postcode": "TQ12 3FG", "postcodes": ["TQ12 3FG"]}, "geometry": {"type": "MultiPolygon", "coordinates": [[[[-3.5950841909886044, 50.54570083336759], [-3.5944331654671204, 50.54639657619297], [-3.594249405515464, 50.546399522928034], [-3.5946403546927743, 50.54564945297466], [-3.5950841909886044, 50.54570083336759]]], [[[-3.594102796928134, 50.546749627787925], [-3.5940789486737135, 50.54672655147358], [-3.594209372577668, 50.54647632820611], [-3.59418332931881, 50.54666356662136], [-3.594102796928134, 50.546749627787925]]]]}}, {"type": "Feature", "properties": {"type": "postcode-cell", "postcode": "TQ12 3TT", "postcodes": ["TQ12 3TT"]}, "geometry": {"type": "Polygon", "coordinates": [[[-3.5956084527612835, 50.55995395317151], [-3.593869989865911, 50.56029999461482], [-3.594328055506107, 50.560946233052746], [-3.5911187753109015, 50.56026860901831], [-3.5910808208761558, 50.5601412658963], [-3.5941675865168765, 50.55865904512053], [-3.5942235497265758, 50.55866682212324], [-3.5956084527612835, 50.55995395317151]]]}}, {"type": "Feature", "properties": {"type": "postcode-cell", "postcode": "TQ12 3YT", "postcodes": ["TQ12 3YT"]}, "geometry": {"type": "Polygon", "coordinates": [[[-3.594283509628668, 50.556398427494464], [-3.5940937080325503, 50.55646499253693], [-3.5931919071087894, 50.556123708872086], [-3.593109766038138, 50.55531530719471], [-3.5935862318064897, 50.55502062399844], [-3.5945839623490548, 50.5551468368313], [-3.594283509628668, 50.556398427494464]]]}}, {"type": "Feature", "properties": {"type": "postcode-cell", "postcode": "TQ12 3YR", "postcodes": ["TQ12 3YR"]}, "geometry": {"type": "Polygon", "coordinates": [[[-3.594855195503481, 50.55386308021294], [-3.594767479888445, 50.55512096061008], [-3.5945839623490548, 50.5551468368313], [-3.5935862318064897, 50.55502062399844], [-3.5935260374618103, 50.55486539294372], [-3.5940652853470167, 50.553654872744545], [-3.594855195503481, 50.55386308021294]]]}}, {"type": "Feature", "properties": {"type": "postcode-cell", "postcode": "TQ12 3QX", "postcodes": ["TQ12 3QX"]}, "geometry": {"type": "Polygon", "coordinates": [[[-3.594352166216192, 50.55747248661402], [-3.593998057649233, 50.557964851391475], [-3.5901407714173303, 50.55746058450529], [-3.5939761057892623, 50.55702862318125], [-3.594352166216192, 50.55747248661402]]]}}, {"type": "Feature", "properties": {"type": "postcode-cell", "postcode": "TQ12 3AT", "postcodes": ["TQ12 3AT"]}, "geometry": {"type": "Polygon", "coordinates": [[[-3.5946403546927743, 50.54564945297466], [-3.594249405515464, 50.546399522928034], [-3.594219989872757, 50.546399994604016], [-3.594209372577668, 50.54647632820611], [-3.5940789486737135, 50.54672655147358], [-3.593773575413049, 50.546498756000325], [-3.5935526819744705, 50.54581749192649], [-3.59395440589622, 50.545493017954946], [-3.5946403546927743, 50.54564945297466]]]}}, {"type": "Feature", "properties": {"type": "postcode-cell", "postcode": "TQ12 3AY", "postcodes": ["TQ12 3AY"]}, "geometry": {"type": "Polygon", "coordinates": [[[-3.594102796928134, 50.546749627787925], [-3.5941608296319973, 50.54682532736547], [-3.594111269816916, 50.54718163238253], [-3.59261663558671, 50.547303115064295], [-3.5927193815861007, 50.54663284617214], [-3.5933037808918353, 50.54649989553912], [-3.593773575413049, 50.546498756000325], [-3.5940789486737135, 50.54672655147358], [-3.594102796928134, 50.546749627787925]]]}}, {"type": "Feature", "properties": {"type": "postcode-cell", "postcode": "TQ12 3QG", "postcodes": ["TQ12 3QG"]}, "geometry": {"type": "Polygon", "coordinates": [[[-3.5940652853470167, 50.553654872744545], [-3.5935260374618103, 50.55486539294372], [-3.591352505000327, 50.553722398824306], [-3.5918485099797315, 50.553271741049095], [-3.593414730709269, 50.553121415412605], [-3.5934456120443636, 50.553130108330976], [-3.5940652853470167, 50.553654872744545]]]}}, {"type": "Feature", "properties": {"type": "postcode-cell", "postcode": "TQ12 3NE", "postcodes": ["TQ12 3NE"]}, "geometry": {"type": "Polygon", "coordinates": [[[-3.5928694492978064, 50.54947401186979], [-3.592915954491248, 50.54836328527638], [-3.5939816227998067, 50.54811369231756], [-3.593849989871255, 50.5490599946061], [-3.5933719291168895, 50.54965380461574], [-3.5928694492978064, 50.54947401186979]]]}}, {"type": "Feature", "properties": {"type": "postcode-cell", "postcode": "TQ12 3GT", "postcodes": ["TQ12 3GT"]}, "geometry": {"type": "Polygon", "coordinates": [[[-3.591923031847725, 50.570142581568426], [-3.5887231514666356, 50.57558314686612], [-3.582747659016278, 50.575932633859715], [-3.580664698242706, 50.575513532316], [-3.578956458669025, 50.571551669389024], [-3.5838227286069606, 50.56732277921592], [-3.5890658513412, 50.56722548886601], [-3.591923031847725, 50.570142581568426]]]}}, {"type": "Feature", "properties": {"type": "postcode-cell", "postcode": "TQ12 3SA", "postcodes": ["TQ12 3SA"]}, "geometry": {"type": "Polygon", "coordinates": [[[-3.5928637770815786, 50.54093725578229], [-3.591611935990224, 50.54238098159483], [-3.59069740033816, 50.542657875926864], [-3.5898915601679744, 50.54190606039718], [-3.592990894303386, 50.54035503960381], [-3.5930480805913985, 50.54056578460069], [-3.5928637770815786, 50.54093725578229]]]}}, {"type": "Feature", "properties": {"type": "postcode-cell", "postcode": "TQ12 3BG", "postcodes": ["TQ12 3BG"]}, "geometry": {"type": "Polygon", "coordinates": [[[-3.5940815648016335, 50.54473048098876], [-3.593849824040492, 50.54520262044303], [-3.592522033242217, 50.54508212481101], [-3.59245335985371, 50.544818690842376], [-3.5935592534408554, 50.544388468739456], [-3.5940123602325325, 50.54452939877033], [-3.5940815648016335, 50.54473048098876]]]}}, {"type": "Feature", "properties": {"type": "postcode-cell", "postcode": "TQ12 3FH", "postcodes": ["TQ12 3FH"]}, "geometry": {"type": "Polygon", "coordinates": [[[-3.592915954491248, 50.54836328527638], [-3.59223034230017, 50.5479710805126], [-3.592559701878953, 50.54732299585185], [-3.59261663558671, 50.547303115064295], [-3.594111269816916, 50.54718163238253], [-3.5939816227998067, 50.54811369231756], [-3.592915954491248, 50.54836328527638]]]}}, {"type": "Feature", "properties": {"type": "postcode-cell", "postcode": "TQ12 3BL", "postcodes": ["TQ12 3BL"]}, "geometry": {"type": "Polygon", "coordinates": [[[-3.59395440589622, 50.545493017954946], [-3.5935526819744705, 50.54581749192649], [-3.592116551227972, 50.54587736641986], [-3.592045308178925, 50.5458530809015], [-3.592023220663065, 50.545722151163595], [-3.5921352369097708, 50.54546004086067], [-3.592522033242217, 50.54508212481101], [-3.593849824040492, 50.54520262044303], [-3.59395440589622, 50.545493017954946]]]}}, {"type": "Feature", "properties": {"type": "postcode-cell", "postcode": "TQ12 3UD", "postcodes": ["TQ12 3UD"]}, "geometry": {"type": "Polygon", "coordinates": [[[-3.593187579466934, 50.544093451101354], [-3.59279827887534, 50.54411596391305], [-3.591649277765559, 50.54387635995879], [-3.592245861040047, 50.5432759993401], [-3.592817853822981, 50.54332245251001], [-3.5932522293358136, 50.543758183804655], [-3.593187579466934, 50.544093451101354]]]}}, {"type": "Feature", "properties": {"type": "postcode-cell", "postcode": "TQ12 3UA", "postcodes": ["TQ12 3UA"]}, "geometry": {"type": "Polygon", "coordinates": [[[-3.5932522293358136, 50.543758183804655], [-3.592817853822981, 50.54332245251001], [-3.5934863739756953, 50.54299011166255], [-3.5950423064173127, 50.543357149580714], [-3.5932522293358136, 50.543758183804655]]]}}, {"type": "Feature", "properties": {"type": "postcode-cell", "postcode": "TQ12 3QP", "postcodes": ["TQ12 3QP"]}, "geometry": {"type": "Polygon", "coordinates": [[[-3.5941675865168765, 50.55865904512053], [-3.5910808208761558, 50.5601412658963], [-3.5889736406511696, 50.557900420181944], [-3.5893218989711615, 50.55745580424736], [-3.5901407714173303, 50.55746058450529], [-3.593998057649233, 50.557964851391475], [-3.5941675865168765, 50.55865904512053]]]}}, {"type": "Feature", "properties": {"type": "postcode-cell", "postcode": "TQ12 3LP", "postcodes": ["TQ12 3LP"]}, "geometry": {"type": "Polygon", "coordinates": [[[-3.593590909826481, 50.55208563573719], [-3.593414730709269, 50.553121415412605], [-3.5918485099797315, 50.553271741049095], [-3.5912879696309163, 50.552407963082366], [-3.5930935469800094, 50.551358140464345], [-3.593590909826481, 50.55208563573719]]]}}, {"type": "Feature", "properties": {"type": "postcode-cell", "postcode": "TQ12 3YZ", "postcodes": ["TQ12 3YZ"]}, "geometry": {"type": "Polygon", "coordinates": [[[-3.5935862318064897, 50.55502062399844], [-3.593109766038138, 50.55531530719471], [-3.5930079073754526, 50.55531071883542], [-3.5902744865952867, 50.55436396256887], [-3.5906040414809226, 50.55410657555041], [-3.591352505000327, 50.553722398824306], [-3.5935260374618103, 50.55486539294372], [-3.5935862318064897, 50.55502062399844]]]}}, {"type": "Feature", "properties": {"type": "postcode-cell", "postcode": "TQ12 3GB", "postcodes": ["TQ12 3GB"]}, "geometry": {"type": "Polygon", "coordinates": [[[-3.59245335985371, 50.544818690842376], [-3.5922788729669324, 50.544695120792866], [-3.59279827887534, 50.54411596391305], [-3.593187579466934, 50.544093451101354], [-3.5935592534408554, 50.544388468739456], [-3.59245335985371, 50.544818690842376]]]}}, {"type": "Feature", "properties": {"type": "postcode-cell", "postcode": "TQ12 3AU", "postcodes": ["TQ12 3AU"]}, "geometry": {"type": "Polygon", "coordinates": [[[-3.593773575413049, 50.546498756000325], [-3.5933037808918353, 50.54649989553912], [-3.592148791754477, 50.54591902371732], [-3.592116551227972, 50.54587736641986], [-3.5935526819744705, 50.54581749192649], [-3.593773575413049, 50.546498756000325]]]}}, {"type": "Feature", "properties": {"type": "postcode-cell", "postcode": "TQ12 3AX", "postcodes": ["TQ12 3AX"]}, "geometry": {"type": "Polygon", "coordinates": [[[-3.5933037808918353, 50.54649989553912], [-3.5927193815861007, 50.54663284617214], [-3.5923956263738406, 50.54641146597955], [-3.592148791754477, 50.54591902371732], [-3.5933037808918353, 50.54649989553912]]]}}, {"type": "Feature", "properties": {"type": "postcode-cell", "postcode": "TQ12 3AZ", "postcodes": ["TQ12 3AZ"]}, "geometry": {"type": "Polygon", "coordinates": [[[-3.59261663558671, 50.547303115064295], [-3.592559701878953, 50.54732299585185], [-3.5918389523712757, 50.5470077777495], [-3.5923956263738406, 50.54641146597955], [-3.5927193815861007, 50.54663284617214], [-3.59261663558671, 50.547303115064295]]]}}, {"type": "Feature", "properties": {"type": "postcode-cell", "postcode": "TQ12 3QS", "postcodes": ["TQ12 3QS"]}, "geometry": {"type": "Polygon", "coordinates": [[[-3.5939761057892623, 50.55702862318125], [-3.5901407714173303, 50.55746058450529], [-3.5893218989711615, 50.55745580424736], [-3.5893512893102413, 50.55734190524247], [-3.5931919071087894, 50.556123708872086], [-3.5940937080325503, 50.55646499253693], [-3.5939761057892623, 50.55702862318125]]]}}, {"type": "Feature", "properties": {"type": "postcode-cell", "postcode": "TQ12 3UB", "postcodes": ["TQ12 3UB"]}, "geometry": {"type": "Polygon", "coordinates": [[[-3.5928637770815786, 50.54093725578229], [-3.5934863739756953, 50.54299011166255], [-3.592817853822981, 50.54332245251001], [-3.592245861040047, 50.5432759993401], [-3.591611935990224, 50.54238098159483], [-3.5928637770815786, 50.54093725578229]]]}}, {"type": "Feature", "properties": {"type": "postcode-cell", "postcode": "TQ12 3HT", "postcodes": ["TQ12 3HT"]}, "geometry": {"type": "Polygon", "coordinates": [[[-3.5932730321391726, 50.55103458054255], [-3.5918973514506445, 50.550489969061815], [-3.5920460022706346, 50.549523138498984], [-3.5928694492978064, 50.54947401186979], [-3.5933719291168895, 50.54965380461574], [-3.5928999898700917, 50.55023999460702], [-3.5933299898700506, 50.550899994607526], [-3.593444696401647, 50.55092585430578], [-3.5932730321391726, 50.55103458054255]]]}}, {"type": "Feature", "properties": {"type": "postcode-cell", "postcode": "TQ12 3FP", "postcodes": ["TQ12 3FP"]}, "geometry": {"type": "Polygon", "coordinates": [[[-3.592148791754477, 50.54591902371732], [-3.5923956263738406, 50.54641146597955], [-3.5918389523712757, 50.5470077777495], [-3.59165337907384, 50.54696983866403], [-3.5910711325366784, 50.546247040657114], [-3.592045308178925, 50.5458530809015], [-3.592116551227972, 50.54587736641986], [-3.592148791754477, 50.54591902371732]]]}}, {"type": "Feature", "properties": {"type": "postcode-cell", "postcode": "TQ12 3BE", "postcodes": ["TQ12 3BE"]}, "geometry": {"type": "Polygon", "coordinates": [[[-3.5922788729669324, 50.544695120792866], [-3.5915182188082024, 50.54443551254866], [-3.591427064635445, 50.54408847422756], [-3.5915808366127338, 50.54390425617156], [-3.591649277765559, 50.54387635995879], [-3.59279827887534, 50.54411596391305], [-3.5922788729669324, 50.544695120792866]]]}}, {"type": "Feature", "properties": {"type": "postcode-cell", "postcode": "TQ12 3BD", "postcodes": ["TQ12 3BD"]}, "geometry": {"type": "Polygon", "coordinates": [[[-3.59245335985371, 50.544818690842376], [-3.592522033242217, 50.54508212481101], [-3.5921352369097708, 50.54546004086067], [-3.59130461943569, 50.544795460166405], [-3.5913055455561493, 50.54466096786493], [-3.5915182188082024, 50.54443551254866], [-3.5922788729669324, 50.544695120792866], [-3.59245335985371, 50.544818690842376]]]}}, {"type": "Feature", "properties": {"type": "postcode-cell", "postcode": "TQ12 3GY", "postcodes": ["TQ12 3GY"]}, "geometry": {"type": "Polygon", "coordinates": [[[-3.5913055455561493, 50.54466096786493], [-3.5896844829339165, 50.544845318593914], [-3.590460268867922, 50.5441088244864], [-3.591427064635445, 50.54408847422756], [-3.5915182188082024, 50.54443551254866], [-3.5913055455561493, 50.54466096786493]]]}}, {"type": "Feature", "properties": {"type": "postcode-cell", "postcode": "TQ12 3YY", "postcodes": ["TQ12 3YY"]}, "geometry": {"type": "Polygon", "coordinates": [[[-3.5931919071087894, 50.556123708872086], [-3.5893512893102413, 50.55734190524247], [-3.5892785685144477, 50.55643292550038], [-3.5930079073754526, 50.55531071883542], [-3.593109766038138, 50.55531530719471], [-3.5931919071087894, 50.556123708872086]]]}}, {"type": "Feature", "properties": {"type": "postcode-cell", "postcode": "TQ12 3FL", "postcodes": ["TQ12 3FL"]}, "geometry": {"type": "Polygon", "coordinates": [[[-3.5893512893102413, 50.55734190524247], [-3.5893218989711615, 50.55745580424736], [-3.5889736406511696, 50.557900420181944], [-3.5778799322169017, 50.55930557914729], [-3.5724800715881275, 50.55701061952973], [-3.579798402263128, 50.55431983446434], [-3.586690467829252, 50.5545957564931], [-3.58892000943829, 50.555222848282696], [-3.5892785685144477, 50.55643292550038], [-3.5893512893102413, 50.55734190524247]]]}}, {"type": "Feature", "properties": {"type": "postcode-cell", "postcode": "TQ12 3QE", "postcodes": ["TQ12 3QE"]}, "geometry": {"type": "Polygon", "coordinates": [[[-3.5911187753109015, 50.56026860901831], [-3.5901914074903067, 50.5613976549626], [-3.5816984732586725, 50.56270763569035], [-3.5778799322169017, 50.55930557914729], [-3.5889736406511696, 50.557900420181944], [-3.5910808208761558, 50.5601412658963], [-3.5911187753109015, 50.56026860901831]]]}}, {"type": "Feature", "properties": {"type": "postcode-cell", "postcode": "TQ12 3QT", "postcodes": ["TQ12 3QT"]}, "geometry": {"type": "Polygon", "coordinates": [[[-3.5915808366127338, 50.54390425617156], [-3.5903474025341544, 50.54307254743993], [-3.5904995666708674, 50.54277321875155], [-3.59069740033816, 50.542657875926864], [-3.591611935990224, 50.54238098159483], [-3.592245861040047, 50.5432759993401], [-3.591649277765559, 50.54387635995879], [-3.5915808366127338, 50.54390425617156]]]}}, {"type": "Feature", "properties": {"type": "postcode-cell", "postcode": "TQ12 3LA", "postcodes": ["TQ12 3LA"]}, "geometry": {"type": "Polygon", "coordinates": [[[-3.591352505000327, 50.553722398824306], [-3.5906040414809226, 50.55410657555041], [-3.589186476601032, 50.55242220917252], [-3.589713630374501, 50.55212582168478], [-3.5910286279803256, 50.55225310043468], [-3.5912879696309163, 50.552407963082366], [-3.5918485099797315, 50.553271741049095], [-3.591352505000327, 50.553722398824306]]]}}, {"type": "Feature", "properties": {"type": "postcode-cell", "postcode": "TQ12 3BP", "postcodes": ["TQ12 3BP"]}, "geometry": {"type": "Polygon", "coordinates": [[[-3.5928694492978064, 50.54947401186979], [-3.5920460022706346, 50.549523138498984], [-3.591610240842946, 50.549474666741396], [-3.591216293871868, 50.54922203358043], [-3.591088794296246, 50.54905914285927], [-3.591450081056647, 50.54808398973777], [-3.59223034230017, 50.5479710805126], [-3.592915954491248, 50.54836328527638], [-3.5928694492978064, 50.54947401186979]]]}}, {"type": "Feature", "properties": {"type": "postcode-cell", "postcode": "TQ12 3LN", "postcodes": ["TQ12 3LN"]}, "geometry": {"type": "Polygon", "coordinates": [[[-3.5931092251105277, 50.55120496319314], [-3.5911224803915607, 50.55113513971958], [-3.5908212370780115, 50.55088086448771], [-3.5918973514506445, 50.550489969061815], [-3.5932730321391726, 50.55103458054255], [-3.5931092251105277, 50.55120496319314]]]}}, {"type": "Feature", "properties": {"type": "postcode-cell", "postcode": "TQ12 3EA", "postcodes": ["TQ12 3EA"]}, "geometry": {"type": "Polygon", "coordinates": [[[-3.5930935469800094, 50.551358140464345], [-3.5912879696309163, 50.552407963082366], [-3.5910286279803256, 50.55225310043468], [-3.5911224803915607, 50.55113513971958], [-3.5931092251105277, 50.55120496319314], [-3.5930935469800094, 50.551358140464345]]]}}, {"type": "Feature", "properties": {"type": "postcode-cell", "postcode": "TQ12 3BU", "postcodes": ["TQ12 3BU"]}, "geometry": {"type": "Polygon", "coordinates": [[[-3.59223034230017, 50.5479710805126], [-3.591450081056647, 50.54808398973777], [-3.5910582200029655, 50.54791935928572], [-3.5908900784796205, 50.54736862771919], [-3.59165337907384, 50.54696983866403], [-3.5918389523712757, 50.5470077777495], [-3.592559701878953, 50.54732299585185], [-3.59223034230017, 50.5479710805126]]]}}, {"type": "Feature", "properties": {"type": "postcode-cell", "postcode": "TQ12 3YX", "postcodes": ["TQ12 3YX"]}, "geometry": {"type": "Polygon", "coordinates": [[[-3.5930079073754526, 50.55531071883542], [-3.5892785685144477, 50.55643292550038], [-3.58892000943829, 50.555222848282696], [-3.589482239505817, 50.55475403161544], [-3.5902744865952867, 50.55436396256887], [-3.5930079073754526, 50.55531071883542]]]}}, {"type": "Feature", "properties": {"type": "postcode-cell", "postcode": "TQ12 3LB", "postcodes": ["TQ12 3LB"]}, "geometry": {"type": "Polygon", "coordinates": [[[-3.589482239505817, 50.55475403161544], [-3.588250340623541, 50.55260032946953], [-3.589186476601032, 50.55242220917252], [-3.5906040414809226, 50.55410657555041], [-3.5902744865952867, 50.55436396256887], [-3.589482239505817, 50.55475403161544]]]}}, {"type": "Feature", "properties": {"type": "postcode-cell", "postcode": "TQ12 3DH", "postcodes": ["TQ12 3DH"]}, "geometry": {"type": "Polygon", "coordinates": [[[-3.5918973514506445, 50.550489969061815], [-3.5908212370780115, 50.55088086448771], [-3.590220651867596, 50.55062588401877], [-3.591610240842946, 50.549474666741396], [-3.5920460022706346, 50.549523138498984], [-3.5918973514506445, 50.550489969061815]]]}}, {"type": "Feature", "properties": {"type": "postcode-cell", "postcode": "TQ12 3AG", "postcodes": ["TQ12 3AG"]}, "geometry": {"type": "Polygon", "coordinates": [[[-3.592023220663065, 50.545722151163595], [-3.5909590876813957, 50.545250231741875], [-3.59130461943569, 50.544795460166405], [-3.5921352369097708, 50.54546004086067], [-3.592023220663065, 50.545722151163595]]]}}, {"type": "Feature", "properties": {"type": "postcode-cell", "postcode": "TQ12 3LW", "postcodes": ["TQ12 3LW"]}, "geometry": {"type": "Polygon", "coordinates": [[[-3.5911224803915607, 50.55113513971958], [-3.5910286279803256, 50.55225310043468], [-3.589713630374501, 50.55212582168478], [-3.589306457082255, 50.551294420584156], [-3.5893114475698797, 50.55128477249024], [-3.589848389151308, 50.55074893787755], [-3.5901705429716744, 50.55062608862382], [-3.590220651867596, 50.55062588401877], [-3.5908212370780115, 50.55088086448771], [-3.5911224803915607, 50.55113513971958]]]}}, {"type": "Feature", "properties": {"type": "postcode-cell", "postcode": "TQ12 3BT", "postcodes": ["TQ12 3BT"]}, "geometry": {"type": "Polygon", "coordinates": [[[-3.591088794296246, 50.54905914285927], [-3.5897319742252654, 50.54871688578559], [-3.5899285800548646, 50.54814213079528], [-3.5900179140468245, 50.548053786023154], [-3.5910582200029655, 50.54791935928572], [-3.591450081056647, 50.54808398973777], [-3.591088794296246, 50.54905914285927]]]}}, {"type": "Feature", "properties": {"type": "postcode-cell", "postcode": "TQ12 3SR", "postcodes": ["TQ12 3SR"]}, "geometry": {"type": "Polygon", "coordinates": [[[-3.592045308178925, 50.5458530809015], [-3.5910711325366784, 50.546247040657114], [-3.5907437922011507, 50.54624185740921], [-3.5897740356689987, 50.54543461632228], [-3.5909590876813957, 50.545250231741875], [-3.592023220663065, 50.545722151163595], [-3.592045308178925, 50.5458530809015]]]}}, {"type": "Feature", "properties": {"type": "postcode-cell", "postcode": "TQ12 3SW", "postcodes": ["TQ12 3SW"]}, "geometry": {"type": "Polygon", "coordinates": [[[-3.5904995666708674, 50.54277321875155], [-3.5904659559138454, 50.542764353912844], [-3.5890431796175797, 50.5419381440613], [-3.589238720804027, 50.54185214666127], [-3.5898915601679744, 50.54190606039718], [-3.59069740033816, 50.542657875926864], [-3.5904995666708674, 50.54277321875155]]]}}, {"type": "Feature", "properties": {"type": "postcode-cell", "postcode": "TQ12 3SP", "postcodes": ["TQ12 3SP"]}, "geometry": {"type": "Polygon", "coordinates": [[[-3.59130461943569, 50.544795460166405], [-3.5909590876813957, 50.545250231741875], [-3.5897740356689987, 50.54543461632228], [-3.589156831546587, 50.54521392826139], [-3.589075314525395, 50.545135000260245], [-3.5896844829339165, 50.544845318593914], [-3.5913055455561493, 50.54466096786493], [-3.59130461943569, 50.544795460166405]]]}}, {"type": "Feature", "properties": {"type": "postcode-cell", "postcode": "TQ12 3RT", "postcodes": ["TQ12 3RT"]}, "geometry": {"type": "Polygon", "coordinates": [[[-3.591610240842946, 50.549474666741396], [-3.590220651867596, 50.55062588401877], [-3.5901705429716744, 50.55062608862382], [-3.589840600784243, 50.55017501615954], [-3.589940733346353, 50.54956686000972], [-3.591216293871868, 50.54922203358043], [-3.591610240842946, 50.549474666741396]]]}}, {"type": "Feature", "properties": {"type": "postcode-cell", "postcode": "TQ12 3BX", "postcodes": ["TQ12 3BX"]}, "geometry": {"type": "Polygon", "coordinates": [[[-3.59165337907384, 50.54696983866403], [-3.5908900784796205, 50.54736862771919], [-3.5903303543908383, 50.547136890786774], [-3.590058326305558, 50.54675484785008], [-3.5907437922011507, 50.54624185740921], [-3.5910711325366784, 50.546247040657114], [-3.59165337907384, 50.54696983866403]]]}}, {"type": "Feature", "properties": {"type": "postcode-cell", "postcode": "TQ12 3DR", "postcodes": ["TQ12 3DR"]}, "geometry": {"type": "Polygon", "coordinates": [[[-3.590058326305558, 50.54675484785008], [-3.5898478066868544, 50.54675652582173], [-3.5889975228952786, 50.54579221583262], [-3.589156831546587, 50.54521392826139], [-3.5897740356689987, 50.54543461632228], [-3.5907437922011507, 50.54624185740921], [-3.590058326305558, 50.54675484785008]]]}}, {"type": "Feature", "properties": {"type": "postcode-cell", "postcode": "TQ12 3DQ", "postcodes": ["TQ12 3DQ"]}, "geometry": {"type": "Polygon", "coordinates": [[[-3.5910582200029655, 50.54791935928572], [-3.5900179140468245, 50.548053786023154], [-3.5897113248205694, 50.54766126357589], [-3.5903303543908383, 50.547136890786774], [-3.5908900784796205, 50.54736862771919], [-3.5910582200029655, 50.54791935928572]]]}}, {"type": "Feature", "properties": {"type": "postcode-cell", "postcode": "TQ12 3SS", "postcodes": ["TQ12 3SS"]}, "geometry": {"type": "Polygon", "coordinates": [[[-3.591427064635445, 50.54408847422756], [-3.590460268867922, 50.5441088244864], [-3.589737168175043, 50.54359400661855], [-3.589716244308796, 50.5434441162732], [-3.5903474025341544, 50.54307254743993], [-3.5915808366127338, 50.54390425617156], [-3.591427064635445, 50.54408847422756]]]}}, {"type": "Feature", "properties": {"type": "postcode-cell", "postcode": "TQ12 3SX", "postcodes": ["TQ12 3SX"]}, "geometry": {"type": "Polygon", "coordinates": [[[-3.5904995666708674, 50.54277321875155], [-3.5903474025341544, 50.54307254743993], [-3.589716244308796, 50.5434441162732], [-3.5890259058938025, 50.543310804543594], [-3.588898185929852, 50.54255561881543], [-3.5888984582210197, 50.54255535450561], [-3.5904659559138454, 50.542764353912844], [-3.5904995666708674, 50.54277321875155]]]}}, {"type": "Feature", "properties": {"type": "postcode-cell", "postcode": "TQ12 3GZ", "postcodes": ["TQ12 3GZ"]}, "geometry": {"type": "Polygon", "coordinates": [[[-3.590460268867922, 50.5441088244864], [-3.5896844829339165, 50.544845318593914], [-3.589075314525395, 50.545135000260245], [-3.588505448629849, 50.54493170599152], [-3.5884886208052382, 50.54491034305118], [-3.589737168175043, 50.54359400661855], [-3.590460268867922, 50.5441088244864]]]}}, {"type": "Feature", "properties": {"type": "postcode-cell", "postcode": "TQ12 3BS", "postcodes": ["TQ12 3BS"]}, "geometry": {"type": "Polygon", "coordinates": [[[-3.591216293871868, 50.54922203358043], [-3.589940733346353, 50.54956686000972], [-3.5893767754255808, 50.549287368941684], [-3.5894700342178796, 50.54891981034241], [-3.5895843416730924, 50.54876403319493], [-3.5897319742252654, 50.54871688578559], [-3.591088794296246, 50.54905914285927], [-3.591216293871868, 50.54922203358043]]]}}, {"type": "Feature", "properties": {"type": "postcode-cell", "postcode": "TQ12 3BZ", "postcodes": ["TQ12 3BZ"]}, "geometry": {"type": "Polygon", "coordinates": [[[-3.5900179140468245, 50.548053786023154], [-3.5899285800548646, 50.54814213079528], [-3.588484364299149, 50.54798940853035], [-3.588940505637792, 50.54745383805658], [-3.5897113248205694, 50.54766126357589], [-3.5900179140468245, 50.548053786023154]]]}}, {"type": "Feature", "properties": {"type": "postcode-cell", "postcode": "TQ12 3BY", "postcodes": ["TQ12 3BY"]}, "geometry": {"type": "Polygon", "coordinates": [[[-3.5897113248205694, 50.54766126357589], [-3.588940505637792, 50.54745383805658], [-3.5887588408799997, 50.546967969766605], [-3.5898478066868544, 50.54675652582173], [-3.590058326305558, 50.54675484785008], [-3.5903303543908383, 50.547136890786774], [-3.5897113248205694, 50.54766126357589]]]}}, {"type": "Feature", "properties": {"type": "postcode-cell", "postcode": "TQ12 3BH", "postcodes": ["TQ12 3BH"]}, "geometry": {"type": "Polygon", "coordinates": [[[-3.589840600784243, 50.55017501615954], [-3.5887567560584523, 50.54965066074393], [-3.5893767754255808, 50.549287368941684], [-3.589940733346353, 50.54956686000972], [-3.589840600784243, 50.55017501615954]]]}}, {"type": "Feature", "properties": {"type": "postcode-cell", "postcode": "TQ12 3RE", "postcodes": ["TQ12 3RE"]}, "geometry": {"type": "Polygon", "coordinates": [[[-3.5901705429716744, 50.55062608862382], [-3.589848389151308, 50.55074893787755], [-3.5883589454426343, 50.55034320564541], [-3.588390895098792, 50.54973267435755], [-3.588544363372424, 50.54967133865956], [-3.5887567560584523, 50.54965066074393], [-3.589840600784243, 50.55017501615954], [-3.5901705429716744, 50.55062608862382]]]}}, {"type": "Feature", "properties": {"type": "postcode-cell", "postcode": "TQ12 3FY", "postcodes": ["TQ12 3FY"]}, "geometry": {"type": "Polygon", "coordinates": [[[-3.5889975228952786, 50.54579221583262], [-3.5883374923945692, 50.546704847836395], [-3.587152916641058, 50.5463992617491], [-3.586948415859603, 50.54602466069989], [-3.5869812420356944, 50.54588701843985], [-3.588505448629849, 50.54493170599152], [-3.589075314525395, 50.545135000260245], [-3.589156831546587, 50.54521392826139], [-3.5889975228952786, 50.54579221583262]]]}}, {"type": "Feature", "properties": {"type": "postcode-cell", "postcode": "TQ12 3SY", "postcodes": ["TQ12 3SY"]}, "geometry": {"type": "Polygon", "coordinates": [[[-3.588898185929852, 50.54255561881543], [-3.587826633551118, 50.54278409898161], [-3.587501767236414, 50.54255651005663], [-3.5881195013964464, 50.54188493760035], [-3.588438664626052, 50.54185602519652], [-3.588889362929832, 50.54197549577896], [-3.5888984582210197, 50.54255535450561], [-3.588898185929852, 50.54255561881543]]]}}, {"type": "Feature", "properties": {"type": "postcode-cell", "postcode": "TQ12 3GH", "postcodes": ["TQ12 3GH"]}, "geometry": {"type": "Polygon", "coordinates": [[[-3.589737168175043, 50.54359400661855], [-3.5884886208052382, 50.54491034305118], [-3.5875518629581005, 50.544287350556836], [-3.587922631520906, 50.54353643061967], [-3.5879667678966625, 50.54349643565413], [-3.5890259058938025, 50.543310804543594], [-3.589716244308796, 50.5434441162732], [-3.589737168175043, 50.54359400661855]]]}}, {"type": "Feature", "properties": {"type": "postcode-cell", "postcode": "TQ12 3SU", "postcodes": ["TQ12 3SU"]}, "geometry": {"type": "Polygon", "coordinates": [[[-3.5904659559138454, 50.542764353912844], [-3.5888984582210197, 50.54255535450561], [-3.588889362929832, 50.54197549577896], [-3.5890431796175797, 50.5419381440613], [-3.5904659559138454, 50.542764353912844]]]}}, {"type": "Feature", "properties": {"type": "postcode-cell", "postcode": "TQ12 3DA", "postcodes": ["TQ12 3DA"]}, "geometry": {"type": "Polygon", "coordinates": [[[-3.5897319742252654, 50.54871688578559], [-3.5895843416730924, 50.54876403319493], [-3.588468320441525, 50.54841818376821], [-3.588324174275216, 50.54824555972955], [-3.588353563833127, 50.548064672553465], [-3.588484364299149, 50.54798940853035], [-3.5899285800548646, 50.54814213079528], [-3.5897319742252654, 50.54871688578559]]]}}, {"type": "Feature", "properties": {"type": "postcode-cell", "postcode": "TQ12 3BA", "postcodes": ["TQ12 3BA"]}, "geometry": {"type": "Polygon", "coordinates": [[[-3.5887588408799997, 50.546967969766605], [-3.5885091171716774, 50.54687417879278], [-3.5883374923945692, 50.546704847836395], [-3.5889975228952786, 50.54579221583262], [-3.5898478066868544, 50.54675652582173], [-3.5887588408799997, 50.546967969766605]]]}}, {"type": "Feature", "properties": {"type": "postcode-cell", "postcode": "TQ12 3DJ", "postcodes": ["TQ12 3DJ"]}, "geometry": {"type": "Polygon", "coordinates": [[[-3.589186476601032, 50.55242220917252], [-3.588250340623541, 50.55260032946953], [-3.5882090745732667, 50.55259269405046], [-3.5874992885314807, 50.551876410519625], [-3.5874906476283583, 50.55167605992352], [-3.589306457082255, 50.551294420584156], [-3.589713630374501, 50.55212582168478], [-3.589186476601032, 50.55242220917252]]]}}, {"type": "Feature", "properties": {"type": "postcode-cell", "postcode": "TQ12 3DF", "postcodes": ["TQ12 3DF"]}, "geometry": {"type": "Polygon", "coordinates": [[[-3.588353563833127, 50.548064672553465], [-3.5876427080858684, 50.54773581521512], [-3.5876523831955196, 50.5474200712544], [-3.5885091171716774, 50.54687417879278], [-3.5887588408799997, 50.546967969766605], [-3.588940505637792, 50.54745383805658], [-3.588484364299149, 50.54798940853035], [-3.588353563833127, 50.548064672553465]]]}}, {"type": "Feature", "properties": {"type": "postcode-cell", "postcode": "TQ12 3DB", "postcodes": ["TQ12 3DB"]}, "geometry": {"type": "Polygon", "coordinates": [[[-3.5895843416730924, 50.54876403319493], [-3.5894700342178796, 50.54891981034241], [-3.588422812614636, 50.54906733751085], [-3.588193970429485, 50.54890346400116], [-3.588468320441525, 50.54841818376821], [-3.5895843416730924, 50.54876403319493]]]}}, {"type": "Feature", "properties": {"type": "postcode-cell", "postcode": "TQ12 3DG", "postcodes": ["TQ12 3DG"]}, "geometry": {"type": "Polygon", "coordinates": [[[-3.5893767754255808, 50.549287368941684], [-3.5887567560584523, 50.54965066074393], [-3.588544363372424, 50.54967133865956], [-3.588422812614636, 50.54906733751085], [-3.5894700342178796, 50.54891981034241], [-3.5893767754255808, 50.549287368941684]]]}}, {"type": "Feature", "properties": {"type": "postcode-cell", "postcode": "TQ12 3SQ", "postcodes": ["TQ12 3SQ"]}, "geometry": {"type": "MultiPolygon", "coordinates": [[[[-3.5887677078111073, 50.53813951139576], [-3.5882899898725293, 50.53902999459843], [-3.586335311681904, 50.53903000253473], [-3.58592040237941, 50.53796680743527], [-3.58697998987234, 50.537699994597425], [-3.5888483200796832, 50.53722892483626], [-3.5887677078111073, 50.53813951139576]]], [[[-3.588438664626052, 50.54185602519652], [-3.5881195013964464, 50.54188493760035], [-3.587322489547021, 50.54155941717685], [-3.586421974455479, 50.53925206737154], [-3.5886873392374756, 50.53904731461391], [-3.588438664626052, 50.54185602519652]]]]}}, {"type": "Feature", "properties": {"type": "postcode-cell", "postcode": "TQ12 3RA", "postcodes": ["TQ12 3RA"]}, "geometry": {"type": "Polygon", "coordinates": [[[-3.589848389151308, 50.55074893787755], [-3.5893114475698797, 50.55128477249024], [-3.587673439772634, 50.550663134055135], [-3.5883589454426343, 50.55034320564541], [-3.589848389151308, 50.55074893787755]]]}}, {"type": "Feature", "properties": {"type": "postcode-cell", "postcode": "TQ12 3QB", "postcodes": ["TQ12 3QB"]}, "geometry": {"type": "Polygon", "coordinates": [[[-3.5890658513412, 50.56722548886601], [-3.5838227286069606, 50.56732277921592], [-3.5816984732586725, 50.56270763569035], [-3.5901914074903067, 50.5613976549626], [-3.5923906109554635, 50.56575178165438], [-3.5890658513412, 50.56722548886601]]]}}, {"type": "Feature", "properties": {"type": "postcode-cell", "postcode": "TQ12 3DZ", "postcodes": ["TQ12 3DZ"]}, "geometry": {"type": "Polygon", "coordinates": [[[-3.5724800715881275, 50.55701061952973], [-3.569196783474967, 50.55663378625376], [-3.5698299898533654, 50.554789994611], [-3.572219989855292, 50.55390999461029], [-3.5759399898576527, 50.553879994610185], [-3.577529989858975, 50.55320999460963], [-3.5779799898604665, 50.550679994607655], [-3.5771699898603564, 50.549839994607034], [-3.576489989860057, 50.54956999460683], [-3.5756199898594265, 50.54973999460697], [-3.5752199898594794, 50.54909999460648], [-3.574940425633813, 50.54902098917854], [-3.5798161114919473, 50.546996659204844], [-3.580521054053706, 50.547380735485085], [-3.582045256219583, 50.54871739985474], [-3.582179150283123, 50.548935347579054], [-3.5825982659171673, 50.55166733859548], [-3.5817471969261256, 50.55288070648944], [-3.579798402263128, 50.55431983446434], [-3.5724800715881275, 50.55701061952973]]]}}, {"type": "Feature", "properties": {"type": "postcode-cell", "postcode": "TQ12 3QH", "postcodes": ["TQ12 3QH"]}, "geometry": {"type": "Polygon", "coordinates": [[[-3.5879667678966625, 50.54349643565413], [-3.587826633551118, 50.54278409898161], [-3.588898185929852, 50.54255561881543], [-3.5890259058938025, 50.543310804543594], [-3.5879667678966625, 50.54349643565413]]]}}, {"type": "Feature", "properties": {"type": "postcode-cell", "postcode": "TQ12 3RW", "postcodes": ["TQ12 3RW"]}, "geometry": {"type": "Polygon", "coordinates": [[[-3.588505448629849, 50.54493170599152], [-3.5869812420356944, 50.54588701843985], [-3.585876127659908, 50.54526590241732], [-3.5859219598576075, 50.544239996837], [-3.5875518629581005, 50.544287350556836], [-3.5884886208052382, 50.54491034305118], [-3.588505448629849, 50.54493170599152]]]}}, {"type": "Feature", "properties": {"type": "postcode-cell", "postcode": "TQ12 3RB", "postcodes": ["TQ12 3RB"]}, "geometry": {"type": "Polygon", "coordinates": [[[-3.5883589454426343, 50.55034320564541], [-3.587673439772634, 50.550663134055135], [-3.586910988220887, 50.55083056840174], [-3.5865384791286403, 50.550624521934544], [-3.5871787105069015, 50.54983044372732], [-3.5875747567710583, 50.549589284364075], [-3.588390895098792, 50.54973267435755], [-3.5883589454426343, 50.55034320564541]]]}}, {"type": "Feature", "properties": {"type": "postcode-cell", "postcode": "TQ12 3GJ", "postcodes": ["TQ12 3GJ"]}, "geometry": {"type": "Polygon", "coordinates": [[[-3.5879667678966625, 50.54349643565413], [-3.587922631520906, 50.54353643061967], [-3.5862755509550928, 50.542937444895784], [-3.586482621137819, 50.54270038235777], [-3.5869536112238887, 50.54252196630432], [-3.587501767236414, 50.54255651005663], [-3.587826633551118, 50.54278409898161], [-3.5879667678966625, 50.54349643565413]]]}}, {"type": "Feature", "properties": {"type": "postcode-cell", "postcode": "TQ12 3RD", "postcodes": ["TQ12 3RD"]}, "geometry": {"type": "Polygon", "coordinates": [[[-3.5874906476283583, 50.55167605992352], [-3.587072925977459, 50.55126297188284], [-3.586910988220887, 50.55083056840174], [-3.587673439772634, 50.550663134055135], [-3.5893114475698797, 50.55128477249024], [-3.589306457082255, 50.551294420584156], [-3.5874906476283583, 50.55167605992352]]]}}, {"type": "Feature", "properties": {"type": "postcode-cell", "postcode": "TQ12 3AB", "postcodes": ["TQ12 3AB"]}, "geometry": {"type": "Polygon", "coordinates": [[[-3.58892000943829, 50.555222848282696], [-3.586690467829252, 50.5545957564931], [-3.5872791408486644, 50.5530492322896], [-3.5882090745732667, 50.55259269405046], [-3.588250340623541, 50.55260032946953], [-3.589482239505817, 50.55475403161544], [-3.58892000943829, 50.555222848282696]]]}}, {"type": "Feature", "properties": {"type": "postcode-cell", "postcode": "TQ12 3DL", "postcodes": ["TQ12 3DL"]}, "geometry": {"type": "Polygon", "coordinates": [[[-3.588390895098792, 50.54973267435755], [-3.5875747567710583, 50.549589284364075], [-3.587341871429919, 50.549094450383464], [-3.588193970429485, 50.54890346400116], [-3.588422812614636, 50.54906733751085], [-3.588544363372424, 50.54967133865956], [-3.588390895098792, 50.54973267435755]]]}}, {"type": "Feature", "properties": {"type": "postcode-cell", "postcode": "TQ12 3DE", "postcodes": ["TQ12 3DE"]}, "geometry": {"type": "Polygon", "coordinates": [[[-3.588324174275216, 50.54824555972955], [-3.586950353070404, 50.548581562255514], [-3.5866915455206607, 50.54843560177153], [-3.5865562297963076, 50.54799329173182], [-3.5876427080858684, 50.54773581521512], [-3.588353563833127, 50.548064672553465], [-3.588324174275216, 50.54824555972955]]]}}, {"type": "Feature", "properties": {"type": "postcode-cell", "postcode": "TQ12 3DD", "postcodes": ["TQ12 3DD"]}, "geometry": {"type": "Polygon", "coordinates": [[[-3.588468320441525, 50.54841818376821], [-3.588193970429485, 50.54890346400116], [-3.587341871429919, 50.549094450383464], [-3.587131253923217, 50.54897974511751], [-3.586950353070404, 50.548581562255514], [-3.588324174275216, 50.54824555972955], [-3.588468320441525, 50.54841818376821]]]}}, {"type": "Feature", "properties": {"type": "postcode-cell", "postcode": "TQ12 3SZ", "postcodes": ["TQ12 3SZ"]}, "geometry": {"type": "Polygon", "coordinates": [[[-3.587501767236414, 50.54255651005663], [-3.5869536112238887, 50.54252196630432], [-3.586810105986217, 50.54192001134392], [-3.587322489547021, 50.54155941717685], [-3.5881195013964464, 50.54188493760035], [-3.587501767236414, 50.54255651005663]]]}}, {"type": "Feature", "properties": {"type": "postcode-cell", "postcode": "TQ12 3BB", "postcodes": ["TQ12 3BB"]}, "geometry": {"type": "Polygon", "coordinates": [[[-3.5876523831955196, 50.5474200712544], [-3.58655235245948, 50.547028895983026], [-3.587152916641058, 50.5463992617491], [-3.5883374923945692, 50.546704847836395], [-3.5885091171716774, 50.54687417879278], [-3.5876523831955196, 50.5474200712544]]]}}, {"type": "Feature", "properties": {"type": "postcode-cell", "postcode": "TQ12 3HP", "postcodes": ["TQ12 3HP"]}, "geometry": {"type": "Polygon", "coordinates": [[[-3.5817471969261256, 50.55288070648944], [-3.5839201111227714, 50.55259271452002], [-3.585836063972229, 50.5525317206139], [-3.5872791408486644, 50.5530492322896], [-3.586690467829252, 50.5545957564931], [-3.579798402263128, 50.55431983446434], [-3.5817471969261256, 50.55288070648944]]]}}, {"type": "Feature", "properties": {"type": "postcode-cell", "postcode": "TQ12 3RJ", "postcodes": ["TQ12 3RJ"]}, "geometry": {"type": "Polygon", "coordinates": [[[-3.5882090745732667, 50.55259269405046], [-3.5872791408486644, 50.5530492322896], [-3.585836063972229, 50.5525317206139], [-3.5874992885314807, 50.551876410519625], [-3.5882090745732667, 50.55259269405046]]]}}, {"type": "Feature", "properties": {"type": "postcode-cell", "postcode": "TQ12 3DP", "postcodes": ["TQ12 3DP"]}, "geometry": {"type": "Polygon", "coordinates": [[[-3.587341871429919, 50.549094450383464], [-3.5875747567710583, 50.549589284364075], [-3.5871787105069015, 50.54983044372732], [-3.5862099316576654, 50.54935989144681], [-3.587131253923217, 50.54897974511751], [-3.587341871429919, 50.549094450383464]]]}}, {"type": "Feature", "properties": {"type": "postcode-cell", "postcode": "TQ12 3DN", "postcodes": ["TQ12 3DN"]}, "geometry": {"type": "Polygon", "coordinates": [[[-3.587131253923217, 50.54897974511751], [-3.5862099316576654, 50.54935989144681], [-3.5859960473210934, 50.54938677435126], [-3.585427153387355, 50.54886067514172], [-3.5866915455206607, 50.54843560177153], [-3.586950353070404, 50.548581562255514], [-3.587131253923217, 50.54897974511751]]]}}, {"type": "Feature", "properties": {"type": "postcode-cell", "postcode": "TQ12 3RH", "postcodes": ["TQ12 3RH"]}, "geometry": {"type": "Polygon", "coordinates": [[[-3.587072925977459, 50.55126297188284], [-3.5839201111227714, 50.55259271452002], [-3.5817471969261256, 50.55288070648944], [-3.5825982659171673, 50.55166733859548], [-3.582881180265389, 50.55153893141074], [-3.586502026544331, 50.55061908857989], [-3.5865384791286403, 50.550624521934544], [-3.586910988220887, 50.55083056840174], [-3.587072925977459, 50.55126297188284]]]}}, {"type": "Feature", "properties": {"type": "postcode-cell", "postcode": "TQ12 3RG", "postcodes": ["TQ12 3RG"]}, "geometry": {"type": "Polygon", "coordinates": [[[-3.5874992885314807, 50.551876410519625], [-3.585836063972229, 50.5525317206139], [-3.5839201111227714, 50.55259271452002], [-3.587072925977459, 50.55126297188284], [-3.5874906476283583, 50.55167605992352], [-3.5874992885314807, 50.551876410519625]]]}}, {"type": "Feature", "properties": {"type": "postcode-cell", "postcode": "TQ12 3SF", "postcodes": ["TQ12 3SF"]}, "geometry": {"type": "MultiPolygon", "coordinates": [[[[-3.586335311681904, 50.53903000253473], [-3.5853899898707007, 50.53902999459848], [-3.5852599898707425, 50.538769994598276], [-3.5837599898698826, 50.53858999459818], [-3.58419998987025, 50.53839999459802], [-3.58592040237941, 50.53796680743527], [-3.586335311681904, 50.53903000253473]]], [[[-3.587322489547021, 50.54155941717685], [-3.586810105986217, 50.54192001134392], [-3.5852926538352947, 50.541719822268746], [-3.582301338683707, 50.540532216852654], [-3.58051328700238, 50.539704291560014], [-3.580429989867416, 50.53935999459883], [-3.580659989867589, 50.53929999459877], [-3.582349989868501, 50.539619994598986], [-3.586421974455479, 50.53925206737154], [-3.587322489547021, 50.54155941717685]]]]}}, {"type": "Feature", "properties": {"type": "postcode-cell", "postcode": "TQ12 3GW", "postcodes": ["TQ12 3GW"]}, "geometry": {"type": "Polygon", "coordinates": [[[-3.5875518629581005, 50.544287350556836], [-3.5859219598576075, 50.544239996837], [-3.5852443273170262, 50.54394592748045], [-3.586062905267934, 50.543051296257445], [-3.5862755509550928, 50.542937444895784], [-3.587922631520906, 50.54353643061967], [-3.5875518629581005, 50.544287350556836]]]}}, {"type": "Feature", "properties": {"type": "postcode-cell", "postcode": "TQ12 3DS", "postcodes": ["TQ12 3DS"]}, "geometry": {"type": "Polygon", "coordinates": [[[-3.5876427080858684, 50.54773581521512], [-3.5865562297963076, 50.54799329173182], [-3.5857766903862767, 50.54747500279211], [-3.585770754001849, 50.5474551465587], [-3.5858095521783224, 50.54736356014244], [-3.58655235245948, 50.547028895983026], [-3.5876523831955196, 50.5474200712544], [-3.5876427080858684, 50.54773581521512]]]}}, {"type": "Feature", "properties": {"type": "postcode-cell", "postcode": "TQ12 3SE", "postcodes": ["TQ12 3SE"]}, "geometry": {"type": "Polygon", "coordinates": [[[-3.5869536112238887, 50.54252196630432], [-3.586482621137819, 50.54270038235777], [-3.5852926538352947, 50.541719822268746], [-3.586810105986217, 50.54192001134392], [-3.5869536112238887, 50.54252196630432]]]}}, {"type": "Feature", "properties": {"type": "postcode-cell", "postcode": "TQ12 3FZ", "postcodes": ["TQ12 3FZ"]}, "geometry": {"type": "Polygon", "coordinates": [[[-3.58655235245948, 50.547028895983026], [-3.5858095521783224, 50.54736356014244], [-3.584871857574953, 50.54632542051351], [-3.586948415859603, 50.54602466069989], [-3.587152916641058, 50.5463992617491], [-3.58655235245948, 50.547028895983026]]]}}, {"type": "Feature", "properties": {"type": "postcode-cell", "postcode": "TQ12 3QF", "postcodes": ["TQ12 3QF"]}, "geometry": {"type": "Polygon", "coordinates": [[[-3.5838227286069606, 50.56732277921592], [-3.578956458669025, 50.571551669389024], [-3.5686413843295104, 50.56877399184849], [-3.5705399898483274, 50.56627999461992], [-3.5717799898495395, 50.56537999461918], [-3.574809989851704, 50.56484999461872], [-3.5751699898521303, 50.56442999461837], [-3.5749999898526155, 50.56318999461743], [-3.5732599898523865, 50.56136999461604], [-3.570609989851089, 50.56058999461548], [-3.5676699898502737, 50.558409994613854], [-3.5688099898513026, 50.55775999461332], [-3.569196783474967, 50.55663378625376], [-3.5724800715881275, 50.55701061952973], [-3.5778799322169017, 50.55930557914729], [-3.5816984732586725, 50.56270763569035], [-3.5838227286069606, 50.56732277921592]]]}}, {"type": "Feature", "properties": {"type": "postcode-cell", "postcode": "TQ12 3GL", "postcodes": ["TQ12 3GL"]}, "geometry": {"type": "Polygon", "coordinates": [[[-3.5862755509550928, 50.542937444895784], [-3.586062905267934, 50.543051296257445], [-3.582301338683707, 50.540532216852654], [-3.5852926538352947, 50.541719822268746], [-3.586482621137819, 50.54270038235777], [-3.5862755509550928, 50.542937444895784]]]}}, {"type": "Feature", "properties": {"type": "postcode-cell", "postcode": "TQ12 3DW", "postcodes": ["TQ12 3DW"]}, "geometry": {"type": "Polygon", "coordinates": [[[-3.5871787105069015, 50.54983044372732], [-3.5865384791286403, 50.550624521934544], [-3.586502026544331, 50.55061908857989], [-3.585725739815625, 50.54988805051047], [-3.5859960473210934, 50.54938677435126], [-3.5862099316576654, 50.54935989144681], [-3.5871787105069015, 50.54983044372732]]]}}, {"type": "Feature", "properties": {"type": "postcode-cell", "postcode": "TQ12 3GQ", "postcodes": ["TQ12 3GQ"]}, "geometry": {"type": "Polygon", "coordinates": [[[-3.5852443273170262, 50.54394592748045], [-3.584478651164444, 50.54392246178062], [-3.579900444346447, 50.5430739348349], [-3.5789446206277726, 50.54164360580714], [-3.578989989865424, 50.54162999460062], [-3.5800599898665135, 50.54075999459993], [-3.5801099898668176, 50.54018999459949], [-3.580579989867213, 50.539979994599314], [-3.58051328700238, 50.539704291560014], [-3.582301338683707, 50.540532216852654], [-3.586062905267934, 50.543051296257445], [-3.5852443273170262, 50.54394592748045]]]}}, {"type": "Feature", "properties": {"type": "postcode-cell", "postcode": "TQ12 3DT", "postcodes": ["TQ12 3DT"]}, "geometry": {"type": "Polygon", "coordinates": [[[-3.5866915455206607, 50.54843560177153], [-3.585427153387355, 50.54886067514172], [-3.585265649457029, 50.54883133409659], [-3.5850162464613757, 50.548633165235415], [-3.5850744697574317, 50.54815776712431], [-3.5857766903862767, 50.54747500279211], [-3.5865562297963076, 50.54799329173182], [-3.5866915455206607, 50.54843560177153]]]}}, {"type": "Feature", "properties": {"type": "postcode-cell", "postcode": "TQ12 3DX", "postcodes": ["TQ12 3DX"]}, "geometry": {"type": "Polygon", "coordinates": [[[-3.585770754001849, 50.5474551465587], [-3.5809382589547325, 50.54741097988227], [-3.580521054053706, 50.547380735485085], [-3.5798161114919473, 50.546996659204844], [-3.580069957295338, 50.546489605330265], [-3.5843212092258816, 50.54610383520923], [-3.584871857574953, 50.54632542051351], [-3.5858095521783224, 50.54736356014244], [-3.585770754001849, 50.5474551465587]]]}}, {"type": "Feature", "properties": {"type": "postcode-cell", "postcode": "TQ12 3GD", "postcodes": ["TQ12 3GD"]}, "geometry": {"type": "Polygon", "coordinates": [[[-3.586948415859603, 50.54602466069989], [-3.584871857574953, 50.54632542051351], [-3.5843212092258816, 50.54610383520923], [-3.5846323675634517, 50.54579902090326], [-3.585876127659908, 50.54526590241732], [-3.5869812420356944, 50.54588701843985], [-3.586948415859603, 50.54602466069989]]]}}, {"type": "Feature", "properties": {"type": "postcode-cell", "postcode": "TQ12 3ED", "postcodes": ["TQ12 3ED"]}, "geometry": {"type": "Polygon", "coordinates": [[[-3.5859960473210934, 50.54938677435126], [-3.585725739815625, 50.54988805051047], [-3.584785433813457, 50.54982627129394], [-3.584566694113161, 50.54948749135303], [-3.585265649457029, 50.54883133409659], [-3.585427153387355, 50.54886067514172], [-3.5859960473210934, 50.54938677435126]]]}}, {"type": "Feature", "properties": {"type": "postcode-cell", "postcode": "TQ12 3EE", "postcodes": ["TQ12 3EE"]}, "geometry": {"type": "Polygon", "coordinates": [[[-3.584785433813457, 50.54982627129394], [-3.585725739815625, 50.54988805051047], [-3.586502026544331, 50.55061908857989], [-3.582881180265389, 50.55153893141074], [-3.584785433813457, 50.54982627129394]]]}}, {"type": "Feature", "properties": {"type": "postcode-cell", "postcode": "TQ12 3EX", "postcodes": ["TQ12 3EX"]}, "geometry": {"type": "Polygon", "coordinates": [[[-3.582881180265389, 50.55153893141074], [-3.5825982659171673, 50.55166733859548], [-3.582179150283123, 50.548935347579054], [-3.584566694113161, 50.54948749135303], [-3.584785433813457, 50.54982627129394], [-3.582881180265389, 50.55153893141074]]]}}, {"type": "Feature", "properties": {"type": "postcode-cell", "postcode": "TQ12 3GE", "postcodes": ["TQ12 3GE"]}, "geometry": {"type": "Polygon", "coordinates": [[[-3.5859219598576075, 50.544239996837], [-3.585876127659908, 50.54526590241732], [-3.5846323675634517, 50.54579902090326], [-3.584478651164444, 50.54392246178062], [-3.5852443273170262, 50.54394592748045], [-3.5859219598576075, 50.544239996837]]]}}, {"type": "Feature", "properties": {"type": "postcode-cell", "postcode": "TQ12 3QQ", "postcodes": ["TQ12 3QQ"]}, "geometry": {"type": "Polygon", "coordinates": [[[-3.579900444346447, 50.5430739348349], [-3.580069957295338, 50.546489605330265], [-3.5798161114919473, 50.546996659204844], [-3.574940425633813, 50.54902098917854], [-3.5738399898587976, 50.54870999460622], [-3.573599989858975, 50.54801999460569], [-3.5719499898581843, 50.54749999460532], [-3.5665099898568964, 50.543019994601934], [-3.5666199898570095, 50.54292999460187], [-3.568149989858226, 50.54239999460143], [-3.5697999898591024, 50.542739994601654], [-3.5733199898613153, 50.5427499946016], [-3.5773899898641868, 50.542109994601034], [-3.5789446206277726, 50.54164360580714], [-3.579900444346447, 50.5430739348349]]]}}, {"type": "Feature", "properties": {"type": "postcode-cell", "postcode": "TQ12 3DU", "postcodes": ["TQ12 3DU"]}, "geometry": {"type": "Polygon", "coordinates": [[[-3.5850744697574317, 50.54815776712431], [-3.5809382589547325, 50.54741097988227], [-3.585770754001849, 50.5474551465587], [-3.5857766903862767, 50.54747500279211], [-3.5850744697574317, 50.54815776712431]]]}}, {"type": "Feature", "properties": {"type": "postcode-cell", "postcode": "TQ12 3GF", "postcodes": ["TQ12 3GF"]}, "geometry": {"type": "Polygon", "coordinates": [[[-3.5846323675634517, 50.54579902090326], [-3.5843212092258816, 50.54610383520923], [-3.580069957295338, 50.546489605330265], [-3.579900444346447, 50.5430739348349], [-3.584478651164444, 50.54392246178062], [-3.5846323675634517, 50.54579902090326]]]}}, {"type": "Feature", "properties": {"type": "postcode-cell", "postcode": "TQ12 3TA", "postcodes": ["TQ12 3TA"]}, "geometry": {"type": "Polygon", "coordinates": [[[-3.584566694113161, 50.54948749135303], [-3.582179150283123, 50.548935347579054], [-3.582045256219583, 50.54871739985474], [-3.5850162464613757, 50.548633165235415], [-3.585265649457029, 50.54883133409659], [-3.584566694113161, 50.54948749135303]]]}}, {"type": "Feature", "properties": {"type": "postcode-cell", "postcode": "TQ12 3DY", "postcodes": ["TQ12 3DY"]}, "geometry": {"type": "Polygon", "coordinates": [[[-3.5850744697574317, 50.54815776712431], [-3.5850162464613757, 50.548633165235415], [-3.582045256219583, 50.54871739985474], [-3.580521054053706, 50.547380735485085], [-3.5809382589547325, 50.54741097988227], [-3.5850744697574317, 50.54815776712431]]]}}, {"type": "Feature", "properties": {"type": "postcode-cell", "postcode": "TQ12 3GX", "postcodes": ["TQ12 3GX"]}, "geometry": {"type": "Polygon", "coordinates": [[[-3.575826218498762, 50.58485185177018], [-3.5743233609920737, 50.580210323207105], [-3.580664698242706, 50.575513532316], [-3.582747659016278, 50.575932633859715], [-3.589898465876501, 50.58441176194336], [-3.589139989851107, 50.58509999463418], [-3.5866199898486255, 50.586969994635695], [-3.583259989846356, 50.587269994635975], [-3.580189989844072, 50.58798999463661], [-3.578019989842599, 50.5881999946368], [-3.5774529126209518, 50.58814115099239], [-3.575826218498762, 50.58485185177018]]]}}, {"type": "Feature", "properties": {"type": "postcode-cell", "postcode": "TQ13 0BH", "postcodes": ["TQ13 0BH"]}, "geometry": {"type": "Polygon", "coordinates": [[[-3.578956458669025, 50.571551669389024], [-3.580664698242706, 50.575513532316], [-3.5743233609920737, 50.580210323207105], [-3.569105724674117, 50.5794688793224], [-3.568501361291519, 50.579369918864], [-3.568193435041748, 50.57926107931125], [-3.562949840166616, 50.57624863047005], [-3.5686413843295104, 50.56877399184849], [-3.578956458669025, 50.571551669389024]]]}}, {"type": "Feature", "properties": {"type": "postcode-cell", "postcode": "TQ13 0BQ", "postcodes": ["TQ13 0BQ"]}, "geometry": {"type": "Polygon", "coordinates": [[[-3.568193435041748, 50.57926107931125], [-3.5597324989072083, 50.582927577986005], [-3.558277526607052, 50.5832341159229], [-3.5584199898326965, 50.583009994633144], [-3.560569989835136, 50.58073999463133], [-3.5623699898380528, 50.577009994628405], [-3.562949840166616, 50.57624863047005], [-3.568193435041748, 50.57926107931125]]]}}, {"type": "Feature", "properties": {"type": "postcode-cell", "postcode": "TQ13 0AL", "postcodes": ["TQ13 0AL"]}, "geometry": {"type": "Polygon", "coordinates": [[[-3.575826218498762, 50.58485185177018], [-3.5662727281079283, 50.58474950875382], [-3.569105724674117, 50.5794688793224], [-3.5743233609920737, 50.580210323207105], [-3.575826218498762, 50.58485185177018]]]}}, {"type": "Feature", "properties": {"type": "postcode-cell", "postcode": "TQ13 0AZ", "postcodes": ["TQ13 0AZ"]}, "geometry": {"type": "Polygon", "coordinates": [[[-3.569105724674117, 50.5794688793224], [-3.5662727281079283, 50.58474950875382], [-3.5658431987865025, 50.58480950490584], [-3.565115168799729, 50.58300413379117], [-3.568501361291519, 50.579369918864], [-3.569105724674117, 50.5794688793224]]]}}, {"type": "Feature", "properties": {"type": "postcode-cell", "postcode": "TQ13 0AY", "postcodes": ["TQ13 0AY"]}, "geometry": {"type": "Polygon", "coordinates": [[[-3.5774529126209518, 50.58814115099239], [-3.575899989841364, 50.58797999463667], [-3.574209989840624, 50.58728999463617], [-3.573079989839482, 50.588189994636885], [-3.5689986663779742, 50.58994120722091], [-3.5653779879529623, 50.58642133756957], [-3.5655741837622568, 50.5850239378976], [-3.5658431987865025, 50.58480950490584], [-3.5662727281079283, 50.58474950875382], [-3.575826218498762, 50.58485185177018], [-3.5774529126209518, 50.58814115099239]]]}}, {"type": "Feature", "properties": {"type": "postcode-cell", "postcode": "TQ13 0BG", "postcodes": ["TQ13 0BG"]}, "geometry": {"type": "Polygon", "coordinates": [[[-3.565115168799729, 50.58300413379117], [-3.563987106229301, 50.583539640723046], [-3.5597324989072083, 50.582927577986005], [-3.568193435041748, 50.57926107931125], [-3.568501361291519, 50.579369918864], [-3.565115168799729, 50.58300413379117]]]}}, {"type": "Feature", "properties": {"type": "postcode-cell", "postcode": "TQ13 0BB", "postcodes": ["TQ13 0BB"]}, "geometry": {"type": "Polygon", "coordinates": [[[-3.5610412880440667, 50.588249380105545], [-3.5634243306173574, 50.58592693204728], [-3.5653779879529623, 50.58642133756957], [-3.5689986663779742, 50.58994120722091], [-3.5672999898346482, 50.59066999463894], [-3.565979989833253, 50.59184999463987], [-3.565358009256321, 50.59294455813362], [-3.5610412880440667, 50.588249380105545]]]}}, {"type": "Feature", "properties": {"type": "postcode-cell", "postcode": "TQ13 0BE", "postcodes": ["TQ13 0BE"]}, "geometry": {"type": "Polygon", "coordinates": [[[-3.5658431987865025, 50.58480950490584], [-3.5655741837622568, 50.5850239378976], [-3.563564466878019, 50.58450954431238], [-3.563987106229301, 50.583539640723046], [-3.565115168799729, 50.58300413379117], [-3.5658431987865025, 50.58480950490584]]]}}, {"type": "Feature", "properties": {"type": "postcode-cell", "postcode": "TQ13 0BA", "postcodes": ["TQ13 0BA"]}, "geometry": {"type": "Polygon", "coordinates": [[[-3.5653779879529623, 50.58642133756957], [-3.5634243306173574, 50.58592693204728], [-3.5623261669365047, 50.58515904544959], [-3.563564466878019, 50.58450954431238], [-3.5655741837622568, 50.5850239378976], [-3.5653779879529623, 50.58642133756957]]]}}, {"type": "Feature", "properties": {"type": "postcode-cell", "postcode": "TQ13 0FG", "postcodes": ["TQ13 0FG"]}, "geometry": {"type": "Polygon", "coordinates": [[[-3.563564466878019, 50.58450954431238], [-3.5623261669365047, 50.58515904544959], [-3.5572874633636538, 50.58479160788569], [-3.558277526607052, 50.5832341159229], [-3.5597324989072083, 50.582927577986005], [-3.563987106229301, 50.583539640723046], [-3.563564466878019, 50.58450954431238]]]}}, {"type": "Feature", "properties": {"type": "postcode-cell", "postcode": "TQ13 0BP", "postcodes": ["TQ13 0BP"]}, "geometry": {"type": "Polygon", "coordinates": [[[-3.5621652176221423, 50.595792428100836], [-3.5600099898270443, 50.59695999464396], [-3.5551299898228717, 50.59924999464584], [-3.550759989819937, 50.599619994646204], [-3.5514999898229465, 50.59428999464204], [-3.5513599898237174, 50.59248999464064], [-3.5524799898252755, 50.59070999463925], [-3.5531576861367475, 50.5885096957138], [-3.5621652176221423, 50.595792428100836]]]}}, {"type": "Feature", "properties": {"type": "postcode-cell", "postcode": "TQ13 0BD", "postcodes": ["TQ13 0BD"]}, "geometry": {"type": "Polygon", "coordinates": [[[-3.5623261669365047, 50.58515904544959], [-3.5634243306173574, 50.58592693204728], [-3.5610412880440667, 50.588249380105545], [-3.556943384987619, 50.58533286009833], [-3.5572874633636538, 50.58479160788569], [-3.5623261669365047, 50.58515904544959]]]}}, {"type": "Feature", "properties": {"type": "postcode-cell", "postcode": "TQ13 0BX", "postcodes": ["TQ13 0BX"]}, "geometry": {"type": "Polygon", "coordinates": [[[-3.5610412880440667, 50.588249380105545], [-3.565358009256321, 50.59294455813362], [-3.5644399898309858, 50.594559994642005], [-3.5621652176221423, 50.595792428100836], [-3.5531576861367475, 50.5885096957138], [-3.553249989826954, 50.58820999463727], [-3.556709989830335, 50.58569999463527], [-3.556943384987619, 50.58533286009833], [-3.5610412880440667, 50.588249380105545]]]}}]}