{"type": "FeatureCollection", "features": [{"type": "Feature", "properties": {"type": "ward-outline", "name": "Lynton & Lynmouth"}, "geometry": {"type": "Polygon", "coordinates": [[[-3.72082, 51.2331], [-3.72202, 51.23241], [-3.72251, 51.23102], [-3.72312, 51.23053], [-3.72707, 51.22944], [-3.72732, 51.22704], [-3.7267, 51.22564], [-3.7283, 51.2251], [-3.72925, 51.22391], [-3.7332, 51.22273], [-3.72874, 51.21885], [-3.72905, 51.21676], [-3.73089, 51.21601], [-3.73157, 51.21513], [-3.73082, 51.21303], [-3.72941, 51.21153], [-3.72773, 51.20843], [-3.72846, 51.20705], [-3.72848, 51.20577], [-3.72799, 51.20458], [-3.72637, 51.20274], [-3.72707, 51.20121], [-3.72621, 51.19942], [-3.72701, 51.19746], [-3.729, 51.19463], [-3.73202, 51.19362], [-3.73209, 51.19097], [-3.72945, 51.1883], [-3.726, 51.18635], [-3.72442, 51.18392], [-3.72509, 51.18247], [-3.72383, 51.18073], [-3.72603, 51.17893], [-3.72806, 51.17873], [-3.72875, 51.17812], [-3.73019, 51.17804], [-3.73285, 51.17707], [-3.73373, 51.17696], [-3.73424, 51.17719], [-3.73549, 51.17695], [-3.7381, 51.17733], [-3.73854, 51.17706], [-3.73959, 51.17711], [-3.74212, 51.17597], [-3.74588, 51.17556], [-3.75118, 51.17709], [-3.7573, 51.17731], [-3.77718, 51.17351], [-3.78211, 51.17228], [-3.7863, 51.17193], [-3.79338, 51.17275], [-3.79599, 51.17454], [-3.80627, 51.17787], [-3.81189, 51.17763], [-3.81557, 51.1785], [-3.81752, 51.17853], [-3.82436, 51.17612], [-3.83228, 51.17756], [-3.83845, 51.1771], [-3.83982, 51.17667], [-3.84038, 51.17585], [-3.84193, 51.17556], [-3.84171, 51.17485], [-3.84218, 51.17412], [-3.84356, 51.17344], [-3.85228, 51.17433], [-3.8611, 51.17574], [-3.87152, 51.17555], [-3.88468, 51.174], [-3.89018, 51.17399], [-3.89171, 51.17471], [-3.89578, 51.17822], [-3.89613, 51.17965], [-3.89688, 51.18016], [-3.89692, 51.18064], [-3.89817, 51.1808], [-3.89712, 51.17941], [-3.89742, 51.17843], [-3.89907, 51.17709], [-3.89935, 51.17637], [-3.89795, 51.1751], [-3.89764, 51.17334], [-3.89647, 51.17173], [-3.89601, 51.17026], [-3.89532, 51.16976], [-3.8954, 51.169], [-3.90089, 51.17081], [-3.90923, 51.17256], [-3.91137, 51.1697], [-3.91332, 51.16809], [-3.92102, 51.16824], [-3.9238, 51.16893], [-3.92508, 51.16981], [-3.92628, 51.16885], [-3.93146, 51.16971], [-3.93209, 51.17036], [-3.93679, 51.1718], [-3.93696, 51.17241], [-3.93568, 51.17495], [-3.93404, 51.17707], [-3.9344, 51.17901], [-3.93758, 51.18131], [-3.93906, 51.18335], [-3.94069, 51.18662], [-3.94035, 51.18672], [-3.94067, 51.18837], [-3.94253, 51.19129], [-3.94434, 51.19315], [-3.94559, 51.1939], [-3.94599, 51.19467], [-3.94808, 51.19539], [-3.94863, 51.19587], [-3.95016, 51.19586], [-3.95257, 51.19723], [-3.95309, 51.19723], [-3.9533, 51.19648], [-3.95273, 51.19451], [-3.9538, 51.19144], [-3.95645, 51.19063], [-3.95838, 51.1895], [-3.9605, 51.18928], [-3.96255, 51.18784], [-3.96454, 51.18771], [-3.96535, 51.18732], [-3.96632, 51.18594], [-3.96709, 51.18577], [-3.96861, 51.18704], [-3.96814, 51.18743], [-3.97087, 51.18911], [-3.97196, 51.1906], [-3.97191, 51.19264], [-3.96944, 51.19981], [-3.96974, 51.20287], [-3.97024, 51.20399], [-3.9695, 51.20884], [-3.96654, 51.21487], [-3.9666, 51.21814], [-3.96696, 51.21943], [-3.96518, 51.21928], [-3.96477, 51.21954], [-3.96506, 51.2197], [-3.96466, 51.21973], [-3.96313, 51.21917], [-3.96115, 51.21933], [-3.96049, 51.21909], [-3.9596, 51.21926], [-3.95899, 51.21981], [-3.95873, 51.21971], [-3.9587, 51.21972], [-3.95861, 51.2196], [-3.95861, 51.2196], [-3.95861, 51.2196], [-3.9586, 51.2196], [-3.95825, 51.21912], [-3.95837, 51.21958], [-3.95788, 51.21955], [-3.95788, 51.21955], [-3.95787, 51.21956], [-3.95767, 51.21928], [-3.95711, 51.21989], [-3.95679, 51.21953], [-3.95701, 51.21995], [-3.95651, 51.22024], [-3.95611, 51.2201], [-3.95607, 51.22043], [-3.95442, 51.22043], [-3.95401, 51.22013], [-3.95392, 51.22075], [-3.95366, 51.22055], [-3.95371, 51.22077], [-3.95236, 51.22089], [-3.95165, 51.22065], [-3.95218, 51.22102], [-3.95099, 51.2208], [-3.95056, 51.22104], [-3.9508, 51.2212], [-3.95025, 51.22099], [-3.94952, 51.22146], [-3.94831, 51.22142], [-3.94833, 51.22174], [-3.94749, 51.22172], [-3.94577, 51.2229], [-3.94525, 51.22357], [-3.94548, 51.22413], [-3.94451, 51.2244], [-3.94454, 51.2248], [-3.94447, 51.22485], [-3.94454, 51.22489], [-3.94455, 51.22499], [-3.94405, 51.22498], [-3.94404, 51.22498], [-3.94404, 51.22498], [-3.94395, 51.22502], [-3.94236, 51.22503], [-3.94167, 51.22571], [-3.94189, 51.22603], [-3.94084, 51.22712], [-3.94012, 51.22718], [-3.93969, 51.22795], [-3.94001, 51.22799], [-3.93877, 51.22878], [-3.93731, 51.22887], [-3.93666, 51.2287], [-3.93681, 51.22847], [-3.93569, 51.22842], [-3.93606, 51.22851], [-3.93536, 51.22884], [-3.93437, 51.22871], [-3.93407, 51.22918], [-3.93142, 51.22975], [-3.93104, 51.22979], [-3.92823, 51.22954], [-3.92723, 51.23032], [-3.92716, 51.23099], [-3.92764, 51.2311], [-3.92619, 51.23181], [-3.92539, 51.23141], [-3.92589, 51.23177], [-3.92564, 51.2319], [-3.9249, 51.23124], [-3.92478, 51.23144], [-3.9227, 51.23102], [-3.92256, 51.23071], [-3.92073, 51.23048], [-3.92038, 51.23012], [-3.91927, 51.23031], [-3.91873, 51.2299], [-3.91732, 51.23049], [-3.91703, 51.2305], [-3.91582, 51.2303], [-3.91536, 51.23037], [-3.91446, 51.23043], [-3.91433, 51.23027], [-3.91322, 51.23045], [-3.91063, 51.22961], [-3.9102, 51.22979], [-3.90982, 51.22943], [-3.90991, 51.22982], [-3.90909, 51.22974], [-3.90866, 51.22922], [-3.90826, 51.22916], [-3.90859, 51.22964], [-3.90791, 51.22966], [-3.90807, 51.229], [-3.90704, 51.22954], [-3.90704, 51.229], [-3.90569, 51.22874], [-3.90443, 51.22909], [-3.90362, 51.22896], [-3.90407, 51.22964], [-3.9023, 51.22902], [-3.90222, 51.22857], [-3.90187, 51.22867], [-3.90149, 51.22831], [-3.90121, 51.22634], [-3.89926, 51.2257], [-3.89827, 51.22568], [-3.89819, 51.22604], [-3.8972, 51.22588], [-3.89736, 51.22536], [-3.89699, 51.22564], [-3.89629, 51.22529], [-3.89612, 51.22568], [-3.89612, 51.22446], [-3.8923, 51.22408], [-3.89203, 51.22377], [-3.89046, 51.22434], [-3.8901, 51.22484], [-3.88959, 51.22459], [-3.88977, 51.22478], [-3.88923, 51.22472], [-3.88898, 51.22517], [-3.88867, 51.22493], [-3.88728, 51.22544], [-3.8874, 51.2257], [-3.88684, 51.22534], [-3.88618, 51.22563], [-3.8854, 51.22517], [-3.88525, 51.22554], [-3.88492, 51.22528], [-3.88476, 51.22577], [-3.88389, 51.22555], [-3.8828, 51.22664], [-3.88285, 51.22743], [-3.8821, 51.22749], [-3.88257, 51.22798], [-3.8821, 51.22804], [-3.88163, 51.22771], [-3.88137, 51.22798], [-3.88075, 51.2288], [-3.8809, 51.22928], [-3.88086, 51.22934], [-3.87888, 51.22856], [-3.87882, 51.22886], [-3.87844, 51.22884], [-3.87835, 51.22806], [-3.87739, 51.22765], [-3.87662, 51.22785], [-3.87625, 51.22737], [-3.87558, 51.22772], [-3.87501, 51.22758], [-3.87504, 51.22809], [-3.87383, 51.2275], [-3.87369, 51.2271], [-3.87271, 51.22705], [-3.87287, 51.22743], [-3.87247, 51.22709], [-3.87166, 51.22784], [-3.8726, 51.22937], [-3.87243, 51.2301], [-3.8716, 51.23009], [-3.87208, 51.23057], [-3.87138, 51.23034], [-3.87194, 51.23125], [-3.8703, 51.23122], [-3.87091, 51.23149], [-3.87007, 51.23156], [-3.86986, 51.23154], [-3.86896, 51.23107], [-3.86411, 51.23148], [-3.86355, 51.23119], [-3.86358, 51.2316], [-3.86302, 51.23106], [-3.86152, 51.23077], [-3.86008, 51.23111], [-3.85924, 51.2323], [-3.85718, 51.23289], [-3.85717, 51.23328], [-3.85686, 51.23305], [-3.85592, 51.23325], [-3.85551, 51.2337], [-3.85499, 51.23369], [-3.85475, 51.23429], [-3.8541, 51.23421], [-3.85374, 51.23457], [-3.84972, 51.23487], [-3.8487, 51.23466], [-3.84851, 51.23492], [-3.84572, 51.23523], [-3.8442, 51.23503], [-3.8417, 51.23533], [-3.83923, 51.235], [-3.83619, 51.23387], [-3.83487, 51.23282], [-3.83267, 51.2319], [-3.83071, 51.23205], [-3.83122, 51.23162], [-3.83112, 51.23113], [-3.8309, 51.23092], [-3.8309, 51.23122], [-3.83055, 51.23182], [-3.83082, 51.23121], [-3.83082, 51.23109], [-3.83084, 51.23104], [-3.83082, 51.23102], [-3.83082, 51.23089], [-3.83007, 51.23042], [-3.83047, 51.23109], [-3.82989, 51.23205], [-3.82747, 51.23273], [-3.82518, 51.23183], [-3.82196, 51.23155], [-3.82107, 51.23181], [-3.81889, 51.23172], [-3.8169, 51.2314], [-3.81698, 51.23161], [-3.816, 51.2312], [-3.8145, 51.23108], [-3.81343, 51.23115], [-3.81228, 51.23194], [-3.81046, 51.23164], [-3.81031, 51.2319], [-3.81005, 51.23171], [-3.80857, 51.23179], [-3.80666, 51.23233], [-3.80112, 51.23572], [-3.80096, 51.23627], [-3.79955, 51.23675], [-3.79821, 51.23796], [-3.7984, 51.23842], [-3.79753, 51.2384], [-3.79531, 51.2404], [-3.79501, 51.24099], [-3.79579, 51.24181], [-3.79519, 51.24179], [-3.79465, 51.24207], [-3.79498, 51.24226], [-3.79467, 51.24246], [-3.79352, 51.24271], [-3.79226, 51.24398], [-3.79073, 51.24406], [-3.78969, 51.24477], [-3.78935, 51.2446], [-3.78949, 51.24493], [-3.78845, 51.24547], [-3.78873, 51.24586], [-3.78809, 51.24568], [-3.78828, 51.24608], [-3.78786, 51.24592], [-3.78709, 51.24627], [-3.78702, 51.24627], [-3.78673, 51.24607], [-3.78548, 51.24641], [-3.78407, 51.24566], [-3.78429, 51.24524], [-3.78248, 51.24397], [-3.78246, 51.2436], [-3.78098, 51.24286], [-3.78079, 51.24302], [-3.77972, 51.24182], [-3.77783, 51.24102], [-3.77608, 51.23973], [-3.77327, 51.23872], [-3.77124, 51.23844], [-3.77103, 51.23806], [-3.76978, 51.23766], [-3.76456, 51.23704], [-3.76191, 51.23736], [-3.75855, 51.23725], [-3.75828, 51.23763], [-3.75814, 51.23727], [-3.75543, 51.23681], [-3.75498, 51.23706], [-3.75482, 51.23674], [-3.75267, 51.23694], [-3.75121, 51.2364], [-3.74904, 51.23623], [-3.74823, 51.23663], [-3.74781, 51.23647], [-3.74807, 51.23637], [-3.74691, 51.2363], [-3.74677, 51.23573], [-3.74624, 51.23583], [-3.7452, 51.23548], [-3.74217, 51.23538], [-3.74041, 51.23582], [-3.73141, 51.23528], [-3.7277, 51.23544], [-3.72419, 51.23412], [-3.72268, 51.23399], [-3.72085, 51.23311], [-3.72082, 51.2331]]]}}, {"type": "Feature", "properties": {"type": "postcode-cell", "postcode": "EX31 4PJ", "postcodes": ["EX31 4PJ"]}, "geometry": {"type": "Polygon", "coordinates": [[[-3.9533463619135145, 51.19298890476454], [-3.953285952501084, 51.19291490008504], [-3.953799989810433, 51.19143999511828], [-3.9564499898125898, 51.19062999511758], [-3.9583799898144045, 51.18949999511664], [-3.9604999898159416, 51.18927999511646], [-3.962549989817974, 51.18783999511526], [-3.9645399898193827, 51.18770999511514], [-3.965349989820107, 51.18731999511483], [-3.9663199898213755, 51.18593999511368], [-3.96708998982198, 51.185769995113546], [-3.9686099898224416, 51.187039995114574], [-3.968139989821951, 51.18742999511491], [-3.9708699898230524, 51.1891099951163], [-3.9719599898231284, 51.19059999511752], [-3.9719099898221857, 51.192639995119194], [-3.9703941872212893, 51.19704037848902], [-3.9533463619135145, 51.19298890476454]]]}}, {"type": "Feature", "properties": {"type": "postcode-cell", "postcode": "EX31 4PN", "postcodes": ["EX31 4PN"]}, "geometry": {"type": "Polygon", "coordinates": [[[-3.9386530377987268, 51.186204598687375], [-3.917248527386279, 51.18058625533724], [-3.9078066734898718, 51.17257432696489], [-3.9076377867243344, 51.17222595623161], [-3.909229989788736, 51.17255999510273], [-3.911369989791465, 51.16969999510035], [-3.913319989793506, 51.16808999509902], [-3.9134680193977296, 51.16809288358423], [-3.9347021381776446, 51.17621407297121], [-3.9340399898034777, 51.17706999510638], [-3.9343999898028543, 51.17900999510798], [-3.9375799898039734, 51.18130999510989], [-3.9390599898040626, 51.1833499951116], [-3.940246628917351, 51.18573060296726], [-3.9386530377987268, 51.186204598687375]]]}}, {"type": "Feature", "properties": {"type": "postcode-cell", "postcode": "EX31 4PL", "postcodes": ["EX31 4PL"]}, "geometry": {"type": "Polygon", "coordinates": [[[-3.948404740895792, 51.20989978348141], [-3.9474736012487104, 51.201916033446246], [-3.949219939942638, 51.200914990437475], [-3.970088806523123, 51.20365135072244], [-3.9702399898159926, 51.20398999512864], [-3.969499989813328, 51.208839995132685], [-3.966539989808628, 51.21486999513768], [-3.9665652447277173, 51.21624648740043], [-3.948404740895792, 51.20989978348141]]]}}, {"type": "Feature", "properties": {"type": "postcode-cell", "postcode": "EX31 4PH", "postcodes": ["EX31 4PH"]}, "geometry": {"type": "Polygon", "coordinates": [[[-3.9703941872212893, 51.19704037848902], [-3.9694399898173116, 51.19980999512516], [-3.9697399898161496, 51.20286999512771], [-3.970088806523123, 51.20365135072244], [-3.949219939942638, 51.200914990437475], [-3.9514654550084973, 51.19660212251421], [-3.9525699898070132, 51.19722999512306], [-3.953089989807367, 51.19722999512306], [-3.953299989807843, 51.19647999512245], [-3.9527299898083346, 51.194509995120825], [-3.953085468309363, 51.19349011549241], [-3.9533463619135145, 51.19298890476454], [-3.9703941872212893, 51.19704037848902]]]}}, {"type": "Feature", "properties": {"type": "postcode-cell", "postcode": "EX31 4PG", "postcodes": ["EX31 4PG"]}, "geometry": {"type": "MultiPolygon", "coordinates": [[[[-3.953085468309363, 51.19349011549241], [-3.953285952501084, 51.19291490008504], [-3.9533463619135145, 51.19298890476454], [-3.953085468309363, 51.19349011549241]]], [[[-3.949219939942638, 51.200914990437475], [-3.9474736012487104, 51.201916033446246], [-3.935253372194969, 51.199651540674296], [-3.9353322270318554, 51.18983982812343], [-3.9386530377987268, 51.186204598687375], [-3.940246628917351, 51.18573060296726], [-3.940689989803703, 51.18661999511429], [-3.940349989803429, 51.186719995114366], [-3.940669989802906, 51.188369995115735], [-3.942529989802859, 51.19128999511817], [-3.9443399898032556, 51.193149995119704], [-3.9455899898037683, 51.193899995120326], [-3.9459899898036976, 51.19466999512097], [-3.9480799898047896, 51.19538999512156], [-3.9486299898049495, 51.19586999512195], [-3.9501599898059903, 51.195859995121936], [-3.9514654550084973, 51.19660212251421], [-3.949219939942638, 51.200914990437475]]]]}}, {"type": "Feature", "properties": {"type": "postcode-cell", "postcode": "EX31 4QD", "postcodes": ["EX31 4QD"]}, "geometry": {"type": "Polygon", "coordinates": [[[-3.9392847638447788, 51.216841500541655], [-3.9422874713694314, 51.211078222421925], [-3.948404740895792, 51.20989978348141], [-3.9665652447277173, 51.21624648740043], [-3.966599989807213, 51.21813999514043], [-3.9669599898068815, 51.2194299951415], [-3.9651799898057387, 51.21927999514136], [-3.9647699898053452, 51.219539995141595], [-3.96505998980547, 51.21969999514174], [-3.964659989805186, 51.21972999514175], [-3.9631299898043957, 51.219169995141286], [-3.9611499898029794, 51.21932999514143], [-3.960489989802636, 51.21908999514123], [-3.959599989801958, 51.21925999514138], [-3.958989989801297, 51.21980999514183], [-3.958729989801166, 51.21970999514175], [-3.9586999898011377, 51.21971999514172], [-3.958609989801133, 51.21959999514166], [-3.9585999898011246, 51.219599995141664], [-3.9582499898011023, 51.21911999514125], [-3.9583699898009796, 51.219579995141636], [-3.9578799898006602, 51.21954999514162], [-3.9578699898006477, 51.21955999514162], [-3.9576699898006344, 51.21927999514139], [-3.957109989799983, 51.21988999514187], [-3.9567899897999266, 51.21952999514158], [-3.9570099897998903, 51.21994999514195], [-3.9565099897994194, 51.22023999514217], [-3.95610998979921, 51.22009999514204], [-3.956069989799037, 51.22042999514235], [-3.954419989797917, 51.22042999514233], [-3.954009989797771, 51.22012999514208], [-3.953919989797433, 51.22074999514261], [-3.953659989797346, 51.22054999514246], [-3.9537099897972814, 51.22076999514264], [-3.9523599897963138, 51.22088999514274], [-3.951649989795938, 51.22064999514253], [-3.9521799897961314, 51.221019995142825], [-3.9509899897954224, 51.220799995142656], [-3.950559989795023, 51.221039995142846], [-3.9507999897951134, 51.22119999514299], [-3.9502499897948344, 51.22098999514282], [-3.949519989794129, 51.22145999514321], [-3.9483099897933283, 51.221419995143194], [-3.9483299897931974, 51.22173999514345], [-3.9476622323619766, 51.2217240966503], [-3.9392847638447788, 51.216841500541655]]]}}, {"type": "Feature", "properties": {"type": "postcode-cell", "postcode": "EX31 4QA", "postcodes": ["EX31 4QA"]}, "geometry": {"type": "Polygon", "coordinates": [[[-3.9392847638447788, 51.216841500541655], [-3.933279648008435, 51.21875690618617], [-3.9303038118555342, 51.2148497392657], [-3.931905145664774, 51.2087860842589], [-3.9422874713694314, 51.211078222421925], [-3.9392847638447788, 51.216841500541655]]]}}, {"type": "Feature", "properties": {"type": "postcode-cell", "postcode": "EX31 4QE", "postcodes": ["EX31 4QE"]}, "geometry": {"type": "Polygon", "coordinates": [[[-3.948404740895792, 51.20989978348141], [-3.9422874713694314, 51.211078222421925], [-3.931905145664774, 51.2087860842589], [-3.9259548412170804, 51.20501418027957], [-3.9263646010474, 51.20472342372003], [-3.935253372194969, 51.199651540674296], [-3.9474736012487104, 51.201916033446246], [-3.948404740895792, 51.20989978348141]]]}}, {"type": "Feature", "properties": {"type": "postcode-cell", "postcode": "EX31 4QB", "postcodes": ["EX31 4QB"]}, "geometry": {"type": "Polygon", "coordinates": [[[-3.9318630237252505, 51.22054732126162], [-3.933279648008435, 51.21875690618617], [-3.9392847638447788, 51.216841500541655], [-3.9476622323619766, 51.2217240966503], [-3.947489989792636, 51.22171999514341], [-3.9457699897909415, 51.22289999514441], [-3.945249989790291, 51.22356999514497], [-3.945479989790197, 51.22412999514544], [-3.9445099897894176, 51.22439999514566], [-3.944539989789258, 51.224799995146], [-3.944469989789189, 51.22484999514605], [-3.944539989789217, 51.224889995146086], [-3.944549989789179, 51.22498999514614], [-3.944049989788846, 51.224979995146136], [-3.9440399897888376, 51.224979995146136], [-3.94394998978876, 51.22501999514618], [-3.9423599897876764, 51.22502999514617], [-3.9416699897869036, 51.22570999514675], [-3.941889989786912, 51.22602999514702], [-3.940839989785715, 51.22711999514794], [-3.9401199897851975, 51.227179995147985], [-3.939689989784562, 51.22794999514863], [-3.9400099897847616, 51.22798999514865], [-3.9387699897835655, 51.22877999514933], [-3.937309989782537, 51.22886999514939], [-3.9366599897821692, 51.228699995149256], [-3.936809989782374, 51.22846999514906], [-3.935689989781639, 51.228419995149025], [-3.9360599897818465, 51.228509995149096], [-3.9353599897812264, 51.22883999514936], [-3.9343699897806133, 51.22870999514925], [-3.9340699897802014, 51.22917999514967], [-3.931419989778147, 51.22974999515014], [-3.931039989777874, 51.22978999515016], [-3.928487848263791, 51.229562939229325], [-3.9318630237252505, 51.22054732126162]]]}}, {"type": "Feature", "properties": {"type": "postcode-cell", "postcode": "EX31 4PY", "postcodes": ["EX31 4PY"]}, "geometry": {"type": "Polygon", "coordinates": [[[-3.9318630237252505, 51.22054732126162], [-3.922305382489041, 51.21565586500777], [-3.9303038118555342, 51.2148497392657], [-3.933279648008435, 51.21875690618617], [-3.9318630237252505, 51.22054732126162]]]}}, {"type": "Feature", "properties": {"type": "postcode-cell", "postcode": "EX31 4NP", "postcodes": ["EX31 4NP"]}, "geometry": {"type": "Polygon", "coordinates": [[[-3.9134680193977296, 51.16809288358423], [-3.9210199897986344, 51.16823999509913], [-3.9237999898002056, 51.168929995099695], [-3.925079989800675, 51.169809995100415], [-3.9262799898019156, 51.16884999509959], [-3.9314599898050298, 51.169709995100305], [-3.932089989805165, 51.170359995100846], [-3.9367899898076972, 51.17179999510201], [-3.936959989807537, 51.17240999510251], [-3.935679989805537, 51.17494999510463], [-3.9347021381776446, 51.17621407297121], [-3.9134680193977296, 51.16809288358423]]]}}, {"type": "Feature", "properties": {"type": "postcode-cell", "postcode": "EX31 4PX", "postcodes": ["EX31 4PX"]}, "geometry": {"type": "Polygon", "coordinates": [[[-3.931905145664774, 51.2087860842589], [-3.9303038118555342, 51.2148497392657], [-3.922305382489041, 51.21565586500777], [-3.9222438551779297, 51.21564865864868], [-3.920021528456498, 51.21249963919381], [-3.9194274591677045, 51.210345468026844], [-3.9251577246071943, 51.20506345367561], [-3.9259548412170804, 51.20501418027957], [-3.931905145664774, 51.2087860842589]]]}}, {"type": "Feature", "properties": {"type": "postcode-cell", "postcode": "EX31 4PT", "postcodes": ["EX31 4PT"]}, "geometry": {"type": "Polygon", "coordinates": [[[-3.935253372194969, 51.199651540674296], [-3.9263646010474, 51.20472342372003], [-3.924675152488247, 51.193010700304136], [-3.927276826858459, 51.1916995816001], [-3.9353322270318554, 51.18983982812343], [-3.935253372194969, 51.199651540674296]]]}}, {"type": "Feature", "properties": {"type": "postcode-cell", "postcode": "EX31 4QJ", "postcodes": ["EX31 4QJ"]}, "geometry": {"type": "Polygon", "coordinates": [[[-3.9053918430396344, 51.18248133618922], [-3.9051361623721603, 51.18479426795208], [-3.9046551951934627, 51.187197508673755], [-3.903868128006539, 51.187825320555355], [-3.900977690187279, 51.18850741840131], [-3.89996083287436, 51.18382540379503], [-3.905040821434765, 51.177980785891535], [-3.9053918430396344, 51.18248133618922]]]}}, {"type": "Feature", "properties": {"type": "postcode-cell", "postcode": "EX31 4PE", "postcodes": ["EX31 4PE"]}, "geometry": {"type": "Polygon", "coordinates": [[[-3.905040821434765, 51.177980785891535], [-3.9078066734898718, 51.17257432696489], [-3.917248527386279, 51.18058625533724], [-3.915181818352582, 51.188004423984424], [-3.914900844758424, 51.188311781330064], [-3.9080244491146328, 51.187963636359555], [-3.9053918430396344, 51.18248133618922], [-3.905040821434765, 51.177980785891535]]]}}, {"type": "Feature", "properties": {"type": "postcode-cell", "postcode": "EX31 4PF", "postcodes": ["EX31 4PF"]}, "geometry": {"type": "Polygon", "coordinates": [[[-3.927276826858459, 51.1916995816001], [-3.915181818352582, 51.188004423984424], [-3.917248527386279, 51.18058625533724], [-3.9386530377987268, 51.186204598687375], [-3.9353322270318554, 51.18983982812343], [-3.927276826858459, 51.1916995816001]]]}}, {"type": "Feature", "properties": {"type": "postcode-cell", "postcode": "EX31 4PZ", "postcodes": ["EX31 4PZ"]}, "geometry": {"type": "Polygon", "coordinates": [[[-3.928487848263791, 51.229562939229325], [-3.9282299897760775, 51.229539995149956], [-3.9272299897750496, 51.230319995150595], [-3.9271599897747054, 51.23098999515117], [-3.9276399897749803, 51.23109999515124], [-3.9261899897736816, 51.23180999515186], [-3.925389989773316, 51.23140999515151], [-3.925889989773497, 51.23176999515182], [-3.9256399897732694, 51.231899995151934], [-3.924899989773059, 51.231239995151384], [-3.92477998977289, 51.231439995151554], [-3.9226999897716666, 51.231019995151186], [-3.9225599897717136, 51.23070999515095], [-3.9224987408591026, 51.23070229770203], [-3.917965608609634, 51.22171784029531], [-3.9222438551779297, 51.21564865864868], [-3.922305382489041, 51.21565586500777], [-3.9318630237252505, 51.22054732126162], [-3.928487848263791, 51.229562939229325]]]}}, {"type": "Feature", "properties": {"type": "postcode-cell", "postcode": "EX31 4PU", "postcodes": ["EX31 4PU"]}, "geometry": {"type": "Polygon", "coordinates": [[[-3.9251577246071943, 51.20506345367561], [-3.919856342634622, 51.20282870534811], [-3.9145878851569695, 51.1968554204897], [-3.914951863823652, 51.19568772368865], [-3.924675152488247, 51.193010700304136], [-3.9263646010474, 51.20472342372003], [-3.9259548412170804, 51.20501418027957], [-3.9251577246071943, 51.20506345367561]]]}}, {"type": "Feature", "properties": {"type": "postcode-cell", "postcode": "EX31 4QT", "postcodes": ["EX31 4QT"]}, "geometry": {"type": "Polygon", "coordinates": [[[-3.9008678211530903, 51.22293308372997], [-3.9033968716261485, 51.21551785429562], [-3.912186720707082, 51.21834498777262], [-3.917965608609634, 51.22171784029531], [-3.9224987408591026, 51.23070229770203], [-3.9207299897705723, 51.23047999515077], [-3.9203799897704963, 51.23011999515045], [-3.919269989769661, 51.230309995150606], [-3.918729989769477, 51.22989999515027], [-3.9173199897682625, 51.230489995150755], [-3.917029989768058, 51.23049999515078], [-3.91581998976733, 51.23029999515062], [-3.9153599897669853, 51.230369995150674], [-3.91445998976635, 51.23042999515072], [-3.9143299897663337, 51.23026999515057], [-3.913219989765501, 51.23044999515072], [-3.9106299897641232, 51.229609995150064], [-3.910199989763752, 51.2297899951502], [-3.909819989763655, 51.229429995149886], [-3.909909989763541, 51.229819995150216], [-3.909089989763023, 51.229739995150155], [-3.9086599897629624, 51.22921999514972], [-3.908259989762718, 51.229159995149686], [-3.9085899897627283, 51.229639995150066], [-3.90790998976226, 51.22965999515011], [-3.908069989762662, 51.22899999514955], [-3.9070399897617243, 51.22953999514999], [-3.9070399897619654, 51.228999995149536], [-3.905689989761167, 51.228739995149326], [-3.904429989760158, 51.22908999514963], [-3.90361998975967, 51.2289599951495], [-3.9040699897596696, 51.22963999515009], [-3.9022999897587485, 51.22901999514954], [-3.9022199897588963, 51.22856999514919], [-3.9018699897586147, 51.22866999514926], [-3.9014899897585202, 51.228309995148976], [-3.9012099897592116, 51.22633999514735], [-3.9011824116755722, 51.22633094423225], [-3.9008678211530903, 51.22293308372997]]]}}, {"type": "Feature", "properties": {"type": "postcode-cell", "postcode": "EX31 4QP", "postcodes": ["EX31 4QP"]}, "geometry": {"type": "Polygon", "coordinates": [[[-3.9194274591677045, 51.210345468026844], [-3.901863717509468, 51.21282526472842], [-3.8967004425473624, 51.20981599834565], [-3.898230566297332, 51.206725554088536], [-3.919856342634622, 51.20282870534811], [-3.9251577246071943, 51.20506345367561], [-3.9194274591677045, 51.210345468026844]]]}}, {"type": "Feature", "properties": {"type": "postcode-cell", "postcode": "EX31 4PS", "postcodes": ["EX31 4PS"]}, "geometry": {"type": "Polygon", "coordinates": [[[-3.914951863823652, 51.19568772368865], [-3.913008542599208, 51.192461011654046], [-3.914900844758424, 51.188311781330064], [-3.915181818352582, 51.188004423984424], [-3.927276826858459, 51.1916995816001], [-3.924675152488247, 51.193010700304136], [-3.914951863823652, 51.19568772368865]]]}}, {"type": "Feature", "properties": {"type": "postcode-cell", "postcode": "EX31 4QR", "postcodes": ["EX31 4QR"]}, "geometry": {"type": "Polygon", "coordinates": [[[-3.920021528456498, 51.21249963919381], [-3.912186720707082, 51.21834498777262], [-3.9033968716261485, 51.21551785429562], [-3.901863717509468, 51.21282526472842], [-3.9194274591677045, 51.210345468026844], [-3.920021528456498, 51.21249963919381]]]}}, {"type": "Feature", "properties": {"type": "postcode-cell", "postcode": "EX31 4QS", "postcodes": ["EX31 4QS"]}, "geometry": {"type": "Polygon", "coordinates": [[[-3.9222438551779297, 51.21564865864868], [-3.917965608609634, 51.22171784029531], [-3.912186720707082, 51.21834498777262], [-3.920021528456498, 51.21249963919381], [-3.9222438551779297, 51.21564865864868]]]}}, {"type": "Feature", "properties": {"type": "postcode-cell", "postcode": "EX31 4QU", "postcodes": ["EX31 4QU"]}, "geometry": {"type": "Polygon", "coordinates": [[[-3.901863717509468, 51.21282526472842], [-3.9033968716261485, 51.21551785429562], [-3.9008678211530903, 51.22293308372997], [-3.88672274034731, 51.21911887114191], [-3.8948339525759974, 51.21015585755624], [-3.8967004425473624, 51.20981599834565], [-3.901863717509468, 51.21282526472842]]]}}, {"type": "Feature", "properties": {"type": "postcode-cell", "postcode": "EX31 4QW", "postcodes": ["EX31 4QW"]}, "geometry": {"type": "Polygon", "coordinates": [[[-3.919856342634622, 51.20282870534811], [-3.898230566297332, 51.206725554088536], [-3.8974888965923253, 51.199557874819654], [-3.9145878851569695, 51.1968554204897], [-3.919856342634622, 51.20282870534811]]]}}, {"type": "Feature", "properties": {"type": "postcode-cell", "postcode": "EX31 4ZQ", "postcodes": ["EX31 4ZQ"]}, "geometry": {"type": "Polygon", "coordinates": [[[-3.906955404256815, 51.18815716531619], [-3.9051361623721603, 51.18479426795208], [-3.9053918430396344, 51.18248133618922], [-3.9080244491146328, 51.187963636359555], [-3.90721068110005, 51.18824856258966], [-3.906955404256815, 51.18815716531619]]]}}, {"type": "Feature", "properties": {"type": "postcode-cell", "postcode": "EX31 4QQ", "postcodes": ["EX31 4QQ"]}, "geometry": {"type": "Polygon", "coordinates": [[[-3.90721068110005, 51.18824856258966], [-3.905677225342379, 51.19126923256332], [-3.9048575910435397, 51.18876158286748], [-3.90594334258599, 51.18793015273716], [-3.906955404256815, 51.18815716531619], [-3.90721068110005, 51.18824856258966]]]}}, {"type": "Feature", "properties": {"type": "postcode-cell", "postcode": "EX31 4QN", "postcodes": ["EX31 4QN"]}, "geometry": {"type": "Polygon", "coordinates": [[[-3.9145878851569695, 51.1968554204897], [-3.8974888965923253, 51.199557874819654], [-3.896193814002252, 51.19829018894803], [-3.899557499164408, 51.19247758100597], [-3.905648708025787, 51.191437555583946], [-3.913008542599208, 51.192461011654046], [-3.914951863823652, 51.19568772368865], [-3.9145878851569695, 51.1968554204897]]]}}, {"type": "Feature", "properties": {"type": "postcode-cell", "postcode": "EX31 4RL", "postcodes": ["EX31 4RL"]}, "geometry": {"type": "Polygon", "coordinates": [[[-3.9078066734898718, 51.17257432696489], [-3.905040821434765, 51.177980785891535], [-3.89996083287436, 51.18382540379503], [-3.8927047510060855, 51.18754923593243], [-3.8766325576092053, 51.186257419684274], [-3.8676177383232138, 51.175621258273644], [-3.871519989761989, 51.1755499951053], [-3.884679989771546, 51.17399999510398], [-3.8901799897752527, 51.173989995103966], [-3.8917099897759617, 51.17470999510455], [-3.895779989777128, 51.17821999510746], [-3.896129989776721, 51.17964999510865], [-3.8968799897769966, 51.180159995109065], [-3.896919989776809, 51.18063999510946], [-3.898169989777578, 51.180799995109574], [-3.8971199897774964, 51.179409995108436], [-3.8974199897781396, 51.17842999510761], [-3.8990699897798513, 51.177089995106485], [-3.899349989780366, 51.17636999510591], [-3.8979499897799905, 51.175099995104866], [-3.8976399897805742, 51.173339995103404], [-3.8964699897805075, 51.171729995102076], [-3.8960099897808593, 51.17025999510086], [-3.895319989780616, 51.169759995100435], [-3.8953999897810125, 51.168999995099824], [-3.9008899897839, 51.170809995101294], [-3.9076377867243344, 51.17222595623161], [-3.9078066734898718, 51.17257432696489]]]}}, {"type": "Feature", "properties": {"type": "postcode-cell", "postcode": "EX31 4PR", "postcodes": ["EX31 4PR"]}, "geometry": {"type": "Polygon", "coordinates": [[[-3.913008542599208, 51.192461011654046], [-3.905648708025787, 51.191437555583946], [-3.905677225342379, 51.19126923256332], [-3.90721068110005, 51.18824856258966], [-3.9080244491146328, 51.187963636359555], [-3.914900844758424, 51.188311781330064], [-3.913008542599208, 51.192461011654046]]]}}, {"type": "Feature", "properties": {"type": "postcode-cell", "postcode": "EX35 6JH", "postcodes": ["EX35 6JH"]}, "geometry": {"type": "Polygon", "coordinates": [[[-3.844248400353176, 51.23302735069509], [-3.8448010452650188, 51.232402934181934], [-3.853892222834207, 51.225401494836134], [-3.858620234252367, 51.230128980583096], [-3.8597949496255692, 51.23151380939863], [-3.859239989728198, 51.23229999515237], [-3.857179989726544, 51.23288999515285], [-3.8571699897263643, 51.233279995153175], [-3.8568599897262588, 51.233049995152996], [-3.855919989725535, 51.23324999515313], [-3.855509989725054, 51.2336999951535], [-3.8549899897247104, 51.233689995153505], [-3.8547499897242794, 51.23428999515402], [-3.8540999897238777, 51.234209995153954], [-3.8537399897234743, 51.23456999515427], [-3.849719989720629, 51.23486999515451], [-3.8486999897200374, 51.234659995154324], [-3.8485099897197923, 51.23491999515454], [-3.845719989717774, 51.23522999515481], [-3.844199989716839, 51.235029995154655], [-3.8440459572083214, 51.235048480708194], [-3.844248400353176, 51.23302735069509]]]}}, {"type": "Feature", "properties": {"type": "postcode-cell", "postcode": "EX31 4RJ", "postcodes": ["EX31 4RJ"]}, "geometry": {"type": "Polygon", "coordinates": [[[-3.8927047510060855, 51.18754923593243], [-3.89996083287436, 51.18382540379503], [-3.900977690187279, 51.18850741840131], [-3.899186181440819, 51.19179077659357], [-3.8927047510060855, 51.18754923593243]]]}}, {"type": "Feature", "properties": {"type": "postcode-cell", "postcode": "EX31 4RG", "postcodes": ["EX31 4RG"]}, "geometry": {"type": "Polygon", "coordinates": [[[-3.899186181440819, 51.19179077659357], [-3.899557499164408, 51.19247758100597], [-3.896193814002252, 51.19829018894803], [-3.878728744268922, 51.1945098671861], [-3.8766325576092053, 51.186257419684274], [-3.8927047510060855, 51.18754923593243], [-3.899186181440819, 51.19179077659357]]]}}, {"type": "Feature", "properties": {"type": "postcode-cell", "postcode": "EX31 4QG", "postcodes": ["EX31 4QG"]}, "geometry": {"type": "Polygon", "coordinates": [[[-3.906955404256815, 51.18815716531619], [-3.90594334258599, 51.18793015273716], [-3.9046551951934627, 51.187197508673755], [-3.9051361623721603, 51.18479426795208], [-3.906955404256815, 51.18815716531619]]]}}, {"type": "Feature", "properties": {"type": "postcode-cell", "postcode": "EX31 4QL", "postcodes": ["EX31 4QL"]}, "geometry": {"type": "Polygon", "coordinates": [[[-3.905677225342379, 51.19126923256332], [-3.905648708025787, 51.191437555583946], [-3.899557499164408, 51.19247758100597], [-3.899186181440819, 51.19179077659357], [-3.900977690187279, 51.18850741840131], [-3.903868128006539, 51.187825320555355], [-3.9048575910435397, 51.18876158286748], [-3.905677225342379, 51.19126923256332]]]}}, {"type": "Feature", "properties": {"type": "postcode-cell", "postcode": "EX31 4RA", "postcodes": ["EX31 4RA"]}, "geometry": {"type": "Polygon", "coordinates": [[[-3.8974888965923253, 51.199557874819654], [-3.898230566297332, 51.206725554088536], [-3.8967004425473624, 51.20981599834565], [-3.8948339525759974, 51.21015585755624], [-3.8800607304266044, 51.208393181810564], [-3.8746876195907247, 51.1987023524153], [-3.878728744268922, 51.1945098671861], [-3.896193814002252, 51.19829018894803], [-3.8974888965923253, 51.199557874819654]]]}}, {"type": "Feature", "properties": {"type": "postcode-cell", "postcode": "EX31 4QH", "postcodes": ["EX31 4QH"]}, "geometry": {"type": "Polygon", "coordinates": [[[-3.90594334258599, 51.18793015273716], [-3.9048575910435397, 51.18876158286748], [-3.903868128006539, 51.187825320555355], [-3.9046551951934627, 51.187197508673755], [-3.90594334258599, 51.18793015273716]]]}}, {"type": "Feature", "properties": {"type": "postcode-cell", "postcode": "EX35 6PU", "postcodes": ["EX35 6PU"]}, "geometry": {"type": "Polygon", "coordinates": [[[-3.7880956466156137, 51.17916014872014], [-3.7867914124545345, 51.20376191700956], [-3.784314583020405, 51.209474391454485], [-3.7653694932252204, 51.21194488040724], [-3.7568374194646887, 51.17729337803704], [-3.7572999896847405, 51.177309995107095], [-3.7771799896997207, 51.173509995103906], [-3.7821099897035664, 51.172279995102876], [-3.786299989706524, 51.17192999510258], [-3.7868158098115243, 51.17198975248536], [-3.7880956466156137, 51.17916014872014]]]}}, {"type": "Feature", "properties": {"type": "postcode-cell", "postcode": "EX35 6PZ", "postcodes": ["EX35 6PZ"]}, "geometry": {"type": "Polygon", "coordinates": [[[-3.8570674622500376, 51.198147243218784], [-3.850263954719219, 51.20111456946239], [-3.842858942752862, 51.20091393851662], [-3.8301586907594327, 51.17717436607199], [-3.8322799897347344, 51.17755999510708], [-3.8384499897390802, 51.17709999510668], [-3.839819989740194, 51.17666999510636], [-3.840379989740938, 51.17584999510565], [-3.8419299897421078, 51.175559995105395], [-3.8417099897422817, 51.174849995104815], [-3.8421799897429243, 51.17411999510419], [-3.8435599897441595, 51.17343999510364], [-3.8476265245286387, 51.17385512821254], [-3.8570674622500376, 51.198147243218784]]]}}, {"type": "Feature", "properties": {"type": "postcode-cell", "postcode": "EX31 4QX", "postcodes": ["EX31 4QX"]}, "geometry": {"type": "Polygon", "coordinates": [[[-3.9011824116755722, 51.22633094423225], [-3.8992599897581792, 51.22569999514682], [-3.898269989757519, 51.225679995146805], [-3.8981899897573054, 51.2260399951471], [-3.8971999897567065, 51.225879995146954], [-3.897359989757046, 51.22535999514654], [-3.8969899897566713, 51.22563999514675], [-3.8962899897563537, 51.22528999514648], [-3.896119989756064, 51.225679995146805], [-3.8961199897566114, 51.22445999514579], [-3.8922999897542, 51.22407999514547], [-3.8920299897541573, 51.22376999514521], [-3.890459989752839, 51.2243399951457], [-3.8900999897523727, 51.22483999514611], [-3.8895899897521407, 51.224589995145905], [-3.8897699897521782, 51.22477999514605], [-3.889229989751843, 51.22471999514603], [-3.8889799897514714, 51.22516999514637], [-3.8886699897513677, 51.2249299951462], [-3.8872799897502004, 51.2254399951466], [-3.887399989750167, 51.22569999514683], [-3.8868399897499475, 51.22533999514652], [-3.886179989749371, 51.22562999514677], [-3.8853999897490503, 51.2251699951464], [-3.8852499897487838, 51.225539995146704], [-3.884919989748679, 51.22527999514647], [-3.8847599897483507, 51.225769995146905], [-3.8838899897478614, 51.2255499951467], [-3.8827999897466374, 51.22663999514762], [-3.8828499897463167, 51.227429995148256], [-3.882099989745782, 51.22748999514833], [-3.882569989745879, 51.227979995148715], [-3.8820999897455364, 51.22803999514878], [-3.8816299897453663, 51.2277099951485], [-3.881369989745067, 51.227979995148715], [-3.881062794844787, 51.22838628916879], [-3.878564367806982, 51.22380072170284], [-3.88672274034731, 51.21911887114191], [-3.9008678211530903, 51.22293308372997], [-3.9011824116755722, 51.22633094423225]]]}}, {"type": "Feature", "properties": {"type": "postcode-cell", "postcode": "EX31 4RF", "postcodes": ["EX31 4RF"]}, "geometry": {"type": "Polygon", "coordinates": [[[-3.8746876195907247, 51.1987023524153], [-3.8646578636462503, 51.200430450581244], [-3.8570674622500376, 51.198147243218784], [-3.8476265245286387, 51.17385512821254], [-3.852279989749611, 51.17432999510436], [-3.8610999897549005, 51.1757399951055], [-3.8676177383232138, 51.175621258273644], [-3.8766325576092053, 51.186257419684274], [-3.878728744268922, 51.1945098671861], [-3.8746876195907247, 51.1987023524153]]]}}, {"type": "Feature", "properties": {"type": "postcode-cell", "postcode": "EX35 6JJ", "postcodes": ["EX35 6JJ"]}, "geometry": {"type": "Polygon", "coordinates": [[[-3.858620234252367, 51.230128980583096], [-3.8774795914872455, 51.22324488256789], [-3.878564367806982, 51.22380072170284], [-3.881062794844787, 51.22838628916879], [-3.880749989744283, 51.228799995149394], [-3.88089998974417, 51.2292799951498], [-3.880859989744114, 51.22933999514988], [-3.878879989743127, 51.228559995149205], [-3.8788199897429556, 51.22885999514946], [-3.878439989742705, 51.22883999514943], [-3.878349989742994, 51.22805999514881], [-3.8773899897425306, 51.22764999514847], [-3.876619989741919, 51.22784999514863], [-3.876249989741888, 51.22736999514824], [-3.8755799897412775, 51.227719995148504], [-3.8750099897409545, 51.22757999514841], [-3.875039989740747, 51.22808999514885], [-3.8738299897401944, 51.22749999514835], [-3.87368998974028, 51.227099995148016], [-3.8727099897396413, 51.22704999514797], [-3.8728699897395775, 51.227429995148285], [-3.8724699897394603, 51.227089995148006], [-3.871659989738578, 51.227839995148635], [-3.872599989738525, 51.2293699951499], [-3.8724299897380825, 51.23009999515052], [-3.8715999897375264, 51.23008999515049], [-3.872079989737636, 51.23056999515091], [-3.8713799897372683, 51.2303399951507], [-3.871939989737237, 51.23124999515148], [-3.870299989736141, 51.231219995151434], [-3.8709099897364316, 51.23148999515167], [-3.870069989735836, 51.23155999515173], [-3.8698599897357027, 51.231539995151714], [-3.8689599897353055, 51.23106999515133], [-3.8641099897318503, 51.231479995151666], [-3.863549989731604, 51.23118999515142], [-3.8635799897314387, 51.23159999515177], [-3.8630199897313062, 51.23105999515133], [-3.861519989730426, 51.23076999515107], [-3.8600799897293, 51.23110999515136], [-3.8597949496255692, 51.23151380939863], [-3.858620234252367, 51.230128980583096]]]}}, {"type": "Feature", "properties": {"type": "postcode-cell", "postcode": "EX35 6JW", "postcodes": ["EX35 6JW"]}, "geometry": {"type": "Polygon", "coordinates": [[[-3.88672274034731, 51.21911887114191], [-3.878564367806982, 51.22380072170284], [-3.8774795914872455, 51.22324488256789], [-3.8707114044516664, 51.21945158864251], [-3.870552802177113, 51.21844595243515], [-3.8733439868821162, 51.21214285104659], [-3.8800607304266044, 51.208393181810564], [-3.8948339525759974, 51.21015585755624], [-3.88672274034731, 51.21911887114191]]]}}, {"type": "Feature", "properties": {"type": "postcode-cell", "postcode": "EX35 6PY", "postcodes": ["EX35 6PY"]}, "geometry": {"type": "Polygon", "coordinates": [[[-3.8664465770612004, 51.20917552218149], [-3.8629351832102476, 51.20487082153702], [-3.8646578636462503, 51.200430450581244], [-3.8746876195907247, 51.1987023524153], [-3.8800607304266044, 51.208393181810564], [-3.8733439868821162, 51.21214285104659], [-3.8664465770612004, 51.20917552218149]]]}}, {"type": "Feature", "properties": {"type": "postcode-cell", "postcode": "EX35 6JP", "postcodes": ["EX35 6JP"]}, "geometry": {"type": "Polygon", "coordinates": [[[-3.8733439868821162, 51.21214285104659], [-3.870552802177113, 51.21844595243515], [-3.8552193007888715, 51.21228051465443], [-3.8664465770612004, 51.20917552218149], [-3.8733439868821162, 51.21214285104659]]]}}, {"type": "Feature", "properties": {"type": "postcode-cell", "postcode": "EX35 6JL", "postcodes": ["EX35 6JL"]}, "geometry": {"type": "Polygon", "coordinates": [[[-3.8774795914872455, 51.22324488256789], [-3.858620234252367, 51.230128980583096], [-3.853892222834207, 51.225401494836134], [-3.853742103823445, 51.224330713839485], [-3.8537414492844717, 51.22431834631227], [-3.8707114044516664, 51.21945158864251], [-3.8774795914872455, 51.22324488256789]]]}}, {"type": "Feature", "properties": {"type": "postcode-cell", "postcode": "EX35 6JS", "postcodes": ["EX35 6JS"]}, "geometry": {"type": "Polygon", "coordinates": [[[-3.870552802177113, 51.21844595243515], [-3.8707114044516664, 51.21945158864251], [-3.8537414492844717, 51.22431834631227], [-3.8495433598028486, 51.22190795928287], [-3.854329065494243, 51.21215578717488], [-3.8552193007888715, 51.21228051465443], [-3.870552802177113, 51.21844595243515]]]}}, {"type": "Feature", "properties": {"type": "postcode-cell", "postcode": "EX35 6JR", "postcodes": ["EX35 6JR"]}, "geometry": {"type": "Polygon", "coordinates": [[[-3.8664465770612004, 51.20917552218149], [-3.8552193007888715, 51.21228051465443], [-3.854329065494243, 51.21215578717488], [-3.852218579677055, 51.210193512557225], [-3.853227379439725, 51.20854919999747], [-3.8629351832102476, 51.20487082153702], [-3.8664465770612004, 51.20917552218149]]]}}, {"type": "Feature", "properties": {"type": "postcode-cell", "postcode": "EX35 6QA", "postcodes": ["EX35 6QA"]}, "geometry": {"type": "Polygon", "coordinates": [[[-3.853227379439725, 51.20854919999747], [-3.850263954719219, 51.20111456946239], [-3.8570674622500376, 51.198147243218784], [-3.8646578636462503, 51.200430450581244], [-3.8629351832102476, 51.20487082153702], [-3.853227379439725, 51.20854919999747]]]}}, {"type": "Feature", "properties": {"type": "postcode-cell", "postcode": "EX35 6PH", "postcodes": ["EX35 6PH"]}, "geometry": {"type": "Polygon", "coordinates": [[[-3.853227379439725, 51.20854919999747], [-3.852218579677055, 51.210193512557225], [-3.8501867420104476, 51.21018052628706], [-3.8364283886162505, 51.20705690190688], [-3.835569614833809, 51.20678991120973], [-3.835471976210238, 51.20672998919074], [-3.842858942752862, 51.20091393851662], [-3.850263954719219, 51.20111456946239], [-3.853227379439725, 51.20854919999747]]]}}, {"type": "Feature", "properties": {"type": "postcode-cell", "postcode": "EX35 6JT", "postcodes": ["EX35 6JT"]}, "geometry": {"type": "Polygon", "coordinates": [[[-3.854329065494243, 51.21215578717488], [-3.8495433598028486, 51.22190795928287], [-3.847322975475074, 51.221584107199796], [-3.844665230405302, 51.21974113879523], [-3.843783516880518, 51.21746599265736], [-3.8464587570791284, 51.21273036262165], [-3.8501867420104476, 51.21018052628706], [-3.852218579677055, 51.210193512557225], [-3.854329065494243, 51.21215578717488]]]}}, {"type": "Feature", "properties": {"type": "postcode-cell", "postcode": "EX35 6DJ", "postcodes": ["EX35 6DJ"]}, "geometry": {"type": "Polygon", "coordinates": [[[-3.853892222834207, 51.225401494836134], [-3.8448010452650188, 51.232402934181934], [-3.84470725282757, 51.232285236596475], [-3.842382243104236, 51.22883799709023], [-3.8424745485109932, 51.22808747604423], [-3.853742103823445, 51.224330713839485], [-3.853892222834207, 51.225401494836134]]]}}, {"type": "Feature", "properties": {"type": "postcode-cell", "postcode": "EX35 6PA", "postcodes": ["EX35 6PA"]}, "geometry": {"type": "Polygon", "coordinates": [[[-3.844665230405302, 51.21974113879523], [-3.8339482304232995, 51.21763282846777], [-3.8358787785147315, 51.215605299258314], [-3.842448621190168, 51.216104934884626], [-3.8424832385080725, 51.216117575218455], [-3.843783516880518, 51.21746599265736], [-3.844665230405302, 51.21974113879523]]]}}, {"type": "Feature", "properties": {"type": "postcode-cell", "postcode": "EX35 6PQ", "postcodes": ["EX35 6PQ"]}, "geometry": {"type": "Polygon", "coordinates": [[[-3.8501867420104476, 51.21018052628706], [-3.8464587570791284, 51.21273036262165], [-3.8437716926758907, 51.21324998658947], [-3.8383973490568453, 51.209070646309556], [-3.8364283886162505, 51.20705690190688], [-3.8501867420104476, 51.21018052628706]]]}}, {"type": "Feature", "properties": {"type": "postcode-cell", "postcode": "EX35 6LA", "postcodes": ["EX35 6LA"]}, "geometry": {"type": "Polygon", "coordinates": [[[-3.853742103823445, 51.224330713839485], [-3.8424745485109932, 51.22808747604423], [-3.8419061288421665, 51.22797981395807], [-3.843010553358045, 51.22301740147535], [-3.8430375135772157, 51.22299947657983], [-3.847322975475074, 51.221584107199796], [-3.8495433598028486, 51.22190795928287], [-3.8537414492844717, 51.22431834631227], [-3.853742103823445, 51.224330713839485]]]}}, {"type": "Feature", "properties": {"type": "postcode-cell", "postcode": "EX35 6PE", "postcodes": ["EX35 6PE"]}, "geometry": {"type": "Polygon", "coordinates": [[[-3.8437716926758907, 51.21324998658947], [-3.8464587570791284, 51.21273036262165], [-3.843783516880518, 51.21746599265736], [-3.8424832385080725, 51.216117575218455], [-3.8422492568729467, 51.21415901428734], [-3.8425260011338453, 51.21371880566999], [-3.8437716926758907, 51.21324998658947]]]}}, {"type": "Feature", "properties": {"type": "postcode-cell", "postcode": "EX35 6PG", "postcodes": ["EX35 6PG"]}, "geometry": {"type": "Polygon", "coordinates": [[[-3.8425260011338453, 51.21371880566999], [-3.8383973490568453, 51.209070646309556], [-3.8437716926758907, 51.21324998658947], [-3.8425260011338453, 51.21371880566999]]]}}, {"type": "Feature", "properties": {"type": "postcode-cell", "postcode": "EX35 6PF", "postcodes": ["EX35 6PF"]}, "geometry": {"type": "Polygon", "coordinates": [[[-3.8364283886162505, 51.20705690190688], [-3.8383973490568453, 51.209070646309556], [-3.8425260011338453, 51.21371880566999], [-3.8422492568729467, 51.21415901428734], [-3.8372616237062376, 51.21281573311606], [-3.835569614833809, 51.20678991120973], [-3.8364283886162505, 51.20705690190688]]]}}, {"type": "Feature", "properties": {"type": "postcode-cell", "postcode": "EX35 6LN", "postcodes": ["EX35 6LN"]}, "geometry": {"type": "Polygon", "coordinates": [[[-3.842858942752862, 51.20091393851662], [-3.835471976210238, 51.20672998919074], [-3.8257255784014257, 51.20654527291319], [-3.8074148620345483, 51.17782112584576], [-3.811889989721043, 51.17762999510719], [-3.8155699897231132, 51.1784999951079], [-3.8175199897244063, 51.178529995107944], [-3.824359989730078, 51.176119995105914], [-3.8301586907594327, 51.17717436607199], [-3.842858942752862, 51.20091393851662]]]}}, {"type": "Feature", "properties": {"type": "postcode-cell", "postcode": "EX35 6DQ", "postcodes": ["EX35 6DQ"]}, "geometry": {"type": "Polygon", "coordinates": [[[-3.84470725282757, 51.232285236596475], [-3.840782826762006, 51.228550474681775], [-3.841009957678842, 51.22830729310539], [-3.842382243104236, 51.22883799709023], [-3.84470725282757, 51.232285236596475]]]}}, {"type": "Feature", "properties": {"type": "postcode-cell", "postcode": "EX35 6DL", "postcodes": ["EX35 6DL"]}, "geometry": {"type": "Polygon", "coordinates": [[[-3.842382243104236, 51.22883799709023], [-3.841009957678842, 51.22830729310539], [-3.8410428761699333, 51.228094874212736], [-3.8419061288421665, 51.22797981395807], [-3.8424745485109932, 51.22808747604423], [-3.842382243104236, 51.22883799709023]]]}}, {"type": "Feature", "properties": {"type": "postcode-cell", "postcode": "EX35 6PD", "postcodes": ["EX35 6PD"]}, "geometry": {"type": "Polygon", "coordinates": [[[-3.842448621190168, 51.216104934884626], [-3.837229926936568, 51.213885687652414], [-3.8372616237062376, 51.21281573311606], [-3.8422492568729467, 51.21415901428734], [-3.8424832385080725, 51.216117575218455], [-3.842448621190168, 51.216104934884626]]]}}, {"type": "Feature", "properties": {"type": "postcode-cell", "postcode": "EX35 6DH", "postcodes": ["EX35 6DH"]}, "geometry": {"type": "Polygon", "coordinates": [[[-3.8448010452650188, 51.232402934181934], [-3.844248400353176, 51.23302735069509], [-3.8417736289878115, 51.23189135274095], [-3.84149177894566, 51.23154788507054], [-3.839902820421015, 51.22895006386634], [-3.840006623204956, 51.22884220098762], [-3.840782826762006, 51.228550474681775], [-3.84470725282757, 51.232285236596475], [-3.8448010452650188, 51.232402934181934]]]}}, {"type": "Feature", "properties": {"type": "postcode-cell", "postcode": "EX35 6DG", "postcodes": ["EX35 6DG"]}, "geometry": {"type": "Polygon", "coordinates": [[[-3.841009957678842, 51.22830729310539], [-3.840782826762006, 51.228550474681775], [-3.840006623204956, 51.22884220098762], [-3.839543355392126, 51.228180062318195], [-3.840285601109034, 51.22736286870412], [-3.8410428761699333, 51.228094874212736], [-3.841009957678842, 51.22830729310539]]]}}, {"type": "Feature", "properties": {"type": "postcode-cell", "postcode": "EX35 6LL", "postcodes": ["EX35 6LL"]}, "geometry": {"type": "Polygon", "coordinates": [[[-3.837229926936568, 51.213885687652414], [-3.8358787785147315, 51.215605299258314], [-3.8339482304232995, 51.21763282846777], [-3.8333047094738495, 51.217731351048954], [-3.822392132295328, 51.21202787651455], [-3.822557470195794, 51.20969822822531], [-3.8257255784014257, 51.20654527291319], [-3.835471976210238, 51.20672998919074], [-3.835569614833809, 51.20678991120973], [-3.8372616237062376, 51.21281573311606], [-3.837229926936568, 51.213885687652414]]]}}, {"type": "Feature", "properties": {"type": "postcode-cell", "postcode": "EX35 6DN", "postcodes": ["EX35 6DN"]}, "geometry": {"type": "Polygon", "coordinates": [[[-3.8419061288421665, 51.22797981395807], [-3.8410428761699333, 51.228094874212736], [-3.840285601109034, 51.22736286870412], [-3.8395528928756, 51.22513487615275], [-3.843010553358045, 51.22301740147535], [-3.8419061288421665, 51.22797981395807]]]}}, {"type": "Feature", "properties": {"type": "postcode-cell", "postcode": "EX35 6EW", "postcodes": ["EX35 6EW"]}, "geometry": {"type": "Polygon", "coordinates": [[[-3.8417736289878115, 51.23189135274095], [-3.8385245647755037, 51.23112704909418], [-3.8377718509900354, 51.229661176901345], [-3.837795676413124, 51.22963784257771], [-3.8389403108069247, 51.229571590296565], [-3.84149177894566, 51.23154788507054], [-3.8417736289878115, 51.23189135274095]]]}}, {"type": "Feature", "properties": {"type": "postcode-cell", "postcode": "EX35 6DA", "postcodes": ["EX35 6DA"]}, "geometry": {"type": "Polygon", "coordinates": [[[-3.84149177894566, 51.23154788507054], [-3.8389403108069247, 51.229571590296565], [-3.8390333275563813, 51.22905541850076], [-3.8390713587288054, 51.22899927051299], [-3.8391256547832042, 51.228966944235815], [-3.839902820421015, 51.22895006386634], [-3.84149177894566, 51.23154788507054]]]}}, {"type": "Feature", "properties": {"type": "postcode-cell", "postcode": "EX35 6DD", "postcodes": ["EX35 6DD"]}, "geometry": {"type": "Polygon", "coordinates": [[[-3.840006623204956, 51.22884220098762], [-3.839902820421015, 51.22895006386634], [-3.8391256547832042, 51.228966944235815], [-3.838617624104383, 51.228417252842554], [-3.83868204237539, 51.22825579359792], [-3.839543355392126, 51.228180062318195], [-3.840006623204956, 51.22884220098762]]]}}, {"type": "Feature", "properties": {"type": "postcode-cell", "postcode": "EX35 6NS", "postcodes": ["EX35 6NS"]}, "geometry": {"type": "Polygon", "coordinates": [[[-3.847322975475074, 51.221584107199796], [-3.8430375135772157, 51.22299947657983], [-3.8381966591016274, 51.22247233629543], [-3.8322391223752073, 51.21958351067605], [-3.8333047094738495, 51.217731351048954], [-3.8339482304232995, 51.21763282846777], [-3.844665230405302, 51.21974113879523], [-3.847322975475074, 51.221584107199796]]]}}, {"type": "Feature", "properties": {"type": "postcode-cell", "postcode": "EX35 6PB", "postcodes": ["EX35 6PB"]}, "geometry": {"type": "Polygon", "coordinates": [[[-3.842448621190168, 51.216104934884626], [-3.8358787785147315, 51.215605299258314], [-3.837229926936568, 51.213885687652414], [-3.842448621190168, 51.216104934884626]]]}}, {"type": "Feature", "properties": {"type": "postcode-cell", "postcode": "EX35 6DF", "postcodes": ["EX35 6DF"]}, "geometry": {"type": "Polygon", "coordinates": [[[-3.839543355392126, 51.228180062318195], [-3.83868204237539, 51.22825579359792], [-3.8376934612669062, 51.22692068828308], [-3.8390436724291797, 51.225301797968555], [-3.8395528928756, 51.22513487615275], [-3.840285601109034, 51.22736286870412], [-3.839543355392126, 51.228180062318195]]]}}, {"type": "Feature", "properties": {"type": "postcode-cell", "postcode": "EX35 6HJ", "postcodes": ["EX35 6HJ"]}, "geometry": {"type": "Polygon", "coordinates": [[[-3.8344573824091337, 51.23209906836585], [-3.834857892621636, 51.23196175321019], [-3.838301076629625, 51.23112939612097], [-3.8385245647755037, 51.23112704909418], [-3.8417736289878115, 51.23189135274095], [-3.844248400353176, 51.23302735069509], [-3.8440459572083214, 51.235048480708194], [-3.8416999897150212, 51.23532999515489], [-3.8392299897135063, 51.234999995154624], [-3.83618998971197, 51.2338699951537], [-3.8348699897115557, 51.232819995152845], [-3.8343353654818157, 51.23259643227306], [-3.8344573824091337, 51.23209906836585]]]}}, {"type": "Feature", "properties": {"type": "postcode-cell", "postcode": "EX35 6BG", "postcodes": ["EX35 6BG"]}, "geometry": {"type": "Polygon", "coordinates": [[[-3.8390713587288054, 51.22899927051299], [-3.8382597385582917, 51.22900011893704], [-3.8380312858759256, 51.2285881205245], [-3.838617624104383, 51.228417252842554], [-3.8391256547832042, 51.228966944235815], [-3.8390713587288054, 51.22899927051299]]]}}, {"type": "Feature", "properties": {"type": "postcode-cell", "postcode": "EX35 6BS", "postcodes": ["EX35 6BS"]}, "geometry": {"type": "Polygon", "coordinates": [[[-3.8389403108069247, 51.229571590296565], [-3.837795676413124, 51.22963784257771], [-3.8378141595917024, 51.229583373865495], [-3.8390333275563813, 51.22905541850076], [-3.8389403108069247, 51.229571590296565]]]}}, {"type": "Feature", "properties": {"type": "postcode-cell", "postcode": "EX35 6LB", "postcodes": ["EX35 6LB"]}, "geometry": {"type": "Polygon", "coordinates": [[[-3.843010553358045, 51.22301740147535], [-3.8395528928756, 51.22513487615275], [-3.8390436724291797, 51.225301797968555], [-3.834706384054705, 51.22522331169973], [-3.834423343030467, 51.2240191603447], [-3.834728671721036, 51.223228690381056], [-3.8347913026918294, 51.223163641370206], [-3.8357831309594483, 51.2227591091211], [-3.8381966591016274, 51.22247233629543], [-3.8430375135772157, 51.22299947657983], [-3.843010553358045, 51.22301740147535]]]}}, {"type": "Feature", "properties": {"type": "postcode-cell", "postcode": "EX35 6BY", "postcodes": ["EX35 6BY"]}, "geometry": {"type": "Polygon", "coordinates": [[[-3.8373697814605388, 51.22882947861054], [-3.8378026061426724, 51.22858753878279], [-3.8380312858759256, 51.2285881205245], [-3.8382597385582917, 51.22900011893704], [-3.837800961876648, 51.22924809476822], [-3.8373697814605388, 51.22882947861054]]]}}, {"type": "Feature", "properties": {"type": "postcode-cell", "postcode": "EX35 6HA", "postcodes": ["EX35 6HA"]}, "geometry": {"type": "Polygon", "coordinates": [[[-3.837800961876648, 51.22924809476822], [-3.8378141595917024, 51.229583373865495], [-3.837795676413124, 51.22963784257771], [-3.8377718509900354, 51.229661176901345], [-3.8370121525383873, 51.22964386161944], [-3.8368533116527677, 51.229317151638355], [-3.83712465851544, 51.2288152235102], [-3.8373697814605388, 51.22882947861054], [-3.837800961876648, 51.22924809476822]]]}}, {"type": "Feature", "properties": {"type": "postcode-cell", "postcode": "EX35 6DB", "postcodes": ["EX35 6DB"]}, "geometry": {"type": "Polygon", "coordinates": [[[-3.8378141595917024, 51.229583373865495], [-3.837800961876648, 51.22924809476822], [-3.8382597385582917, 51.22900011893704], [-3.8390713587288054, 51.22899927051299], [-3.8390333275563813, 51.22905541850076], [-3.8378141595917024, 51.229583373865495]]]}}, {"type": "Feature", "properties": {"type": "postcode-cell", "postcode": "EX35 6DE", "postcodes": ["EX35 6DE"]}, "geometry": {"type": "Polygon", "coordinates": [[[-3.838617624104383, 51.228417252842554], [-3.8380312858759256, 51.2285881205245], [-3.8378026061426724, 51.22858753878279], [-3.837247123143558, 51.22771158992379], [-3.8375008072997177, 51.22704198772484], [-3.8376934612669062, 51.22692068828308], [-3.83868204237539, 51.22825579359792], [-3.838617624104383, 51.228417252842554]]]}}, {"type": "Feature", "properties": {"type": "postcode-cell", "postcode": "EX35 6LW", "postcodes": ["EX35 6LW"]}, "geometry": {"type": "Polygon", "coordinates": [[[-3.8375008072997177, 51.22704198772484], [-3.835826458230638, 51.22738168888946], [-3.835223708571521, 51.227358533636334], [-3.834569496081285, 51.227221045476355], [-3.8331357091358633, 51.22576715928378], [-3.834706384054705, 51.22522331169973], [-3.8390436724291797, 51.225301797968555], [-3.8376934612669062, 51.22692068828308], [-3.8375008072997177, 51.22704198772484]]]}}, {"type": "Feature", "properties": {"type": "postcode-cell", "postcode": "EX35 6AU", "postcodes": ["EX35 6AU"]}, "geometry": {"type": "Polygon", "coordinates": [[[-3.837247123143558, 51.22771158992379], [-3.8366120205613488, 51.22837752253527], [-3.8362036319001285, 51.22840731457421], [-3.835788244393624, 51.22815905210076], [-3.835826458230638, 51.22738168888946], [-3.8375008072997177, 51.22704198772484], [-3.837247123143558, 51.22771158992379]]]}}, {"type": "Feature", "properties": {"type": "postcode-cell", "postcode": "EX35 6HF", "postcodes": ["EX35 6HF"]}, "geometry": {"type": "Polygon", "coordinates": [[[-3.8373697814605388, 51.22882947861054], [-3.83712465851544, 51.2288152235102], [-3.836940263378113, 51.22874107573354], [-3.8366120205613488, 51.22837752253527], [-3.837247123143558, 51.22771158992379], [-3.8378026061426724, 51.22858753878279], [-3.8373697814605388, 51.22882947861054]]]}}, {"type": "Feature", "properties": {"type": "postcode-cell", "postcode": "EX35 6BP", "postcodes": ["EX35 6BP"]}, "geometry": {"type": "Polygon", "coordinates": [[[-3.8385245647755037, 51.23112704909418], [-3.838301076629625, 51.23112939612097], [-3.8371210014476653, 51.23060024090192], [-3.8364190717767146, 51.229871610214026], [-3.8370121525383873, 51.22964386161944], [-3.8377718509900354, 51.229661176901345], [-3.8385245647755037, 51.23112704909418]]]}}, {"type": "Feature", "properties": {"type": "postcode-cell", "postcode": "EX35 6BJ", "postcodes": ["EX35 6BJ"]}, "geometry": {"type": "Polygon", "coordinates": [[[-3.8368533116527677, 51.229317151638355], [-3.8362351699170576, 51.22911593301247], [-3.8361989120472253, 51.2290823702317], [-3.836940263378113, 51.22874107573354], [-3.83712465851544, 51.2288152235102], [-3.8368533116527677, 51.229317151638355]]]}}, {"type": "Feature", "properties": {"type": "postcode-cell", "postcode": "EX35 6HD", "postcodes": ["EX35 6HD"]}, "geometry": {"type": "Polygon", "coordinates": [[[-3.8370121525383873, 51.22964386161944], [-3.8364190717767146, 51.229871610214026], [-3.836398148543252, 51.229871020507495], [-3.8362609686767044, 51.22982105255136], [-3.8362351699170576, 51.22911593301247], [-3.8368533116527677, 51.229317151638355], [-3.8370121525383873, 51.22964386161944]]]}}, {"type": "Feature", "properties": {"type": "postcode-cell", "postcode": "EX35 6NE", "postcodes": ["EX35 6NE"]}, "geometry": {"type": "Polygon", "coordinates": [[[-3.7739170577122043, 51.23501742950822], [-3.788288017023151, 51.225127090977224], [-3.7892898587705584, 51.225151116724845], [-3.8058901053326584, 51.23280114282875], [-3.801119989687574, 51.2357199951553], [-3.800959989687219, 51.23626999515576], [-3.799549989686055, 51.23674999515614], [-3.7982099896846133, 51.23795999515714], [-3.79839998968453, 51.238419995157535], [-3.797529989683955, 51.238399995157515], [-3.795309989681563, 51.24039999515917], [-3.7950099896810956, 51.24098999515966], [-3.7957899896812513, 51.24180999516035], [-3.7951899896808547, 51.241789995160325], [-3.794649989680366, 51.24206999516056], [-3.7949799896805034, 51.24225999516073], [-3.794669989680205, 51.2424599951609], [-3.7935199896793184, 51.2427099951611], [-3.792259989677902, 51.24397999516216], [-3.7907299896768394, 51.24405999516223], [-3.789689989675822, 51.24476999516283], [-3.78934998967567, 51.24459999516267], [-3.7894899896756145, 51.244929995162934], [-3.788449989674674, 51.2454699951634], [-3.788729989674686, 51.245859995163705], [-3.788089989674335, 51.245679995163584], [-3.788279989674284, 51.24607999516388], [-3.787859989674075, 51.24591999516377], [-3.7870899896733996, 51.24626999516406], [-3.7870199896733534, 51.24626999516404], [-3.7867299896732476, 51.2460699951639], [-3.785479989672258, 51.246409995164164], [-3.784069989671653, 51.24565999516356], [-3.784289989671987, 51.2452399951632], [-3.7824799896713497, 51.24396999516216], [-3.7824599896715037, 51.243599995161844], [-3.780979989670848, 51.24285999516124], [-3.7807899896706445, 51.243019995161376], [-3.7797199896704727, 51.241819995160384], [-3.777829989669569, 51.241019995159725], [-3.776079989668982, 51.239729995158655], [-3.7732699896675546, 51.23871999515782], [-3.7726143935259087, 51.23862957234109], [-3.7739170577122043, 51.23501742950822]]]}}, {"type": "Feature", "properties": {"type": "postcode-cell", "postcode": "EX35 6HU", "postcodes": ["EX35 6HU"]}, "geometry": {"type": "Polygon", "coordinates": [[[-3.8344573824091337, 51.23209906836585], [-3.8341281352787013, 51.23161159269218], [-3.8350891819783133, 51.23044485309739], [-3.835976413234986, 51.23034969383753], [-3.8361949571435146, 51.230589427352655], [-3.834857892621636, 51.23196175321019], [-3.8344573824091337, 51.23209906836585]]]}}, {"type": "Feature", "properties": {"type": "postcode-cell", "postcode": "EX35 6NR", "postcodes": ["EX35 6NR"]}, "geometry": {"type": "Polygon", "coordinates": [[[-3.8381966591016274, 51.22247233629543], [-3.8357831309594483, 51.2227591091211], [-3.8314610607130013, 51.22030748643477], [-3.8322391223752073, 51.21958351067605], [-3.8381966591016274, 51.22247233629543]]]}}, {"type": "Feature", "properties": {"type": "postcode-cell", "postcode": "EX35 6HE", "postcodes": ["EX35 6HE"]}, "geometry": {"type": "Polygon", "coordinates": [[[-3.8361989120472253, 51.2290823702317], [-3.8360851903954214, 51.22905899772366], [-3.8359775653327923, 51.22889371783764], [-3.836021636108721, 51.228549313742896], [-3.8362036319001285, 51.22840731457421], [-3.8366120205613488, 51.22837752253527], [-3.836940263378113, 51.22874107573354], [-3.8361989120472253, 51.2290823702317]]]}}, {"type": "Feature", "properties": {"type": "postcode-cell", "postcode": "EX35 6HG", "postcodes": ["EX35 6HG"]}, "geometry": {"type": "Polygon", "coordinates": [[[-3.8362609686767044, 51.22982105255136], [-3.835401694546364, 51.22968250170758], [-3.8355528170059188, 51.2292887470037], [-3.8360851903954214, 51.22905899772366], [-3.8361989120472253, 51.2290823702317], [-3.8362351699170576, 51.22911593301247], [-3.8362609686767044, 51.22982105255136]]]}}, {"type": "Feature", "properties": {"type": "postcode-cell", "postcode": "EX35 6HT", "postcodes": ["EX35 6HT"]}, "geometry": {"type": "Polygon", "coordinates": [[[-3.8371210014476653, 51.23060024090192], [-3.8361949571435146, 51.230589427352655], [-3.835976413234986, 51.23034969383753], [-3.836398148543252, 51.229871020507495], [-3.8364190717767146, 51.229871610214026], [-3.8371210014476653, 51.23060024090192]]]}}, {"type": "Feature", "properties": {"type": "postcode-cell", "postcode": "EX35 6HW", "postcodes": ["EX35 6HW"]}, "geometry": {"type": "Polygon", "coordinates": [[[-3.836398148543252, 51.229871020507495], [-3.835976413234986, 51.23034969383753], [-3.8350891819783133, 51.23044485309739], [-3.8350981473280115, 51.22990060433612], [-3.835237318582794, 51.22972640980248], [-3.835401694546364, 51.22968250170758], [-3.8362609686767044, 51.22982105255136], [-3.836398148543252, 51.229871020507495]]]}}, {"type": "Feature", "properties": {"type": "postcode-cell", "postcode": "EX35 6HQ", "postcodes": ["EX35 6HQ"]}, "geometry": {"type": "Polygon", "coordinates": [[[-3.838301076629625, 51.23112939612097], [-3.834857892621636, 51.23196175321019], [-3.8361949571435146, 51.230589427352655], [-3.8371210014476653, 51.23060024090192], [-3.838301076629625, 51.23112939612097]]]}}, {"type": "Feature", "properties": {"type": "postcode-cell", "postcode": "EX35 6AH", "postcodes": ["EX35 6AH"]}, "geometry": {"type": "Polygon", "coordinates": [[[-3.8360851903954214, 51.22905899772366], [-3.8355528170059188, 51.2292887470037], [-3.8354913968223427, 51.229231941113795], [-3.8355117777242667, 51.22886396490728], [-3.8359775653327923, 51.22889371783764], [-3.8360851903954214, 51.22905899772366]]]}}, {"type": "Feature", "properties": {"type": "postcode-cell", "postcode": "EX35 6AW", "postcodes": ["EX35 6AW"]}, "geometry": {"type": "Polygon", "coordinates": [[[-3.8359775653327923, 51.22889371783764], [-3.8355117777242667, 51.22886396490728], [-3.835333167291923, 51.228775867335216], [-3.8353315371776513, 51.228754085911426], [-3.8355545860754416, 51.22859455556912], [-3.836021636108721, 51.228549313742896], [-3.8359775653327923, 51.22889371783764]]]}}, {"type": "Feature", "properties": {"type": "postcode-cell", "postcode": "EX35 6AP", "postcodes": ["EX35 6AP"]}, "geometry": {"type": "Polygon", "coordinates": [[[-3.836021636108721, 51.228549313742896], [-3.8355545860754416, 51.22859455556912], [-3.835358766832766, 51.22843189215653], [-3.835458463696753, 51.22820857957446], [-3.835788244393624, 51.22815905210076], [-3.8362036319001285, 51.22840731457421], [-3.836021636108721, 51.228549313742896]]]}}, {"type": "Feature", "properties": {"type": "postcode-cell", "postcode": "EX35 6LJ", "postcodes": ["EX35 6LJ"]}, "geometry": {"type": "Polygon", "coordinates": [[[-3.7868158098115243, 51.17198975248536], [-3.793379989710877, 51.17274999510323], [-3.795989989711812, 51.17453999510471], [-3.8062699897171757, 51.17786999510741], [-3.8074148620345483, 51.17782112584576], [-3.8257255784014257, 51.20654527291319], [-3.822557470195794, 51.20969822822531], [-3.809717207250493, 51.209278651104555], [-3.7992253529090645, 51.19741391367396], [-3.7880956466156137, 51.17916014872014], [-3.7868158098115243, 51.17198975248536]]]}}, {"type": "Feature", "properties": {"type": "postcode-cell", "postcode": "EX35 6LD", "postcodes": ["EX35 6LD"]}, "geometry": {"type": "Polygon", "coordinates": [[[-3.8322391223752073, 51.21958351067605], [-3.8314610607130013, 51.22030748643477], [-3.8306960910854926, 51.2208463226992], [-3.82817490099936, 51.222226801371534], [-3.8274279171566357, 51.22258681107011], [-3.824745281799357, 51.22366768332358], [-3.8155009064199685, 51.222649250871875], [-3.8147928727152784, 51.22175849745878], [-3.822392132295328, 51.21202787651455], [-3.8333047094738495, 51.217731351048954], [-3.8322391223752073, 51.21958351067605]]]}}, {"type": "Feature", "properties": {"type": "postcode-cell", "postcode": "EX35 6HS", "postcodes": ["EX35 6HS"]}, "geometry": {"type": "Polygon", "coordinates": [[[-3.8341281352787013, 51.23161159269218], [-3.833925485549521, 51.23146921384127], [-3.8340620034246538, 51.229974591903755], [-3.8350981473280115, 51.22990060433612], [-3.8350891819783133, 51.23044485309739], [-3.8341281352787013, 51.23161159269218]]]}}, {"type": "Feature", "properties": {"type": "postcode-cell", "postcode": "EX35 6EQ", "postcodes": ["EX35 6EQ"]}, "geometry": {"type": "Polygon", "coordinates": [[[-3.8341281352787013, 51.23161159269218], [-3.8344573824091337, 51.23209906836585], [-3.8343353654818157, 51.23259643227306], [-3.832669989710486, 51.23189999515206], [-3.8307099897091037, 51.23204999515221], [-3.8311846411544046, 51.23164979916261], [-3.8330297882111406, 51.23104887649123], [-3.833925485549521, 51.23146921384127], [-3.8341281352787013, 51.23161159269218]]]}}, {"type": "Feature", "properties": {"type": "postcode-cell", "postcode": "EX35 6AD", "postcodes": ["EX35 6AD"]}, "geometry": {"type": "Polygon", "coordinates": [[[-3.835237318582794, 51.22972640980248], [-3.8351646396059853, 51.22969054355987], [-3.834751095882811, 51.229148373939665], [-3.834902422942433, 51.229006099460335], [-3.835048344027626, 51.22899809155333], [-3.8354913968223427, 51.229231941113795], [-3.8355528170059188, 51.2292887470037], [-3.835401694546364, 51.22968250170758], [-3.835237318582794, 51.22972640980248]]]}}, {"type": "Feature", "properties": {"type": "postcode-cell", "postcode": "EX35 6AT", "postcodes": ["EX35 6AT"]}, "geometry": {"type": "Polygon", "coordinates": [[[-3.835826458230638, 51.22738168888946], [-3.835788244393624, 51.22815905210076], [-3.835458463696753, 51.22820857957446], [-3.835124388374295, 51.22812859117866], [-3.835223708571521, 51.227358533636334], [-3.835826458230638, 51.22738168888946]]]}}, {"type": "Feature", "properties": {"type": "postcode-cell", "postcode": "EX35 6BD", "postcodes": ["EX35 6BD"]}, "geometry": {"type": "Polygon", "coordinates": [[[-3.834728671721036, 51.223228690381056], [-3.8336575384412526, 51.22318086468616], [-3.82817490099936, 51.222226801371534], [-3.8306960910854926, 51.2208463226992], [-3.8347913026918294, 51.223163641370206], [-3.834728671721036, 51.223228690381056]]]}}, {"type": "Feature", "properties": {"type": "postcode-cell", "postcode": "EX35 6AN", "postcodes": ["EX35 6AN"]}, "geometry": {"type": "Polygon", "coordinates": [[[-3.8353315371776513, 51.228754085911426], [-3.834853096614031, 51.228537471743714], [-3.8348443967743773, 51.22851063965086], [-3.835358766832766, 51.22843189215653], [-3.8355545860754416, 51.22859455556912], [-3.8353315371776513, 51.228754085911426]]]}}, {"type": "Feature", "properties": {"type": "postcode-cell", "postcode": "EX35 6AJ", "postcodes": ["EX35 6AJ"]}, "geometry": {"type": "Polygon", "coordinates": [[[-3.8354913968223427, 51.229231941113795], [-3.835048344027626, 51.22899809155333], [-3.835333167291923, 51.228775867335216], [-3.8355117777242667, 51.22886396490728], [-3.8354913968223427, 51.229231941113795]]]}}, {"type": "Feature", "properties": {"type": "postcode-cell", "postcode": "EX35 6AS", "postcodes": ["EX35 6AS"]}, "geometry": {"type": "Polygon", "coordinates": [[[-3.835458463696753, 51.22820857957446], [-3.835358766832766, 51.22843189215653], [-3.8348443967743773, 51.22851063965086], [-3.8346112455769847, 51.22829637298359], [-3.835124388374295, 51.22812859117866], [-3.835458463696753, 51.22820857957446]]]}}, {"type": "Feature", "properties": {"type": "postcode-cell", "postcode": "EX35 6AL", "postcodes": ["EX35 6AL"]}, "geometry": {"type": "Polygon", "coordinates": [[[-3.835048344027626, 51.22899809155333], [-3.834902422942433, 51.229006099460335], [-3.834689183150356, 51.22880968068105], [-3.834853096614031, 51.228537471743714], [-3.8353315371776513, 51.228754085911426], [-3.835333167291923, 51.228775867335216], [-3.835048344027626, 51.22899809155333]]]}}, {"type": "Feature", "properties": {"type": "postcode-cell", "postcode": "EX35 6AG", "postcodes": ["EX35 6AG"]}, "geometry": {"type": "Polygon", "coordinates": [[[-3.834853096614031, 51.228537471743714], [-3.834689183150356, 51.22880968068105], [-3.833832256562678, 51.22886665964341], [-3.8333057791076834, 51.22837429690701], [-3.833301967457996, 51.22834286651585], [-3.8338889971670915, 51.22813024349012], [-3.8346112455769847, 51.22829637298359], [-3.8348443967743773, 51.22851063965086], [-3.834853096614031, 51.228537471743714]]]}}, {"type": "Feature", "properties": {"type": "postcode-cell", "postcode": "EX35 6AR", "postcodes": ["EX35 6AR"]}, "geometry": {"type": "Polygon", "coordinates": [[[-3.835124388374295, 51.22812859117866], [-3.8346112455769847, 51.22829637298359], [-3.8338889971670915, 51.22813024349012], [-3.834569496081285, 51.227221045476355], [-3.835223708571521, 51.227358533636334], [-3.835124388374295, 51.22812859117866]]]}}, {"type": "Feature", "properties": {"type": "postcode-cell", "postcode": "EX35 6AF", "postcodes": ["EX35 6AF"]}, "geometry": {"type": "Polygon", "coordinates": [[[-3.834902422942433, 51.229006099460335], [-3.834751095882811, 51.229148373939665], [-3.8347417660105934, 51.22914940130954], [-3.8338385044301986, 51.228884512893465], [-3.833832256562678, 51.22886665964341], [-3.834689183150356, 51.22880968068105], [-3.834902422942433, 51.229006099460335]]]}}, {"type": "Feature", "properties": {"type": "postcode-cell", "postcode": "EX35 6HN", "postcodes": ["EX35 6HN"]}, "geometry": {"type": "Polygon", "coordinates": [[[-3.835237318582794, 51.22972640980248], [-3.8350981473280115, 51.22990060433612], [-3.8340620034246538, 51.229974591903755], [-3.833920808801012, 51.22985669141212], [-3.834408823917647, 51.22952146160701], [-3.8351646396059853, 51.22969054355987], [-3.835237318582794, 51.22972640980248]]]}}, {"type": "Feature", "properties": {"type": "postcode-cell", "postcode": "EX35 6BB", "postcodes": ["EX35 6BB"]}, "geometry": {"type": "Polygon", "coordinates": [[[-3.8347913026918294, 51.223163641370206], [-3.8306960910854926, 51.2208463226992], [-3.8314610607130013, 51.22030748643477], [-3.8357831309594483, 51.2227591091211], [-3.8347913026918294, 51.223163641370206]]]}}, {"type": "Feature", "properties": {"type": "postcode-cell", "postcode": "EX35 6BA", "postcodes": ["EX35 6BA"]}, "geometry": {"type": "Polygon", "coordinates": [[[-3.834423343030467, 51.2240191603447], [-3.8331881659758795, 51.223656261176814], [-3.8336575384412526, 51.22318086468616], [-3.834728671721036, 51.223228690381056], [-3.834423343030467, 51.2240191603447]]]}}, {"type": "Feature", "properties": {"type": "postcode-cell", "postcode": "EX35 6AA", "postcodes": ["EX35 6AA"]}, "geometry": {"type": "Polygon", "coordinates": [[[-3.8347417660105934, 51.22914940130954], [-3.834751095882811, 51.229148373939665], [-3.8351646396059853, 51.22969054355987], [-3.834408823917647, 51.22952146160701], [-3.8343993583827167, 51.22951055021932], [-3.8344978194038126, 51.22925944734562], [-3.8347417660105934, 51.22914940130954]]]}}, {"type": "Feature", "properties": {"type": "postcode-cell", "postcode": "EX35 6AQ", "postcodes": ["EX35 6AQ"]}, "geometry": {"type": "Polygon", "coordinates": [[[-3.8344978194038126, 51.22925944734562], [-3.8338426533831838, 51.22909023272183], [-3.8338385044301986, 51.228884512893465], [-3.8347417660105934, 51.22914940130954], [-3.8344978194038126, 51.22925944734562]]]}}, {"type": "Feature", "properties": {"type": "postcode-cell", "postcode": "EX35 6AX", "postcodes": ["EX35 6AX"]}, "geometry": {"type": "Polygon", "coordinates": [[[-3.834706384054705, 51.22522331169973], [-3.8331357091358633, 51.22576715928378], [-3.8303435748125474, 51.22587711512084], [-3.8257444560467246, 51.224317092842014], [-3.824745281799357, 51.22366768332358], [-3.8274279171566357, 51.22258681107011], [-3.8331881659758795, 51.223656261176814], [-3.834423343030467, 51.2240191603447], [-3.834706384054705, 51.22522331169973]]]}}, {"type": "Feature", "properties": {"type": "postcode-cell", "postcode": "EX35 6EA", "postcodes": ["EX35 6EA"]}, "geometry": {"type": "Polygon", "coordinates": [[[-3.8338290054081705, 51.22913125666259], [-3.833373316184729, 51.22931679491734], [-3.832324682427617, 51.22940793955183], [-3.8333057791076834, 51.22837429690701], [-3.833832256562678, 51.22886665964341], [-3.8338385044301986, 51.228884512893465], [-3.8338426533831838, 51.22909023272183], [-3.8338290054081705, 51.22913125666259]]]}}, {"type": "Feature", "properties": {"type": "postcode-cell", "postcode": "EX35 6AB", "postcodes": ["EX35 6AB"]}, "geometry": {"type": "Polygon", "coordinates": [[[-3.8338426533831838, 51.22909023272183], [-3.8344978194038126, 51.22925944734562], [-3.8343993583827167, 51.22951055021932], [-3.833910125711392, 51.22930597936108], [-3.8338290054081705, 51.22913125666259], [-3.8338426533831838, 51.22909023272183]]]}}, {"type": "Feature", "properties": {"type": "postcode-cell", "postcode": "EX35 6ED", "postcodes": ["EX35 6ED"]}, "geometry": {"type": "Polygon", "coordinates": [[[-3.833925485549521, 51.23146921384127], [-3.8330297882111406, 51.23104887649123], [-3.832558981753179, 51.230727301780625], [-3.83265747801503, 51.229937832893256], [-3.833636468360228, 51.22977496059307], [-3.833646742518727, 51.229774628517916], [-3.833920808801012, 51.22985669141212], [-3.8340620034246538, 51.229974591903755], [-3.833925485549521, 51.23146921384127]]]}}, {"type": "Feature", "properties": {"type": "postcode-cell", "postcode": "EX35 6HL", "postcodes": ["EX35 6HL"]}, "geometry": {"type": "Polygon", "coordinates": [[[-3.833910125711392, 51.22930597936108], [-3.833646742518727, 51.229774628517916], [-3.833636468360228, 51.22977496059307], [-3.833373316184729, 51.22931679491734], [-3.8338290054081705, 51.22913125666259], [-3.833910125711392, 51.22930597936108]]]}}, {"type": "Feature", "properties": {"type": "postcode-cell", "postcode": "EX35 6HY", "postcodes": ["EX35 6HY"]}, "geometry": {"type": "Polygon", "coordinates": [[[-3.833920808801012, 51.22985669141212], [-3.833646742518727, 51.229774628517916], [-3.833910125711392, 51.22930597936108], [-3.8343993583827167, 51.22951055021932], [-3.834408823917647, 51.22952146160701], [-3.833920808801012, 51.22985669141212]]]}}, {"type": "Feature", "properties": {"type": "postcode-cell", "postcode": "EX35 6BE", "postcodes": ["EX35 6BE"]}, "geometry": {"type": "Polygon", "coordinates": [[[-3.8336575384412526, 51.22318086468616], [-3.8331881659758795, 51.223656261176814], [-3.8274279171566357, 51.22258681107011], [-3.82817490099936, 51.222226801371534], [-3.8336575384412526, 51.22318086468616]]]}}, {"type": "Feature", "properties": {"type": "postcode-cell", "postcode": "EX35 6AY", "postcodes": ["EX35 6AY"]}, "geometry": {"type": "Polygon", "coordinates": [[[-3.834569496081285, 51.227221045476355], [-3.8338889971670915, 51.22813024349012], [-3.833301967457996, 51.22834286651585], [-3.831147653963295, 51.22747609430776], [-3.8303435748125474, 51.22587711512084], [-3.8331357091358633, 51.22576715928378], [-3.834569496081285, 51.227221045476355]]]}}, {"type": "Feature", "properties": {"type": "postcode-cell", "postcode": "EX35 6EF", "postcodes": ["EX35 6EF"]}, "geometry": {"type": "Polygon", "coordinates": [[[-3.8311869693525074, 51.23011821802878], [-3.830768100373671, 51.23025799625196], [-3.8295348648844194, 51.229700578952375], [-3.8305107013969, 51.229034739025124], [-3.830619215101811, 51.228999073397055], [-3.8311733517545967, 51.2292602100214], [-3.8311869693525074, 51.23011821802878]]]}}, {"type": "Feature", "properties": {"type": "postcode-cell", "postcode": "EX35 6EE", "postcodes": ["EX35 6EE"]}, "geometry": {"type": "Polygon", "coordinates": [[[-3.8311733517545967, 51.2292602100214], [-3.8322598851730394, 51.22944815516179], [-3.83265747801503, 51.229937832893256], [-3.832558981753179, 51.230727301780625], [-3.832130422480523, 51.230706509092485], [-3.8311869693525074, 51.23011821802878], [-3.8311733517545967, 51.2292602100214]]]}}, {"type": "Feature", "properties": {"type": "postcode-cell", "postcode": "EX35 6JA", "postcodes": ["EX35 6JA"]}, "geometry": {"type": "Polygon", "coordinates": [[[-3.83265747801503, 51.229937832893256], [-3.8322598851730394, 51.22944815516179], [-3.832324682427617, 51.22940793955183], [-3.833373316184729, 51.22931679491734], [-3.833636468360228, 51.22977496059307], [-3.83265747801503, 51.229937832893256]]]}}, {"type": "Feature", "properties": {"type": "postcode-cell", "postcode": "EX35 6JD", "postcodes": ["EX35 6JD"]}, "geometry": {"type": "Polygon", "coordinates": [[[-3.830619215101811, 51.228999073397055], [-3.831147653963295, 51.22747609430776], [-3.833301967457996, 51.22834286651585], [-3.8333057791076834, 51.22837429690701], [-3.832324682427617, 51.22940793955183], [-3.8322598851730394, 51.22944815516179], [-3.8311733517545967, 51.2292602100214], [-3.830619215101811, 51.228999073397055]]]}}, {"type": "Feature", "properties": {"type": "postcode-cell", "postcode": "EX35 6ER", "postcodes": ["EX35 6ER"]}, "geometry": {"type": "Polygon", "coordinates": [[[-3.831147653963295, 51.22747609430776], [-3.830619215101811, 51.228999073397055], [-3.8305107013969, 51.229034739025124], [-3.828101254036975, 51.22842271969445], [-3.8261812258850445, 51.22567707222882], [-3.8257444560467246, 51.224317092842014], [-3.8303435748125474, 51.22587711512084], [-3.831147653963295, 51.22747609430776]]]}}, {"type": "Feature", "properties": {"type": "postcode-cell", "postcode": "EX35 6EG", "postcodes": ["EX35 6EG"]}, "geometry": {"type": "MultiPolygon", "coordinates": [[[[-3.8304527084166846, 51.231061049428085], [-3.830469989709374, 51.23108999515139], [-3.8298899897085508, 51.23204999515218], [-3.82960011807003, 51.232131450363994], [-3.829610181121155, 51.231449559860735], [-3.8304527084166846, 51.231061049428085]]], [[[-3.83089998970731, 51.23095244931808], [-3.8308999897096037, 51.231219995151505], [-3.8305499897090995, 51.231819995152016], [-3.830819989709557, 51.23120999515151], [-3.8308199897096094, 51.23108999515139], [-3.830839989709645, 51.23103999515136], [-3.8308199897096404, 51.231019995151335], [-3.830819989708539, 51.230968439267215], [-3.83089998970731, 51.23095244931808]]], [[[-3.832130422480523, 51.230706509092485], [-3.832558981753179, 51.230727301780625], [-3.8330297882111406, 51.23104887649123], [-3.8311846411544046, 51.23164979916261], [-3.83121998970964, 51.23161999515183], [-3.831119989709794, 51.231129995151434], [-3.8309281025489796, 51.2309468302661], [-3.832130422480523, 51.230706509092485]]]]}}, {"type": "Feature", "properties": {"type": "postcode-cell", "postcode": "EX35 6EX", "postcodes": ["EX35 6EX"]}, "geometry": {"type": "Polygon", "coordinates": [[[-3.829610181121155, 51.231449559860735], [-3.828768576659246, 51.23054901821615], [-3.828755831602166, 51.23003624634143], [-3.829190967179524, 51.22985534496114], [-3.8306768230794623, 51.23044106563432], [-3.830597313241077, 51.230750452752346], [-3.830069989709408, 51.230419995150854], [-3.8304527084166846, 51.231061049428085], [-3.829610181121155, 51.231449559860735]]]}}, {"type": "Feature", "properties": {"type": "postcode-cell", "postcode": "EX35 6EL", "postcodes": ["EX35 6EL"]}, "geometry": {"type": "Polygon", "coordinates": [[[-3.832130422480523, 51.230706509092485], [-3.8309281025489796, 51.2309468302661], [-3.830899989709739, 51.23091999515125], [-3.83089998970731, 51.23095244931808], [-3.830819989708539, 51.230968439267215], [-3.8308199897096977, 51.23088999515123], [-3.830597313241077, 51.230750452752346], [-3.8306768230794623, 51.23044106563432], [-3.830768100373671, 51.23025799625196], [-3.8311869693525074, 51.23011821802878], [-3.832130422480523, 51.230706509092485]]]}}, {"type": "Feature", "properties": {"type": "postcode-cell", "postcode": "EX35 6EH", "postcodes": ["EX35 6EH"]}, "geometry": {"type": "Polygon", "coordinates": [[[-3.8306768230794623, 51.23044106563432], [-3.829190967179524, 51.22985534496114], [-3.8295348648844194, 51.229700578952375], [-3.830768100373671, 51.23025799625196], [-3.8306768230794623, 51.23044106563432]]]}}, {"type": "Feature", "properties": {"type": "postcode-cell", "postcode": "EX35 6ES", "postcodes": ["EX35 6ES"]}, "geometry": {"type": "Polygon", "coordinates": [[[-3.8295348648844194, 51.229700578952375], [-3.829190967179524, 51.22985534496114], [-3.828755831602166, 51.23003624634143], [-3.828017741007039, 51.22967155764093], [-3.828101254036975, 51.22842271969445], [-3.8305107013969, 51.229034739025124], [-3.8295348648844194, 51.229700578952375]]]}}, {"type": "Feature", "properties": {"type": "postcode-cell", "postcode": "EX35 6EN", "postcodes": ["EX35 6EN"]}, "geometry": {"type": "Polygon", "coordinates": [[[-3.82960011807003, 51.232131450363994], [-3.827469989706618, 51.23272999515277], [-3.8251799897054832, 51.231829995152026], [-3.824218430435023, 51.231746390961085], [-3.8242512689704298, 51.23164248704736], [-3.8245957825477657, 51.231496171938225], [-3.828768576659246, 51.23054901821615], [-3.829610181121155, 51.231449559860735], [-3.82960011807003, 51.232131450363994]]]}}, {"type": "Feature", "properties": {"type": "postcode-cell", "postcode": "EX35 6ET", "postcodes": ["EX35 6ET"]}, "geometry": {"type": "Polygon", "coordinates": [[[-3.8261812258850445, 51.22567707222882], [-3.8260761615918417, 51.22902614040017], [-3.8236898621501916, 51.23026278492743], [-3.815483334526991, 51.22271103508792], [-3.8155009064199685, 51.222649250871875], [-3.824745281799357, 51.22366768332358], [-3.8257444560467246, 51.224317092842014], [-3.8261812258850445, 51.22567707222882]]]}}, {"type": "Feature", "properties": {"type": "postcode-cell", "postcode": "EX35 6EP", "postcodes": ["EX35 6EP"]}, "geometry": {"type": "Polygon", "coordinates": [[[-3.828017741007039, 51.22967155764093], [-3.8271578639240293, 51.22966468639719], [-3.8260761615918417, 51.22902614040017], [-3.8261812258850445, 51.22567707222882], [-3.828101254036975, 51.22842271969445], [-3.828017741007039, 51.22967155764093]]]}}, {"type": "Feature", "properties": {"type": "postcode-cell", "postcode": "EX35 6LE", "postcodes": ["EX35 6LE"]}, "geometry": {"type": "Polygon", "coordinates": [[[-3.822392132295328, 51.21202787651455], [-3.8147928727152784, 51.22175849745878], [-3.8103316007021233, 51.2207541802898], [-3.8063857521028437, 51.211009824489615], [-3.809717207250493, 51.209278651104555], [-3.822557470195794, 51.20969822822531], [-3.822392132295328, 51.21202787651455]]]}}, {"type": "Feature", "properties": {"type": "postcode-cell", "postcode": "EX35 6BN", "postcodes": ["EX35 6BN"]}, "geometry": {"type": "Polygon", "coordinates": [[[-3.828768576659246, 51.23054901821615], [-3.8245957825477657, 51.231496171938225], [-3.8271578639240293, 51.22966468639719], [-3.828017741007039, 51.22967155764093], [-3.828755831602166, 51.23003624634143], [-3.828768576659246, 51.23054901821615]]]}}, {"type": "Feature", "properties": {"type": "postcode-cell", "postcode": "EX35 6NB", "postcodes": ["EX35 6NB"]}, "geometry": {"type": "Polygon", "coordinates": [[[-3.8242512689704298, 51.23164248704736], [-3.8236898621501916, 51.23026278492743], [-3.8260761615918417, 51.22902614040017], [-3.8271578639240293, 51.22966468639719], [-3.8245957825477657, 51.231496171938225], [-3.8242512689704298, 51.23164248704736]]]}}, {"type": "Feature", "properties": {"type": "postcode-cell", "postcode": "EX35 6ND", "postcodes": ["EX35 6ND"]}, "geometry": {"type": "Polygon", "coordinates": [[[-3.8242512689704298, 51.23164248704736], [-3.824218430435023, 51.231746390961085], [-3.8219599897034477, 51.23154999515178], [-3.821069989702731, 51.23180999515201], [-3.8188899897013084, 51.23171999515193], [-3.8168999897001163, 51.23139999515167], [-3.8169799897000747, 51.231609995151864], [-3.8159999896996006, 51.23119999515152], [-3.814499989698647, 51.231079995151426], [-3.813429989697898, 51.231149995151476], [-3.81227998969677, 51.231939995152125], [-3.810459989695682, 51.23163999515188], [-3.8103099896954626, 51.23189999515211], [-3.8102926366740064, 51.23188731416568], [-3.815483334526991, 51.22271103508792], [-3.8236898621501916, 51.23026278492743], [-3.8242512689704298, 51.23164248704736]]]}}, {"type": "Feature", "properties": {"type": "postcode-cell", "postcode": "EX35 6NT", "postcodes": ["EX35 6NT"]}, "geometry": {"type": "Polygon", "coordinates": [[[-3.815483334526991, 51.22271103508792], [-3.8102926366740064, 51.23188731416568], [-3.810049989695374, 51.231709995151945], [-3.8085699896943477, 51.23178999515201], [-3.8066599896928226, 51.232329995152476], [-3.8058901053326584, 51.23280114282875], [-3.7892898587705584, 51.225151116724845], [-3.8048447779786576, 51.220506984686175], [-3.8103316007021233, 51.2207541802898], [-3.8147928727152784, 51.22175849745878], [-3.8155009064199685, 51.222649250871875], [-3.815483334526991, 51.22271103508792]]]}}, {"type": "Feature", "properties": {"type": "postcode-cell", "postcode": "EX35 6LQ", "postcodes": ["EX35 6LQ"]}, "geometry": {"type": "Polygon", "coordinates": [[[-3.7880956466156137, 51.17916014872014], [-3.7992253529090645, 51.19741391367396], [-3.8014181415289743, 51.21138424225312], [-3.799958400259675, 51.2119477678187], [-3.7867914124545345, 51.20376191700956], [-3.7880956466156137, 51.17916014872014]]]}}, {"type": "Feature", "properties": {"type": "postcode-cell", "postcode": "EX35 6LH", "postcodes": ["EX35 6LH"]}, "geometry": {"type": "Polygon", "coordinates": [[[-3.8063857521028437, 51.211009824489615], [-3.8014181415289743, 51.21138424225312], [-3.7992253529090645, 51.19741391367396], [-3.809717207250493, 51.209278651104555], [-3.8063857521028437, 51.211009824489615]]]}}, {"type": "Feature", "properties": {"type": "postcode-cell", "postcode": "EX35 6LF", "postcodes": ["EX35 6LF"]}, "geometry": {"type": "Polygon", "coordinates": [[[-3.8103316007021233, 51.2207541802898], [-3.8048447779786576, 51.220506984686175], [-3.798410039891941, 51.213846310712384], [-3.799958400259675, 51.2119477678187], [-3.8014181415289743, 51.21138424225312], [-3.8063857521028437, 51.211009824489615], [-3.8103316007021233, 51.2207541802898]]]}}, {"type": "Feature", "properties": {"type": "postcode-cell", "postcode": "EX35 6LG", "postcodes": ["EX35 6LG"]}, "geometry": {"type": "Polygon", "coordinates": [[[-3.8048447779786576, 51.220506984686175], [-3.7892898587705584, 51.225151116724845], [-3.788288017023151, 51.225127090977224], [-3.7851218340138737, 51.2181288850159], [-3.7864487724749436, 51.215571340130296], [-3.798410039891941, 51.213846310712384], [-3.8048447779786576, 51.220506984686175]]]}}, {"type": "Feature", "properties": {"type": "postcode-cell", "postcode": "EX35 6PT", "postcodes": ["EX35 6PT"]}, "geometry": {"type": "Polygon", "coordinates": [[[-3.7851218340138737, 51.2181288850159], [-3.770981591490095, 51.21705732977465], [-3.764993945268784, 51.21280905729407], [-3.7653694932252204, 51.21194488040724], [-3.784314583020405, 51.209474391454485], [-3.7864487724749436, 51.215571340130296], [-3.7851218340138737, 51.2181288850159]]]}}, {"type": "Feature", "properties": {"type": "postcode-cell", "postcode": "EX35 6LP", "postcodes": ["EX35 6LP"]}, "geometry": {"type": "Polygon", "coordinates": [[[-3.798410039891941, 51.213846310712384], [-3.7864487724749436, 51.215571340130296], [-3.784314583020405, 51.209474391454485], [-3.7867914124545345, 51.20376191700956], [-3.799958400259675, 51.2119477678187], [-3.798410039891941, 51.213846310712384]]]}}, {"type": "Feature", "properties": {"type": "postcode-cell", "postcode": "EX35 6NF", "postcodes": ["EX35 6NF"]}, "geometry": {"type": "Polygon", "coordinates": [[[-3.7739170577122043, 51.23501742950822], [-3.7677776520022435, 51.22735320404244], [-3.770981591490095, 51.21705732977465], [-3.7851218340138737, 51.2181288850159], [-3.788288017023151, 51.225127090977224], [-3.7739170577122043, 51.23501742950822]]]}}, {"type": "Feature", "properties": {"type": "postcode-cell", "postcode": "EX35 6PS", "postcodes": ["EX35 6PS"]}, "geometry": {"type": "Polygon", "coordinates": [[[-3.770981591490095, 51.21705732977465], [-3.7677776520022435, 51.22735320404244], [-3.7514253648991653, 51.2195779473948], [-3.750891401828453, 51.21824303057237], [-3.764993945268784, 51.21280905729407], [-3.770981591490095, 51.21705732977465]]]}}, {"type": "Feature", "properties": {"type": "postcode-cell", "postcode": "EX35 6PX", "postcodes": ["EX35 6PX"]}, "geometry": {"type": "Polygon", "coordinates": [[[-3.7653694932252204, 51.21194488040724], [-3.764993945268784, 51.21280905729407], [-3.750891401828453, 51.21824303057237], [-3.7448296769925378, 51.215835589382664], [-3.7295647315043, 51.19444113374005], [-3.732019989660497, 51.19361999512062], [-3.7320899896617528, 51.190969995118465], [-3.729449989661211, 51.188299995116274], [-3.7259999896598073, 51.18634999511466], [-3.7244199896598635, 51.18391999511268], [-3.725089989660968, 51.182469995111454], [-3.723829989660925, 51.180729995110035], [-3.726029989663208, 51.17892999510855], [-3.7280599896646485, 51.17872999510837], [-3.7287499896653826, 51.1781199951079], [-3.730189989666377, 51.1780399951078], [-3.7328499896685856, 51.177069995106976], [-3.7337299896692215, 51.176959995106884], [-3.7342399896694554, 51.1771899951071], [-3.735489989670397, 51.176949995106895], [-3.738099989671957, 51.17732999510719], [-3.7385399896723728, 51.17705999510698], [-3.739589989673047, 51.177109995107], [-3.742119989675248, 51.17596999510606], [-3.745879989677939, 51.1755599951057], [-3.7511799896807694, 51.17708999510695], [-3.7568374194646887, 51.17729337803704], [-3.7653694932252204, 51.21194488040724]]]}}, {"type": "Feature", "properties": {"type": "postcode-cell", "postcode": "EX35 6NG", "postcodes": ["EX35 6NG"]}, "geometry": {"type": "Polygon", "coordinates": [[[-3.7739170577122043, 51.23501742950822], [-3.7726143935259087, 51.23862957234109], [-3.771239989666324, 51.238439995157584], [-3.7710299896663555, 51.23805999515729], [-3.7697799896657003, 51.23765999515694], [-3.764559989662489, 51.23703999515644], [-3.761909989660574, 51.23735999515674], [-3.7585499896583765, 51.23724999515663], [-3.7582799896580226, 51.237629995156944], [-3.7581399896580923, 51.23726999515666], [-3.755429989656489, 51.23680999515627], [-3.7549799896560767, 51.23705999515648], [-3.7548199896561143, 51.23673999515621], [-3.752669989654585, 51.2369399951564], [-3.751209989653854, 51.23639999515595], [-3.749039989652483, 51.23622999515578], [-3.74822998965176, 51.236629995156136], [-3.747809989651553, 51.23646999515599], [-3.7480699896517713, 51.23636999515591], [-3.7469099896510283, 51.23629999515585], [-3.746769989651196, 51.23572999515541], [-3.7462399896507965, 51.23582999515546], [-3.745199989650261, 51.23547999515519], [-3.7445641199876385, 51.235459015904354], [-3.7438019894086447, 51.23308839507471], [-3.7514253648991653, 51.2195779473948], [-3.7677776520022435, 51.22735320404244], [-3.7739170577122043, 51.23501742950822]]]}}, {"type": "Feature", "properties": {"type": "postcode-cell", "postcode": "EX35 6NQ", "postcodes": ["EX35 6NQ"]}, "geometry": {"type": "Polygon", "coordinates": [[[-3.7438019894086447, 51.23308839507471], [-3.7445641199876385, 51.235459015904354], [-3.742169989648282, 51.2353799951551], [-3.740409989646908, 51.23581999515548], [-3.7314099896411497, 51.23527999515505], [-3.727699989638604, 51.23543999515518], [-3.7241899896368666, 51.23411999515411], [-3.722679989635916, 51.23398999515399], [-3.7208499896350986, 51.23310999515328], [-3.7208199896350824, 51.23309999515326], [-3.7220199896361965, 51.2324099951527], [-3.7225099896371554, 51.23101999515155], [-3.7231199896377847, 51.23052999515114], [-3.727069989640911, 51.22943999515023], [-3.727319989642168, 51.227039995148225], [-3.7266999896423934, 51.225639995147084], [-3.7282999896437032, 51.22509999514664], [-3.7292278505485172, 51.22393772805271], [-3.7438019894086447, 51.23308839507471]]]}}, {"type": "Feature", "properties": {"type": "postcode-cell", "postcode": "EX35 6BL", "postcodes": ["EX35 6BL"]}, "geometry": {"type": "Polygon", "coordinates": [[[-3.750891401828453, 51.21824303057237], [-3.7514253648991653, 51.2195779473948], [-3.7438019894086447, 51.23308839507471], [-3.7292278505485172, 51.22393772805271], [-3.7292499896448748, 51.22390999514563], [-3.7331999896480426, 51.22272999514465], [-3.7320949207608756, 51.221768712630734], [-3.7448296769925378, 51.215835589382664], [-3.750891401828453, 51.21824303057237]]]}}, {"type": "Feature", "properties": {"type": "postcode-cell", "postcode": "EX35 6NU", "postcodes": ["EX35 6NU"]}, "geometry": {"type": "Polygon", "coordinates": [[[-3.7448296769925378, 51.215835589382664], [-3.7320949207608756, 51.221768712630734], [-3.728739989646838, 51.21884999514148], [-3.7290499896479945, 51.21675999513976], [-3.7308899896495613, 51.21600999513912], [-3.731569989650415, 51.2151299951384], [-3.730819989650868, 51.21302999513666], [-3.7294099896506103, 51.211529995135436], [-3.727729989650904, 51.20842999513287], [-3.7284599896520194, 51.20704999513175], [-3.7284799896526146, 51.20576999513068], [-3.727989989652828, 51.20457999512968], [-3.7263699896525897, 51.20273999512817], [-3.727069989653749, 51.20120999512691], [-3.7262099896539924, 51.199419995125446], [-3.7270099896554165, 51.197459995123815], [-3.728999989658031, 51.19462999512146], [-3.7295647315043, 51.19444113374005], [-3.7448296769925378, 51.215835589382664]]]}}]}