{"type": "FeatureCollection", "features": [{"type": "Feature", "properties": {"type": "ward-outline", "name": "Mary Tavy"}, "geometry": {"type": "Polygon", "coordinates": [[[-4.03588, 50.63822], [-4.03687, 50.63726], [-4.03658, 50.63568], [-4.03759, 50.6356], [-4.03459, 50.63481], [-4.03064, 50.63111], [-4.0288, 50.63127], [-4.02823, 50.63092], [-4.02926, 50.62918], [-4.02913, 50.62721], [-4.02829, 50.6262], [-4.02823, 50.6242], [-4.02861, 50.62394], [-4.02956, 50.61734], [-4.02854, 50.60746], [-4.02397, 50.59589], [-4.02772, 50.58854], [-4.02728, 50.58625], [-4.0276, 50.58561], [-4.02981, 50.5852], [-4.03172, 50.58543], [-4.03386, 50.58477], [-4.03379, 50.58422], [-4.03533, 50.58195], [-4.03779, 50.581], [-4.0398, 50.58122], [-4.04083, 50.58105], [-4.04167, 50.57978], [-4.04418, 50.57875], [-4.04492, 50.57812], [-4.0455, 50.57532], [-4.04522, 50.57459], [-4.04571, 50.57394], [-4.04542, 50.57301], [-4.04618, 50.57177], [-4.04571, 50.57095], [-4.04605, 50.56846], [-4.04754, 50.56829], [-4.05094, 50.56875], [-4.05438, 50.56973], [-4.07043, 50.56492], [-4.0742, 50.56165], [-4.07671, 50.56043], [-4.07957, 50.55994], [-4.09292, 50.55985], [-4.09798, 50.55874], [-4.09892, 50.5579], [-4.0999, 50.55801], [-4.10147, 50.55739], [-4.10055, 50.55548], [-4.10149, 50.5552], [-4.10311, 50.55543], [-4.10615, 50.55529], [-4.10573, 50.55305], [-4.10426, 50.55287], [-4.10382, 50.55218], [-4.10278, 50.5521], [-4.11251, 50.55224], [-4.11925, 50.55196], [-4.12343, 50.55253], [-4.12473, 50.55262], [-4.12478, 50.55317], [-4.12203, 50.55446], [-4.12275, 50.55463], [-4.12153, 50.55555], [-4.12274, 50.55638], [-4.12521, 50.55571], [-4.12519, 50.5561], [-4.12291, 50.55774], [-4.12421, 50.55916], [-4.12387, 50.56027], [-4.12227, 50.56138], [-4.12161, 50.56231], [-4.11839, 50.56394], [-4.11708, 50.56306], [-4.11608, 50.56158], [-4.11405, 50.5617], [-4.11265, 50.56273], [-4.11261, 50.56366], [-4.11455, 50.56574], [-4.11407, 50.56666], [-4.1127, 50.56714], [-4.11442, 50.56864], [-4.11547, 50.56818], [-4.11642, 50.56906], [-4.11616, 50.57032], [-4.11718, 50.57109], [-4.11732, 50.57248], [-4.11787, 50.57253], [-4.11841, 50.57305], [-4.11934, 50.57419], [-4.1194, 50.57494], [-4.1199, 50.57513], [-4.12101, 50.57687], [-4.12169, 50.57709], [-4.12083, 50.57597], [-4.1193, 50.57198], [-4.11955, 50.57049], [-4.12034, 50.56905], [-4.12184, 50.56806], [-4.12675, 50.56655], [-4.12853, 50.56894], [-4.13336, 50.57837], [-4.13416, 50.58017], [-4.13644, 50.5821], [-4.13755, 50.58416], [-4.14224, 50.58532], [-4.14805, 50.58757], [-4.14956, 50.5885], [-4.15074, 50.59053], [-4.15175, 50.59134], [-4.15711, 50.59267], [-4.16363, 50.59339], [-4.16341, 50.59706], [-4.16705, 50.59672], [-4.17148, 50.59573], [-4.17501, 50.59583], [-4.16637, 50.60174], [-4.16735, 50.60186], [-4.16945, 50.60334], [-4.16729, 50.60396], [-4.16855, 50.60512], [-4.16801, 50.6052], [-4.16866, 50.60613], [-4.16744, 50.6064], [-4.16904, 50.6089], [-4.16872, 50.60923], [-4.16725, 50.60936], [-4.16792, 50.61026], [-4.16761, 50.61111], [-4.16804, 50.61257], [-4.17365, 50.61365], [-4.17781, 50.61364], [-4.18057, 50.61471], [-4.1842, 50.61541], [-4.1841, 50.61656], [-4.18479, 50.61713], [-4.19048, 50.61707], [-4.19183, 50.62279], [-4.19167, 50.62727], [-4.19201, 50.62754], [-4.19007, 50.62849], [-4.18926, 50.62865], [-4.18907, 50.6284], [-4.18857, 50.62877], [-4.18776, 50.62868], [-4.18681, 50.62903], [-4.1854, 50.62875], [-4.18465, 50.62782], [-4.18357, 50.62803], [-4.18199, 50.62761], [-4.17986, 50.62789], [-4.17834, 50.62769], [-4.17668, 50.62867], [-4.17562, 50.62812], [-4.1746, 50.62846], [-4.17419, 50.62802], [-4.17343, 50.62828], [-4.17202, 50.62773], [-4.17002, 50.62766], [-4.16823, 50.62802], [-4.16766, 50.62784], [-4.16541, 50.62847], [-4.16466, 50.62828], [-4.16245, 50.6285], [-4.15966, 50.62936], [-4.15919, 50.62922], [-4.1588, 50.62954], [-4.15815, 50.62877], [-4.15761, 50.62916], [-4.15628, 50.62925], [-4.1557, 50.62975], [-4.15485, 50.62971], [-4.15412, 50.63034], [-4.15294, 50.63039], [-4.15281, 50.63137], [-4.15104, 50.63146], [-4.14777, 50.63308], [-4.14723, 50.63432], [-4.14635, 50.63463], [-4.14633, 50.6352], [-4.14493, 50.63509], [-4.14452, 50.63632], [-4.14163, 50.63757], [-4.14074, 50.63706], [-4.14156, 50.63676], [-4.14104, 50.63648], [-4.13726, 50.63601], [-4.13643, 50.63624], [-4.13358, 50.63508], [-4.12811, 50.6337], [-4.12661, 50.63388], [-4.12497, 50.63365], [-4.12347, 50.63275], [-4.12105, 50.632], [-4.12065, 50.63046], [-4.11923, 50.62935], [-4.11715, 50.62884], [-4.11233, 50.62854], [-4.10767, 50.62915], [-4.10486, 50.63172], [-4.1024, 50.63217], [-4.09723, 50.63229], [-4.09129, 50.6308], [-4.09071, 50.63334], [-4.09449, 50.63513], [-4.09278, 50.63583], [-4.09356, 50.63633], [-4.08553, 50.63664], [-4.08269, 50.63642], [-4.07624, 50.63807], [-4.07856, 50.63932], [-4.07477, 50.64045], [-4.07519, 50.64119], [-4.07588, 50.64117], [-4.07563, 50.64197], [-4.07395, 50.64185], [-4.072, 50.64239], [-4.06959, 50.64181], [-4.06694, 50.64185], [-4.06554, 50.64142], [-4.06372, 50.64138], [-4.05993, 50.6425], [-4.04958, 50.64272], [-4.04534, 50.64322], [-4.0433, 50.64222], [-4.04196, 50.64017], [-4.03944, 50.63898], [-4.03707, 50.63897], [-4.03588, 50.63822]]]}}, {"type": "Feature", "properties": {"type": "postcode-cell", "postcode": "EX20 4AD", "postcodes": ["EX20 4AD"]}, "geometry": {"type": "Polygon", "coordinates": [[[-4.171047582621674, 50.62725140267717], [-4.176960534435073, 50.61898524971797], [-4.184192295400128, 50.61549848676936], [-4.1840999902237, 50.61655999464895], [-4.184789990223903, 50.61712999464942], [-4.190479990227738, 50.617069994649285], [-4.191829990226061, 50.62278999465381], [-4.191669990223933, 50.62726999465739], [-4.192009990224038, 50.62753999465759], [-4.1900699902223115, 50.62848999465838], [-4.189259990221697, 50.62864999465852], [-4.189069990221682, 50.62839999465832], [-4.188569990221182, 50.62876999465862], [-4.1877599902206795, 50.628679994658555], [-4.186809990219887, 50.62902999465883], [-4.185399990219071, 50.628749994658634], [-4.184649990218986, 50.62781999465791], [-4.183569990218169, 50.62802999465809], [-4.1819899902173026, 50.62760999465777], [-4.179859990215752, 50.627889994658034], [-4.178339990214824, 50.62768999465789], [-4.176679990213273, 50.62866999465871], [-4.175619990212812, 50.62811999465828], [-4.174599990211978, 50.62845999465856], [-4.174189990211903, 50.628019994658224], [-4.173429990211275, 50.62827999465845], [-4.172019990210583, 50.627729994658026], [-4.171329435658613, 50.627705829158884], [-4.171047582621674, 50.62725140267717]]]}}, {"type": "Feature", "properties": {"type": "postcode-cell", "postcode": "PL19 0NQ", "postcodes": ["PL19 0NQ"]}, "geometry": {"type": "Polygon", "coordinates": [[[-4.171047582621674, 50.62725140267717], [-4.157887801239858, 50.62062993983367], [-4.16538790396912, 50.61504172575714], [-4.176960534435073, 50.61898524971797], [-4.171047582621674, 50.62725140267717]]]}}, {"type": "Feature", "properties": {"type": "postcode-cell", "postcode": "PL19 0NP", "postcodes": ["PL19 0NP"]}, "geometry": {"type": "Polygon", "coordinates": [[[-4.166142273475649, 50.613082061774776], [-4.163487274504559, 50.61127599088501], [-4.160283992356564, 50.60468618786786], [-4.172815733907086, 50.595767847045], [-4.175009990226997, 50.59582999463262], [-4.166369990218557, 50.60173999463745], [-4.16734999021916, 50.601859994637536], [-4.169449990219889, 50.60333999463866], [-4.167289990218171, 50.603959994639226], [-4.168549990218483, 50.605119994640106], [-4.168009990218087, 50.60519999464016], [-4.168659990218104, 50.60612999464092], [-4.167439990217164, 50.60639999464112], [-4.169039990217102, 50.60889999464311], [-4.16871999021674, 50.60922999464337], [-4.1672499902157005, 50.60935999464349], [-4.16791999021574, 50.6102599946442], [-4.167609990215149, 50.61110999464488], [-4.167981135960983, 50.61237016967035], [-4.166142273475649, 50.613082061774776]]]}}, {"type": "Feature", "properties": {"type": "postcode-cell", "postcode": "PL19 0NG", "postcodes": ["PL19 0NG"]}, "geometry": {"type": "Polygon", "coordinates": [[[-4.166142273475649, 50.613082061774776], [-4.16538790396912, 50.61504172575714], [-4.157887801239858, 50.62062993983367], [-4.154852364654907, 50.62059615695655], [-4.153546331255374, 50.61821842264267], [-4.153165676117053, 50.6160156109557], [-4.154207944924342, 50.61144739966908], [-4.163487274504559, 50.61127599088501], [-4.166142273475649, 50.613082061774776]]]}}, {"type": "Feature", "properties": {"type": "postcode-cell", "postcode": "PL19 0NH", "postcodes": ["PL19 0NH"]}, "geometry": {"type": "Polygon", "coordinates": [[[-4.176960534435073, 50.61898524971797], [-4.16538790396912, 50.61504172575714], [-4.166142273475649, 50.613082061774776], [-4.167981135960983, 50.61237016967035], [-4.168039990214777, 50.61256999464602], [-4.173649990218032, 50.61364999464681], [-4.1778099902208155, 50.61363999464673], [-4.1805699902221765, 50.61470999464755], [-4.184199990224285, 50.61540999464804], [-4.184192295400128, 50.61549848676936], [-4.176960534435073, 50.61898524971797]]]}}, {"type": "Feature", "properties": {"type": "postcode-cell", "postcode": "EX20 4AB", "postcodes": ["EX20 4AB"]}, "geometry": {"type": "Polygon", "coordinates": [[[-4.149859003680538, 50.622845807673436], [-4.154852364654907, 50.62059615695655], [-4.157887801239858, 50.62062993983367], [-4.171047582621674, 50.62725140267717], [-4.171329435658613, 50.627705829158884], [-4.170019990209279, 50.62765999465801], [-4.16822999020792, 50.6280199946583], [-4.167659990207618, 50.627839994658174], [-4.165409990205829, 50.628469994658715], [-4.164659990205417, 50.62827999465858], [-4.162449990203841, 50.62849999465878], [-4.159659990201589, 50.62935999465949], [-4.159189990201339, 50.62921999465941], [-4.158799990200934, 50.629539994659645], [-4.158149990200849, 50.62876999465906], [-4.157609990200312, 50.62915999465938], [-4.156279990199383, 50.62924999465944], [-4.1556999901987695, 50.62974999465987], [-4.154849990198219, 50.629709994659876], [-4.154119990197448, 50.630339994660375], [-4.1529399901966375, 50.63038999466045], [-4.152809990196107, 50.631369994661185], [-4.151039990194886, 50.6314599946613], [-4.1487253472564465, 50.632606719327526], [-4.149859003680538, 50.622845807673436]]]}}, {"type": "Feature", "properties": {"type": "postcode-cell", "postcode": "PL19 0LU", "postcodes": ["PL19 0LU"]}, "geometry": {"type": "Polygon", "coordinates": [[[-4.154207944924342, 50.61144739966908], [-4.153165676117053, 50.6160156109557], [-4.149762549703825, 50.613916182306696], [-4.149167179586312, 50.6119486649394], [-4.153060496795813, 50.609578054426166], [-4.154207944924342, 50.61144739966908]]]}}, {"type": "Feature", "properties": {"type": "postcode-cell", "postcode": "PL19 0NF", "postcodes": ["PL19 0NF"]}, "geometry": {"type": "Polygon", "coordinates": [[[-4.153060496795813, 50.609578054426166], [-4.151464301439222, 50.60650506845229], [-4.160283992356564, 50.60468618786786], [-4.163487274504559, 50.61127599088501], [-4.154207944924342, 50.61144739966908], [-4.153060496795813, 50.609578054426166]]]}}, {"type": "Feature", "properties": {"type": "postcode-cell", "postcode": "PL19 0LA", "postcodes": ["PL19 0LA"]}, "geometry": {"type": "Polygon", "coordinates": [[[-4.139605912078053, 50.59569268197511], [-4.134685686594141, 50.58925207661569], [-4.137494598588714, 50.58405720042979], [-4.137549990207344, 50.584159994623974], [-4.142239990209932, 50.585319994624804], [-4.148049990212779, 50.587569994626506], [-4.149559990213359, 50.58849999462721], [-4.150739990213225, 50.59052999462881], [-4.151647728924402, 50.59125798479486], [-4.139605912078053, 50.59569268197511]]]}}, {"type": "Feature", "properties": {"type": "postcode-cell", "postcode": "PL19 9JN", "postcodes": ["PL19 9JN"]}, "geometry": {"type": "Polygon", "coordinates": [[[-4.117556750340486, 50.56338026654954], [-4.1170799902033535, 50.563059994607606], [-4.1160799902033665, 50.561579994606454], [-4.114739611452076, 50.56165923285026], [-4.108560684248372, 50.552183268263725], [-4.1125099902052575, 50.55223999459914], [-4.119249990209847, 50.551959994598796], [-4.123429990212355, 50.552529994599176], [-4.124729990213176, 50.552619994599226], [-4.124779990212961, 50.55316999459967], [-4.122029990210551, 50.55445999460073], [-4.122749990210951, 50.55462999460087], [-4.121529990209721, 50.555549994601606], [-4.122739990210147, 50.55637999460223], [-4.125209990212087, 50.55570999460165], [-4.125189990211897, 50.55609999460197], [-4.122909990209639, 50.55773999460331], [-4.124209990209859, 50.55915999460442], [-4.123869990209124, 50.5602699946053], [-4.12226999020756, 50.56137999460622], [-4.121609990206699, 50.56230999460694], [-4.118728476607346, 50.56376865840288], [-4.117556750340486, 50.56338026654954]]]}}, {"type": "Feature", "properties": {"type": "postcode-cell", "postcode": "PL19 0LX", "postcodes": ["PL19 0LX"]}, "geometry": {"type": "Polygon", "coordinates": [[[-4.153165676117053, 50.6160156109557], [-4.153546331255374, 50.61821842264267], [-4.15068101337849, 50.61701330139728], [-4.144200676201741, 50.6129615239141], [-4.1463737164421754, 50.613042187219875], [-4.148536877609472, 50.61324725871854], [-4.149762549703825, 50.613916182306696], [-4.153165676117053, 50.6160156109557]]]}}, {"type": "Feature", "properties": {"type": "postcode-cell", "postcode": "PL19 0NW", "postcodes": ["PL19 0NW"]}, "geometry": {"type": "Polygon", "coordinates": [[[-4.138926530725696, 50.59630618958546], [-4.139605912078053, 50.59569268197511], [-4.151647728924402, 50.59125798479486], [-4.151749990213529, 50.59133999462942], [-4.157109990216496, 50.592669994630384], [-4.163629990220513, 50.593389994630876], [-4.163409990218705, 50.59705999463378], [-4.167049990221284, 50.59671999463346], [-4.171479990224688, 50.59572999463262], [-4.172815733907086, 50.595767847045], [-4.160283992356564, 50.60468618786786], [-4.151464301439222, 50.60650506845229], [-4.1488817155840785, 50.606006474472736], [-4.138926530725696, 50.59630618958546]]]}}, {"type": "Feature", "properties": {"type": "postcode-cell", "postcode": "PL19 0LN", "postcodes": ["PL19 0LN"]}, "geometry": {"type": "Polygon", "coordinates": [[[-4.1488817155840785, 50.606006474472736], [-4.146460544828386, 50.607890136188246], [-4.136611992105996, 50.61033480937679], [-4.126100047149978, 50.60700702154935], [-4.127591247830348, 50.60484771530968], [-4.1376278974147604, 50.59669268403482], [-4.138926530725696, 50.59630618958546], [-4.1488817155840785, 50.606006474472736]]]}}, {"type": "Feature", "properties": {"type": "postcode-cell", "postcode": "PL19 0LS", "postcodes": ["PL19 0LS"]}, "geometry": {"type": "Polygon", "coordinates": [[[-4.149167179586312, 50.6119486649394], [-4.147960533537836, 50.61201753505346], [-4.147762920215276, 50.61179474346375], [-4.146141936167882, 50.60953009042686], [-4.146460544828386, 50.607890136188246], [-4.1488817155840785, 50.606006474472736], [-4.151464301439222, 50.60650506845229], [-4.153060496795813, 50.609578054426166], [-4.149167179586312, 50.6119486649394]]]}}, {"type": "Feature", "properties": {"type": "postcode-cell", "postcode": "PL19 0LP", "postcodes": ["PL19 0LP"]}, "geometry": {"type": "Polygon", "coordinates": [[[-4.147960533537836, 50.61201753505346], [-4.148536877609472, 50.61324725871854], [-4.1463737164421754, 50.613042187219875], [-4.147762920215276, 50.61179474346375], [-4.147960533537836, 50.61201753505346]]]}}, {"type": "Feature", "properties": {"type": "postcode-cell", "postcode": "PL19 0LT", "postcodes": ["PL19 0LT"]}, "geometry": {"type": "Polygon", "coordinates": [[[-4.148536877609472, 50.61324725871854], [-4.147960533537836, 50.61201753505346], [-4.149167179586312, 50.6119486649394], [-4.149762549703825, 50.613916182306696], [-4.148536877609472, 50.61324725871854]]]}}, {"type": "Feature", "properties": {"type": "postcode-cell", "postcode": "PL19 0LR", "postcodes": ["PL19 0LR"]}, "geometry": {"type": "Polygon", "coordinates": [[[-4.147762920215276, 50.61179474346375], [-4.1463737164421754, 50.613042187219875], [-4.144200676201741, 50.6129615239141], [-4.144079739164736, 50.6129285165738], [-4.146141936167882, 50.60953009042686], [-4.147762920215276, 50.61179474346375]]]}}, {"type": "Feature", "properties": {"type": "postcode-cell", "postcode": "PL19 0LW", "postcodes": ["PL19 0LW"]}, "geometry": {"type": "Polygon", "coordinates": [[[-4.146141936167882, 50.60953009042686], [-4.144079739164736, 50.6129285165738], [-4.1407538179894905, 50.61411954472081], [-4.140076314336831, 50.61423060804178], [-4.1397541077918705, 50.614112296135595], [-4.136611992105996, 50.61033480937679], [-4.146460544828386, 50.607890136188246], [-4.146141936167882, 50.60953009042686]]]}}, {"type": "Feature", "properties": {"type": "postcode-cell", "postcode": "PL19 0LZ", "postcodes": ["PL19 0LZ"]}, "geometry": {"type": "Polygon", "coordinates": [[[-4.153546331255374, 50.61821842264267], [-4.154852364654907, 50.62059615695655], [-4.149859003680538, 50.622845807673436], [-4.142667864791487, 50.62182330328149], [-4.140076314336831, 50.61423060804178], [-4.1407538179894905, 50.61411954472081], [-4.15068101337849, 50.61701330139728], [-4.153546331255374, 50.61821842264267]]]}}, {"type": "Feature", "properties": {"type": "postcode-cell", "postcode": "PL19 0LY", "postcodes": ["PL19 0LY"]}, "geometry": {"type": "Polygon", "coordinates": [[[-4.144079739164736, 50.6129285165738], [-4.144200676201741, 50.6129615239141], [-4.15068101337849, 50.61701330139728], [-4.1407538179894905, 50.61411954472081], [-4.144079739164736, 50.6129285165738]]]}}, {"type": "Feature", "properties": {"type": "postcode-cell", "postcode": "PL19 0NE", "postcodes": ["PL19 0NE"]}, "geometry": {"type": "Polygon", "coordinates": [[[-4.130053231814859, 50.63193764359285], [-4.131347898031037, 50.6231802998143], [-4.142667864791487, 50.62182330328149], [-4.149859003680538, 50.622845807673436], [-4.1487253472564465, 50.632606719327526], [-4.147769990191972, 50.633079994662644], [-4.147229990191052, 50.634319994663635], [-4.146349990190322, 50.63462999466392], [-4.146329990190051, 50.63519999466435], [-4.144929990189167, 50.635089994664284], [-4.1445199901883365, 50.63631999466524], [-4.141629990185846, 50.6375699946663], [-4.140739990185483, 50.63705999466591], [-4.141559990186166, 50.63675999466567], [-4.141039990185943, 50.63647999466544], [-4.137259990183636, 50.63600999466512], [-4.136429990182978, 50.63623999466534], [-4.133579990181606, 50.635079994664444], [-4.130349373316525, 50.6342649990162], [-4.130053231814859, 50.63193764359285]]]}}, {"type": "Feature", "properties": {"type": "postcode-cell", "postcode": "PL19 0ND", "postcodes": ["PL19 0ND"]}, "geometry": {"type": "Polygon", "coordinates": [[[-4.140076314336831, 50.61423060804178], [-4.142667864791487, 50.62182330328149], [-4.131347898031037, 50.6231802998143], [-4.125696080687654, 50.619230003713206], [-4.1397541077918705, 50.614112296135595], [-4.140076314336831, 50.61423060804178]]]}}, {"type": "Feature", "properties": {"type": "postcode-cell", "postcode": "PL19 0JU", "postcodes": ["PL19 0JU"]}, "geometry": {"type": "Polygon", "coordinates": [[[-4.131713324061872, 50.58038704758932], [-4.125053366564535, 50.578551546945654], [-4.126039606745183, 50.56901509295854], [-4.127293989122319, 50.56728044942068], [-4.128529990208269, 50.56893999461206], [-4.133359990207189, 50.57836999461945], [-4.134043988428611, 50.57990899981902], [-4.131713324061872, 50.58038704758932]]]}}, {"type": "Feature", "properties": {"type": "postcode-cell", "postcode": "PL19 9PL", "postcodes": ["PL19 9PL"]}, "geometry": {"type": "Polygon", "coordinates": [[[-4.139605912078053, 50.59569268197511], [-4.138926530725696, 50.59630618958546], [-4.1376278974147604, 50.59669268403482], [-4.128114966296638, 50.59436473270171], [-4.127464454112359, 50.59410145666774], [-4.125553095621972, 50.59270290135848], [-4.123756794395958, 50.586021468490706], [-4.130142370394648, 50.585949018788064], [-4.134685686594141, 50.58925207661569], [-4.139605912078053, 50.59569268197511]]]}}, {"type": "Feature", "properties": {"type": "postcode-cell", "postcode": "EX20 4BL", "postcodes": ["EX20 4BL"]}, "geometry": {"type": "MultiPolygon", "coordinates": [[[[-4.089033417987884, 50.63193184734292], [-4.09127264194311, 50.63087597163187], [-4.090709990153881, 50.633339994663686], [-4.094489990155577, 50.635129994665064], [-4.092779990154122, 50.63582999466564], [-4.093559990154412, 50.63632999466603], [-4.085886982390207, 50.636626224731444], [-4.089033417987884, 50.63193184734292]]], [[[-4.103367707417557, 50.6251711578367], [-4.1213215883036485, 50.628107912792245], [-4.130053231814859, 50.63193764359285], [-4.130349373316525, 50.6342649990162], [-4.128109990178587, 50.633699994663424], [-4.126609990177506, 50.633879994663594], [-4.124969990176519, 50.63364999466344], [-4.123469990175927, 50.632749994662724], [-4.121049990174657, 50.63199999466218], [-4.120649990175089, 50.63045999466095], [-4.119229990174645, 50.629349994660096], [-4.117149990173493, 50.62883999465973], [-4.112329990170425, 50.62853999465956], [-4.107669990167049, 50.62914999466012], [-4.104859990164013, 50.63171999466219], [-4.1023999901621755, 50.632169994662604], [-4.097229990158685, 50.63228999466275], [-4.091383834638605, 50.630823537887515], [-4.103367707417557, 50.6251711578367]]]]}}, {"type": "Feature", "properties": {"type": "postcode-cell", "postcode": "EX20 4BW", "postcodes": ["EX20 4BW"]}, "geometry": {"type": "Polygon", "coordinates": [[[-4.130053231814859, 50.63193764359285], [-4.1213215883036485, 50.628107912792245], [-4.114931150487134, 50.61861840670072], [-4.118690642500897, 50.61617219870025], [-4.125696080687654, 50.619230003713206], [-4.131347898031037, 50.6231802998143], [-4.130053231814859, 50.63193764359285]]]}}, {"type": "Feature", "properties": {"type": "postcode-cell", "postcode": "PL19 0NB", "postcodes": ["PL19 0NB"]}, "geometry": {"type": "Polygon", "coordinates": [[[-4.1397541077918705, 50.614112296135595], [-4.125696080687654, 50.619230003713206], [-4.118690642500897, 50.61617219870025], [-4.11836616322835, 50.61118948816584], [-4.118438693650426, 50.611148876337836], [-4.126100047149978, 50.60700702154935], [-4.136611992105996, 50.61033480937679], [-4.1397541077918705, 50.614112296135595]]]}}, {"type": "Feature", "properties": {"type": "postcode-cell", "postcode": "PL19 0JY", "postcodes": ["PL19 0JY"]}, "geometry": {"type": "Polygon", "coordinates": [[[-4.131713324061872, 50.58038704758932], [-4.134043988428611, 50.57990899981902], [-4.134159990206903, 50.58016999462087], [-4.136439990207541, 50.582099994622354], [-4.137494598588714, 50.58405720042979], [-4.134685686594141, 50.58925207661569], [-4.130142370394648, 50.585949018788064], [-4.131713324061872, 50.58038704758932]]]}}, {"type": "Feature", "properties": {"type": "postcode-cell", "postcode": "PL19 0JX", "postcodes": ["PL19 0JX"]}, "geometry": {"type": "Polygon", "coordinates": [[[-4.130142370394648, 50.585949018788064], [-4.123756794395958, 50.586021468490706], [-4.123240668049286, 50.58589434908962], [-4.12108653711533, 50.58003540576183], [-4.125053366564535, 50.578551546945654], [-4.131713324061872, 50.58038704758932], [-4.130142370394648, 50.585949018788064]]]}}, {"type": "Feature", "properties": {"type": "postcode-cell", "postcode": "PL19 9PY", "postcodes": ["PL19 9PY"]}, "geometry": {"type": "Polygon", "coordinates": [[[-4.122004401104238, 50.60118241014369], [-4.119645533426367, 50.598405501516424], [-4.119568420220676, 50.598078896059626], [-4.120890029355061, 50.59663953929005], [-4.128114966296638, 50.59436473270171], [-4.1376278974147604, 50.59669268403482], [-4.127591247830348, 50.60484771530968], [-4.122004401104238, 50.60118241014369]]]}}, {"type": "Feature", "properties": {"type": "postcode-cell", "postcode": "PL19 9QB", "postcodes": ["PL19 9QB"]}, "geometry": {"type": "Polygon", "coordinates": [[[-4.127591247830348, 50.60484771530968], [-4.126100047149978, 50.60700702154935], [-4.118438693650426, 50.611148876337836], [-4.116124953116354, 50.599375151351595], [-4.122004401104238, 50.60118241014369], [-4.127591247830348, 50.60484771530968]]]}}, {"type": "Feature", "properties": {"type": "postcode-cell", "postcode": "PL19 9LT", "postcodes": ["PL19 9LT"]}, "geometry": {"type": "Polygon", "coordinates": [[[-4.125053366564535, 50.578551546945654], [-4.12108653711533, 50.58003540576183], [-4.1113644679102475, 50.57955066316854], [-4.110655158843888, 50.57825939870912], [-4.1105721603504914, 50.57796873400495], [-4.112220685135933, 50.57557860388508], [-4.1181243859232906, 50.572774970049664], [-4.1184099901996865, 50.57304999461547], [-4.119339990199785, 50.57418999461637], [-4.119399990199484, 50.57493999461695], [-4.119899990199732, 50.5751299946171], [-4.1210099901996715, 50.576869994618455], [-4.121689990200023, 50.57708999461862], [-4.120829990199963, 50.57596999461775], [-4.119376736853267, 50.57218015512856], [-4.126039606745183, 50.56901509295854], [-4.125053366564535, 50.578551546945654]]]}}, {"type": "Feature", "properties": {"type": "postcode-cell", "postcode": "PL19 9PJ", "postcodes": ["PL19 9PJ"]}, "geometry": {"type": "Polygon", "coordinates": [[[-4.123756794395958, 50.586021468490706], [-4.125553095621972, 50.59270290135848], [-4.117868229220037, 50.58992582602424], [-4.118042646965455, 50.587627069596515], [-4.123240668049286, 50.58589434908962], [-4.123756794395958, 50.586021468490706]]]}}, {"type": "Feature", "properties": {"type": "postcode-cell", "postcode": "PL19 9LU", "postcodes": ["PL19 9LU"]}, "geometry": {"type": "Polygon", "coordinates": [[[-4.123240668049286, 50.58589434908962], [-4.118042646965455, 50.587627069596515], [-4.1140760975854205, 50.58587953957464], [-4.110186393771192, 50.58135637023499], [-4.1113644679102475, 50.57955066316854], [-4.12108653711533, 50.58003540576183], [-4.123240668049286, 50.58589434908962]]]}}, {"type": "Feature", "properties": {"type": "postcode-cell", "postcode": "PL19 9PZ", "postcodes": ["PL19 9PZ"]}, "geometry": {"type": "Polygon", "coordinates": [[[-4.120890029355061, 50.59663953929005], [-4.118907819094497, 50.59631105179638], [-4.1184319888308325, 50.59561559022931], [-4.118626602568551, 50.59535078622585], [-4.118899600342669, 50.59518095429859], [-4.11929081004609, 50.59505889782679], [-4.1240240815640234, 50.59419072366485], [-4.127464454112359, 50.59410145666774], [-4.128114966296638, 50.59436473270171], [-4.120890029355061, 50.59663953929005]]]}}, {"type": "Feature", "properties": {"type": "postcode-cell", "postcode": "PL19 9NN", "postcodes": ["PL19 9NN"]}, "geometry": {"type": "Polygon", "coordinates": [[[-4.1113644679102475, 50.57955066316854], [-4.110186393771192, 50.58135637023499], [-4.100912739586329, 50.58550898714163], [-4.099437660124711, 50.58305125993867], [-4.099627498915737, 50.57987661459548], [-4.100033873806427, 50.57917840505774], [-4.103701409306389, 50.57858983279028], [-4.110655158843888, 50.57825939870912], [-4.1113644679102475, 50.57955066316854]]]}}, {"type": "Feature", "properties": {"type": "postcode-cell", "postcode": "PL19 9PH", "postcodes": ["PL19 9PH"]}, "geometry": {"type": "Polygon", "coordinates": [[[-4.127464454112359, 50.59410145666774], [-4.1240240815640234, 50.59419072366485], [-4.118885274514591, 50.59351173963189], [-4.116969000667693, 50.59053050395229], [-4.117868229220037, 50.58992582602424], [-4.125553095621972, 50.59270290135848], [-4.127464454112359, 50.59410145666774]]]}}, {"type": "Feature", "properties": {"type": "postcode-cell", "postcode": "PL19 9LS", "postcodes": ["PL19 9LS"]}, "geometry": {"type": "MultiPolygon", "coordinates": [[[[-4.126039606745183, 50.56901509295854], [-4.119376736853267, 50.57218015512856], [-4.119299990200766, 50.571979994614615], [-4.11954999020161, 50.570489994613425], [-4.120339990202786, 50.56904999461227], [-4.121839990204235, 50.56805999461148], [-4.126749990208176, 50.56654999461021], [-4.127293989122319, 50.56728044942068], [-4.126039606745183, 50.56901509295854]]], [[[-4.112220685135933, 50.57557860388508], [-4.110415887542713, 50.57067584209783], [-4.115732612268207, 50.56842326971651], [-4.116419990200184, 50.56905999461235], [-4.1161599901994395, 50.57031999461336], [-4.117179990199764, 50.57108999461395], [-4.117319990199223, 50.572479994615044], [-4.117869990199564, 50.57252999461508], [-4.1181243859232906, 50.572774970049664], [-4.112220685135933, 50.57557860388508]]]]}}, {"type": "Feature", "properties": {"type": "postcode-cell", "postcode": "PL19 9QA", "postcodes": ["PL19 9QA"]}, "geometry": {"type": "Polygon", "coordinates": [[[-4.118907819094497, 50.59631105179638], [-4.118578420054955, 50.59658672153525], [-4.116598562264955, 50.596318455037306], [-4.116656260449206, 50.59619137489106], [-4.117637452893829, 50.59571285760649], [-4.1184319888308325, 50.59561559022931], [-4.118907819094497, 50.59631105179638]]]}}, {"type": "Feature", "properties": {"type": "postcode-cell", "postcode": "PL19 9QP", "postcodes": ["PL19 9QP"]}, "geometry": {"type": "Polygon", "coordinates": [[[-4.120890029355061, 50.59663953929005], [-4.119568420220676, 50.598078896059626], [-4.118106772812378, 50.597336672427794], [-4.118578420054955, 50.59658672153525], [-4.118907819094497, 50.59631105179638], [-4.120890029355061, 50.59663953929005]]]}}, {"type": "Feature", "properties": {"type": "postcode-cell", "postcode": "PL19 9QH", "postcodes": ["PL19 9QH"]}, "geometry": {"type": "Polygon", "coordinates": [[[-4.1240240815640234, 50.59419072366485], [-4.11929081004609, 50.59505889782679], [-4.1184213236723775, 50.59375941289406], [-4.118885274514591, 50.59351173963189], [-4.1240240815640234, 50.59419072366485]]]}}, {"type": "Feature", "properties": {"type": "postcode-cell", "postcode": "PL19 9QF", "postcodes": ["PL19 9QF"]}, "geometry": {"type": "Polygon", "coordinates": [[[-4.122004401104238, 50.60118241014369], [-4.116124953116354, 50.599375151351595], [-4.114731773143341, 50.59877008576916], [-4.114935617395449, 50.598625356490324], [-4.119645533426367, 50.598405501516424], [-4.122004401104238, 50.60118241014369]]]}}, {"type": "Feature", "properties": {"type": "postcode-cell", "postcode": "PL19 9PQ", "postcodes": ["PL19 9PQ"]}, "geometry": {"type": "Polygon", "coordinates": [[[-4.117768514845815, 50.593982240760134], [-4.116928079216801, 50.5940502431459], [-4.1135568662473245, 50.59308845508077], [-4.115969428991068, 50.59095446594639], [-4.116969000667693, 50.59053050395229], [-4.118885274514591, 50.59351173963189], [-4.1184213236723775, 50.59375941289406], [-4.117768514845815, 50.593982240760134]]]}}, {"type": "Feature", "properties": {"type": "postcode-cell", "postcode": "PL19 9QQ", "postcodes": ["PL19 9QQ"]}, "geometry": {"type": "Polygon", "coordinates": [[[-4.1184213236723775, 50.59375941289406], [-4.11929081004609, 50.59505889782679], [-4.118899600342669, 50.59518095429859], [-4.117768514845815, 50.593982240760134], [-4.1184213236723775, 50.59375941289406]]]}}, {"type": "Feature", "properties": {"type": "postcode-cell", "postcode": "PL19 9PN", "postcodes": ["PL19 9PN"]}, "geometry": {"type": "Polygon", "coordinates": [[[-4.116969000667693, 50.59053050395229], [-4.115969428991068, 50.59095446594639], [-4.110393950995536, 50.589138548654084], [-4.110367031134297, 50.589112829827236], [-4.1140760975854205, 50.58587953957464], [-4.118042646965455, 50.587627069596515], [-4.117868229220037, 50.58992582602424], [-4.116969000667693, 50.59053050395229]]]}}, {"type": "Feature", "properties": {"type": "postcode-cell", "postcode": "PL19 9PA", "postcodes": ["PL19 9PA"]}, "geometry": {"type": "Polygon", "coordinates": [[[-4.11718696990722, 50.59464436988687], [-4.118626602568551, 50.59535078622585], [-4.1184319888308325, 50.59561559022931], [-4.117637452893829, 50.59571285760649], [-4.11689898750467, 50.5951525091875], [-4.11718696990722, 50.59464436988687]]]}}, {"type": "Feature", "properties": {"type": "postcode-cell", "postcode": "PL19 9FF", "postcodes": ["PL19 9FF"]}, "geometry": {"type": "Polygon", "coordinates": [[[-4.11689898750467, 50.5951525091875], [-4.115808894381488, 50.595318327467], [-4.115164854380545, 50.595073711807714], [-4.113433947898129, 50.59314232450696], [-4.1135568662473245, 50.59308845508077], [-4.116928079216801, 50.5940502431459], [-4.11718696990722, 50.59464436988687], [-4.11689898750467, 50.5951525091875]]]}}, {"type": "Feature", "properties": {"type": "postcode-cell", "postcode": "PL19 9QJ", "postcodes": ["PL19 9QJ"]}, "geometry": {"type": "Polygon", "coordinates": [[[-4.118626602568551, 50.59535078622585], [-4.11718696990722, 50.59464436988687], [-4.116928079216801, 50.5940502431459], [-4.117768514845815, 50.593982240760134], [-4.118899600342669, 50.59518095429859], [-4.118626602568551, 50.59535078622585]]]}}, {"type": "Feature", "properties": {"type": "postcode-cell", "postcode": "EX20 4BN", "postcodes": ["EX20 4BN"]}, "geometry": {"type": "Polygon", "coordinates": [[[-4.1213215883036485, 50.628107912792245], [-4.103367707417557, 50.6251711578367], [-4.114931150487134, 50.61861840670072], [-4.1213215883036485, 50.628107912792245]]]}}, {"type": "Feature", "properties": {"type": "postcode-cell", "postcode": "PL19 9QD", "postcodes": ["PL19 9QD"]}, "geometry": {"type": "Polygon", "coordinates": [[[-4.116124953116354, 50.599375151351595], [-4.118438693650426, 50.611148876337836], [-4.11836616322835, 50.61118948816584], [-4.110625858401658, 50.60821538314882], [-4.110038441084328, 50.59969527252347], [-4.114731773143341, 50.59877008576916], [-4.116124953116354, 50.599375151351595]]]}}, {"type": "Feature", "properties": {"type": "postcode-cell", "postcode": "PL19 9QE", "postcodes": ["PL19 9QE"]}, "geometry": {"type": "Polygon", "coordinates": [[[-4.119645533426367, 50.598405501516424], [-4.114935617395449, 50.598625356490324], [-4.116007161916996, 50.59743259118957], [-4.118106772812378, 50.597336672427794], [-4.119568420220676, 50.598078896059626], [-4.119645533426367, 50.598405501516424]]]}}, {"type": "Feature", "properties": {"type": "postcode-cell", "postcode": "PL19 9QY", "postcodes": ["PL19 9QY"]}, "geometry": {"type": "Polygon", "coordinates": [[[-4.116598562264955, 50.596318455037306], [-4.118578420054955, 50.59658672153525], [-4.118106772812378, 50.597336672427794], [-4.116007161916996, 50.59743259118957], [-4.115979061925781, 50.59713880379783], [-4.1160121322116545, 50.597024409029835], [-4.116598562264955, 50.596318455037306]]]}}, {"type": "Feature", "properties": {"type": "postcode-cell", "postcode": "PL19 9PD", "postcodes": ["PL19 9PD"]}, "geometry": {"type": "Polygon", "coordinates": [[[-4.1160121322116545, 50.597024409029835], [-4.114915615298909, 50.595857174876855], [-4.115164854380545, 50.595073711807714], [-4.115808894381488, 50.595318327467], [-4.116656260449206, 50.59619137489106], [-4.116598562264955, 50.596318455037306], [-4.1160121322116545, 50.597024409029835]]]}}, {"type": "Feature", "properties": {"type": "postcode-cell", "postcode": "PL19 9QG", "postcodes": ["PL19 9QG"]}, "geometry": {"type": "Polygon", "coordinates": [[[-4.118690642500897, 50.61617219870025], [-4.114931150487134, 50.61861840670072], [-4.103367707417557, 50.6251711578367], [-4.091383834638605, 50.630823537887515], [-4.091289990155419, 50.63079999466167], [-4.09127264194311, 50.63087597163187], [-4.089033417987884, 50.63193184734292], [-4.087513964314188, 50.61649993462458], [-4.097336941314675, 50.60827800051084], [-4.099246562491794, 50.60770192310216], [-4.110625858401658, 50.60821538314882], [-4.11836616322835, 50.61118948816584], [-4.118690642500897, 50.61617219870025]]]}}, {"type": "Feature", "properties": {"type": "postcode-cell", "postcode": "PL19 9QR", "postcodes": ["PL19 9QR"]}, "geometry": {"type": "Polygon", "coordinates": [[[-4.114915615298909, 50.595857174876855], [-4.114036724031544, 50.59615197629786], [-4.112227232567234, 50.59336395963312], [-4.113433947898129, 50.59314232450696], [-4.115164854380545, 50.595073711807714], [-4.114915615298909, 50.595857174876855]]]}}, {"type": "Feature", "properties": {"type": "postcode-cell", "postcode": "PL19 9PB", "postcodes": ["PL19 9PB"]}, "geometry": {"type": "Polygon", "coordinates": [[[-4.116656260449206, 50.59619137489106], [-4.115808894381488, 50.595318327467], [-4.11689898750467, 50.5951525091875], [-4.117637452893829, 50.59571285760649], [-4.116656260449206, 50.59619137489106]]]}}, {"type": "Feature", "properties": {"type": "postcode-cell", "postcode": "PL19 9NB", "postcodes": ["PL19 9NB"]}, "geometry": {"type": "Polygon", "coordinates": [[[-4.071787873966228, 50.60697360253505], [-4.087513964314188, 50.61649993462458], [-4.089033417987884, 50.63193184734292], [-4.085886982390207, 50.636626224731444], [-4.08552999014894, 50.63663999466639], [-4.082689990147153, 50.63641999466626], [-4.076239990142126, 50.63806999466767], [-4.0785599901430984, 50.63931999466863], [-4.074769990140066, 50.64044999466959], [-4.075189990140008, 50.64118999467017], [-4.075879990140476, 50.641169994670136], [-4.075629990139944, 50.64196999467077], [-4.073949990138888, 50.64184999467069], [-4.07199999013735, 50.64238999467118], [-4.069589990136014, 50.64180999467073], [-4.066939990134238, 50.64184999467081], [-4.065539990133506, 50.64141999467047], [-4.063719990132318, 50.64137999467048], [-4.059929990129295, 50.642499994671425], [-4.049579990122343, 50.642719994671744], [-4.045339990119309, 50.6432199946722], [-4.043299990118416, 50.64221999467145], [-4.041959990118464, 50.64016999466984], [-4.03943999011734, 50.638979994668944], [-4.037069990115777, 50.638969994668955], [-4.035879990115336, 50.638219994668404], [-4.036869990116426, 50.6372599946676], [-4.03657999011696, 50.635679994666376], [-4.037589990117661, 50.63559999466629], [-4.03458999011604, 50.63480999466571], [-4.0333783988757395, 50.63367516391485], [-4.071787873966228, 50.60697360253505]]]}}, {"type": "Feature", "properties": {"type": "postcode-cell", "postcode": "PL19 9PF", "postcodes": ["PL19 9PF"]}, "geometry": {"type": "Polygon", "coordinates": [[[-4.114731773143341, 50.59877008576916], [-4.110038441084328, 50.59969527252347], [-4.108645974149688, 50.59834710544843], [-4.113939051736533, 50.596310642568106], [-4.115979061925781, 50.59713880379783], [-4.116007161916996, 50.59743259118957], [-4.114935617395449, 50.598625356490324], [-4.114731773143341, 50.59877008576916]]]}}, {"type": "Feature", "properties": {"type": "postcode-cell", "postcode": "PL19 9PE", "postcodes": ["PL19 9PE"]}, "geometry": {"type": "Polygon", "coordinates": [[[-4.115979061925781, 50.59713880379783], [-4.113939051736533, 50.596310642568106], [-4.114036724031544, 50.59615197629786], [-4.114915615298909, 50.595857174876855], [-4.1160121322116545, 50.597024409029835], [-4.115979061925781, 50.59713880379783]]]}}, {"type": "Feature", "properties": {"type": "postcode-cell", "postcode": "PL19 9LX", "postcodes": ["PL19 9LX"]}, "geometry": {"type": "Polygon", "coordinates": [[[-4.1105721603504914, 50.57796873400495], [-4.105836811315206, 50.575772580937134], [-4.106391597108041, 50.56902866428354], [-4.110415887542713, 50.57067584209783], [-4.112220685135933, 50.57557860388508], [-4.1105721603504914, 50.57796873400495]]]}}, {"type": "Feature", "properties": {"type": "postcode-cell", "postcode": "PL19 9PP", "postcodes": ["PL19 9PP"]}, "geometry": {"type": "Polygon", "coordinates": [[[-4.113433947898129, 50.59314232450696], [-4.112227232567234, 50.59336395963312], [-4.110837942010662, 50.59352279247025], [-4.110393950995536, 50.589138548654084], [-4.115969428991068, 50.59095446594639], [-4.1135568662473245, 50.59308845508077], [-4.113433947898129, 50.59314232450696]]]}}, {"type": "Feature", "properties": {"type": "postcode-cell", "postcode": "PL19 9PG", "postcodes": ["PL19 9PG"]}, "geometry": {"type": "Polygon", "coordinates": [[[-4.104880277503114, 50.595512282401906], [-4.110837942010662, 50.59352279247025], [-4.112227232567234, 50.59336395963312], [-4.114036724031544, 50.59615197629786], [-4.113939051736533, 50.596310642568106], [-4.108645974149688, 50.59834710544843], [-4.104880277503114, 50.595512282401906]]]}}, {"type": "Feature", "properties": {"type": "postcode-cell", "postcode": "PL19 9NF", "postcodes": ["PL19 9NF"]}, "geometry": {"type": "Polygon", "coordinates": [[[-4.108645974149688, 50.59834710544843], [-4.110038441084328, 50.59969527252347], [-4.110625858401658, 50.60821538314882], [-4.099246562491794, 50.60770192310216], [-4.098287724405167, 50.60009756898925], [-4.0978096040124115, 50.59523951438411], [-4.099218577937586, 50.594382454196406], [-4.104880277503114, 50.595512282401906], [-4.108645974149688, 50.59834710544843]]]}}, {"type": "Feature", "properties": {"type": "postcode-cell", "postcode": "PL19 9PW", "postcodes": ["PL19 9PW"]}, "geometry": {"type": "Polygon", "coordinates": [[[-4.1140760975854205, 50.58587953957464], [-4.110367031134297, 50.589112829827236], [-4.0990949335305205, 50.58854435328731], [-4.098722690062878, 50.587686136246994], [-4.100912739586329, 50.58550898714163], [-4.110186393771192, 50.58135637023499], [-4.1140760975854205, 50.58587953957464]]]}}, {"type": "Feature", "properties": {"type": "postcode-cell", "postcode": "PL19 9PR", "postcodes": ["PL19 9PR"]}, "geometry": {"type": "Polygon", "coordinates": [[[-4.110837942010662, 50.59352279247025], [-4.104880277503114, 50.595512282401906], [-4.099218577937586, 50.594382454196406], [-4.0990949335305205, 50.58854435328731], [-4.110367031134297, 50.589112829827236], [-4.110393950995536, 50.589138548654084], [-4.110837942010662, 50.59352279247025]]]}}, {"type": "Feature", "properties": {"type": "postcode-cell", "postcode": "PL19 9JP", "postcodes": ["PL19 9JP"]}, "geometry": {"type": "MultiPolygon", "coordinates": [[[[-4.112617850745274, 50.563477238819495], [-4.11260999020012, 50.56365999460816], [-4.114549990200457, 50.56573999460977], [-4.114069990199722, 50.56665999461052], [-4.1126999901985934, 50.56713999461092], [-4.114419990199049, 50.568639994612056], [-4.115469990199956, 50.56817999461168], [-4.115732612268207, 50.56842326971651], [-4.110415887542713, 50.57067584209783], [-4.106391597108041, 50.56902866428354], [-4.104433634061789, 50.56774319586174], [-4.1041174191547425, 50.56596755533528], [-4.112617850745274, 50.563477238819495]]], [[[-4.118728476607346, 50.56376865840288], [-4.118389990203822, 50.563939994608276], [-4.117556750340486, 50.56338026654954], [-4.118728476607346, 50.56376865840288]]]]}}, {"type": "Feature", "properties": {"type": "postcode-cell", "postcode": "PL19 9JS", "postcodes": ["PL19 9JS"]}, "geometry": {"type": "Polygon", "coordinates": [[[-4.114739611452076, 50.56165923285026], [-4.114049990201965, 50.56169999460658], [-4.112649990200571, 50.56272999460742], [-4.112617850745274, 50.563477238819495], [-4.1041174191547425, 50.56596755533528], [-4.089004213638221, 50.55987655178224], [-4.092919990188827, 50.559849994605486], [-4.097979990192678, 50.55873999460452], [-4.098919990193685, 50.55789999460384], [-4.099899990194284, 50.5580099946039], [-4.1014699901956035, 50.55738999460339], [-4.100549990195868, 50.5554799946019], [-4.101489990196616, 50.55519999460166], [-4.103109990197585, 50.55542999460184], [-4.1061499901996585, 50.55528999460165], [-4.105729990200404, 50.55304999459991], [-4.104259990199512, 50.55286999459978], [-4.103819990199536, 50.55217999459925], [-4.102779990198885, 50.552099994599224], [-4.108560684248372, 50.552183268263725], [-4.114739611452076, 50.56165923285026]]]}}, {"type": "Feature", "properties": {"type": "postcode-cell", "postcode": "PL19 9JR", "postcodes": ["PL19 9JR"]}, "geometry": {"type": "Polygon", "coordinates": [[[-4.104433634061789, 50.56774319586174], [-4.098467529030557, 50.57360506501723], [-4.095686018755113, 50.57399229815498], [-4.092612568286191, 50.57414389637608], [-4.08851471151846, 50.573797450632945], [-4.088441321140725, 50.57374760169677], [-4.076659403782139, 50.560454583562944], [-4.076709990177854, 50.560429994606224], [-4.079569990179965, 50.55993999460578], [-4.089004213638221, 50.55987655178224], [-4.1041174191547425, 50.56596755533528], [-4.104433634061789, 50.56774319586174]]]}}, {"type": "Feature", "properties": {"type": "postcode-cell", "postcode": "PL19 9NP", "postcodes": ["PL19 9NP"]}, "geometry": {"type": "Polygon", "coordinates": [[[-4.110655158843888, 50.57825939870912], [-4.103701409306389, 50.57858983279028], [-4.099758206818469, 50.57789943136061], [-4.095686018755113, 50.57399229815498], [-4.098467529030557, 50.57360506501723], [-4.105836811315206, 50.575772580937134], [-4.1105721603504914, 50.57796873400495], [-4.110655158843888, 50.57825939870912]]]}}, {"type": "Feature", "properties": {"type": "postcode-cell", "postcode": "PL19 9LY", "postcodes": ["PL19 9LY"]}, "geometry": {"type": "Polygon", "coordinates": [[[-4.106391597108041, 50.56902866428354], [-4.105836811315206, 50.575772580937134], [-4.098467529030557, 50.57360506501723], [-4.104433634061789, 50.56774319586174], [-4.106391597108041, 50.56902866428354]]]}}, {"type": "Feature", "properties": {"type": "postcode-cell", "postcode": "PL19 9NU", "postcodes": ["PL19 9NU"]}, "geometry": {"type": "Polygon", "coordinates": [[[-4.099437660124711, 50.58305125993867], [-4.097243791415093, 50.58116019750212], [-4.096738879458717, 50.57864737595904], [-4.099627498915737, 50.57987661459548], [-4.099437660124711, 50.58305125993867]]]}}, {"type": "Feature", "properties": {"type": "postcode-cell", "postcode": "PL19 9NW", "postcodes": ["PL19 9NW"]}, "geometry": {"type": "Polygon", "coordinates": [[[-4.0999722519528, 50.57911042163705], [-4.099758206818469, 50.57789943136061], [-4.103701409306389, 50.57858983279028], [-4.100033873806427, 50.57917840505774], [-4.0999722519528, 50.57911042163705]]]}}, {"type": "Feature", "properties": {"type": "postcode-cell", "postcode": "PL19 9NS", "postcodes": ["PL19 9NS"]}, "geometry": {"type": "Polygon", "coordinates": [[[-4.100033873806427, 50.57917840505774], [-4.099627498915737, 50.57987661459548], [-4.096738879458717, 50.57864737595904], [-4.096434194917501, 50.57812941480348], [-4.0999722519528, 50.57911042163705], [-4.100033873806427, 50.57917840505774]]]}}, {"type": "Feature", "properties": {"type": "postcode-cell", "postcode": "PL19 9NX", "postcodes": ["PL19 9NX"]}, "geometry": {"type": "Polygon", "coordinates": [[[-4.100912739586329, 50.58550898714163], [-4.098722690062878, 50.587686136246994], [-4.086300502840239, 50.58481040423886], [-4.088283083965496, 50.57841906208448], [-4.097243791415093, 50.58116019750212], [-4.099437660124711, 50.58305125993867], [-4.100912739586329, 50.58550898714163]]]}}, {"type": "Feature", "properties": {"type": "postcode-cell", "postcode": "PL19 9ND", "postcodes": ["PL19 9ND"]}, "geometry": {"type": "Polygon", "coordinates": [[[-4.087513964314188, 50.61649993462458], [-4.071787873966228, 50.60697360253505], [-4.0712063273387935, 50.59757507529603], [-4.077164975719035, 50.5980478845193], [-4.086906905382288, 50.60290030401163], [-4.097336941314675, 50.60827800051084], [-4.087513964314188, 50.61649993462458]]]}}, {"type": "Feature", "properties": {"type": "postcode-cell", "postcode": "PL19 9NR", "postcodes": ["PL19 9NR"]}, "geometry": {"type": "Polygon", "coordinates": [[[-4.099758206818469, 50.57789943136061], [-4.0999722519528, 50.57911042163705], [-4.096434194917501, 50.57812941480348], [-4.092612568286191, 50.57414389637608], [-4.095686018755113, 50.57399229815498], [-4.099758206818469, 50.57789943136061]]]}}, {"type": "Feature", "properties": {"type": "postcode-cell", "postcode": "PL19 9NT", "postcodes": ["PL19 9NT"]}, "geometry": {"type": "Polygon", "coordinates": [[[-4.096434194917501, 50.57812941480348], [-4.096738879458717, 50.57864737595904], [-4.097243791415093, 50.58116019750212], [-4.088283083965496, 50.57841906208448], [-4.08851471151846, 50.573797450632945], [-4.092612568286191, 50.57414389637608], [-4.096434194917501, 50.57812941480348]]]}}, {"type": "Feature", "properties": {"type": "postcode-cell", "postcode": "PL19 9NY", "postcodes": ["PL19 9NY"]}, "geometry": {"type": "Polygon", "coordinates": [[[-4.088441321140725, 50.57374760169677], [-4.055329729313358, 50.58888942227857], [-4.034327304977733, 50.5834280051756], [-4.035329990140719, 50.58194999462387], [-4.037789990142775, 50.58099999462309], [-4.039799990144, 50.58121999462323], [-4.040829990144755, 50.58104999462307], [-4.041669990145891, 50.57977999462206], [-4.044179990148016, 50.5787499946212], [-4.044919990148792, 50.57811999462071], [-4.0454999901504545, 50.575319994618454], [-4.045219990150605, 50.574589994617895], [-4.045709990151226, 50.57393999461737], [-4.045419990151462, 50.57300999461667], [-4.046179990152531, 50.57176999461566], [-4.045709990152596, 50.57094999461501], [-4.046049990153962, 50.56845999461306], [-4.047539990155021, 50.568289994612904], [-4.050939990157048, 50.56874999461321], [-4.0543799901588695, 50.56972999461392], [-4.070429990171656, 50.56491999460986], [-4.074199990175637, 50.561649994607215], [-4.076659403782139, 50.560454583562944], [-4.088441321140725, 50.57374760169677]]]}}, {"type": "Feature", "properties": {"type": "postcode-cell", "postcode": "PL19 9LZ", "postcodes": ["PL19 9LZ"]}, "geometry": {"type": "Polygon", "coordinates": [[[-4.0990949335305205, 50.58854435328731], [-4.099218577937586, 50.594382454196406], [-4.0978096040124115, 50.59523951438411], [-4.077164975719035, 50.5980478845193], [-4.0712063273387935, 50.59757507529603], [-4.06348999850514, 50.59161971478089], [-4.086300502840239, 50.58481040423886], [-4.098722690062878, 50.587686136246994], [-4.0990949335305205, 50.58854435328731]]]}}, {"type": "Feature", "properties": {"type": "postcode-cell", "postcode": "PL19 9QL", "postcodes": ["PL19 9QL"]}, "geometry": {"type": "Polygon", "coordinates": [[[-4.088283083965496, 50.57841906208448], [-4.086300502840239, 50.58481040423886], [-4.06348999850514, 50.59161971478089], [-4.055329729313358, 50.58888942227857], [-4.088441321140725, 50.57374760169677], [-4.08851471151846, 50.573797450632945], [-4.088283083965496, 50.57841906208448]]]}}, {"type": "Feature", "properties": {"type": "postcode-cell", "postcode": "PL19 9NQ", "postcodes": ["PL19 9NQ"]}, "geometry": {"type": "Polygon", "coordinates": [[[-4.098287724405167, 50.60009756898925], [-4.086906905382288, 50.60290030401163], [-4.077164975719035, 50.5980478845193], [-4.0978096040124115, 50.59523951438411], [-4.098287724405167, 50.60009756898925]]]}}, {"type": "Feature", "properties": {"type": "postcode-cell", "postcode": "PL19 9NG", "postcodes": ["PL19 9NG"]}, "geometry": {"type": "Polygon", "coordinates": [[[-4.099246562491794, 50.60770192310216], [-4.097336941314675, 50.60827800051084], [-4.086906905382288, 50.60290030401163], [-4.098287724405167, 50.60009756898925], [-4.099246562491794, 50.60770192310216]]]}}, {"type": "Feature", "properties": {"type": "postcode-cell", "postcode": "PL19 9NA", "postcodes": ["PL19 9NA"]}, "geometry": {"type": "Polygon", "coordinates": [[[-4.055329729313358, 50.58888942227857], [-4.06348999850514, 50.59161971478089], [-4.0712063273387935, 50.59757507529603], [-4.071787873966228, 50.60697360253505], [-4.0333783988757395, 50.63367516391485], [-4.030639990115124, 50.63110999466285], [-4.028799990113835, 50.63126999466299], [-4.028229990113619, 50.63091999466271], [-4.029259990115097, 50.629179994661335], [-4.02912999011591, 50.627209994659786], [-4.02828999011582, 50.626199994658975], [-4.028229990116692, 50.62419999465739], [-4.028609990117063, 50.62393999465718], [-4.029559990120708, 50.61733999465193], [-4.028539990124561, 50.607459994644145], [-4.023969990126849, 50.59588999463508], [-4.027719990132687, 50.588539994629215], [-4.027279990133446, 50.586249994627394], [-4.0275999901339485, 50.585609994626886], [-4.029809990135596, 50.58519999462654], [-4.031719990136748, 50.585429994626686], [-4.033859990138456, 50.58476999462613], [-4.033789990138662, 50.58421999462569], [-4.034327304977733, 50.5834280051756], [-4.055329729313358, 50.58888942227857]]]}}]}