{"type": "FeatureCollection", "features": [{"type": "Feature", "properties": {"type": "ward-outline", "name": "Milton Ford"}, "geometry": {"type": "Polygon", "coordinates": [[[-4.19201, 50.62754], [-4.19167, 50.62727], [-4.19183, 50.62279], [-4.19048, 50.61707], [-4.18479, 50.61713], [-4.1841, 50.61656], [-4.1842, 50.61541], [-4.18057, 50.61471], [-4.17781, 50.61364], [-4.17365, 50.61365], [-4.16804, 50.61257], [-4.16761, 50.61111], [-4.16792, 50.61026], [-4.16725, 50.60936], [-4.16872, 50.60923], [-4.16904, 50.6089], [-4.16744, 50.6064], [-4.16866, 50.60613], [-4.16801, 50.6052], [-4.16855, 50.60512], [-4.16729, 50.60396], [-4.16945, 50.60334], [-4.16735, 50.60186], [-4.16637, 50.60174], [-4.17501, 50.59583], [-4.17148, 50.59573], [-4.16705, 50.59672], [-4.16341, 50.59706], [-4.16363, 50.59339], [-4.15711, 50.59267], [-4.15175, 50.59134], [-4.15074, 50.59053], [-4.14956, 50.5885], [-4.14805, 50.58757], [-4.14224, 50.58532], [-4.13755, 50.58416], [-4.13644, 50.5821], [-4.13416, 50.58017], [-4.13336, 50.57837], [-4.14059, 50.57546], [-4.14501, 50.57516], [-4.14895, 50.57414], [-4.14935, 50.5748], [-4.15356, 50.57401], [-4.15323, 50.5732], [-4.15585, 50.57267], [-4.15551, 50.57218], [-4.15822, 50.57135], [-4.15828, 50.56927], [-4.15675, 50.56219], [-4.15985, 50.56208], [-4.16065, 50.56014], [-4.16173, 50.55949], [-4.16049, 50.55636], [-4.1606, 50.55395], [-4.16109, 50.55345], [-4.16403, 50.55453], [-4.16442, 50.55281], [-4.16872, 50.55288], [-4.17077, 50.55247], [-4.1734, 50.55281], [-4.17529, 50.55193], [-4.17997, 50.55261], [-4.18287, 50.55234], [-4.18493, 50.55129], [-4.18637, 50.5513], [-4.19207, 50.554], [-4.19508, 50.55411], [-4.2003, 50.55589], [-4.21478, 50.55379], [-4.21725, 50.55378], [-4.22206, 50.55168], [-4.2296, 50.54943], [-4.2307, 50.54976], [-4.23126, 50.55028], [-4.23566, 50.54988], [-4.23729, 50.54925], [-4.23906, 50.54768], [-4.24008, 50.54727], [-4.23798, 50.54433], [-4.23821, 50.54237], [-4.24017, 50.54142], [-4.24149, 50.54269], [-4.24417, 50.54352], [-4.24816, 50.54393], [-4.25342, 50.54364], [-4.25474, 50.54254], [-4.25557, 50.54037], [-4.25783, 50.53893], [-4.2635, 50.536], [-4.26877, 50.53527], [-4.2697, 50.5355], [-4.27162, 50.53668], [-4.27143, 50.53862], [-4.26704, 50.54242], [-4.26399, 50.54354], [-4.26114, 50.54388], [-4.26003, 50.54454], [-4.25929, 50.54585], [-4.25995, 50.54772], [-4.2596, 50.55114], [-4.26146, 50.55466], [-4.26376, 50.55737], [-4.26599, 50.55886], [-4.27249, 50.56164], [-4.27343, 50.56249], [-4.27357, 50.5648], [-4.27443, 50.56593], [-4.27952, 50.56917], [-4.27934, 50.57085], [-4.27786, 50.57478], [-4.26972, 50.57898], [-4.2698, 50.57988], [-4.27115, 50.58221], [-4.27253, 50.58286], [-4.28117, 50.58402], [-4.28148, 50.58504], [-4.28083, 50.58579], [-4.27887, 50.5868], [-4.27261, 50.59252], [-4.26605, 50.59739], [-4.26424, 50.59819], [-4.25929, 50.59893], [-4.25648, 50.59902], [-4.25191, 50.60136], [-4.25044, 50.60299], [-4.24625, 50.60379], [-4.24594, 50.60455], [-4.24767, 50.60614], [-4.24684, 50.6072], [-4.24188, 50.60974], [-4.23908, 50.61158], [-4.23715, 50.6122], [-4.23325, 50.61447], [-4.23259, 50.61619], [-4.23012, 50.61853], [-4.23033, 50.6201], [-4.22275, 50.62027], [-4.22177, 50.62081], [-4.2204, 50.62057], [-4.21981, 50.62111], [-4.21365, 50.62143], [-4.2145, 50.62357], [-4.21378, 50.62415], [-4.20862, 50.6261], [-4.20441, 50.62849], [-4.19814, 50.62754], [-4.19562, 50.62756], [-4.19316, 50.62808], [-4.19218, 50.62795], [-4.19201, 50.62754]]]}}, {"type": "Feature", "properties": {"type": "postcode-cell", "postcode": "PL19 0PQ", "postcodes": ["PL19 0PQ"]}, "geometry": {"type": "Polygon", "coordinates": [[[-4.2641757871544606, 50.58743141944858], [-4.26682149409771, 50.57612696462766], [-4.278215681571736, 50.573835549038414], [-4.277859990305356, 50.57477999461432], [-4.269719990298, 50.57897999461778], [-4.269799990297652, 50.579879994618516], [-4.271149990297511, 50.582209994620335], [-4.27252999029815, 50.58285999462084], [-4.281169990303437, 50.58401999462162], [-4.281479990303188, 50.58503999462243], [-4.280829990302414, 50.58578999462302], [-4.278869990300647, 50.58679999462385], [-4.275595642241093, 50.58979210274697], [-4.2641757871544606, 50.58743141944858]]]}}, {"type": "Feature", "properties": {"type": "postcode-cell", "postcode": "PL19 8PN", "postcodes": ["PL19 8PN"]}, "geometry": {"type": "Polygon", "coordinates": [[[-4.26682149409771, 50.57612696462766], [-4.266201536792463, 50.57616830138807], [-4.254929531177614, 50.57424061661193], [-4.256404110514294, 50.56944146537895], [-4.276737405692508, 50.567398845997005], [-4.279519990308989, 50.56916999460985], [-4.279339990308113, 50.57084999461115], [-4.278215681571736, 50.573835549038414], [-4.26682149409771, 50.57612696462766]]]}}, {"type": "Feature", "properties": {"type": "postcode-cell", "postcode": "PL19 0QH", "postcodes": ["PL19 0QH"]}, "geometry": {"type": "Polygon", "coordinates": [[[-4.256961450069873, 50.5941284704849], [-4.259060674567388, 50.59019472266537], [-4.262747299300952, 50.58726770005695], [-4.2641757871544606, 50.58743141944858], [-4.275595642241093, 50.58979210274697], [-4.27260999029387, 50.59251999462851], [-4.266049990287272, 50.59738999463248], [-4.264239990285695, 50.59818999463313], [-4.259289990282038, 50.5989299946338], [-4.256479990280108, 50.59901999463393], [-4.255258145948906, 50.59964566162753], [-4.256961450069873, 50.5941284704849]]]}}, {"type": "Feature", "properties": {"type": "postcode-cell", "postcode": "PL19 0PG", "postcodes": ["PL19 0PG"]}, "geometry": {"type": "Polygon", "coordinates": [[[-4.2641757871544606, 50.58743141944858], [-4.262747299300952, 50.58726770005695], [-4.256674527735068, 50.58436605596739], [-4.266201536792463, 50.57616830138807], [-4.26682149409771, 50.57612696462766], [-4.2641757871544606, 50.58743141944858]]]}}, {"type": "Feature", "properties": {"type": "postcode-cell", "postcode": "PL19 8PL", "postcodes": ["PL19 8PL"]}, "geometry": {"type": "Polygon", "coordinates": [[[-4.256404110514294, 50.56944146537895], [-4.253085118366577, 50.56593069025231], [-4.258617908300075, 50.558845714851635], [-4.265240327595411, 50.55835911440368], [-4.265989990304537, 50.55885999460188], [-4.272489990307648, 50.56163999460397], [-4.273429990307897, 50.562489994604626], [-4.273569990306953, 50.56479999460647], [-4.274429990307025, 50.565929994607345], [-4.276737405692508, 50.567398845997005], [-4.256404110514294, 50.56944146537895]]]}}, {"type": "Feature", "properties": {"type": "postcode-cell", "postcode": "PL19 8PW", "postcodes": ["PL19 8PW"]}, "geometry": {"type": "Polygon", "coordinates": [[[-4.256404110514294, 50.56944146537895], [-4.254929531177614, 50.57424061661193], [-4.249586694595843, 50.577267787492225], [-4.2387315555894665, 50.57090910090471], [-4.238978340115849, 50.570523521721384], [-4.247540119146704, 50.56597678922508], [-4.253085118366577, 50.56593069025231], [-4.256404110514294, 50.56944146537895]]]}}, {"type": "Feature", "properties": {"type": "postcode-cell", "postcode": "PL19 0PH", "postcodes": ["PL19 0PH"]}, "geometry": {"type": "Polygon", "coordinates": [[[-4.266201536792463, 50.57616830138807], [-4.256674527735068, 50.58436605596739], [-4.253805643699034, 50.583637906170296], [-4.249246706994049, 50.57956999833606], [-4.249586694595843, 50.577267787492225], [-4.254929531177614, 50.57424061661193], [-4.266201536792463, 50.57616830138807]]]}}, {"type": "Feature", "properties": {"type": "postcode-cell", "postcode": "PL19 8PJ", "postcodes": ["PL19 8PJ"]}, "geometry": {"type": "Polygon", "coordinates": [[[-4.258617908300075, 50.558845714851635], [-4.257140713260941, 50.55820822999079], [-4.256309281765531, 50.5520674677421], [-4.259634029563944, 50.55120441813882], [-4.261459990303387, 50.55465999459861], [-4.263759990303711, 50.55736999460074], [-4.265240327595411, 50.55835911440368], [-4.258617908300075, 50.558845714851635]]]}}, {"type": "Feature", "properties": {"type": "postcode-cell", "postcode": "PL19 8PQ", "postcodes": ["PL19 8PQ"]}, "geometry": {"type": "Polygon", "coordinates": [[[-4.257140713260941, 50.55820822999079], [-4.251431928888512, 50.55691845814876], [-4.244191090554265, 50.55282604530908], [-4.253735801626454, 50.547833295112405], [-4.256309281765531, 50.5520674677421], [-4.257140713260941, 50.55820822999079]]]}}, {"type": "Feature", "properties": {"type": "postcode-cell", "postcode": "PL19 8PU", "postcodes": ["PL19 8PU"]}, "geometry": {"type": "Polygon", "coordinates": [[[-4.258617908300075, 50.558845714851635], [-4.253085118366577, 50.56593069025231], [-4.247540119146704, 50.56597678922508], [-4.243841677946504, 50.56200306149814], [-4.251431928888512, 50.55691845814876], [-4.257140713260941, 50.55820822999079], [-4.258617908300075, 50.558845714851635]]]}}, {"type": "Feature", "properties": {"type": "postcode-cell", "postcode": "PL19 0NA", "postcodes": ["PL19 0NA"]}, "geometry": {"type": "Polygon", "coordinates": [[[-4.259060674567388, 50.59019472266537], [-4.256173551422828, 50.59081429941614], [-4.252448993418927, 50.59075844132814], [-4.250249845403588, 50.589100355038454], [-4.252652576040358, 50.58460399122352], [-4.253805643699034, 50.583637906170296], [-4.256674527735068, 50.58436605596739], [-4.262747299300952, 50.58726770005695], [-4.259060674567388, 50.59019472266537]]]}}, {"type": "Feature", "properties": {"type": "postcode-cell", "postcode": "PL19 0PF", "postcodes": ["PL19 0PF"]}, "geometry": {"type": "Polygon", "coordinates": [[[-4.253640664229663, 50.59266088873993], [-4.253069357442309, 50.59275596995362], [-4.253081617937279, 50.591860478331725], [-4.254862887775231, 50.591435771710486], [-4.253640664229663, 50.59266088873993]]]}}, {"type": "Feature", "properties": {"type": "postcode-cell", "postcode": "PL19 0NR", "postcodes": ["PL19 0NR"]}, "geometry": {"type": "Polygon", "coordinates": [[[-4.254862887775231, 50.591435771710486], [-4.256173551422828, 50.59081429941614], [-4.259060674567388, 50.59019472266537], [-4.256961450069873, 50.5941284704849], [-4.253640664229663, 50.59266088873993], [-4.254862887775231, 50.591435771710486]]]}}, {"type": "Feature", "properties": {"type": "postcode-cell", "postcode": "PL19 8PG", "postcodes": ["PL19 8PG"]}, "geometry": {"type": "Polygon", "coordinates": [[[-4.253735801626454, 50.547833295112405], [-4.244191090554265, 50.55282604530908], [-4.243384180384584, 50.5527515331025], [-4.241759084823986, 50.551985165809356], [-4.2391819322815785, 50.547630979533324], [-4.240079990292396, 50.5472699945931], [-4.237979990292317, 50.54432999459081], [-4.238209990293354, 50.54236999458926], [-4.240169990295094, 50.54141999458847], [-4.241489990295405, 50.542689994589466], [-4.244169990296823, 50.54351999459005], [-4.248159990299308, 50.54392999459034], [-4.253419990302957, 50.54363999459001], [-4.25473999030434, 50.54253999458912], [-4.255569990305871, 50.54036999458739], [-4.257829990308034, 50.538929994586226], [-4.263499990313148, 50.53599999458378], [-4.264520148070554, 50.535858702714485], [-4.253735801626454, 50.547833295112405]]]}}, {"type": "Feature", "properties": {"type": "postcode-cell", "postcode": "PL19 8PH", "postcodes": ["PL19 8PH"]}, "geometry": {"type": "Polygon", "coordinates": [[[-4.256309281765531, 50.5520674677421], [-4.253735801626454, 50.547833295112405], [-4.264520148070554, 50.535858702714485], [-4.268769990317011, 50.53526999458314], [-4.269699990317529, 50.53549999458329], [-4.2716199903182845, 50.53667999458422], [-4.2714299903172845, 50.53861999458573], [-4.2670399903126315, 50.54241999458882], [-4.263989990310085, 50.54353999458975], [-4.261139990308022, 50.54387999459008], [-4.260029990306983, 50.54453999459063], [-4.259289990305894, 50.54584999459165], [-4.259949990305497, 50.54771999459315], [-4.259599990303723, 50.55113999459584], [-4.259634029563944, 50.55120441813882], [-4.256309281765531, 50.5520674677421]]]}}, {"type": "Feature", "properties": {"type": "postcode-cell", "postcode": "PL19 8QX", "postcodes": ["PL19 8QX"]}, "geometry": {"type": "Polygon", "coordinates": [[[-4.251431928888512, 50.55691845814876], [-4.243841677946504, 50.56200306149814], [-4.238221950861665, 50.56058796635664], [-4.243384180384584, 50.5527515331025], [-4.244191090554265, 50.55282604530908], [-4.251431928888512, 50.55691845814876]]]}}, {"type": "Feature", "properties": {"type": "postcode-cell", "postcode": "PL19 0PD", "postcodes": ["PL19 0PD"]}, "geometry": {"type": "Polygon", "coordinates": [[[-4.255258145948906, 50.59964566162753], [-4.253469792349367, 50.600561367179026], [-4.246635072439528, 50.59784925661158], [-4.2514050840212905, 50.59359634769971], [-4.253069357442309, 50.59275596995362], [-4.253640664229663, 50.59266088873993], [-4.256961450069873, 50.5941284704849], [-4.255258145948906, 50.59964566162753]]]}}, {"type": "Feature", "properties": {"type": "postcode-cell", "postcode": "PL19 0QF", "postcodes": ["PL19 0QF"]}, "geometry": {"type": "Polygon", "coordinates": [[[-4.235655455748454, 50.610632961650296], [-4.234462189553301, 50.60667979539756], [-4.243663233571437, 50.59709440022652], [-4.243847745306295, 50.597070136216495], [-4.246635072439528, 50.59784925661158], [-4.253469792349367, 50.600561367179026], [-4.251909990275985, 50.60135999463584], [-4.250439990274269, 50.602989994637156], [-4.246249990271097, 50.603789994637886], [-4.2459399902705455, 50.604549994638475], [-4.247669990270995, 50.60613999463972], [-4.246839990269958, 50.607199994640574], [-4.241879990265485, 50.60973999464267], [-4.239079990262779, 50.611579994644174], [-4.237714284826324, 50.612018723630314], [-4.235655455748454, 50.610632961650296]]]}}, {"type": "Feature", "properties": {"type": "postcode-cell", "postcode": "PL19 0PE", "postcodes": ["PL19 0PE"]}, "geometry": {"type": "Polygon", "coordinates": [[[-4.251895993780357, 50.59246296192525], [-4.252651144536651, 50.59180738974805], [-4.253081617937279, 50.591860478331725], [-4.253069357442309, 50.59275596995362], [-4.2514050840212905, 50.59359634769971], [-4.251895993780357, 50.59246296192525]]]}}, {"type": "Feature", "properties": {"type": "postcode-cell", "postcode": "PL19 0PB", "postcodes": ["PL19 0PB"]}, "geometry": {"type": "Polygon", "coordinates": [[[-4.2514050840212905, 50.59359634769971], [-4.246635072439528, 50.59784925661158], [-4.243847745306295, 50.597070136216495], [-4.244319167858856, 50.59493383599756], [-4.248360282635667, 50.59285880004708], [-4.251508775495798, 50.59151383697711], [-4.251895993780357, 50.59246296192525], [-4.2514050840212905, 50.59359634769971]]]}}, {"type": "Feature", "properties": {"type": "postcode-cell", "postcode": "PL19 0PA", "postcodes": ["PL19 0PA"]}, "geometry": {"type": "Polygon", "coordinates": [[[-4.252651144536651, 50.59180738974805], [-4.251895993780357, 50.59246296192525], [-4.251508775495798, 50.59151383697711], [-4.251533660033738, 50.5914882350204], [-4.2520782515306275, 50.59132771696561], [-4.252651144536651, 50.59180738974805]]]}}, {"type": "Feature", "properties": {"type": "postcode-cell", "postcode": "PL19 0NZ", "postcodes": ["PL19 0NZ"]}, "geometry": {"type": "Polygon", "coordinates": [[[-4.2520782515306275, 50.59132771696561], [-4.252448993418927, 50.59075844132814], [-4.256173551422828, 50.59081429941614], [-4.254862887775231, 50.591435771710486], [-4.253081617937279, 50.591860478331725], [-4.252651144536651, 50.59180738974805], [-4.2520782515306275, 50.59132771696561]]]}}, {"type": "Feature", "properties": {"type": "postcode-cell", "postcode": "PL19 0PS", "postcodes": ["PL19 0PS"]}, "geometry": {"type": "Polygon", "coordinates": [[[-4.250099012731345, 50.58921954749826], [-4.24447948856848, 50.592354427558746], [-4.242241528975151, 50.588682997373205], [-4.252652576040358, 50.58460399122352], [-4.250249845403588, 50.589100355038454], [-4.250099012731345, 50.58921954749826]]]}}, {"type": "Feature", "properties": {"type": "postcode-cell", "postcode": "PL19 0NY", "postcodes": ["PL19 0NY"]}, "geometry": {"type": "Polygon", "coordinates": [[[-4.250249845403588, 50.589100355038454], [-4.252448993418927, 50.59075844132814], [-4.2520782515306275, 50.59132771696561], [-4.251533660033738, 50.5914882350204], [-4.2508287666948945, 50.59107556667392], [-4.250099012731345, 50.58921954749826], [-4.250249845403588, 50.589100355038454]]]}}, {"type": "Feature", "properties": {"type": "postcode-cell", "postcode": "PL19 0PP", "postcodes": ["PL19 0PP"]}, "geometry": {"type": "Polygon", "coordinates": [[[-4.244319167858856, 50.59493383599756], [-4.24447948856848, 50.592354427558746], [-4.250099012731345, 50.58921954749826], [-4.2508287666948945, 50.59107556667392], [-4.248360282635667, 50.59285880004708], [-4.244319167858856, 50.59493383599756]]]}}, {"type": "Feature", "properties": {"type": "postcode-cell", "postcode": "PL19 0PJ", "postcodes": ["PL19 0PJ"]}, "geometry": {"type": "Polygon", "coordinates": [[[-4.252652576040358, 50.58460399122352], [-4.242241528975151, 50.588682997373205], [-4.239327964249635, 50.58740541453335], [-4.239855111396193, 50.58201006745084], [-4.249246706994049, 50.57956999833606], [-4.253805643699034, 50.583637906170296], [-4.252652576040358, 50.58460399122352]]]}}, {"type": "Feature", "properties": {"type": "postcode-cell", "postcode": "PL19 0NX", "postcodes": ["PL19 0NX"]}, "geometry": {"type": "Polygon", "coordinates": [[[-4.251508775495798, 50.59151383697711], [-4.248360282635667, 50.59285880004708], [-4.2508287666948945, 50.59107556667392], [-4.251533660033738, 50.5914882350204], [-4.251508775495798, 50.59151383697711]]]}}, {"type": "Feature", "properties": {"type": "postcode-cell", "postcode": "PL19 0PR", "postcodes": ["PL19 0PR"]}, "geometry": {"type": "Polygon", "coordinates": [[[-4.243847745306295, 50.597070136216495], [-4.243663233571437, 50.59709440022652], [-4.229923824813417, 50.594477273615134], [-4.228126836559549, 50.59298765024049], [-4.229373868914112, 50.59042981199319], [-4.239327964249635, 50.58740541453335], [-4.242241528975151, 50.588682997373205], [-4.24447948856848, 50.592354427558746], [-4.244319167858856, 50.59493383599756], [-4.243847745306295, 50.597070136216495]]]}}, {"type": "Feature", "properties": {"type": "postcode-cell", "postcode": "PL19 8PX", "postcodes": ["PL19 8PX"]}, "geometry": {"type": "Polygon", "coordinates": [[[-4.247540119146704, 50.56597678922508], [-4.238978340115849, 50.570523521721384], [-4.234808735323918, 50.56151476019581], [-4.238221950861665, 50.56058796635664], [-4.243841677946504, 50.56200306149814], [-4.247540119146704, 50.56597678922508]]]}}, {"type": "Feature", "properties": {"type": "postcode-cell", "postcode": "PL19 8QU", "postcodes": ["PL19 8QU"]}, "geometry": {"type": "Polygon", "coordinates": [[[-4.238221950861665, 50.56058796635664], [-4.234808735323918, 50.56151476019581], [-4.224740797173289, 50.55993966009658], [-4.226442422093161, 50.55516020720206], [-4.241759084823986, 50.551985165809356], [-4.243384180384584, 50.5527515331025], [-4.238221950861665, 50.56058796635664]]]}}, {"type": "Feature", "properties": {"type": "postcode-cell", "postcode": "PL19 8PY", "postcodes": ["PL19 8PY"]}, "geometry": {"type": "Polygon", "coordinates": [[[-4.249246706994049, 50.57956999833606], [-4.239855111396193, 50.58201006745084], [-4.2348182516532935, 50.58101262466495], [-4.230258078113374, 50.57647495353924], [-4.230091796639405, 50.5758809218208], [-4.2378116032206545, 50.57112897653077], [-4.2387315555894665, 50.57090910090471], [-4.249586694595843, 50.577267787492225], [-4.249246706994049, 50.57956999833606]]]}}, {"type": "Feature", "properties": {"type": "postcode-cell", "postcode": "PL16 0JB", "postcodes": ["PL16 0JB"]}, "geometry": {"type": "MultiPolygon", "coordinates": [[[[-4.2138602946180725, 50.62195948635773], [-4.2144999902408955, 50.62356999465409], [-4.213779990240152, 50.624149994654566], [-4.212654712723017, 50.6245752778702], [-4.2138602946180725, 50.62195948635773]]], [[[-4.216761813348256, 50.61912773192574], [-4.222933713519532, 50.6180486784298], [-4.228971906221698, 50.620130489347055], [-4.2227499902479115, 50.62026999465134], [-4.2217699902470125, 50.62080999465178], [-4.2203999902462, 50.62056999465161], [-4.2198099902455635, 50.62110999465205], [-4.214326641428742, 50.62139486005936], [-4.216761813348256, 50.61912773192574]]]]}}, {"type": "Feature", "properties": {"type": "postcode-cell", "postcode": "PL19 0QB", "postcodes": ["PL19 0QB"]}, "geometry": {"type": "Polygon", "coordinates": [[[-4.229923824813417, 50.594477273615134], [-4.227478771877065, 50.60202193341935], [-4.219752469173001, 50.60321387398886], [-4.212573875949852, 50.59813178250197], [-4.218000629651154, 50.593325922676314], [-4.228126836559549, 50.59298765024049], [-4.229923824813417, 50.594477273615134]]]}}, {"type": "Feature", "properties": {"type": "postcode-cell", "postcode": "PL19 8QY", "postcodes": ["PL19 8QY"]}, "geometry": {"type": "Polygon", "coordinates": [[[-4.238978340115849, 50.570523521721384], [-4.2387315555894665, 50.57090910090471], [-4.2378116032206545, 50.57112897653077], [-4.22293960364489, 50.56544792326502], [-4.222649334494878, 50.561000201278866], [-4.224740797173289, 50.55993966009658], [-4.234808735323918, 50.56151476019581], [-4.238978340115849, 50.570523521721384]]]}}, {"type": "Feature", "properties": {"type": "postcode-cell", "postcode": "PL19 0PT", "postcodes": ["PL19 0PT"]}, "geometry": {"type": "Polygon", "coordinates": [[[-4.239855111396193, 50.58201006745084], [-4.239327964249635, 50.58740541453335], [-4.229373868914112, 50.59042981199319], [-4.227889126745232, 50.586167419709064], [-4.2348182516532935, 50.58101262466495], [-4.239855111396193, 50.58201006745084]]]}}, {"type": "Feature", "properties": {"type": "postcode-cell", "postcode": "PL19 0FE", "postcodes": ["PL19 0FE"]}, "geometry": {"type": "Polygon", "coordinates": [[[-4.243663233571437, 50.59709440022652], [-4.234462189553301, 50.60667979539756], [-4.227478771877065, 50.60202193341935], [-4.229923824813417, 50.594477273615134], [-4.243663233571437, 50.59709440022652]]]}}, {"type": "Feature", "properties": {"type": "postcode-cell", "postcode": "PL19 8QZ", "postcodes": ["PL19 8QZ"]}, "geometry": {"type": "Polygon", "coordinates": [[[-4.230091796639405, 50.5758809218208], [-4.2192073103596055, 50.57317343890788], [-4.218687651988958, 50.57200546430872], [-4.22293960364489, 50.56544792326502], [-4.2378116032206545, 50.57112897653077], [-4.230091796639405, 50.5758809218208]]]}}, {"type": "Feature", "properties": {"type": "postcode-cell", "postcode": "PL19 8NS", "postcodes": ["PL19 8NS"]}, "geometry": {"type": "Polygon", "coordinates": [[[-4.210138735595907, 50.5597297186645], [-4.205509148307313, 50.56253314686486], [-4.19919359193545, 50.56272586554489], [-4.198406562768884, 50.56249950746526], [-4.19839918749146, 50.5552418712041], [-4.200299990261932, 50.55588999460055], [-4.207999897147492, 50.55477354191126], [-4.210138735595907, 50.5597297186645]]]}}, {"type": "Feature", "properties": {"type": "postcode-cell", "postcode": "PL19 8NP", "postcodes": ["PL19 8NP"]}, "geometry": {"type": "Polygon", "coordinates": [[[-4.187410342180765, 50.55778668988614], [-4.182555459620264, 50.55815708178263], [-4.168812228142858, 50.5528615479425], [-4.170769990243811, 50.552469994598354], [-4.173399990245405, 50.55280999459858], [-4.175289990247063, 50.55192999459783], [-4.17996999024987, 50.5526099945983], [-4.182869990251925, 50.552339994598064], [-4.184929990253771, 50.55128999459719], [-4.186369990254726, 50.55129999459718], [-4.191934820124266, 50.55393597353323], [-4.187410342180765, 50.55778668988614]]]}}, {"type": "Feature", "properties": {"type": "postcode-cell", "postcode": "PL19 8PP", "postcodes": ["PL19 8PP"]}, "geometry": {"type": "Polygon", "coordinates": [[[-4.226442422093161, 50.55516020720206], [-4.224146179866002, 50.55105752775036], [-4.229599990284414, 50.54942999459499], [-4.230699990285, 50.549759994595235], [-4.2312599902851415, 50.550279994595634], [-4.235659990288263, 50.54987999459523], [-4.237289990289638, 50.54924999459473], [-4.239059990291529, 50.54767999459344], [-4.2391819322815785, 50.547630979533324], [-4.241759084823986, 50.551985165809356], [-4.226442422093161, 50.55516020720206]]]}}, {"type": "Feature", "properties": {"type": "postcode-cell", "postcode": "PL19 0QD", "postcodes": ["PL19 0QD"]}, "geometry": {"type": "Polygon", "coordinates": [[[-4.235655455748454, 50.610632961650296], [-4.223901111171093, 50.610611092537106], [-4.218708488948672, 50.60580494532421], [-4.219752469173001, 50.60321387398886], [-4.227478771877065, 50.60202193341935], [-4.234462189553301, 50.60667979539756], [-4.235655455748454, 50.610632961650296]]]}}, {"type": "Feature", "properties": {"type": "postcode-cell", "postcode": "PL19 8QT", "postcodes": ["PL19 8QT"]}, "geometry": {"type": "Polygon", "coordinates": [[[-4.222649334494878, 50.561000201278866], [-4.210138735595907, 50.5597297186645], [-4.207999897147492, 50.55477354191126], [-4.214779990272545, 50.553789994598695], [-4.217249990274201, 50.553779994598635], [-4.22205999027836, 50.55167999459688], [-4.224146179866002, 50.55105752775036], [-4.226442422093161, 50.55516020720206], [-4.224740797173289, 50.55993966009658], [-4.222649334494878, 50.561000201278866]]]}}, {"type": "Feature", "properties": {"type": "postcode-cell", "postcode": "PL19 0PU", "postcodes": ["PL19 0PU"]}, "geometry": {"type": "Polygon", "coordinates": [[[-4.2348182516532935, 50.58101262466495], [-4.227889126745232, 50.586167419709064], [-4.221795816562056, 50.583249789273125], [-4.230258078113374, 50.57647495353924], [-4.2348182516532935, 50.58101262466495]]]}}, {"type": "Feature", "properties": {"type": "postcode-cell", "postcode": "PL19 8SB", "postcodes": ["PL19 8SB"]}, "geometry": {"type": "Polygon", "coordinates": [[[-4.22293960364489, 50.56544792326502], [-4.218687651988958, 50.57200546430872], [-4.2103970165282245, 50.569843474931815], [-4.2066385449953625, 50.56590548469364], [-4.205509148307313, 50.56253314686486], [-4.210138735595907, 50.5597297186645], [-4.222649334494878, 50.561000201278866], [-4.22293960364489, 50.56544792326502]]]}}, {"type": "Feature", "properties": {"type": "postcode-cell", "postcode": "PL19 8SE", "postcodes": ["PL19 8SE"]}, "geometry": {"type": "Polygon", "coordinates": [[[-4.221795816562056, 50.583249789273125], [-4.217749909924974, 50.58294562065432], [-4.214912222206237, 50.577523268539565], [-4.2192073103596055, 50.57317343890788], [-4.230091796639405, 50.5758809218208], [-4.230258078113374, 50.57647495353924], [-4.221795816562056, 50.583249789273125]]]}}, {"type": "Feature", "properties": {"type": "postcode-cell", "postcode": "PL19 0PX", "postcodes": ["PL19 0PX"]}, "geometry": {"type": "Polygon", "coordinates": [[[-4.228126836559549, 50.59298765024049], [-4.218000629651154, 50.593325922676314], [-4.21214187667159, 50.587427662113846], [-4.217749909924974, 50.58294562065432], [-4.221795816562056, 50.583249789273125], [-4.227889126745232, 50.586167419709064], [-4.229373868914112, 50.59042981199319], [-4.228126836559549, 50.59298765024049]]]}}, {"type": "Feature", "properties": {"type": "postcode-cell", "postcode": "PL16 0JD", "postcodes": ["PL16 0JD"]}, "geometry": {"type": "Polygon", "coordinates": [[[-4.237714284826324, 50.612018723630314], [-4.237149990261205, 50.6121999946447], [-4.233249990257567, 50.61446999464656], [-4.232589990256352, 50.61618999464796], [-4.230119990253641, 50.61852999464985], [-4.230329990253078, 50.6200999946511], [-4.228971906221698, 50.620130489347055], [-4.222933713519532, 50.6180486784298], [-4.222330461334312, 50.61709324984454], [-4.221072458776509, 50.61386293868083], [-4.221223274035074, 50.61218861619569], [-4.223901111171093, 50.610611092537106], [-4.235655455748454, 50.610632961650296], [-4.237714284826324, 50.612018723630314]]]}}, {"type": "Feature", "properties": {"type": "postcode-cell", "postcode": "PL16 0JE", "postcodes": ["PL16 0JE"]}, "geometry": {"type": "Polygon", "coordinates": [[[-4.221223274035074, 50.61218861619569], [-4.2104776129804415, 50.61214876879214], [-4.209287328890487, 50.61202348055648], [-4.210012360542268, 50.608569810989415], [-4.218708488948672, 50.60580494532421], [-4.223901111171093, 50.610611092537106], [-4.221223274035074, 50.61218861619569]]]}}, {"type": "Feature", "properties": {"type": "postcode-cell", "postcode": "PL19 8SD", "postcodes": ["PL19 8SD"]}, "geometry": {"type": "Polygon", "coordinates": [[[-4.2192073103596055, 50.57317343890788], [-4.214912222206237, 50.577523268539565], [-4.209291956847426, 50.577781510056205], [-4.204345399514168, 50.57348021182621], [-4.2043980934119185, 50.57339424551831], [-4.2103970165282245, 50.569843474931815], [-4.218687651988958, 50.57200546430872], [-4.2192073103596055, 50.57317343890788]]]}}, {"type": "Feature", "properties": {"type": "postcode-cell", "postcode": "PL16 0HR", "postcodes": ["PL16 0HR"]}, "geometry": {"type": "Polygon", "coordinates": [[[-4.221072458776509, 50.61386293868083], [-4.21704310034773, 50.61567932336912], [-4.2104776129804415, 50.61214876879214], [-4.221223274035074, 50.61218861619569], [-4.221072458776509, 50.61386293868083]]]}}, {"type": "Feature", "properties": {"type": "postcode-cell", "postcode": "PL16 0HS", "postcodes": ["PL16 0HS"]}, "geometry": {"type": "Polygon", "coordinates": [[[-4.222330461334312, 50.61709324984454], [-4.217009310366014, 50.61607414814864], [-4.21704310034773, 50.61567932336912], [-4.221072458776509, 50.61386293868083], [-4.222330461334312, 50.61709324984454]]]}}, {"type": "Feature", "properties": {"type": "postcode-cell", "postcode": "PL16 0HT", "postcodes": ["PL16 0HT"]}, "geometry": {"type": "Polygon", "coordinates": [[[-4.216642515766424, 50.61891813342653], [-4.216756284103061, 50.616410555227944], [-4.217009310366014, 50.61607414814864], [-4.222330461334312, 50.61709324984454], [-4.222933713519532, 50.6180486784298], [-4.216761813348256, 50.61912773192574], [-4.216642515766424, 50.61891813342653]]]}}, {"type": "Feature", "properties": {"type": "postcode-cell", "postcode": "PL16 0HU", "postcodes": ["PL16 0HU"]}, "geometry": {"type": "Polygon", "coordinates": [[[-4.216761813348256, 50.61912773192574], [-4.214326641428742, 50.62139486005936], [-4.213741069535011, 50.62142526566173], [-4.208230856329585, 50.613922734557185], [-4.212363932285889, 50.61589750384697], [-4.216642515766424, 50.61891813342653], [-4.216761813348256, 50.61912773192574]]]}}, {"type": "Feature", "properties": {"type": "postcode-cell", "postcode": "PL19 0QA", "postcodes": ["PL19 0QA"]}, "geometry": {"type": "Polygon", "coordinates": [[[-4.219752469173001, 50.60321387398886], [-4.218708488948672, 50.60580494532421], [-4.210012360542268, 50.608569810989415], [-4.203152877545263, 50.60169062043232], [-4.206008888937705, 50.59920657171305], [-4.212573875949852, 50.59813178250197], [-4.219752469173001, 50.60321387398886]]]}}, {"type": "Feature", "properties": {"type": "postcode-cell", "postcode": "PL16 0HP", "postcodes": ["PL16 0HP"]}, "geometry": {"type": "Polygon", "coordinates": [[[-4.216756284103061, 50.616410555227944], [-4.212363932285889, 50.61589750384697], [-4.208230856329585, 50.613922734557185], [-4.207445307144051, 50.61330837974367], [-4.209287328890487, 50.61202348055648], [-4.2104776129804415, 50.61214876879214], [-4.21704310034773, 50.61567932336912], [-4.217009310366014, 50.61607414814864], [-4.216756284103061, 50.616410555227944]]]}}, {"type": "Feature", "properties": {"type": "postcode-cell", "postcode": "PL19 8PZ", "postcodes": ["PL19 8PZ"]}, "geometry": {"type": "Polygon", "coordinates": [[[-4.217749909924974, 50.58294562065432], [-4.21214187667159, 50.587427662113846], [-4.203388979322335, 50.5867884771081], [-4.202169517582493, 50.58556650852529], [-4.201650997140296, 50.58185713968813], [-4.209291956847426, 50.577781510056205], [-4.214912222206237, 50.577523268539565], [-4.217749909924974, 50.58294562065432]]]}}, {"type": "Feature", "properties": {"type": "postcode-cell", "postcode": "PL19 8SA", "postcodes": ["PL19 8SA"]}, "geometry": {"type": "Polygon", "coordinates": [[[-4.2103970165282245, 50.569843474931815], [-4.2043980934119185, 50.57339424551831], [-4.201563789213728, 50.569963150476575], [-4.2066385449953625, 50.56590548469364], [-4.2103970165282245, 50.569843474931815]]]}}, {"type": "Feature", "properties": {"type": "postcode-cell", "postcode": "PL19 0PY", "postcodes": ["PL19 0PY"]}, "geometry": {"type": "Polygon", "coordinates": [[[-4.212573875949852, 50.59813178250197], [-4.206008888937705, 50.59920657171305], [-4.199995948579664, 50.59180685401238], [-4.203388979322335, 50.5867884771081], [-4.21214187667159, 50.587427662113846], [-4.218000629651154, 50.593325922676314], [-4.212573875949852, 50.59813178250197]]]}}, {"type": "Feature", "properties": {"type": "postcode-cell", "postcode": "PL16 0HX", "postcodes": ["PL16 0HX"]}, "geometry": {"type": "Polygon", "coordinates": [[[-4.208230856329585, 50.613922734557185], [-4.213741069535011, 50.62142526566173], [-4.213649990241289, 50.6214299946524], [-4.2138602946180725, 50.62195948635773], [-4.212654712723017, 50.6245752778702], [-4.211740570291145, 50.624920751926574], [-4.210729423144914, 50.624554989802625], [-4.209868590524188, 50.62383412392827], [-4.207251686987825, 50.613361427568165], [-4.207445307144051, 50.61330837974367], [-4.208230856329585, 50.613922734557185]]]}}, {"type": "Feature", "properties": {"type": "postcode-cell", "postcode": "PL16 0HN", "postcodes": ["PL16 0HN"]}, "geometry": {"type": "Polygon", "coordinates": [[[-4.216642515766424, 50.61891813342653], [-4.212363932285889, 50.61589750384697], [-4.216756284103061, 50.616410555227944], [-4.216642515766424, 50.61891813342653]]]}}, {"type": "Feature", "properties": {"type": "postcode-cell", "postcode": "PL19 0PZ", "postcodes": ["PL19 0PZ"]}, "geometry": {"type": "Polygon", "coordinates": [[[-4.207251686987825, 50.613361427568165], [-4.2004586203553, 50.61461714716773], [-4.196508946266737, 50.61375535371565], [-4.195571610760994, 50.60334278111461], [-4.203152877545263, 50.60169062043232], [-4.210012360542268, 50.608569810989415], [-4.209287328890487, 50.61202348055648], [-4.207445307144051, 50.61330837974367], [-4.207251686987825, 50.613361427568165]]]}}, {"type": "Feature", "properties": {"type": "postcode-cell", "postcode": "PL19 8QA", "postcodes": ["PL19 8QA"]}, "geometry": {"type": "Polygon", "coordinates": [[[-4.201650997140296, 50.58185713968813], [-4.19490515374926, 50.57747104534864], [-4.195381862241541, 50.576907438310684], [-4.19687313418864, 50.57532820496478], [-4.198973851540098, 50.574686669562915], [-4.204345399514168, 50.57348021182621], [-4.209291956847426, 50.577781510056205], [-4.201650997140296, 50.58185713968813]]]}}, {"type": "Feature", "properties": {"type": "postcode-cell", "postcode": "PL16 0JG", "postcodes": ["PL16 0JG"]}, "geometry": {"type": "Polygon", "coordinates": [[[-4.210729423144914, 50.624554989802625], [-4.196519754149501, 50.62476837567724], [-4.201595895749321, 50.61864251321833], [-4.209868590524188, 50.62383412392827], [-4.210729423144914, 50.624554989802625]]]}}, {"type": "Feature", "properties": {"type": "postcode-cell", "postcode": "PL19 0LJ", "postcodes": ["PL19 0LJ"]}, "geometry": {"type": "Polygon", "coordinates": [[[-4.203388979322335, 50.5867884771081], [-4.199995948579664, 50.59180685401238], [-4.182519780005676, 50.59436823437798], [-4.182510923910458, 50.59184378985782], [-4.189203624105666, 50.58570861192636], [-4.202169517582493, 50.58556650852529], [-4.203388979322335, 50.5867884771081]]]}}, {"type": "Feature", "properties": {"type": "postcode-cell", "postcode": "EX20 4PD", "postcodes": ["EX20 4PD"]}, "geometry": {"type": "Polygon", "coordinates": [[[-4.196519754149501, 50.62476837567724], [-4.210729423144914, 50.624554989802625], [-4.211740570291145, 50.624920751926574], [-4.208619990235815, 50.62609999465619], [-4.204409990231915, 50.628489994658175], [-4.198139990228145, 50.627539994657496], [-4.195619990226445, 50.62755999465753], [-4.193159990224564, 50.62807999465798], [-4.19217999022397, 50.6279499946579], [-4.192009990224038, 50.62753999465759], [-4.191669990223933, 50.62726999465739], [-4.191692445650015, 50.626641271751005], [-4.196519754149501, 50.62476837567724]]]}}, {"type": "Feature", "properties": {"type": "postcode-cell", "postcode": "PL16 0HY", "postcodes": ["PL16 0HY"]}, "geometry": {"type": "Polygon", "coordinates": [[[-4.209868590524188, 50.62383412392827], [-4.201595895749321, 50.61864251321833], [-4.2004586203553, 50.61461714716773], [-4.207251686987825, 50.613361427568165], [-4.209868590524188, 50.62383412392827]]]}}, {"type": "Feature", "properties": {"type": "postcode-cell", "postcode": "PL16 0HZ", "postcodes": ["PL16 0HZ"]}, "geometry": {"type": "Polygon", "coordinates": [[[-4.201595895749321, 50.61864251321833], [-4.196519754149501, 50.62476837567724], [-4.191692445650015, 50.626641271751005], [-4.191829990226061, 50.62278999465381], [-4.190479990227738, 50.617069994649285], [-4.184789990223903, 50.61712999464942], [-4.1842790041504765, 50.61670787746835], [-4.196508946266737, 50.61375535371565], [-4.2004586203553, 50.61461714716773], [-4.201595895749321, 50.61864251321833]]]}}, {"type": "Feature", "properties": {"type": "postcode-cell", "postcode": "PL19 8QS", "postcodes": ["PL19 8QS"]}, "geometry": {"type": "Polygon", "coordinates": [[[-4.2066385449953625, 50.56590548469364], [-4.201563789213728, 50.569963150476575], [-4.201233357044528, 50.56996340709496], [-4.199604003478853, 50.569804141574984], [-4.198503478727706, 50.56894672789246], [-4.1971410279729895, 50.56675688613857], [-4.197303562706715, 50.566248420240846], [-4.19919359193545, 50.56272586554489], [-4.205509148307313, 50.56253314686486], [-4.2066385449953625, 50.56590548469364]]]}}, {"type": "Feature", "properties": {"type": "postcode-cell", "postcode": "PL19 8QE", "postcodes": ["PL19 8QE"]}, "geometry": {"type": "Polygon", "coordinates": [[[-4.198973851540098, 50.574686669562915], [-4.199828009378204, 50.571818428001606], [-4.201233357044528, 50.56996340709496], [-4.201563789213728, 50.569963150476575], [-4.2043980934119185, 50.57339424551831], [-4.204345399514168, 50.57348021182621], [-4.198973851540098, 50.574686669562915]]]}}, {"type": "Feature", "properties": {"type": "postcode-cell", "postcode": "PL19 0NN", "postcodes": ["PL19 0NN"]}, "geometry": {"type": "Polygon", "coordinates": [[[-4.203152877545263, 50.60169062043232], [-4.195571610760994, 50.60334278111461], [-4.180161887727789, 50.599864830584714], [-4.180464728956372, 50.59695768903251], [-4.182519780005676, 50.59436823437798], [-4.199995948579664, 50.59180685401238], [-4.206008888937705, 50.59920657171305], [-4.203152877545263, 50.60169062043232]]]}}, {"type": "Feature", "properties": {"type": "postcode-cell", "postcode": "PL19 8FL", "postcodes": ["PL19 8FL"]}, "geometry": {"type": "Polygon", "coordinates": [[[-4.19687313418864, 50.57532820496478], [-4.196500488500192, 50.57412436200653], [-4.199027151304786, 50.570426924867064], [-4.199828009378204, 50.571818428001606], [-4.198973851540098, 50.574686669562915], [-4.19687313418864, 50.57532820496478]]]}}, {"type": "Feature", "properties": {"type": "postcode-cell", "postcode": "PL19 8RA", "postcodes": ["PL19 8RA"]}, "geometry": {"type": "Polygon", "coordinates": [[[-4.194641455275769, 50.571798097070946], [-4.193770626249877, 50.57161682533778], [-4.1917618911292225, 50.569329649751886], [-4.192635073569789, 50.56946992731605], [-4.194586966193682, 50.57158705929648], [-4.194641455275769, 50.571798097070946]]]}}, {"type": "Feature", "properties": {"type": "postcode-cell", "postcode": "PL19 8QP", "postcodes": ["PL19 8QP"]}, "geometry": {"type": "Polygon", "coordinates": [[[-4.194586966193682, 50.57158705929648], [-4.194546162289997, 50.56952095395512], [-4.194805251020363, 50.56941354100833], [-4.195959430713813, 50.56994982862813], [-4.196230964991203, 50.57095974543925], [-4.195296559094284, 50.572201866589104], [-4.194641455275769, 50.571798097070946], [-4.194586966193682, 50.57158705929648]]]}}, {"type": "Feature", "properties": {"type": "postcode-cell", "postcode": "PL19 8QB", "postcodes": ["PL19 8QB"]}, "geometry": {"type": "Polygon", "coordinates": [[[-4.201233357044528, 50.56996340709496], [-4.199828009378204, 50.571818428001606], [-4.199027151304786, 50.570426924867064], [-4.199141722187317, 50.570176919386924], [-4.199604003478853, 50.569804141574984], [-4.201233357044528, 50.56996340709496]]]}}, {"type": "Feature", "properties": {"type": "postcode-cell", "postcode": "PL19 8QD", "postcodes": ["PL19 8QD"]}, "geometry": {"type": "Polygon", "coordinates": [[[-4.196500488500192, 50.57412436200653], [-4.195296559094284, 50.572201866589104], [-4.196230964991203, 50.57095974543925], [-4.197034028814562, 50.5705759921346], [-4.199141722187317, 50.570176919386924], [-4.199027151304786, 50.570426924867064], [-4.196500488500192, 50.57412436200653]]]}}, {"type": "Feature", "properties": {"type": "postcode-cell", "postcode": "PL19 0NJ", "postcodes": ["PL19 0NJ"]}, "geometry": {"type": "Polygon", "coordinates": [[[-4.17979274630958, 50.60013309415932], [-4.182545982706003, 50.615091056744205], [-4.1805699902221765, 50.61470999464755], [-4.1778099902208155, 50.61363999464673], [-4.173649990218032, 50.61364999464681], [-4.168039990214777, 50.61256999464602], [-4.167609990215149, 50.61110999464488], [-4.16791999021574, 50.6102599946442], [-4.1672499902157005, 50.60935999464349], [-4.16871999021674, 50.60922999464337], [-4.169039990217102, 50.60889999464311], [-4.167439990217164, 50.60639999464112], [-4.168659990218104, 50.60612999464092], [-4.168009990218087, 50.60519999464016], [-4.168549990218483, 50.605119994640106], [-4.167289990218171, 50.603959994639226], [-4.169449990219889, 50.60333999463866], [-4.168670177107339, 50.60279042758397], [-4.17979274630958, 50.60013309415932]]]}}, {"type": "Feature", "properties": {"type": "postcode-cell", "postcode": "PL19 8GL", "postcodes": ["PL19 8GL"]}, "geometry": {"type": "Polygon", "coordinates": [[[-4.197303562706715, 50.566248420240846], [-4.191992813111823, 50.56723315194373], [-4.193857162917023, 50.56442461022973], [-4.196262429761135, 50.562100934050456], [-4.198406562768884, 50.56249950746526], [-4.19919359193545, 50.56272586554489], [-4.197303562706715, 50.566248420240846]]]}}, {"type": "Feature", "properties": {"type": "postcode-cell", "postcode": "PL19 8SF", "postcodes": ["PL19 8SF"]}, "geometry": {"type": "Polygon", "coordinates": [[[-4.19687313418864, 50.57532820496478], [-4.195381862241541, 50.576907438310684], [-4.191623310714706, 50.572082230644185], [-4.191837341937773, 50.57176101104033], [-4.192728822114881, 50.57152998897321], [-4.193770626249877, 50.57161682533778], [-4.194641455275769, 50.571798097070946], [-4.195296559094284, 50.572201866589104], [-4.196500488500192, 50.57412436200653], [-4.19687313418864, 50.57532820496478]]]}}, {"type": "Feature", "properties": {"type": "postcode-cell", "postcode": "PL19 8QG", "postcodes": ["PL19 8QG"]}, "geometry": {"type": "Polygon", "coordinates": [[[-4.196230964991203, 50.57095974543925], [-4.195959430713813, 50.56994982862813], [-4.196658537329891, 50.56973453795958], [-4.196892985713555, 50.56970736846918], [-4.197034028814562, 50.5705759921346], [-4.196230964991203, 50.57095974543925]]]}}, {"type": "Feature", "properties": {"type": "postcode-cell", "postcode": "PL19 8QF", "postcodes": ["PL19 8QF"]}, "geometry": {"type": "Polygon", "coordinates": [[[-4.199141722187317, 50.570176919386924], [-4.197034028814562, 50.5705759921346], [-4.196892985713555, 50.56970736846918], [-4.198503478727706, 50.56894672789246], [-4.199604003478853, 50.569804141574984], [-4.199141722187317, 50.570176919386924]]]}}, {"type": "Feature", "properties": {"type": "postcode-cell", "postcode": "PL19 8NR", "postcodes": ["PL19 8NR"]}, "geometry": {"type": "Polygon", "coordinates": [[[-4.198406562768884, 50.56249950746526], [-4.196262429761135, 50.562100934050456], [-4.194994570599583, 50.561745765794356], [-4.187410342180765, 50.55778668988614], [-4.191934820124266, 50.55393597353323], [-4.192069990257302, 50.553999994599224], [-4.195079990259256, 50.55410999459926], [-4.19839918749146, 50.5552418712041], [-4.198406562768884, 50.56249950746526]]]}}, {"type": "Feature", "properties": {"type": "postcode-cell", "postcode": "PL19 8GN", "postcodes": ["PL19 8GN"]}, "geometry": {"type": "Polygon", "coordinates": [[[-4.202169517582493, 50.58556650852529], [-4.189203624105666, 50.58570861192636], [-4.1866693398911785, 50.57877628451923], [-4.194691982838083, 50.577485446776336], [-4.19490515374926, 50.57747104534864], [-4.201650997140296, 50.58185713968813], [-4.202169517582493, 50.58556650852529]]]}}, {"type": "Feature", "properties": {"type": "postcode-cell", "postcode": "PL19 8QJ", "postcodes": ["PL19 8QJ"]}, "geometry": {"type": "Polygon", "coordinates": [[[-4.198503478727706, 50.56894672789246], [-4.196892985713555, 50.56970736846918], [-4.196658537329891, 50.56973453795958], [-4.195422592289149, 50.568629882401716], [-4.196131669242345, 50.56746016371096], [-4.1971410279729895, 50.56675688613857], [-4.198503478727706, 50.56894672789246]]]}}, {"type": "Feature", "properties": {"type": "postcode-cell", "postcode": "PL19 8QR", "postcodes": ["PL19 8QR"]}, "geometry": {"type": "Polygon", "coordinates": [[[-4.195959430713813, 50.56994982862813], [-4.194805251020363, 50.56941354100833], [-4.195422592289149, 50.568629882401716], [-4.196658537329891, 50.56973453795958], [-4.195959430713813, 50.56994982862813]]]}}, {"type": "Feature", "properties": {"type": "postcode-cell", "postcode": "PL19 8FJ", "postcodes": ["PL19 8FJ"]}, "geometry": {"type": "Polygon", "coordinates": [[[-4.195422592289149, 50.568629882401716], [-4.194805251020363, 50.56941354100833], [-4.194546162289997, 50.56952095395512], [-4.192635073569789, 50.56946992731605], [-4.1917618911292225, 50.569329649751886], [-4.191739710873066, 50.56932364877314], [-4.194971993116709, 50.567732281115376], [-4.196131669242345, 50.56746016371096], [-4.195422592289149, 50.568629882401716]]]}}, {"type": "Feature", "properties": {"type": "postcode-cell", "postcode": "PL19 8RU", "postcodes": ["PL19 8RU"]}, "geometry": {"type": "Polygon", "coordinates": [[[-4.194971993116709, 50.567732281115376], [-4.1905633742996535, 50.56788328833865], [-4.191992813111823, 50.56723315194373], [-4.197303562706715, 50.566248420240846], [-4.1971410279729895, 50.56675688613857], [-4.196131669242345, 50.56746016371096], [-4.194971993116709, 50.567732281115376]]]}}, {"type": "Feature", "properties": {"type": "postcode-cell", "postcode": "PL19 8QN", "postcodes": ["PL19 8QN"]}, "geometry": {"type": "Polygon", "coordinates": [[[-4.194586966193682, 50.57158705929648], [-4.192635073569789, 50.56946992731605], [-4.194546162289997, 50.56952095395512], [-4.194586966193682, 50.57158705929648]]]}}, {"type": "Feature", "properties": {"type": "postcode-cell", "postcode": "PL19 0NL", "postcodes": ["PL19 0NL"]}, "geometry": {"type": "Polygon", "coordinates": [[[-4.196508946266737, 50.61375535371565], [-4.1842790041504765, 50.61670787746835], [-4.1840999902237, 50.61655999464895], [-4.184199990224285, 50.61540999464804], [-4.182545982706003, 50.615091056744205], [-4.17979274630958, 50.60013309415932], [-4.180161887727789, 50.599864830584714], [-4.195571610760994, 50.60334278111461], [-4.196508946266737, 50.61375535371565]]]}}, {"type": "Feature", "properties": {"type": "postcode-cell", "postcode": "PL19 8RH", "postcodes": ["PL19 8RH"]}, "geometry": {"type": "Polygon", "coordinates": [[[-4.1917618911292225, 50.569329649751886], [-4.193770626249877, 50.57161682533778], [-4.192728822114881, 50.57152998897321], [-4.189896653440213, 50.56914859364478], [-4.191739710873066, 50.56932364877314], [-4.1917618911292225, 50.569329649751886]]]}}, {"type": "Feature", "properties": {"type": "postcode-cell", "postcode": "PL19 8RZ", "postcodes": ["PL19 8RZ"]}, "geometry": {"type": "Polygon", "coordinates": [[[-4.191739710873066, 50.56932364877314], [-4.189896653440213, 50.56914859364478], [-4.189889214599522, 50.56914695922733], [-4.189193578700054, 50.56837526414121], [-4.189491209922927, 50.56816740933868], [-4.1905633742996535, 50.56788328833865], [-4.194971993116709, 50.567732281115376], [-4.191739710873066, 50.56932364877314]]]}}, {"type": "Feature", "properties": {"type": "postcode-cell", "postcode": "PL19 8RT", "postcodes": ["PL19 8RT"]}, "geometry": {"type": "Polygon", "coordinates": [[[-4.1905633742996535, 50.56788328833865], [-4.189491209922927, 50.56816740933868], [-4.189817288798485, 50.56758841811086], [-4.193857162917023, 50.56442461022973], [-4.191992813111823, 50.56723315194373], [-4.1905633742996535, 50.56788328833865]]]}}, {"type": "Feature", "properties": {"type": "postcode-cell", "postcode": "PL19 8RY", "postcodes": ["PL19 8RY"]}, "geometry": {"type": "Polygon", "coordinates": [[[-4.193857162917023, 50.56442461022973], [-4.189817288798485, 50.56758841811086], [-4.190289167051047, 50.56457919003666], [-4.194994570599583, 50.561745765794356], [-4.196262429761135, 50.562100934050456], [-4.193857162917023, 50.56442461022973]]]}}, {"type": "Feature", "properties": {"type": "postcode-cell", "postcode": "PL19 8RB", "postcodes": ["PL19 8RB"]}, "geometry": {"type": "Polygon", "coordinates": [[[-4.190306536767579, 50.57266435746813], [-4.191623310714706, 50.572082230644185], [-4.195381862241541, 50.576907438310684], [-4.19490515374926, 50.57747104534864], [-4.194691982838083, 50.577485446776336], [-4.190306536767579, 50.57266435746813]]]}}, {"type": "Feature", "properties": {"type": "postcode-cell", "postcode": "PL19 8RW", "postcodes": ["PL19 8RW"]}, "geometry": {"type": "Polygon", "coordinates": [[[-4.194691982838083, 50.577485446776336], [-4.1866693398911785, 50.57877628451923], [-4.179467261800901, 50.57717676099318], [-4.178366290207474, 50.57588198431974], [-4.18582961811825, 50.57313482871089], [-4.189820962537976, 50.57244688553983], [-4.190306536767579, 50.57266435746813], [-4.194691982838083, 50.577485446776336]]]}}, {"type": "Feature", "properties": {"type": "postcode-cell", "postcode": "PL19 8RJ", "postcodes": ["PL19 8RJ"]}, "geometry": {"type": "Polygon", "coordinates": [[[-4.189896653440213, 50.56914859364478], [-4.192728822114881, 50.57152998897321], [-4.191837341937773, 50.57176101104033], [-4.190025230230276, 50.57123185487969], [-4.1895475765695815, 50.57042944782123], [-4.1896027820310255, 50.569855935329244], [-4.189889214599522, 50.56914695922733], [-4.189896653440213, 50.56914859364478]]]}}, {"type": "Feature", "properties": {"type": "postcode-cell", "postcode": "PL19 8RL", "postcodes": ["PL19 8RL"]}, "geometry": {"type": "Polygon", "coordinates": [[[-4.191837341937773, 50.57176101104033], [-4.191623310714706, 50.572082230644185], [-4.190306536767579, 50.57266435746813], [-4.189820962537976, 50.57244688553983], [-4.190025230230276, 50.57123185487969], [-4.191837341937773, 50.57176101104033]]]}}, {"type": "Feature", "properties": {"type": "postcode-cell", "postcode": "PL19 8RS", "postcodes": ["PL19 8RS"]}, "geometry": {"type": "Polygon", "coordinates": [[[-4.189491209922927, 50.56816740933868], [-4.189193578700054, 50.56837526414121], [-4.180927018324064, 50.566746267379], [-4.180960599107464, 50.56667738646377], [-4.190289167051047, 50.56457919003666], [-4.189817288798485, 50.56758841811086], [-4.189491209922927, 50.56816740933868]]]}}, {"type": "Feature", "properties": {"type": "postcode-cell", "postcode": "PL19 8RX", "postcodes": ["PL19 8RX"]}, "geometry": {"type": "Polygon", "coordinates": [[[-4.190289167051047, 50.56457919003666], [-4.180960599107464, 50.56667738646377], [-4.182555459620264, 50.55815708178263], [-4.187410342180765, 50.55778668988614], [-4.194994570599583, 50.561745765794356], [-4.190289167051047, 50.56457919003666]]]}}, {"type": "Feature", "properties": {"type": "postcode-cell", "postcode": "PL19 0LH", "postcodes": ["PL19 0LH"]}, "geometry": {"type": "Polygon", "coordinates": [[[-4.1866693398911785, 50.57877628451923], [-4.189203624105666, 50.58570861192636], [-4.182510923910458, 50.59184378985782], [-4.175211156196093, 50.583829456221416], [-4.179467261800901, 50.57717676099318], [-4.1866693398911785, 50.57877628451923]]]}}, {"type": "Feature", "properties": {"type": "postcode-cell", "postcode": "PL19 8RP", "postcodes": ["PL19 8RP"]}, "geometry": {"type": "Polygon", "coordinates": [[[-4.1895475765695815, 50.57042944782123], [-4.18582961811825, 50.57313482871089], [-4.178366290207474, 50.57588198431974], [-4.17673890148686, 50.57457103866899], [-4.1896027820310255, 50.569855935329244], [-4.1895475765695815, 50.57042944782123]]]}}, {"type": "Feature", "properties": {"type": "postcode-cell", "postcode": "PL19 8RR", "postcodes": ["PL19 8RR"]}, "geometry": {"type": "Polygon", "coordinates": [[[-4.189889214599522, 50.56914695922733], [-4.1896027820310255, 50.569855935329244], [-4.17673890148686, 50.57457103866899], [-4.173092167228751, 50.57188775875923], [-4.180927018324064, 50.566746267379], [-4.189193578700054, 50.56837526414121], [-4.189889214599522, 50.56914695922733]]]}}, {"type": "Feature", "properties": {"type": "postcode-cell", "postcode": "PL19 8RN", "postcodes": ["PL19 8RN"]}, "geometry": {"type": "Polygon", "coordinates": [[[-4.190025230230276, 50.57123185487969], [-4.189820962537976, 50.57244688553983], [-4.18582961811825, 50.57313482871089], [-4.1895475765695815, 50.57042944782123], [-4.190025230230276, 50.57123185487969]]]}}, {"type": "Feature", "properties": {"type": "postcode-cell", "postcode": "PL19 0LQ", "postcodes": ["PL19 0LQ"]}, "geometry": {"type": "Polygon", "coordinates": [[[-4.182519780005676, 50.59436823437798], [-4.180464728956372, 50.59695768903251], [-4.165709923217738, 50.59087791693342], [-4.167736003449603, 50.584834617522226], [-4.175211156196093, 50.583829456221416], [-4.182510923910458, 50.59184378985782], [-4.182519780005676, 50.59436823437798]]]}}, {"type": "Feature", "properties": {"type": "postcode-cell", "postcode": "PL19 0LG", "postcodes": ["PL19 0LG"]}, "geometry": {"type": "Polygon", "coordinates": [[[-4.179467261800901, 50.57717676099318], [-4.175211156196093, 50.583829456221416], [-4.167736003449603, 50.584834617522226], [-4.157254711349796, 50.580473070637744], [-4.15674610002448, 50.5736346100945], [-4.166674226343614, 50.57097581779755], [-4.173092167228751, 50.57188775875923], [-4.17673890148686, 50.57457103866899], [-4.178366290207474, 50.57588198431974], [-4.179467261800901, 50.57717676099318]]]}}, {"type": "Feature", "properties": {"type": "postcode-cell", "postcode": "PL19 8QQ", "postcodes": ["PL19 8QQ"]}, "geometry": {"type": "Polygon", "coordinates": [[[-4.180960599107464, 50.56667738646377], [-4.180927018324064, 50.566746267379], [-4.173092167228751, 50.57188775875923], [-4.166674226343614, 50.57097581779755], [-4.165772689780877, 50.552832032446275], [-4.168719990242261, 50.55287999459872], [-4.168812228142858, 50.5528615479425], [-4.182555459620264, 50.55815708178263], [-4.180960599107464, 50.56667738646377]]]}}, {"type": "Feature", "properties": {"type": "postcode-cell", "postcode": "PL19 0LE", "postcodes": ["PL19 0LE"]}, "geometry": {"type": "Polygon", "coordinates": [[[-4.17979274630958, 50.60013309415932], [-4.168670177107339, 50.60279042758397], [-4.16734999021916, 50.601859994637536], [-4.166369990218557, 50.60173999463745], [-4.175009990226997, 50.59582999463262], [-4.171479990224688, 50.59572999463262], [-4.167049990221284, 50.59671999463346], [-4.163409990218705, 50.59705999463378], [-4.163629990220513, 50.593389994630876], [-4.160222071216988, 50.59301370847547], [-4.161527540066855, 50.59152808771287], [-4.165709923217738, 50.59087791693342], [-4.180464728956372, 50.59695768903251], [-4.180161887727789, 50.599864830584714], [-4.17979274630958, 50.60013309415932]]]}}, {"type": "Feature", "properties": {"type": "postcode-cell", "postcode": "PL19 0LL", "postcodes": ["PL19 0LL"]}, "geometry": {"type": "Polygon", "coordinates": [[[-4.166674226343614, 50.57097581779755], [-4.15674610002448, 50.5736346100945], [-4.154338224494229, 50.572975818423785], [-4.155849990224723, 50.57266999461456], [-4.155509990224721, 50.572179994614196], [-4.158219990226901, 50.57134999461349], [-4.158279990227886, 50.56926999461186], [-4.156749990230078, 50.56218999460627], [-4.159849990232189, 50.562079994606144], [-4.160649990233602, 50.56013999460458], [-4.161729990234614, 50.55948999460403], [-4.160489990235211, 50.5563599946016], [-4.160599990236376, 50.553949994599705], [-4.16108999023693, 50.55344999459928], [-4.164029990238396, 50.55452999460008], [-4.164419990239434, 50.552809994598725], [-4.165772689780877, 50.552832032446275], [-4.166674226343614, 50.57097581779755]]]}}, {"type": "Feature", "properties": {"type": "postcode-cell", "postcode": "PL19 0LB", "postcodes": ["PL19 0LB"]}, "geometry": {"type": "Polygon", "coordinates": [[[-4.152374289558272, 50.58563484575548], [-4.161527540066855, 50.59152808771287], [-4.160222071216988, 50.59301370847547], [-4.157109990216496, 50.592669994630384], [-4.151749990213529, 50.59133999462942], [-4.150739990213225, 50.59052999462881], [-4.149559990213359, 50.58849999462721], [-4.148049990212779, 50.587569994626506], [-4.147487228573305, 50.58735207998394], [-4.152374289558272, 50.58563484575548]]]}}, {"type": "Feature", "properties": {"type": "postcode-cell", "postcode": "PL19 0LF", "postcodes": ["PL19 0LF"]}, "geometry": {"type": "Polygon", "coordinates": [[[-4.152374289558272, 50.58563484575548], [-4.157254711349796, 50.580473070637744], [-4.167736003449603, 50.584834617522226], [-4.165709923217738, 50.59087791693342], [-4.161527540066855, 50.59152808771287], [-4.152374289558272, 50.58563484575548]]]}}, {"type": "Feature", "properties": {"type": "postcode-cell", "postcode": "PL19 0JZ", "postcodes": ["PL19 0JZ"]}, "geometry": {"type": "Polygon", "coordinates": [[[-4.15674610002448, 50.5736346100945], [-4.157254711349796, 50.580473070637744], [-4.152374289558272, 50.58563484575548], [-4.147487228573305, 50.58735207998394], [-4.142239990209932, 50.585319994624804], [-4.137549990207344, 50.584159994623974], [-4.136439990207541, 50.582099994622354], [-4.134159990206903, 50.58016999462087], [-4.133359990207189, 50.57836999461945], [-4.140589990213313, 50.57545999461705], [-4.145009990216387, 50.57515999461671], [-4.148949990219471, 50.57413999461587], [-4.149349990219434, 50.57479999461637], [-4.153559990222592, 50.57400999461567], [-4.153229990222741, 50.573199994615024], [-4.154338224494229, 50.572975818423785], [-4.15674610002448, 50.5736346100945]]]}}]}