{"type": "FeatureCollection", "features": [{"type": "Feature", "properties": {"type": "ward-outline", "name": "Mincinglake and Whipton"}, "geometry": {"type": "Polygon", "coordinates": [[[-3.48822, 50.75214], [-3.48585, 50.75082], [-3.48677, 50.74995], [-3.48671, 50.74902], [-3.48513, 50.74848], [-3.484, 50.74687], [-3.48303, 50.74692], [-3.48237, 50.74567], [-3.4829, 50.74564], [-3.48306, 50.74412], [-3.48425, 50.7441], [-3.48433, 50.74304], [-3.48368, 50.74284], [-3.48591, 50.74112], [-3.48574, 50.74037], [-3.48606, 50.7402], [-3.48664, 50.74068], [-3.49373, 50.73974], [-3.49205, 50.73538], [-3.49154, 50.73214], [-3.48458, 50.73321], [-3.48125, 50.73409], [-3.48148, 50.73081], [-3.48301, 50.72842], [-3.48277, 50.72604], [-3.48937, 50.72785], [-3.50235, 50.73141], [-3.50116, 50.73159], [-3.50052, 50.73361], [-3.5022, 50.73347], [-3.50263, 50.73472], [-3.50492, 50.73482], [-3.50327, 50.73558], [-3.50387, 50.73616], [-3.50492, 50.73584], [-3.50516, 50.73668], [-3.50698, 50.73762], [-3.5101, 50.73871], [-3.51162, 50.73894], [-3.51154, 50.73938], [-3.51231, 50.74007], [-3.51216, 50.74048], [-3.5111, 50.74085], [-3.51206, 50.74207], [-3.51127, 50.74423], [-3.50838, 50.74643], [-3.50814, 50.74835], [-3.50648, 50.75001], [-3.50531, 50.75271], [-3.50285, 50.75426], [-3.50275, 50.75527], [-3.49897, 50.75431], [-3.4969, 50.7544], [-3.49296, 50.75404], [-3.48969, 50.75294], [-3.48822, 50.75214]]]}}, {"type": "Feature", "properties": {"type": "postcode-cell", "postcode": "EX4 9JN", "postcodes": ["EX4 9JN"]}, "geometry": {"type": "Polygon", "coordinates": [[[-3.500452353894292, 50.74815608003019], [-3.5055180922628875, 50.74616480625326], [-3.506555764347732, 50.746025068288745], [-3.5080860316711298, 50.74591232646966], [-3.5090883241419246, 50.74589080376669], [-3.508379989723207, 50.74642999476191], [-3.508139989722142, 50.748349994763444], [-3.5064799897203005, 50.750009994764774], [-3.505309989718276, 50.75270999476693], [-3.5043097853857157, 50.75334022330957], [-3.500452353894292, 50.74815608003019]]]}}, {"type": "Feature", "properties": {"type": "postcode-cell", "postcode": "EX4 9DX", "postcodes": ["EX4 9DX"]}, "geometry": {"type": "Polygon", "coordinates": [[[-3.5019667486013004, 50.743641467219774], [-3.4994846817597782, 50.743753904603096], [-3.4992363082235505, 50.74299520339322], [-3.501114043694074, 50.74308181766363], [-3.501630777804907, 50.74327228287318], [-3.5018054212042147, 50.74341919547579], [-3.5019667486013004, 50.743641467219774]]]}}, {"type": "Feature", "properties": {"type": "postcode-cell", "postcode": "EX4 9EQ", "postcodes": ["EX4 9EQ"]}, "geometry": {"type": "Polygon", "coordinates": [[[-3.5018054212042147, 50.74341919547579], [-3.502756298009408, 50.74202649748573], [-3.5031861699597115, 50.74196544547255], [-3.5041098208027837, 50.74275892830603], [-3.506555764347732, 50.746025068288745], [-3.5055180922628875, 50.74616480625326], [-3.5019667486013004, 50.743641467219774], [-3.5018054212042147, 50.74341919547579]]]}}, {"type": "Feature", "properties": {"type": "postcode-cell", "postcode": "EX4 9EE", "postcodes": ["EX4 9EE"]}, "geometry": {"type": "Polygon", "coordinates": [[[-3.5080860316711298, 50.74591232646966], [-3.5045666362558867, 50.741559707798636], [-3.5047290497567816, 50.74130792873292], [-3.5062584973422837, 50.74061262486002], [-3.511702289297967, 50.739525434174084], [-3.5123099897287213, 50.74006999475685], [-3.5121599897284312, 50.74047999475717], [-3.511099989727585, 50.74084999475749], [-3.5120599897276126, 50.74206999475842], [-3.5112699897260864, 50.744229994760154], [-3.5090883241419246, 50.74589080376669], [-3.5080860316711298, 50.74591232646966]]]}}, {"type": "Feature", "properties": {"type": "postcode-cell", "postcode": "EX4 9DS", "postcodes": ["EX4 9DS"]}, "geometry": {"type": "Polygon", "coordinates": [[[-3.5047290497567816, 50.74130792873292], [-3.503421781620998, 50.74071218137072], [-3.5038309674078607, 50.74047338630674], [-3.5062584973422837, 50.74061262486002], [-3.5047290497567816, 50.74130792873292]]]}}, {"type": "Feature", "properties": {"type": "postcode-cell", "postcode": "EX4 9BQ", "postcodes": ["EX4 9BQ"]}, "geometry": {"type": "Polygon", "coordinates": [[[-3.503421781620998, 50.74071218137072], [-3.502954268362088, 50.7408264675221], [-3.502493666521576, 50.74038119722815], [-3.502762657781898, 50.73955790853059], [-3.5027862290162743, 50.73953861259839], [-3.50347781253567, 50.739583946505704], [-3.503912384198422, 50.74004492204069], [-3.5038309674078607, 50.74047338630674], [-3.503421781620998, 50.74071218137072]]]}}, {"type": "Feature", "properties": {"type": "postcode-cell", "postcode": "EX4 9AW", "postcodes": ["EX4 9AW"]}, "geometry": {"type": "Polygon", "coordinates": [[[-3.5062584973422837, 50.74061262486002], [-3.5038309674078607, 50.74047338630674], [-3.503912384198422, 50.74004492204069], [-3.5094771969514773, 50.738492427304685], [-3.5100999897279674, 50.73870999475582], [-3.5116199897288225, 50.73893999475598], [-3.5115399897285617, 50.73937999475631], [-3.511702289297967, 50.739525434174084], [-3.5062584973422837, 50.74061262486002]]]}}, {"type": "Feature", "properties": {"type": "postcode-cell", "postcode": "EX4 7JS", "postcodes": ["EX4 7JS"]}, "geometry": {"type": "MultiPolygon", "coordinates": [[[[-3.5044409518327333, 50.73638518822508], [-3.504229243256378, 50.736050509512005], [-3.504919989726048, 50.735839994753654], [-3.5051407838129753, 50.73661277523118], [-3.5044409518327333, 50.73638518822508]]], [[[-3.5036442284942635, 50.73512566371295], [-3.504376385476008, 50.734796260690146], [-3.5049199897265333, 50.734819994752826], [-3.503782340661852, 50.73534400791314], [-3.5036442284942635, 50.73512566371295]]]]}}, {"type": "Feature", "properties": {"type": "postcode-cell", "postcode": "EX4 9ED", "postcodes": ["EX4 9ED"]}, "geometry": {"type": "Polygon", "coordinates": [[[-3.5045666362558867, 50.741559707798636], [-3.503919805252778, 50.7416438415256], [-3.503510808042643, 50.741583645738395], [-3.502906172274699, 50.740901405533684], [-3.502954268362088, 50.7408264675221], [-3.503421781620998, 50.74071218137072], [-3.5047290497567816, 50.74130792873292], [-3.5045666362558867, 50.741559707798636]]]}}, {"type": "Feature", "properties": {"type": "postcode-cell", "postcode": "EX4 9EJ", "postcodes": ["EX4 9EJ"]}, "geometry": {"type": "Polygon", "coordinates": [[[-3.5080860316711298, 50.74591232646966], [-3.506555764347732, 50.746025068288745], [-3.5041098208027837, 50.74275892830603], [-3.503919805252778, 50.7416438415256], [-3.5045666362558867, 50.741559707798636], [-3.5080860316711298, 50.74591232646966]]]}}, {"type": "Feature", "properties": {"type": "postcode-cell", "postcode": "EX4 9AL", "postcodes": ["EX4 9AL"]}, "geometry": {"type": "Polygon", "coordinates": [[[-3.503912384198422, 50.74004492204069], [-3.50347781253567, 50.739583946505704], [-3.5069202566787223, 50.73758914467946], [-3.506979989726508, 50.737619994755], [-3.5094771969514773, 50.738492427304685], [-3.503912384198422, 50.74004492204069]]]}}, {"type": "Feature", "properties": {"type": "postcode-cell", "postcode": "EX4 9EH", "postcodes": ["EX4 9EH"]}, "geometry": {"type": "Polygon", "coordinates": [[[-3.5041098208027837, 50.74275892830603], [-3.5031861699597115, 50.74196544547255], [-3.503510808042643, 50.741583645738395], [-3.503919805252778, 50.7416438415256], [-3.5041098208027837, 50.74275892830603]]]}}, {"type": "Feature", "properties": {"type": "postcode-cell", "postcode": "EX4 7JZ", "postcodes": ["EX4 7JZ"]}, "geometry": {"type": "Polygon", "coordinates": [[[-3.504594614625729, 50.73775907275071], [-3.501921884202731, 50.73700053504692], [-3.5021937350524883, 50.736301796668464], [-3.503446108967045, 50.736250573484796], [-3.5042555124588604, 50.736348152142604], [-3.5044409518327333, 50.73638518822508], [-3.5051407838129753, 50.73661277523118], [-3.5051599897258017, 50.73667999475429], [-3.5066507302529852, 50.737449942607995], [-3.504594614625729, 50.73775907275071]]]}}, {"type": "Feature", "properties": {"type": "postcode-cell", "postcode": "EX4 7JR", "postcodes": ["EX4 7JR"]}, "geometry": {"type": "MultiPolygon", "coordinates": [[[[-3.503782340661852, 50.73534400791314], [-3.5033752891853136, 50.73553149460887], [-3.5029864494123615, 50.73517072375266], [-3.5033990371998116, 50.7350266581746], [-3.5036442284942635, 50.73512566371295], [-3.503782340661852, 50.73534400791314]]], [[[-3.5044409518327333, 50.73638518822508], [-3.5042555124588604, 50.736348152142604], [-3.504007527603757, 50.736118079231225], [-3.504229243256378, 50.736050509512005], [-3.5044409518327333, 50.73638518822508]]]]}}, {"type": "Feature", "properties": {"type": "postcode-cell", "postcode": "EX4 7ED", "postcodes": ["EX4 7ED"]}, "geometry": {"type": "Polygon", "coordinates": [[[-3.5036442284942635, 50.73512566371295], [-3.5033990371998116, 50.7350266581746], [-3.5034065307692894, 50.73475390993529], [-3.504376385476008, 50.734796260690146], [-3.5036442284942635, 50.73512566371295]]]}}, {"type": "Feature", "properties": {"type": "postcode-cell", "postcode": "EX4 7JY", "postcodes": ["EX4 7JY"]}, "geometry": {"type": "Polygon", "coordinates": [[[-3.5022863385987786, 50.73467935979872], [-3.5012128717405573, 50.73425865217688], [-3.501215591937016, 50.73355203093404], [-3.5021999897254523, 50.73346999475181], [-3.5025510587252358, 50.7344905494597], [-3.5022863385987786, 50.73467935979872]]]}}, {"type": "Feature", "properties": {"type": "postcode-cell", "postcode": "EX4 8AB", "postcodes": ["EX4 8AB"]}, "geometry": {"type": "Polygon", "coordinates": [[[-3.4996459753782667, 50.73162249044807], [-3.4999485726723605, 50.730751513207345], [-3.5023499897265276, 50.731409994750194], [-3.5011599897256893, 50.73158999475034], [-3.5011496934677098, 50.73162249367493], [-3.4996459753782667, 50.73162249044807]]]}}, {"type": "Feature", "properties": {"type": "postcode-cell", "postcode": "EX4 9AF", "postcodes": ["EX4 9AF"]}, "geometry": {"type": "Polygon", "coordinates": [[[-3.50347781253567, 50.739583946505704], [-3.5027862290162743, 50.73953861259839], [-3.5027129023027253, 50.73937959504339], [-3.5033413866628837, 50.738237183438535], [-3.504286660556923, 50.73784273509306], [-3.504594614625729, 50.73775907275071], [-3.5066507302529852, 50.737449942607995], [-3.5069202566787223, 50.73758914467946], [-3.50347781253567, 50.739583946505704]]]}}, {"type": "Feature", "properties": {"type": "postcode-cell", "postcode": "EX4 7JX", "postcodes": ["EX4 7JX"]}, "geometry": {"type": "Polygon", "coordinates": [[[-3.5033752891853136, 50.73553149460887], [-3.5032699897251267, 50.735579994753465], [-3.5038699897252306, 50.736159994753905], [-3.504007527603757, 50.736118079231225], [-3.5042555124588604, 50.736348152142604], [-3.503446108967045, 50.736250573484796], [-3.502583799109933, 50.73541382780723], [-3.5025823592236587, 50.73516331209421], [-3.5029864494123615, 50.73517072375266], [-3.5033752891853136, 50.73553149460887]]]}}, {"type": "Feature", "properties": {"type": "postcode-cell", "postcode": "EX4 9BP", "postcodes": ["EX4 9BP"]}, "geometry": {"type": "Polygon", "coordinates": [[[-3.502906172274699, 50.740901405533684], [-3.502299345372933, 50.74117917589789], [-3.501915325211805, 50.74112485214223], [-3.5008388096744403, 50.74057388005941], [-3.500882837525268, 50.740473502506745], [-3.5014824816838397, 50.74022927665477], [-3.502493666521576, 50.74038119722815], [-3.502954268362088, 50.7408264675221], [-3.502906172274699, 50.740901405533684]]]}}, {"type": "Feature", "properties": {"type": "postcode-cell", "postcode": "EX4 9EF", "postcodes": ["EX4 9EF"]}, "geometry": {"type": "Polygon", "coordinates": [[[-3.5031861699597115, 50.74196544547255], [-3.502756298009408, 50.74202649748573], [-3.502127214237527, 50.741615734023775], [-3.502299345372933, 50.74117917589789], [-3.502906172274699, 50.740901405533684], [-3.503510808042643, 50.741583645738395], [-3.5031861699597115, 50.74196544547255]]]}}, {"type": "Feature", "properties": {"type": "postcode-cell", "postcode": "EX4 7JW", "postcodes": ["EX4 7JW"]}, "geometry": {"type": "Polygon", "coordinates": [[[-3.5029864494123615, 50.73517072375266], [-3.5025823592236587, 50.73516331209421], [-3.5021925227994255, 50.73490999992127], [-3.5022863385987786, 50.73467935979872], [-3.5025510587252358, 50.7344905494597], [-3.5026299897251314, 50.734719994752794], [-3.5034065307692894, 50.73475390993529], [-3.5033990371998116, 50.7350266581746], [-3.5029864494123615, 50.73517072375266]]]}}, {"type": "Feature", "properties": {"type": "postcode-cell", "postcode": "EX4 7LF", "postcodes": ["EX4 7LF"]}, "geometry": {"type": "Polygon", "coordinates": [[[-3.503446108967045, 50.736250573484796], [-3.5021937350524883, 50.736301796668464], [-3.5014699993814005, 50.73600864964727], [-3.502583799109933, 50.73541382780723], [-3.503446108967045, 50.736250573484796]]]}}, {"type": "Feature", "properties": {"type": "postcode-cell", "postcode": "EX4 9EG", "postcodes": ["EX4 9EG"]}, "geometry": {"type": "Polygon", "coordinates": [[[-3.5018054212042147, 50.74341919547579], [-3.501630777804907, 50.74327228287318], [-3.5014726072402236, 50.742215332537945], [-3.5016438009297866, 50.741866204224145], [-3.502127214237527, 50.741615734023775], [-3.502756298009408, 50.74202649748573], [-3.5018054212042147, 50.74341919547579]]]}}, {"type": "Feature", "properties": {"type": "postcode-cell", "postcode": "EX4 9BG", "postcodes": ["EX4 9BG"]}, "geometry": {"type": "Polygon", "coordinates": [[[-3.5027862290162743, 50.73953861259839], [-3.502762657781898, 50.73955790853059], [-3.5014536141382133, 50.73967841964394], [-3.5012337022151336, 50.739514283126205], [-3.501369197194051, 50.739032809863325], [-3.5017444618565676, 50.73894287383462], [-3.5027129023027253, 50.73937959504339], [-3.5027862290162743, 50.73953861259839]]]}}, {"type": "Feature", "properties": {"type": "postcode-cell", "postcode": "EX4 9AG", "postcodes": ["EX4 9AG"]}, "geometry": {"type": "Polygon", "coordinates": [[[-3.5027129023027253, 50.73937959504339], [-3.5017444618565676, 50.73894287383462], [-3.5021922084094013, 50.738385448662626], [-3.5033413866628837, 50.738237183438535], [-3.5027129023027253, 50.73937959504339]]]}}, {"type": "Feature", "properties": {"type": "postcode-cell", "postcode": "EX4 9AA", "postcodes": ["EX4 9AA"]}, "geometry": {"type": "Polygon", "coordinates": [[[-3.504286660556923, 50.73784273509306], [-3.502126649402055, 50.73761395044432], [-3.501578665564469, 50.73726000220461], [-3.5015512040789827, 50.73718690203977], [-3.501921884202731, 50.73700053504692], [-3.504594614625729, 50.73775907275071], [-3.504286660556923, 50.73784273509306]]]}}, {"type": "Feature", "properties": {"type": "postcode-cell", "postcode": "EX4 8LW", "postcodes": ["EX4 8LW"]}, "geometry": {"type": "Polygon", "coordinates": [[[-3.5015512040789827, 50.73718690203977], [-3.5007281314995984, 50.73705250729351], [-3.5004153696035685, 50.73640000056192], [-3.501356391619077, 50.73598198453198], [-3.5014699993814005, 50.73600864964727], [-3.5021937350524883, 50.736301796668464], [-3.501921884202731, 50.73700053504692], [-3.5015512040789827, 50.73718690203977]]]}}, {"type": "Feature", "properties": {"type": "postcode-cell", "postcode": "EX4 7JP", "postcodes": ["EX4 7JP"]}, "geometry": {"type": "Polygon", "coordinates": [[[-3.502583799109933, 50.73541382780723], [-3.5014699993814005, 50.73600864964727], [-3.501356391619077, 50.73598198453198], [-3.5011227769522684, 50.735278062181024], [-3.5021925227994255, 50.73490999992127], [-3.5025823592236587, 50.73516331209421], [-3.502583799109933, 50.73541382780723]]]}}, {"type": "Feature", "properties": {"type": "postcode-cell", "postcode": "EX4 9BH", "postcodes": ["EX4 9BH"]}, "geometry": {"type": "Polygon", "coordinates": [[[-3.502493666521576, 50.74038119722815], [-3.5014824816838397, 50.74022927665477], [-3.5014536141382133, 50.73967841964394], [-3.502762657781898, 50.73955790853059], [-3.502493666521576, 50.74038119722815]]]}}, {"type": "Feature", "properties": {"type": "postcode-cell", "postcode": "EX4 9AB", "postcodes": ["EX4 9AB"]}, "geometry": {"type": "Polygon", "coordinates": [[[-3.502126649402055, 50.73761395044432], [-3.5015316793369164, 50.7381040159459], [-3.5012655626900786, 50.73794446057567], [-3.501578665564469, 50.73726000220461], [-3.502126649402055, 50.73761395044432]]]}}, {"type": "Feature", "properties": {"type": "postcode-cell", "postcode": "EX4 9AE", "postcodes": ["EX4 9AE"]}, "geometry": {"type": "Polygon", "coordinates": [[[-3.5033413866628837, 50.738237183438535], [-3.5021922084094013, 50.738385448662626], [-3.5015400146031492, 50.73811409355859], [-3.5015316793369164, 50.7381040159459], [-3.502126649402055, 50.73761395044432], [-3.504286660556923, 50.73784273509306], [-3.5033413866628837, 50.738237183438535]]]}}, {"type": "Feature", "properties": {"type": "postcode-cell", "postcode": "EX4 9BU", "postcodes": ["EX4 9BU"]}, "geometry": {"type": "Polygon", "coordinates": [[[-3.5014726072402236, 50.742215332537945], [-3.5000617689243136, 50.74173326592861], [-3.5002586949701726, 50.7415185063571], [-3.500567319390507, 50.741397998679965], [-3.500757930309212, 50.74142060810058], [-3.5016438009297866, 50.741866204224145], [-3.5014726072402236, 50.742215332537945]]]}}, {"type": "Feature", "properties": {"type": "postcode-cell", "postcode": "EX4 8AA", "postcodes": ["EX4 8AA"]}, "geometry": {"type": "Polygon", "coordinates": [[[-3.5001788156085683, 50.732186839453405], [-3.4998612197743015, 50.732050363933034], [-3.4995356752171687, 50.73173646731169], [-3.4996459753782667, 50.73162249044807], [-3.5011496934677098, 50.73162249367493], [-3.500933990951463, 50.73230332301192], [-3.5001788156085683, 50.732186839453405]]]}}, {"type": "Feature", "properties": {"type": "postcode-cell", "postcode": "EX4 7JJ", "postcodes": ["EX4 7JJ"]}, "geometry": {"type": "Polygon", "coordinates": [[[-3.5021925227994255, 50.73490999992127], [-3.5011227769522684, 50.735278062181024], [-3.5004098390083933, 50.73496056907618], [-3.5012128717405573, 50.73425865217688], [-3.5022863385987786, 50.73467935979872], [-3.5021925227994255, 50.73490999992127]]]}}, {"type": "Feature", "properties": {"type": "postcode-cell", "postcode": "EX4 9AQ", "postcodes": ["EX4 9AQ"]}, "geometry": {"type": "Polygon", "coordinates": [[[-3.5021922084094013, 50.738385448662626], [-3.5017444618565676, 50.73894287383462], [-3.501369197194051, 50.739032809863325], [-3.500686244926102, 50.738749074350906], [-3.5015400146031492, 50.73811409355859], [-3.5021922084094013, 50.738385448662626]]]}}, {"type": "Feature", "properties": {"type": "postcode-cell", "postcode": "EX4 9AH", "postcodes": ["EX4 9AH"]}, "geometry": {"type": "Polygon", "coordinates": [[[-3.5015400146031492, 50.73811409355859], [-3.500686244926102, 50.738749074350906], [-3.5004201245276176, 50.73872750986307], [-3.5003889754800364, 50.73869069128558], [-3.500855563032976, 50.737900464584065], [-3.5012655626900786, 50.73794446057567], [-3.5015316793369164, 50.7381040159459], [-3.5015400146031492, 50.73811409355859]]]}}, {"type": "Feature", "properties": {"type": "postcode-cell", "postcode": "EX4 9AD", "postcodes": ["EX4 9AD"]}, "geometry": {"type": "Polygon", "coordinates": [[[-3.501578665564469, 50.73726000220461], [-3.5012655626900786, 50.73794446057567], [-3.500855563032976, 50.737900464584065], [-3.5005268555512856, 50.737766364268964], [-3.5006506799844197, 50.737122022920445], [-3.5007281314995984, 50.73705250729351], [-3.5015512040789827, 50.73718690203977], [-3.501578665564469, 50.73726000220461]]]}}, {"type": "Feature", "properties": {"type": "postcode-cell", "postcode": "EX4 9BS", "postcodes": ["EX4 9BS"]}, "geometry": {"type": "Polygon", "coordinates": [[[-3.501915325211805, 50.74112485214223], [-3.500757930309212, 50.74142060810058], [-3.500567319390507, 50.741397998679965], [-3.5007936877092156, 50.740604822486915], [-3.5008388096744403, 50.74057388005941], [-3.501915325211805, 50.74112485214223]]]}}, {"type": "Feature", "properties": {"type": "postcode-cell", "postcode": "EX4 9BT", "postcodes": ["EX4 9BT"]}, "geometry": {"type": "Polygon", "coordinates": [[[-3.502127214237527, 50.741615734023775], [-3.5016438009297866, 50.741866204224145], [-3.500757930309212, 50.74142060810058], [-3.501915325211805, 50.74112485214223], [-3.502299345372933, 50.74117917589789], [-3.502127214237527, 50.741615734023775]]]}}, {"type": "Feature", "properties": {"type": "postcode-cell", "postcode": "EX4 9BL", "postcodes": ["EX4 9BL"]}, "geometry": {"type": "Polygon", "coordinates": [[[-3.500882837525268, 50.740473502506745], [-3.500018275708097, 50.73980488840931], [-3.50002921894366, 50.73968545633648], [-3.5012337022151336, 50.739514283126205], [-3.5014536141382133, 50.73967841964394], [-3.5014824816838397, 50.74022927665477], [-3.500882837525268, 50.740473502506745]]]}}, {"type": "Feature", "properties": {"type": "postcode-cell", "postcode": "EX4 8EA", "postcodes": ["EX4 8EA"]}, "geometry": {"type": "Polygon", "coordinates": [[[-3.5004098390083933, 50.73496056907618], [-3.499837957376623, 50.73491685392643], [-3.499698939497607, 50.73486623864774], [-3.5004664508561936, 50.73357398081268], [-3.5005396460836757, 50.73354795692623], [-3.50051998972432, 50.73360999475194], [-3.501215591937016, 50.73355203093404], [-3.5012128717405573, 50.73425865217688], [-3.5004098390083933, 50.73496056907618]]]}}, {"type": "Feature", "properties": {"type": "postcode-cell", "postcode": "EX4 8LL", "postcodes": ["EX4 8LL"]}, "geometry": {"type": "Polygon", "coordinates": [[[-3.501356391619077, 50.73598198453198], [-3.5004153696035685, 50.73640000056192], [-3.499729464972421, 50.73631092982538], [-3.499837957376623, 50.73491685392643], [-3.5004098390083933, 50.73496056907618], [-3.5011227769522684, 50.735278062181024], [-3.501356391619077, 50.73598198453198]]]}}, {"type": "Feature", "properties": {"type": "postcode-cell", "postcode": "EX4 9BR", "postcodes": ["EX4 9BR"]}, "geometry": {"type": "Polygon", "coordinates": [[[-3.5002586949701726, 50.7415185063571], [-3.4994097083755866, 50.7407664821553], [-3.499410671395139, 50.740744276113645], [-3.5007936877092156, 50.740604822486915], [-3.500567319390507, 50.741397998679965], [-3.5002586949701726, 50.7415185063571]]]}}, {"type": "Feature", "properties": {"type": "postcode-cell", "postcode": "EX4 9BE", "postcodes": ["EX4 9BE"]}, "geometry": {"type": "Polygon", "coordinates": [[[-3.5012337022151336, 50.739514283126205], [-3.50002921894366, 50.73968545633648], [-3.4999655508822505, 50.73961740797402], [-3.4998316732387607, 50.73923390881194], [-3.5004201245276176, 50.73872750986307], [-3.500686244926102, 50.738749074350906], [-3.501369197194051, 50.739032809863325], [-3.5012337022151336, 50.739514283126205]]]}}, {"type": "Feature", "properties": {"type": "postcode-cell", "postcode": "EX4 8LT", "postcodes": ["EX4 8LT"]}, "geometry": {"type": "Polygon", "coordinates": [[[-3.5006506799844197, 50.737122022920445], [-3.4994877916762808, 50.737336533154654], [-3.4992255366600715, 50.736400523442626], [-3.499729464972421, 50.73631092982538], [-3.5004153696035685, 50.73640000056192], [-3.5007281314995984, 50.73705250729351], [-3.5006506799844197, 50.737122022920445]]]}}, {"type": "Feature", "properties": {"type": "postcode-cell", "postcode": "EX4 9BW", "postcodes": ["EX4 9BW"]}, "geometry": {"type": "Polygon", "coordinates": [[[-3.5007936877092156, 50.740604822486915], [-3.499410671395139, 50.740744276113645], [-3.4993284783712895, 50.74066448175512], [-3.4996270440632142, 50.74006340103059], [-3.500018275708097, 50.73980488840931], [-3.500882837525268, 50.740473502506745], [-3.5008388096744403, 50.74057388005941], [-3.5007936877092156, 50.740604822486915]]]}}, {"type": "Feature", "properties": {"type": "postcode-cell", "postcode": "EX4 8QT", "postcodes": ["EX4 8QT"]}, "geometry": {"type": "Polygon", "coordinates": [[[-3.498341447136371, 50.730791416085175], [-3.4970036731750627, 50.73077700208832], [-3.497452417638368, 50.73006698154629], [-3.498787608087825, 50.73043314592937], [-3.498341447136371, 50.730791416085175]]]}}, {"type": "Feature", "properties": {"type": "postcode-cell", "postcode": "EX4 9BX", "postcodes": ["EX4 9BX"]}, "geometry": {"type": "Polygon", "coordinates": [[[-3.501630777804907, 50.74327228287318], [-3.501114043694074, 50.74308181766363], [-3.4995718732906407, 50.742002732595175], [-3.5000617689243136, 50.74173326592861], [-3.5014726072402236, 50.742215332537945], [-3.501630777804907, 50.74327228287318]]]}}, {"type": "Feature", "properties": {"type": "postcode-cell", "postcode": "EX4 8BD", "postcodes": ["EX4 8BD"]}, "geometry": {"type": "Polygon", "coordinates": [[[-3.500933990951463, 50.73230332301192], [-3.5006383290296283, 50.73323649927262], [-3.5000384579965305, 50.73292623564316], [-3.5001788156085683, 50.732186839453405], [-3.500933990951463, 50.73230332301192]]]}}, {"type": "Feature", "properties": {"type": "postcode-cell", "postcode": "EX4 9AJ", "postcodes": ["EX4 9AJ"]}, "geometry": {"type": "Polygon", "coordinates": [[[-3.500855563032976, 50.737900464584065], [-3.5003889754800364, 50.73869069128558], [-3.4993611348993485, 50.73802290567413], [-3.5005268555512856, 50.737766364268964], [-3.500855563032976, 50.737900464584065]]]}}, {"type": "Feature", "properties": {"type": "postcode-cell", "postcode": "EX4 9BB", "postcodes": ["EX4 9BB"]}, "geometry": {"type": "Polygon", "coordinates": [[[-3.5004201245276176, 50.73872750986307], [-3.4998316732387607, 50.73923390881194], [-3.4993569230374306, 50.739106973796034], [-3.498938505877412, 50.73796710683998], [-3.4989845521259215, 50.73796011600546], [-3.4993611348993485, 50.73802290567413], [-3.5003889754800364, 50.73869069128558], [-3.5004201245276176, 50.73872750986307]]]}}, {"type": "Feature", "properties": {"type": "postcode-cell", "postcode": "EX4 9DU", "postcodes": ["EX4 9DU"]}, "geometry": {"type": "Polygon", "coordinates": [[[-3.5055180922628875, 50.74616480625326], [-3.500452353894292, 50.74815608003019], [-3.49644390027329, 50.74814994107309], [-3.497244838569943, 50.745215011406636], [-3.4984725009172957, 50.74411350885357], [-3.4994846817597782, 50.743753904603096], [-3.5019667486013004, 50.743641467219774], [-3.5055180922628875, 50.74616480625326]]]}}, {"type": "Feature", "properties": {"type": "postcode-cell", "postcode": "EX4 9BY", "postcodes": ["EX4 9BY"]}, "geometry": {"type": "Polygon", "coordinates": [[[-3.4995718732906407, 50.742002732595175], [-3.4984703379024373, 50.74207745661017], [-3.4984231908887105, 50.74174808510882], [-3.4994097083755866, 50.7407664821553], [-3.5002586949701726, 50.7415185063571], [-3.5000617689243136, 50.74173326592861], [-3.4995718732906407, 50.742002732595175]]]}}, {"type": "Feature", "properties": {"type": "postcode-cell", "postcode": "EX4 8AU", "postcodes": ["EX4 8AU"]}, "geometry": {"type": "Polygon", "coordinates": [[[-3.4998612197743015, 50.732050363933034], [-3.499334976361299, 50.73282583370589], [-3.4992220331380266, 50.73284957840195], [-3.4986012670353226, 50.73270214963549], [-3.4988719152459486, 50.73192580051014], [-3.4989794015789273, 50.73180111555428], [-3.4995356752171687, 50.73173646731169], [-3.4998612197743015, 50.732050363933034]]]}}, {"type": "Feature", "properties": {"type": "postcode-cell", "postcode": "EX4 8BA", "postcodes": ["EX4 8BA"]}, "geometry": {"type": "Polygon", "coordinates": [[[-3.5001788156085683, 50.732186839453405], [-3.5000384579965305, 50.73292623564316], [-3.499334976361299, 50.73282583370589], [-3.4998612197743015, 50.732050363933034], [-3.5001788156085683, 50.732186839453405]]]}}, {"type": "Feature", "properties": {"type": "postcode-cell", "postcode": "EX4 9BJ", "postcodes": ["EX4 9BJ"]}, "geometry": {"type": "Polygon", "coordinates": [[[-3.500018275708097, 50.73980488840931], [-3.4996270440632142, 50.74006340103059], [-3.498182603501877, 50.739941129442975], [-3.4981307029446884, 50.73969771347562], [-3.4999655508822505, 50.73961740797402], [-3.50002921894366, 50.73968545633648], [-3.500018275708097, 50.73980488840931]]]}}, {"type": "Feature", "properties": {"type": "postcode-cell", "postcode": "EX4 8LJ", "postcodes": ["EX4 8LJ"]}, "geometry": {"type": "Polygon", "coordinates": [[[-3.499698939497607, 50.73486623864774], [-3.4980198414641306, 50.73468389484158], [-3.498471227534923, 50.73399557792953], [-3.4999571940024423, 50.73359075159871], [-3.5004664508561936, 50.73357398081268], [-3.499698939497607, 50.73486623864774]]]}}, {"type": "Feature", "properties": {"type": "postcode-cell", "postcode": "EX4 8LU", "postcodes": ["EX4 8LU"]}, "geometry": {"type": "Polygon", "coordinates": [[[-3.5005268555512856, 50.737766364268964], [-3.4993611348993485, 50.73802290567413], [-3.4989845521259215, 50.73796011600546], [-3.4994877916762808, 50.737336533154654], [-3.5006506799844197, 50.737122022920445], [-3.5005268555512856, 50.737766364268964]]]}}, {"type": "Feature", "properties": {"type": "postcode-cell", "postcode": "EX4 8BB", "postcodes": ["EX4 8BB"]}, "geometry": {"type": "Polygon", "coordinates": [[[-3.5004664508561936, 50.73357398081268], [-3.4999571940024423, 50.73359075159871], [-3.4992237767991687, 50.733143143724675], [-3.4992220331380266, 50.73284957840195], [-3.499334976361299, 50.73282583370589], [-3.5000384579965305, 50.73292623564316], [-3.5006383290296283, 50.73323649927262], [-3.5005396460836757, 50.73354795692623], [-3.5004664508561936, 50.73357398081268]]]}}, {"type": "Feature", "properties": {"type": "postcode-cell", "postcode": "EX4 8LN", "postcodes": ["EX4 8LN"]}, "geometry": {"type": "Polygon", "coordinates": [[[-3.499698939497607, 50.73486623864774], [-3.499837957376623, 50.73491685392643], [-3.499729464972421, 50.73631092982538], [-3.4992255366600715, 50.736400523442626], [-3.4989655729239786, 50.736378316196095], [-3.4980602308238993, 50.735607025686015], [-3.497710277785657, 50.734831686922654], [-3.497852701580096, 50.73473569796248], [-3.4980198414641306, 50.73468389484158], [-3.499698939497607, 50.73486623864774]]]}}, {"type": "Feature", "properties": {"type": "postcode-cell", "postcode": "EX4 8LS", "postcodes": ["EX4 8LS"]}, "geometry": {"type": "Polygon", "coordinates": [[[-3.4989845521259215, 50.73796011600546], [-3.498938505877412, 50.73796710683998], [-3.4988821126749623, 50.73796631870091], [-3.498515054153429, 50.73783035702549], [-3.498174871083256, 50.73686413392437], [-3.4989655729239786, 50.736378316196095], [-3.4992255366600715, 50.736400523442626], [-3.4994877916762808, 50.737336533154654], [-3.4989845521259215, 50.73796011600546]]]}}, {"type": "Feature", "properties": {"type": "postcode-cell", "postcode": "EX4 9EB", "postcodes": ["EX4 9EB"]}, "geometry": {"type": "Polygon", "coordinates": [[[-3.501114043694074, 50.74308181766363], [-3.4992363082235505, 50.74299520339322], [-3.4985138628779735, 50.74269680430735], [-3.49816385970679, 50.74230693255046], [-3.4984703379024373, 50.74207745661017], [-3.4995718732906407, 50.742002732595175], [-3.501114043694074, 50.74308181766363]]]}}, {"type": "Feature", "properties": {"type": "postcode-cell", "postcode": "EX4 9JL", "postcodes": ["EX4 9JL"]}, "geometry": {"type": "Polygon", "coordinates": [[[-3.4938384502199056, 50.748728178112046], [-3.4946355282259636, 50.74852124540477], [-3.49644390027329, 50.74814994107309], [-3.500452353894292, 50.74815608003019], [-3.5043097853857157, 50.75334022330957], [-3.5028499897159784, 50.75425999476819], [-3.5027499897154346, 50.75526999476898], [-3.498969989713494, 50.75430999476826], [-3.496899989712139, 50.75439999476838], [-3.4929599897098127, 50.75403999476815], [-3.492756831814724, 50.75397165839657], [-3.4938384502199056, 50.748728178112046]]]}}, {"type": "Feature", "properties": {"type": "postcode-cell", "postcode": "EX4 9DT", "postcodes": ["EX4 9DT"]}, "geometry": {"type": "Polygon", "coordinates": [[[-3.4994846817597782, 50.743753904603096], [-3.4984725009172957, 50.74411350885357], [-3.4985138628779735, 50.74269680430735], [-3.4992363082235505, 50.74299520339322], [-3.4994846817597782, 50.743753904603096]]]}}, {"type": "Feature", "properties": {"type": "postcode-cell", "postcode": "EX4 9BZ", "postcodes": ["EX4 9BZ"]}, "geometry": {"type": "Polygon", "coordinates": [[[-3.4994097083755866, 50.7407664821553], [-3.4984231908887105, 50.74174808510882], [-3.497571825906251, 50.74070031136041], [-3.4980561895004367, 50.74041004658439], [-3.4993284783712895, 50.74066448175512], [-3.499410671395139, 50.740744276113645], [-3.4994097083755866, 50.7407664821553]]]}}, {"type": "Feature", "properties": {"type": "postcode-cell", "postcode": "EX4 8FQ", "postcodes": ["EX4 8FQ"]}, "geometry": {"type": "Polygon", "coordinates": [[[-3.498471227534923, 50.73399557792953], [-3.498457982824966, 50.73380756797787], [-3.4992237767991687, 50.733143143724675], [-3.4999571940024423, 50.73359075159871], [-3.498471227534923, 50.73399557792953]]]}}, {"type": "Feature", "properties": {"type": "postcode-cell", "postcode": "EX4 8AY", "postcodes": ["EX4 8AY"]}, "geometry": {"type": "Polygon", "coordinates": [[[-3.498471227534923, 50.73399557792953], [-3.4980198414641306, 50.73468389484158], [-3.497852701580096, 50.73473569796248], [-3.4964770304212047, 50.73314293409919], [-3.496524701692118, 50.73311086180816], [-3.4980679235978447, 50.73310288519365], [-3.498457982824966, 50.73380756797787], [-3.498471227534923, 50.73399557792953]]]}}, {"type": "Feature", "properties": {"type": "postcode-cell", "postcode": "EX4 8AZ", "postcodes": ["EX4 8AZ"]}, "geometry": {"type": "Polygon", "coordinates": [[[-3.4992237767991687, 50.733143143724675], [-3.498457982824966, 50.73380756797787], [-3.4980679235978447, 50.73310288519365], [-3.4983487497322603, 50.73277100867759], [-3.4986012670353226, 50.73270214963549], [-3.4992220331380266, 50.73284957840195], [-3.4992237767991687, 50.733143143724675]]]}}, {"type": "Feature", "properties": {"type": "postcode-cell", "postcode": "EX4 8QP", "postcodes": ["EX4 8QP"]}, "geometry": {"type": "Polygon", "coordinates": [[[-3.4995356752171687, 50.73173646731169], [-3.4989794015789273, 50.73180111555428], [-3.498169919877586, 50.73145912639072], [-3.498341447136371, 50.730791416085175], [-3.498787608087825, 50.73043314592937], [-3.4999485726723605, 50.730751513207345], [-3.4996459753782667, 50.73162249044807], [-3.4995356752171687, 50.73173646731169]]]}}, {"type": "Feature", "properties": {"type": "postcode-cell", "postcode": "EX4 9BN", "postcodes": ["EX4 9BN"]}, "geometry": {"type": "Polygon", "coordinates": [[[-3.4993284783712895, 50.74066448175512], [-3.4980561895004367, 50.74041004658439], [-3.498182603501877, 50.739941129442975], [-3.4996270440632142, 50.74006340103059], [-3.4993284783712895, 50.74066448175512]]]}}, {"type": "Feature", "properties": {"type": "postcode-cell", "postcode": "EX4 9BD", "postcodes": ["EX4 9BD"]}, "geometry": {"type": "Polygon", "coordinates": [[[-3.4998316732387607, 50.73923390881194], [-3.4999655508822505, 50.73961740797402], [-3.4981307029446884, 50.73969771347562], [-3.4979710591202604, 50.73947669049126], [-3.498485086306917, 50.73919433623233], [-3.4993569230374306, 50.739106973796034], [-3.4998316732387607, 50.73923390881194]]]}}, {"type": "Feature", "properties": {"type": "postcode-cell", "postcode": "EX4 8NG", "postcodes": ["EX4 8NG"]}, "geometry": {"type": "Polygon", "coordinates": [[[-3.491604045588386, 50.74106284018853], [-3.49228649420031, 50.740478701190476], [-3.4927560760682397, 50.7406025839501], [-3.4926198352393962, 50.742004118512895], [-3.492577694874676, 50.74211115484964], [-3.492156882579477, 50.74235771535938], [-3.491604045588386, 50.74106284018853]]]}}, {"type": "Feature", "properties": {"type": "postcode-cell", "postcode": "EX4 8NE", "postcodes": ["EX4 8NE"]}, "geometry": {"type": "Polygon", "coordinates": [[[-3.492156882579477, 50.74235771535938], [-3.4916081868651085, 50.74316523091008], [-3.4899184197154134, 50.744163413320024], [-3.4885896296208974, 50.74309312206283], [-3.488902655949267, 50.7419345936643], [-3.4900200973825846, 50.740938258144055], [-3.4902072328600564, 50.74093085862157], [-3.491604045588386, 50.74106284018853], [-3.492156882579477, 50.74235771535938]]]}}, {"type": "Feature", "properties": {"type": "postcode-cell", "postcode": "EX4 9DZ", "postcodes": ["EX4 9DZ"]}, "geometry": {"type": "Polygon", "coordinates": [[[-3.4984703379024373, 50.74207745661017], [-3.49816385970679, 50.74230693255046], [-3.4981527988985857, 50.74230848636571], [-3.4967258828415404, 50.741212003188835], [-3.4968129794818785, 50.740700746520865], [-3.497571825906251, 50.74070031136041], [-3.4984231908887105, 50.74174808510882], [-3.4984703379024373, 50.74207745661017]]]}}, {"type": "Feature", "properties": {"type": "postcode-cell", "postcode": "EX4 9DB", "postcodes": ["EX4 9DB"]}, "geometry": {"type": "Polygon", "coordinates": [[[-3.498485086306917, 50.73919433623233], [-3.498556080707533, 50.73835210366053], [-3.4988821126749623, 50.73796631870091], [-3.498938505877412, 50.73796710683998], [-3.4993569230374306, 50.739106973796034], [-3.498485086306917, 50.73919433623233]]]}}, {"type": "Feature", "properties": {"type": "postcode-cell", "postcode": "EX4 9DA", "postcodes": ["EX4 9DA"]}, "geometry": {"type": "Polygon", "coordinates": [[[-3.498182603501877, 50.739941129442975], [-3.4980561895004367, 50.74041004658439], [-3.497571825906251, 50.74070031136041], [-3.4968129794818785, 50.740700746520865], [-3.4959943302658547, 50.740426017484644], [-3.4971161405205073, 50.73944571289208], [-3.497507096247417, 50.73934013248655], [-3.4979710591202604, 50.73947669049126], [-3.4981307029446884, 50.73969771347562], [-3.498182603501877, 50.739941129442975]]]}}, {"type": "Feature", "properties": {"type": "postcode-cell", "postcode": "EX4 8LR", "postcodes": ["EX4 8LR"]}, "geometry": {"type": "Polygon", "coordinates": [[[-3.498556080707533, 50.73835210366053], [-3.4974323385098924, 50.738824498743554], [-3.497278985508221, 50.738060317691925], [-3.4974969577973423, 50.737874572862324], [-3.498515054153429, 50.73783035702549], [-3.4988821126749623, 50.73796631870091], [-3.498556080707533, 50.73835210366053]]]}}, {"type": "Feature", "properties": {"type": "postcode-cell", "postcode": "EX4 8AT", "postcodes": ["EX4 8AT"]}, "geometry": {"type": "Polygon", "coordinates": [[[-3.4981430640046924, 50.73266014236864], [-3.4980130389589297, 50.73216007542053], [-3.4988719152459486, 50.73192580051014], [-3.4986012670353226, 50.73270214963549], [-3.4983487497322603, 50.73277100867759], [-3.4981430640046924, 50.73266014236864]]]}}, {"type": "Feature", "properties": {"type": "postcode-cell", "postcode": "EX4 8AX", "postcodes": ["EX4 8AX"]}, "geometry": {"type": "Polygon", "coordinates": [[[-3.4983487497322603, 50.73277100867759], [-3.4980679235978447, 50.73310288519365], [-3.496524701692118, 50.73311086180816], [-3.4968868912428226, 50.73227242386545], [-3.4981430640046924, 50.73266014236864], [-3.4983487497322603, 50.73277100867759]]]}}, {"type": "Feature", "properties": {"type": "postcode-cell", "postcode": "EX4 9DR", "postcodes": ["EX4 9DR"]}, "geometry": {"type": "Polygon", "coordinates": [[[-3.497244838569943, 50.745215011406636], [-3.4965671093770854, 50.74318728266474], [-3.4970814353714896, 50.74255397282865], [-3.4981527988985857, 50.74230848636571], [-3.49816385970679, 50.74230693255046], [-3.4985138628779735, 50.74269680430735], [-3.4984725009172957, 50.74411350885357], [-3.497244838569943, 50.745215011406636]]]}}, {"type": "Feature", "properties": {"type": "postcode-cell", "postcode": "EX4 8LP", "postcodes": ["EX4 8LP"]}, "geometry": {"type": "Polygon", "coordinates": [[[-3.4989655729239786, 50.736378316196095], [-3.498174871083256, 50.73686413392437], [-3.497059995910409, 50.73678448503437], [-3.4969825387463347, 50.73665978600546], [-3.4980602308238993, 50.735607025686015], [-3.4989655729239786, 50.736378316196095]]]}}, {"type": "Feature", "properties": {"type": "postcode-cell", "postcode": "EX4 8LX", "postcodes": ["EX4 8LX"]}, "geometry": {"type": "Polygon", "coordinates": [[[-3.4979710591202604, 50.73947669049126], [-3.497507096247417, 50.73934013248655], [-3.497368385988992, 50.738925102563115], [-3.4974323385098924, 50.738824498743554], [-3.498556080707533, 50.73835210366053], [-3.498485086306917, 50.73919433623233], [-3.4979710591202604, 50.73947669049126]]]}}, {"type": "Feature", "properties": {"type": "postcode-cell", "postcode": "EX4 8AS", "postcodes": ["EX4 8AS"]}, "geometry": {"type": "Polygon", "coordinates": [[[-3.4988719152459486, 50.73192580051014], [-3.4980130389589297, 50.73216007542053], [-3.4968332485628038, 50.73200517686653], [-3.496651472058515, 50.731684923376264], [-3.498169919877586, 50.73145912639072], [-3.4989794015789273, 50.73180111555428], [-3.4988719152459486, 50.73192580051014]]]}}, {"type": "Feature", "properties": {"type": "postcode-cell", "postcode": "EX4 8QS", "postcodes": ["EX4 8QS"]}, "geometry": {"type": "Polygon", "coordinates": [[[-3.496651472058515, 50.731684923376264], [-3.496229082032642, 50.73148153517601], [-3.4969404533504345, 50.73080789883518], [-3.4970036731750627, 50.73077700208832], [-3.498341447136371, 50.730791416085175], [-3.498169919877586, 50.73145912639072], [-3.496651472058515, 50.731684923376264]]]}}, {"type": "Feature", "properties": {"type": "postcode-cell", "postcode": "EX4 8BE", "postcodes": ["EX4 8BE"]}, "geometry": {"type": "Polygon", "coordinates": [[[-3.4981430640046924, 50.73266014236864], [-3.4968868912428226, 50.73227242386545], [-3.4968332485628038, 50.73200517686653], [-3.4980130389589297, 50.73216007542053], [-3.4981430640046924, 50.73266014236864]]]}}, {"type": "Feature", "properties": {"type": "postcode-cell", "postcode": "EX4 8AR", "postcodes": ["EX4 8AR"]}, "geometry": {"type": "Polygon", "coordinates": [[[-3.496651472058515, 50.731684923376264], [-3.4968332485628038, 50.73200517686653], [-3.4968868912428226, 50.73227242386545], [-3.496524701692118, 50.73311086180816], [-3.4964770304212047, 50.73314293409919], [-3.4956493888611546, 50.733232996426615], [-3.4956430188814878, 50.73323147298203], [-3.494825110861099, 50.73280848137286], [-3.496145839014702, 50.731474267246355], [-3.496229082032642, 50.73148153517601], [-3.496651472058515, 50.731684923376264]]]}}, {"type": "Feature", "properties": {"type": "postcode-cell", "postcode": "EX1 3JB", "postcodes": ["EX1 3JB"]}, "geometry": {"type": "Polygon", "coordinates": [[[-3.4893448591215512, 50.728563855774816], [-3.4889140143936404, 50.72843617630281], [-3.4881617109519323, 50.7280251078112], [-3.488261860905656, 50.727546134880576], [-3.4893699897200063, 50.72784999474758], [-3.4899932262222424, 50.72802097428802], [-3.4893448591215512, 50.728563855774816]]]}}, {"type": "Feature", "properties": {"type": "postcode-cell", "postcode": "EX4 8QR", "postcodes": ["EX4 8QR"]}, "geometry": {"type": "Polygon", "coordinates": [[[-3.4970036731750627, 50.73077700208832], [-3.4969404533504345, 50.73080789883518], [-3.496241437775855, 50.73003445688059], [-3.4963496034291612, 50.729764528393595], [-3.497452417638368, 50.73006698154629], [-3.4970036731750627, 50.73077700208832]]]}}, {"type": "Feature", "properties": {"type": "postcode-cell", "postcode": "EX4 8QU", "postcodes": ["EX4 8QU"]}, "geometry": {"type": "Polygon", "coordinates": [[[-3.496229082032642, 50.73148153517601], [-3.496145839014702, 50.731474267246355], [-3.4952877134131457, 50.73113637833591], [-3.4951529772088605, 50.73102035245296], [-3.496241437775855, 50.73003445688059], [-3.4969404533504345, 50.73080789883518], [-3.496229082032642, 50.73148153517601]]]}}, {"type": "Feature", "properties": {"type": "postcode-cell", "postcode": "EX4 9EA", "postcodes": ["EX4 9EA"]}, "geometry": {"type": "Polygon", "coordinates": [[[-3.4970814353714896, 50.74255397282865], [-3.4961187487023673, 50.7420205111449], [-3.49614426771357, 50.74193411269743], [-3.4967258828415404, 50.741212003188835], [-3.4981527988985857, 50.74230848636571], [-3.4970814353714896, 50.74255397282865]]]}}, {"type": "Feature", "properties": {"type": "postcode-cell", "postcode": "EX4 9JU", "postcodes": ["EX4 9JU"]}, "geometry": {"type": "Polygon", "coordinates": [[[-3.49644390027329, 50.74814994107309], [-3.4946355282259636, 50.74852124540477], [-3.4948699378917683, 50.74335821034805], [-3.495730944846251, 50.74315586796934], [-3.4965671093770854, 50.74318728266474], [-3.497244838569943, 50.745215011406636], [-3.49644390027329, 50.74814994107309]]]}}, {"type": "Feature", "properties": {"type": "postcode-cell", "postcode": "EX4 8LD", "postcodes": ["EX4 8LD"]}, "geometry": {"type": "Polygon", "coordinates": [[[-3.497368385988992, 50.738925102563115], [-3.495745312998221, 50.73843588477028], [-3.497278985508221, 50.738060317691925], [-3.4974323385098924, 50.738824498743554], [-3.497368385988992, 50.738925102563115]]]}}, {"type": "Feature", "properties": {"type": "postcode-cell", "postcode": "EX4 8LQ", "postcodes": ["EX4 8LQ"]}, "geometry": {"type": "Polygon", "coordinates": [[[-3.498515054153429, 50.73783035702549], [-3.4974969577973423, 50.737874572862324], [-3.4966717336168225, 50.737266399654075], [-3.497059995910409, 50.73678448503437], [-3.498174871083256, 50.73686413392437], [-3.498515054153429, 50.73783035702549]]]}}, {"type": "Feature", "properties": {"type": "postcode-cell", "postcode": "EX4 8NA", "postcodes": ["EX4 8NA"]}, "geometry": {"type": "Polygon", "coordinates": [[[-3.4980602308238993, 50.735607025686015], [-3.4969825387463347, 50.73665978600546], [-3.4969248754748157, 50.73662726965473], [-3.496054957241769, 50.7350710358345], [-3.497710277785657, 50.734831686922654], [-3.4980602308238993, 50.735607025686015]]]}}, {"type": "Feature", "properties": {"type": "postcode-cell", "postcode": "EX4 8BL", "postcodes": ["EX4 8BL"]}, "geometry": {"type": "Polygon", "coordinates": [[[-3.497710277785657, 50.734831686922654], [-3.496054957241769, 50.7350710358345], [-3.4959720748416805, 50.735070100958474], [-3.4957274281061594, 50.73479950203947], [-3.4956493888611546, 50.733232996426615], [-3.4964770304212047, 50.73314293409919], [-3.497852701580096, 50.73473569796248], [-3.497710277785657, 50.734831686922654]]]}}, {"type": "Feature", "properties": {"type": "postcode-cell", "postcode": "EX4 8LF", "postcodes": ["EX4 8LF"]}, "geometry": {"type": "Polygon", "coordinates": [[[-3.4969825387463347, 50.73665978600546], [-3.497059995910409, 50.73678448503437], [-3.4966717336168225, 50.737266399654075], [-3.4946851656319335, 50.737658247034595], [-3.4949977911085583, 50.73636810232037], [-3.4969248754748157, 50.73662726965473], [-3.4969825387463347, 50.73665978600546]]]}}, {"type": "Feature", "properties": {"type": "postcode-cell", "postcode": "EX4 8LZ", "postcodes": ["EX4 8LZ"]}, "geometry": {"type": "Polygon", "coordinates": [[[-3.497507096247417, 50.73934013248655], [-3.4971161405205073, 50.73944571289208], [-3.4952400408891258, 50.73896985204039], [-3.4947190979903486, 50.73843329932885], [-3.495745312998221, 50.73843588477028], [-3.497368385988992, 50.738925102563115], [-3.497507096247417, 50.73934013248655]]]}}, {"type": "Feature", "properties": {"type": "postcode-cell", "postcode": "EX4 8LH", "postcodes": ["EX4 8LH"]}, "geometry": {"type": "Polygon", "coordinates": [[[-3.4974969577973423, 50.737874572862324], [-3.497278985508221, 50.738060317691925], [-3.495745312998221, 50.73843588477028], [-3.4947190979903486, 50.73843329932885], [-3.494089617735964, 50.738174113544225], [-3.4946851656319335, 50.737658247034595], [-3.4966717336168225, 50.737266399654075], [-3.4974969577973423, 50.737874572862324]]]}}, {"type": "Feature", "properties": {"type": "postcode-cell", "postcode": "EX1 3JT", "postcodes": ["EX1 3JT"]}, "geometry": {"type": "Polygon", "coordinates": [[[-3.4916657959241544, 50.72960166079829], [-3.491104532305171, 50.72943091881276], [-3.490709865658858, 50.729202658411346], [-3.4911359974278104, 50.72833447171521], [-3.4928412157789293, 50.72880223697489], [-3.4916657959241544, 50.72960166079829]]]}}, {"type": "Feature", "properties": {"type": "postcode-cell", "postcode": "EX4 8QX", "postcodes": ["EX4 8QX"]}, "geometry": {"type": "Polygon", "coordinates": [[[-3.496241437775855, 50.73003445688059], [-3.4951529772088605, 50.73102035245296], [-3.4944109477918937, 50.73070109497276], [-3.49507413372246, 50.72941470549684], [-3.4963496034291612, 50.729764528393595], [-3.496241437775855, 50.73003445688059]]]}}, {"type": "Feature", "properties": {"type": "postcode-cell", "postcode": "EX4 9DP", "postcodes": ["EX4 9DP"]}, "geometry": {"type": "Polygon", "coordinates": [[[-3.4967258828415404, 50.741212003188835], [-3.49614426771357, 50.74193411269743], [-3.495541454222161, 50.74063048114726], [-3.4958792286943186, 50.740423455444244], [-3.4959943302658547, 50.740426017484644], [-3.4968129794818785, 50.740700746520865], [-3.4967258828415404, 50.741212003188835]]]}}, {"type": "Feature", "properties": {"type": "postcode-cell", "postcode": "EX4 9DY", "postcodes": ["EX4 9DY"]}, "geometry": {"type": "Polygon", "coordinates": [[[-3.4961187487023673, 50.7420205111449], [-3.4952694874977643, 50.74199371148994], [-3.495195059531506, 50.74076507284955], [-3.495541454222161, 50.74063048114726], [-3.49614426771357, 50.74193411269743], [-3.4961187487023673, 50.7420205111449]]]}}, {"type": "Feature", "properties": {"type": "postcode-cell", "postcode": "EX4 8LG", "postcodes": ["EX4 8LG"]}, "geometry": {"type": "Polygon", "coordinates": [[[-3.4969248754748157, 50.73662726965473], [-3.4949977911085583, 50.73636810232037], [-3.494776906349749, 50.73568537339635], [-3.4959720748416805, 50.735070100958474], [-3.496054957241769, 50.7350710358345], [-3.4969248754748157, 50.73662726965473]]]}}, {"type": "Feature", "properties": {"type": "postcode-cell", "postcode": "EX4 9DW", "postcodes": ["EX4 9DW"]}, "geometry": {"type": "Polygon", "coordinates": [[[-3.4959943302658547, 50.740426017484644], [-3.4958792286943186, 50.740423455444244], [-3.4956389747593004, 50.74017345749597], [-3.4952400408891258, 50.73896985204039], [-3.4971161405205073, 50.73944571289208], [-3.4959943302658547, 50.740426017484644]]]}}, {"type": "Feature", "properties": {"type": "postcode-cell", "postcode": "EX4 8BN", "postcodes": ["EX4 8BN"]}, "geometry": {"type": "Polygon", "coordinates": [[[-3.4959720748416805, 50.735070100958474], [-3.494776906349749, 50.73568537339635], [-3.4920753418563497, 50.73544579598658], [-3.4920626141827475, 50.735412761455585], [-3.4929321262320867, 50.73449729706145], [-3.4936694789391, 50.73402796349755], [-3.4942030961594313, 50.734090178213926], [-3.4957274281061594, 50.73479950203947], [-3.4959720748416805, 50.735070100958474]]]}}, {"type": "Feature", "properties": {"type": "postcode-cell", "postcode": "EX4 8LY", "postcodes": ["EX4 8LY"]}, "geometry": {"type": "Polygon", "coordinates": [[[-3.4952400408891258, 50.73896985204039], [-3.4956389747593004, 50.74017345749597], [-3.4939166789517726, 50.73986653188043], [-3.493354609123986, 50.73876586742997], [-3.493166977033311, 50.73827893870248], [-3.494089617735964, 50.738174113544225], [-3.4947190979903486, 50.73843329932885], [-3.4952400408891258, 50.73896985204039]]]}}, {"type": "Feature", "properties": {"type": "postcode-cell", "postcode": "EX4 8NQ", "postcodes": ["EX4 8NQ"]}, "geometry": {"type": "Polygon", "coordinates": [[[-3.4958792286943186, 50.740423455444244], [-3.495541454222161, 50.74063048114726], [-3.495195059531506, 50.74076507284955], [-3.4942059985028266, 50.7408888881146], [-3.4936487565369547, 50.74066997378305], [-3.4939166789517726, 50.73986653188043], [-3.4956389747593004, 50.74017345749597], [-3.4958792286943186, 50.740423455444244]]]}}, {"type": "Feature", "properties": {"type": "postcode-cell", "postcode": "EX4 8BJ", "postcodes": ["EX4 8BJ"]}, "geometry": {"type": "Polygon", "coordinates": [[[-3.4956493888611546, 50.733232996426615], [-3.4957274281061594, 50.73479950203947], [-3.4942030961594313, 50.734090178213926], [-3.4956430188814878, 50.73323147298203], [-3.4956493888611546, 50.733232996426615]]]}}, {"type": "Feature", "properties": {"type": "postcode-cell", "postcode": "EX4 9JT", "postcodes": ["EX4 9JT"]}, "geometry": {"type": "Polygon", "coordinates": [[[-3.4970814353714896, 50.74255397282865], [-3.4965671093770854, 50.74318728266474], [-3.495730944846251, 50.74315586796934], [-3.4950326229728317, 50.742546887998145], [-3.4951699668529925, 50.742017850990294], [-3.4952694874977643, 50.74199371148994], [-3.4961187487023673, 50.7420205111449], [-3.4970814353714896, 50.74255397282865]]]}}, {"type": "Feature", "properties": {"type": "postcode-cell", "postcode": "EX4 8AF", "postcodes": ["EX4 8AF"]}, "geometry": {"type": "Polygon", "coordinates": [[[-3.496145839014702, 50.731474267246355], [-3.494825110861099, 50.73280848137286], [-3.494691302464442, 50.73279765295395], [-3.4940414672629094, 50.732236537995426], [-3.4939592503100863, 50.73215163752684], [-3.4952877134131457, 50.73113637833591], [-3.496145839014702, 50.731474267246355]]]}}, {"type": "Feature", "properties": {"type": "postcode-cell", "postcode": "EX4 9LA", "postcodes": ["EX4 9LA"]}, "geometry": {"type": "Polygon", "coordinates": [[[-3.4952694874977643, 50.74199371148994], [-3.4951699668529925, 50.742017850990294], [-3.494698867445129, 50.74196175412405], [-3.4941609828122155, 50.74113441267637], [-3.4942059985028266, 50.7408888881146], [-3.495195059531506, 50.74076507284955], [-3.4952694874977643, 50.74199371148994]]]}}, {"type": "Feature", "properties": {"type": "postcode-cell", "postcode": "EX4 9LB", "postcodes": ["EX4 9LB"]}, "geometry": {"type": "Polygon", "coordinates": [[[-3.493859549009485, 50.74303652318099], [-3.4950326229728317, 50.742546887998145], [-3.495730944846251, 50.74315586796934], [-3.4948699378917683, 50.74335821034805], [-3.493859549009485, 50.74303652318099]]]}}, {"type": "Feature", "properties": {"type": "postcode-cell", "postcode": "EX4 9JX", "postcodes": ["EX4 9JX"]}, "geometry": {"type": "Polygon", "coordinates": [[[-3.4948699378917683, 50.74335821034805], [-3.4946355282259636, 50.74852124540477], [-3.4938384502199056, 50.748728178112046], [-3.490352629592846, 50.74729788617313], [-3.4899184197154134, 50.744163413320024], [-3.4916081868651085, 50.74316523091008], [-3.4936328167591175, 50.74301695060131], [-3.493859549009485, 50.74303652318099], [-3.4948699378917683, 50.74335821034805]]]}}, {"type": "Feature", "properties": {"type": "postcode-cell", "postcode": "EX4 8LA", "postcodes": ["EX4 8LA"]}, "geometry": {"type": "Polygon", "coordinates": [[[-3.494691302464442, 50.73279765295395], [-3.4941493634124234, 50.733044184633314], [-3.493462470507724, 50.73296233164091], [-3.493207334866803, 50.73278385000206], [-3.4940414672629094, 50.732236537995426], [-3.494691302464442, 50.73279765295395]]]}}, {"type": "Feature", "properties": {"type": "postcode-cell", "postcode": "EX4 8BW", "postcodes": ["EX4 8BW"]}, "geometry": {"type": "Polygon", "coordinates": [[[-3.4956430188814878, 50.73323147298203], [-3.4942030961594313, 50.734090178213926], [-3.4936694789391, 50.73402796349755], [-3.4936408476349206, 50.73386617398042], [-3.4941493634124234, 50.733044184633314], [-3.494691302464442, 50.73279765295395], [-3.494825110861099, 50.73280848137286], [-3.4956430188814878, 50.73323147298203]]]}}, {"type": "Feature", "properties": {"type": "postcode-cell", "postcode": "EX4 8AD", "postcodes": ["EX4 8AD"]}, "geometry": {"type": "Polygon", "coordinates": [[[-3.4952877134131457, 50.73113637833591], [-3.4939592503100863, 50.73215163752684], [-3.49329990283188, 50.73199889689256], [-3.493042283411116, 50.73171470395381], [-3.493559261681429, 50.730690313705296], [-3.4944109477918937, 50.73070109497276], [-3.4951529772088605, 50.73102035245296], [-3.4952877134131457, 50.73113637833591]]]}}, {"type": "Feature", "properties": {"type": "postcode-cell", "postcode": "EX4 9JP", "postcodes": ["EX4 9JP"]}, "geometry": {"type": "Polygon", "coordinates": [[[-3.4951699668529925, 50.742017850990294], [-3.4950326229728317, 50.742546887998145], [-3.493859549009485, 50.74303652318099], [-3.4936328167591175, 50.74301695060131], [-3.494696887614841, 50.74196226094494], [-3.494698867445129, 50.74196175412405], [-3.4951699668529925, 50.742017850990294]]]}}, {"type": "Feature", "properties": {"type": "postcode-cell", "postcode": "EX4 8NN", "postcodes": ["EX4 8NN"]}, "geometry": {"type": "Polygon", "coordinates": [[[-3.494089617735964, 50.738174113544225], [-3.493166977033311, 50.73827893870248], [-3.4920753418563497, 50.73544579598658], [-3.494776906349749, 50.73568537339635], [-3.4949977911085583, 50.73636810232037], [-3.4946851656319335, 50.737658247034595], [-3.494089617735964, 50.738174113544225]]]}}, {"type": "Feature", "properties": {"type": "postcode-cell", "postcode": "EX4 8NW", "postcodes": ["EX4 8NW"]}, "geometry": {"type": "Polygon", "coordinates": [[[-3.4936487565369547, 50.74066997378305], [-3.4936146536623385, 50.74067208225898], [-3.4927560760682397, 50.7406025839501], [-3.49228649420031, 50.740478701190476], [-3.4919521531735764, 50.73997574621625], [-3.493729989717105, 50.73973999475688], [-3.493354609123986, 50.73876586742997], [-3.4939166789517726, 50.73986653188043], [-3.4936487565369547, 50.74066997378305]]]}}, {"type": "Feature", "properties": {"type": "postcode-cell", "postcode": "EX4 8NB", "postcodes": ["EX4 8NB"]}, "geometry": {"type": "Polygon", "coordinates": [[[-3.4941609828122155, 50.74113441267637], [-3.49310027827707, 50.74196751971048], [-3.492577694874676, 50.74211115484964], [-3.4926198352393962, 50.742004118512895], [-3.4936146536623385, 50.74067208225898], [-3.4936487565369547, 50.74066997378305], [-3.4942059985028266, 50.7408888881146], [-3.4941609828122155, 50.74113441267637]]]}}, {"type": "Feature", "properties": {"type": "postcode-cell", "postcode": "EX4 9JZ", "postcodes": ["EX4 9JZ"]}, "geometry": {"type": "Polygon", "coordinates": [[[-3.494698867445129, 50.74196175412405], [-3.494696887614841, 50.74196226094494], [-3.49310027827707, 50.74196751971048], [-3.4941609828122155, 50.74113441267637], [-3.494698867445129, 50.74196175412405]]]}}, {"type": "Feature", "properties": {"type": "postcode-cell", "postcode": "EX4 8QY", "postcodes": ["EX4 8QY"]}, "geometry": {"type": "Polygon", "coordinates": [[[-3.4944109477918937, 50.73070109497276], [-3.493559261681429, 50.730690313705296], [-3.493022348882591, 50.730447373339636], [-3.4936620637499707, 50.729027394771435], [-3.49507413372246, 50.72941470549684], [-3.4944109477918937, 50.73070109497276]]]}}, {"type": "Feature", "properties": {"type": "postcode-cell", "postcode": "EX4 8AW", "postcodes": ["EX4 8AW"]}, "geometry": {"type": "Polygon", "coordinates": [[[-3.4940414672629094, 50.732236537995426], [-3.493207334866803, 50.73278385000206], [-3.492810584161634, 50.73259741307526], [-3.492867309462545, 50.73240900068084], [-3.49329990283188, 50.73199889689256], [-3.4939592503100863, 50.73215163752684], [-3.4940414672629094, 50.732236537995426]]]}}, {"type": "Feature", "properties": {"type": "postcode-cell", "postcode": "EX4 9JY", "postcodes": ["EX4 9JY"]}, "geometry": {"type": "Polygon", "coordinates": [[[-3.4936328167591175, 50.74301695060131], [-3.4916081868651085, 50.74316523091008], [-3.492156882579477, 50.74235771535938], [-3.492577694874676, 50.74211115484964], [-3.49310027827707, 50.74196751971048], [-3.494696887614841, 50.74196226094494], [-3.4936328167591175, 50.74301695060131]]]}}, {"type": "Feature", "properties": {"type": "postcode-cell", "postcode": "EX4 8BR", "postcodes": ["EX4 8BR"]}, "geometry": {"type": "Polygon", "coordinates": [[[-3.4936694789391, 50.73402796349755], [-3.4929321262320867, 50.73449729706145], [-3.492104951674705, 50.73339139783683], [-3.4924845521956134, 50.7332674866877], [-3.4927236671620956, 50.73330735226877], [-3.4936408476349206, 50.73386617398042], [-3.4936694789391, 50.73402796349755]]]}}, {"type": "Feature", "properties": {"type": "postcode-cell", "postcode": "EX4 8BS", "postcodes": ["EX4 8BS"]}, "geometry": {"type": "Polygon", "coordinates": [[[-3.4936408476349206, 50.73386617398042], [-3.4927236671620956, 50.73330735226877], [-3.493462470507724, 50.73296233164091], [-3.4941493634124234, 50.733044184633314], [-3.4936408476349206, 50.73386617398042]]]}}, {"type": "Feature", "properties": {"type": "postcode-cell", "postcode": "EX1 3JP", "postcodes": ["EX1 3JP"]}, "geometry": {"type": "Polygon", "coordinates": [[[-3.493559261681429, 50.730690313705296], [-3.493042283411116, 50.73171470395381], [-3.49180631089229, 50.73171525740816], [-3.491529092634458, 50.731643874640355], [-3.4912948538819766, 50.73146750309333], [-3.492123509060565, 50.73072603776135], [-3.4926411221231715, 50.73042023218308], [-3.493022348882591, 50.730447373339636], [-3.493559261681429, 50.730690313705296]]]}}, {"type": "Feature", "properties": {"type": "postcode-cell", "postcode": "EX4 8BQ", "postcodes": ["EX4 8BQ"]}, "geometry": {"type": "Polygon", "coordinates": [[[-3.493462470507724, 50.73296233164091], [-3.4927236671620956, 50.73330735226877], [-3.4924845521956134, 50.7332674866877], [-3.4925298742511712, 50.73275691406541], [-3.492810584161634, 50.73259741307526], [-3.493207334866803, 50.73278385000206], [-3.493462470507724, 50.73296233164091]]]}}, {"type": "Feature", "properties": {"type": "postcode-cell", "postcode": "EX4 8ND", "postcodes": ["EX4 8ND"]}, "geometry": {"type": "Polygon", "coordinates": [[[-3.4936146536623385, 50.74067208225898], [-3.4926198352393962, 50.742004118512895], [-3.4927560760682397, 50.7406025839501], [-3.4936146536623385, 50.74067208225898]]]}}, {"type": "Feature", "properties": {"type": "postcode-cell", "postcode": "EX4 8NP", "postcodes": ["EX4 8NP"]}, "geometry": {"type": "Polygon", "coordinates": [[[-3.4902072328600564, 50.74093085862157], [-3.4900200973825846, 50.740938258144055], [-3.489876941268615, 50.740250894179496], [-3.491925245207651, 50.739979314143014], [-3.4902072328600564, 50.74093085862157]]]}}, {"type": "Feature", "properties": {"type": "postcode-cell", "postcode": "EX4 8BY", "postcodes": ["EX4 8BY"]}, "geometry": {"type": "Polygon", "coordinates": [[[-3.4920626141827475, 50.735412761455585], [-3.492049989718115, 50.73537999475347], [-3.4917384286036137, 50.73340072255925], [-3.492104951674705, 50.73339139783683], [-3.4929321262320867, 50.73449729706145], [-3.4920626141827475, 50.735412761455585]]]}}, {"type": "Feature", "properties": {"type": "postcode-cell", "postcode": "EX4 8AG", "postcodes": ["EX4 8AG"]}, "geometry": {"type": "Polygon", "coordinates": [[[-3.49329990283188, 50.73199889689256], [-3.492867309462545, 50.73240900068084], [-3.4920817674594455, 50.732263390107555], [-3.49180631089229, 50.73171525740816], [-3.493042283411116, 50.73171470395381], [-3.49329990283188, 50.73199889689256]]]}}, {"type": "Feature", "properties": {"type": "postcode-cell", "postcode": "EX1 3JS", "postcodes": ["EX1 3JS"]}, "geometry": {"type": "Polygon", "coordinates": [[[-3.493022348882591, 50.730447373339636], [-3.4926411221231715, 50.73042023218308], [-3.491890710586728, 50.72997585118508], [-3.4916657959241544, 50.72960166079829], [-3.4928412157789293, 50.72880223697489], [-3.4936620637499707, 50.729027394771435], [-3.493022348882591, 50.730447373339636]]]}}, {"type": "Feature", "properties": {"type": "postcode-cell", "postcode": "EX4 8AN", "postcodes": ["EX4 8AN"]}, "geometry": {"type": "Polygon", "coordinates": [[[-3.4925298742511712, 50.73275691406541], [-3.4919208278963407, 50.732646498651214], [-3.492029586167733, 50.73233512198804], [-3.4920817674594455, 50.732263390107555], [-3.492867309462545, 50.73240900068084], [-3.492810584161634, 50.73259741307526], [-3.4925298742511712, 50.73275691406541]]]}}, {"type": "Feature", "properties": {"type": "postcode-cell", "postcode": "EX1 3WU", "postcodes": ["EX1 3WU"]}, "geometry": {"type": "Polygon", "coordinates": [[[-3.4926411221231715, 50.73042023218308], [-3.492123509060565, 50.73072603776135], [-3.490812778538645, 50.73057652361594], [-3.49078201301583, 50.73036432294555], [-3.491890710586728, 50.72997585118508], [-3.4926411221231715, 50.73042023218308]]]}}, {"type": "Feature", "properties": {"type": "postcode-cell", "postcode": "EX4 8AQ", "postcodes": ["EX4 8AQ"]}, "geometry": {"type": "Polygon", "coordinates": [[[-3.492029586167733, 50.73233512198804], [-3.491571777040487, 50.73234195180819], [-3.4915399897193367, 50.73213999475095], [-3.4912786455282734, 50.73218018103261], [-3.491529092634458, 50.731643874640355], [-3.49180631089229, 50.73171525740816], [-3.4920817674594455, 50.732263390107555], [-3.492029586167733, 50.73233512198804]]]}}, {"type": "Feature", "properties": {"type": "postcode-cell", "postcode": "EX4 8BU", "postcodes": ["EX4 8BU"]}, "geometry": {"type": "Polygon", "coordinates": [[[-3.492104951674705, 50.73339139783683], [-3.4917384286036137, 50.73340072255925], [-3.4916303231369423, 50.732713912742824], [-3.4919208278963407, 50.732646498651214], [-3.4925298742511712, 50.73275691406541], [-3.4924845521956134, 50.7332674866877], [-3.492104951674705, 50.73339139783683]]]}}, {"type": "Feature", "properties": {"type": "postcode-cell", "postcode": "EX4 8AH", "postcodes": ["EX4 8AH"]}, "geometry": {"type": "Polygon", "coordinates": [[[-3.4919208278963407, 50.732646498651214], [-3.4916303231369423, 50.732713912742824], [-3.491571777040487, 50.73234195180819], [-3.492029586167733, 50.73233512198804], [-3.4919208278963407, 50.732646498651214]]]}}, {"type": "Feature", "properties": {"type": "postcode-cell", "postcode": "EX4 8GN", "postcodes": ["EX4 8GN"]}, "geometry": {"type": "Polygon", "coordinates": [[[-3.490125959903717, 50.73172370444592], [-3.491132925979, 50.73144681667778], [-3.4912948538819766, 50.73146750309333], [-3.491529092634458, 50.731643874640355], [-3.4912786455282734, 50.73218018103261], [-3.489923142827545, 50.73238860302005], [-3.490125959903717, 50.73172370444592]]]}}, {"type": "Feature", "properties": {"type": "postcode-cell", "postcode": "EX4 8NF", "postcodes": ["EX4 8NF"]}, "geometry": {"type": "Polygon", "coordinates": [[[-3.49228649420031, 50.740478701190476], [-3.491604045588386, 50.74106284018853], [-3.4902072328600564, 50.74093085862157], [-3.491925245207651, 50.739979314143014], [-3.4919521531735764, 50.73997574621625], [-3.49228649420031, 50.740478701190476]]]}}, {"type": "Feature", "properties": {"type": "postcode-cell", "postcode": "EX4 8EE", "postcodes": ["EX4 8EE"]}, "geometry": {"type": "Polygon", "coordinates": [[[-3.488075428159486, 50.73224756944133], [-3.4885684962627783, 50.73197291498116], [-3.4894120395821138, 50.732467185654585], [-3.488235289901697, 50.73264810260053], [-3.488075428159486, 50.73224756944133]]]}}, {"type": "Feature", "properties": {"type": "postcode-cell", "postcode": "EX1 3JR", "postcodes": ["EX1 3JR"]}, "geometry": {"type": "Polygon", "coordinates": [[[-3.49078201301583, 50.73036432294555], [-3.490346910430936, 50.730198066885485], [-3.491104532305171, 50.72943091881276], [-3.4916657959241544, 50.72960166079829], [-3.491890710586728, 50.72997585118508], [-3.49078201301583, 50.73036432294555]]]}}, {"type": "Feature", "properties": {"type": "postcode-cell", "postcode": "EX1 3JW", "postcodes": ["EX1 3JW"]}, "geometry": {"type": "Polygon", "coordinates": [[[-3.4912948538819766, 50.73146750309333], [-3.491132925979, 50.73144681667778], [-3.490656254606849, 50.730916768104564], [-3.490812778538645, 50.73057652361594], [-3.492123509060565, 50.73072603776135], [-3.4912948538819766, 50.73146750309333]]]}}, {"type": "Feature", "properties": {"type": "postcode-cell", "postcode": "EX1 3LW", "postcodes": ["EX1 3LW"]}, "geometry": {"type": "Polygon", "coordinates": [[[-3.491104532305171, 50.72943091881276], [-3.490346910430936, 50.730198066885485], [-3.490048737331179, 50.73018600718782], [-3.4899315356325, 50.72958110370505], [-3.4903020457126095, 50.729235516304854], [-3.490709865658858, 50.729202658411346], [-3.491104532305171, 50.72943091881276]]]}}, {"type": "Feature", "properties": {"type": "postcode-cell", "postcode": "EX1 3LN", "postcodes": ["EX1 3LN"]}, "geometry": {"type": "Polygon", "coordinates": [[[-3.490812778538645, 50.73057652361594], [-3.490656254606849, 50.730916768104564], [-3.489874311876199, 50.73080901405136], [-3.489631038326723, 50.730369538045025], [-3.490048737331179, 50.73018600718782], [-3.490346910430936, 50.730198066885485], [-3.49078201301583, 50.73036432294555], [-3.490812778538645, 50.73057652361594]]]}}, {"type": "Feature", "properties": {"type": "postcode-cell", "postcode": "EX4 8QA", "postcodes": ["EX4 8QA"]}, "geometry": {"type": "Polygon", "coordinates": [[[-3.4885896296208974, 50.74309312206283], [-3.487452698652695, 50.742844009490014], [-3.486705133433253, 50.74172638386829], [-3.4868093568415945, 50.740657545330045], [-3.487899363988991, 50.74051305968967], [-3.488902655949267, 50.7419345936643], [-3.4885896296208974, 50.74309312206283]]]}}, {"type": "Feature", "properties": {"type": "postcode-cell", "postcode": "EX1 3JN", "postcodes": ["EX1 3JN"]}, "geometry": {"type": "Polygon", "coordinates": [[[-3.491132925979, 50.73144681667778], [-3.490125959903717, 50.73172370444592], [-3.4896825670404903, 50.73153159506531], [-3.489527143278269, 50.731150212659536], [-3.489874311876199, 50.73080901405136], [-3.490656254606849, 50.730916768104564], [-3.491132925979, 50.73144681667778]]]}}, {"type": "Feature", "properties": {"type": "postcode-cell", "postcode": "EX4 8NR", "postcodes": ["EX4 8NR"]}, "geometry": {"type": "Polygon", "coordinates": [[[-3.4900200973825846, 50.740938258144055], [-3.488902655949267, 50.7419345936643], [-3.487899363988991, 50.74051305968967], [-3.489876941268615, 50.740250894179496], [-3.4900200973825846, 50.740938258144055]]]}}, {"type": "Feature", "properties": {"type": "postcode-cell", "postcode": "EX4 9HZ", "postcodes": ["EX4 9HZ"]}, "geometry": {"type": "Polygon", "coordinates": [[[-3.4885896296208974, 50.74309312206283], [-3.4899184197154134, 50.744163413320024], [-3.490352629592846, 50.74729788617313], [-3.484603092237655, 50.7477292978493], [-3.483999989707552, 50.746869994762655], [-3.4830299897069112, 50.7469199947627], [-3.482369989707089, 50.74566999476172], [-3.482899989707439, 50.74563999476169], [-3.483038851185214, 50.744320815838066], [-3.4834543944110825, 50.74411336745713], [-3.4842499897090264, 50.74409999476043], [-3.4842800914598775, 50.74370115142103], [-3.4860266180839155, 50.742829183071706], [-3.487452698652695, 50.742844009490014], [-3.4885896296208974, 50.74309312206283]]]}}, {"type": "Feature", "properties": {"type": "postcode-cell", "postcode": "EX1 3JL", "postcodes": ["EX1 3JL"]}, "geometry": {"type": "Polygon", "coordinates": [[[-3.4885684962627783, 50.73197291498116], [-3.488576150504483, 50.731732435550036], [-3.4896825670404903, 50.73153159506531], [-3.490125959903717, 50.73172370444592], [-3.489923142827545, 50.73238860302005], [-3.4894120395821138, 50.732467185654585], [-3.4885684962627783, 50.73197291498116]]]}}, {"type": "Feature", "properties": {"type": "postcode-cell", "postcode": "EX1 3LP", "postcodes": ["EX1 3LP"]}, "geometry": {"type": "Polygon", "coordinates": [[[-3.4890693078152046, 50.7302995708088], [-3.4888673203681644, 50.73012763526082], [-3.4889353914979897, 50.729830422017365], [-3.4890777939906816, 50.72970063475311], [-3.4899315356325, 50.72958110370505], [-3.490048737331179, 50.73018600718782], [-3.489631038326723, 50.730369538045025], [-3.4890693078152046, 50.7302995708088]]]}}, {"type": "Feature", "properties": {"type": "postcode-cell", "postcode": "EX1 3JJ", "postcodes": ["EX1 3JJ"]}, "geometry": {"type": "Polygon", "coordinates": [[[-3.489631038326723, 50.730369538045025], [-3.489874311876199, 50.73080901405136], [-3.489527143278269, 50.731150212659536], [-3.488573015430762, 50.73093466607311], [-3.4890693078152046, 50.7302995708088], [-3.489631038326723, 50.730369538045025]]]}}, {"type": "Feature", "properties": {"type": "postcode-cell", "postcode": "EX1 3PY", "postcodes": ["EX1 3PY"]}, "geometry": {"type": "Polygon", "coordinates": [[[-3.4838680703941005, 50.72669777526102], [-3.4836185369979056, 50.72672461477492], [-3.4830020032673232, 50.72610363146097], [-3.484484264473026, 50.726510171247845], [-3.4838680703941005, 50.72669777526102]]]}}, {"type": "Feature", "properties": {"type": "postcode-cell", "postcode": "EX1 3JU", "postcodes": ["EX1 3JU"]}, "geometry": {"type": "Polygon", "coordinates": [[[-3.4903020457126095, 50.729235516304854], [-3.4893662794447455, 50.728854009697955], [-3.4893448591215512, 50.728563855774816], [-3.4899932262222424, 50.72802097428802], [-3.4911359974278104, 50.72833447171521], [-3.490709865658858, 50.729202658411346], [-3.4903020457126095, 50.729235516304854]]]}}, {"type": "Feature", "properties": {"type": "postcode-cell", "postcode": "EX1 3NZ", "postcodes": ["EX1 3NZ"]}, "geometry": {"type": "Polygon", "coordinates": [[[-3.4899315356325, 50.72958110370505], [-3.4890777939906816, 50.72970063475311], [-3.488930586318635, 50.72906945032835], [-3.4893662794447455, 50.728854009697955], [-3.4903020457126095, 50.729235516304854], [-3.4899315356325, 50.72958110370505]]]}}, {"type": "Feature", "properties": {"type": "postcode-cell", "postcode": "EX1 3LS", "postcodes": ["EX1 3LS"]}, "geometry": {"type": "Polygon", "coordinates": [[[-3.4888673203681644, 50.73012763526082], [-3.487762173010601, 50.73013320786327], [-3.4876331161007035, 50.72986391361284], [-3.4882989313092683, 50.729548484178586], [-3.4889353914979897, 50.729830422017365], [-3.4888673203681644, 50.73012763526082]]]}}, {"type": "Feature", "properties": {"type": "postcode-cell", "postcode": "EX1 3BQ", "postcodes": ["EX1 3BQ"]}, "geometry": {"type": "Polygon", "coordinates": [[[-3.489527143278269, 50.731150212659536], [-3.4896825670404903, 50.73153159506531], [-3.488576150504483, 50.731732435550036], [-3.4880795406613636, 50.73134932006024], [-3.4883356936870755, 50.731013814288445], [-3.488573015430762, 50.73093466607311], [-3.489527143278269, 50.731150212659536]]]}}, {"type": "Feature", "properties": {"type": "postcode-cell", "postcode": "EX4 8EQ", "postcodes": ["EX4 8EQ"]}, "geometry": {"type": "Polygon", "coordinates": [[[-3.4864897618826793, 50.732419160366966], [-3.487232097123463, 50.732185429824874], [-3.4872608376769585, 50.73219921044633], [-3.48744166447589, 50.732770109426504], [-3.4866449749920982, 50.73289258124547], [-3.4864897618826793, 50.732419160366966]]]}}, {"type": "Feature", "properties": {"type": "postcode-cell", "postcode": "EX1 3PA", "postcodes": ["EX1 3PA"]}, "geometry": {"type": "Polygon", "coordinates": [[[-3.4889353914979897, 50.729830422017365], [-3.4882989313092683, 50.729548484178586], [-3.4882765209548507, 50.72919534196011], [-3.4885351838515866, 50.729086163286766], [-3.488930586318635, 50.72906945032835], [-3.4890777939906816, 50.72970063475311], [-3.4889353914979897, 50.729830422017365]]]}}, {"type": "Feature", "properties": {"type": "postcode-cell", "postcode": "EX1 3NT", "postcodes": ["EX1 3NT"]}, "geometry": {"type": "Polygon", "coordinates": [[[-3.486394733416209, 50.727393317750554], [-3.4851021770925024, 50.72776989637138], [-3.484884108600674, 50.72776649712743], [-3.4844740660661575, 50.727363745874065], [-3.4847274070623446, 50.72657685548049], [-3.4866229009759544, 50.727096689196614], [-3.486394733416209, 50.727393317750554]]]}}, {"type": "Feature", "properties": {"type": "postcode-cell", "postcode": "EX1 3NY", "postcodes": ["EX1 3NY"]}, "geometry": {"type": "Polygon", "coordinates": [[[-3.4893662794447455, 50.728854009697955], [-3.488930586318635, 50.72906945032835], [-3.4885351838515866, 50.729086163286766], [-3.4882169146726025, 50.728718758229746], [-3.4889140143936404, 50.72843617630281], [-3.4893448591215512, 50.728563855774816], [-3.4893662794447455, 50.728854009697955]]]}}, {"type": "Feature", "properties": {"type": "postcode-cell", "postcode": "EX1 3JH", "postcodes": ["EX1 3JH"]}, "geometry": {"type": "Polygon", "coordinates": [[[-3.4885684962627783, 50.73197291498116], [-3.488075428159486, 50.73224756944133], [-3.4872608376769585, 50.73219921044633], [-3.487232097123463, 50.732185429824874], [-3.4870930250853, 50.73147552861084], [-3.4880795406613636, 50.73134932006024], [-3.488576150504483, 50.731732435550036], [-3.4885684962627783, 50.73197291498116]]]}}, {"type": "Feature", "properties": {"type": "postcode-cell", "postcode": "EX1 3LR", "postcodes": ["EX1 3LR"]}, "geometry": {"type": "Polygon", "coordinates": [[[-3.488573015430762, 50.73093466607311], [-3.4883356936870755, 50.731013814288445], [-3.487540951085856, 50.730380975327854], [-3.487762173010601, 50.73013320786327], [-3.4888673203681644, 50.73012763526082], [-3.4890693078152046, 50.7302995708088], [-3.488573015430762, 50.73093466607311]]]}}, {"type": "Feature", "properties": {"type": "postcode-cell", "postcode": "EX4 9JA", "postcodes": ["EX4 9JA"]}, "geometry": {"type": "Polygon", "coordinates": [[[-3.490352629592846, 50.74729788617313], [-3.4938384502199056, 50.748728178112046], [-3.492756831814724, 50.75397165839657], [-3.489689989708263, 50.752939994767324], [-3.488219989707712, 50.752139994766736], [-3.48584998970684, 50.750819994765706], [-3.4867699897078377, 50.74994999476502], [-3.486709989708241, 50.74901999476429], [-3.4851299897074974, 50.74847999476389], [-3.484603092237655, 50.7477292978493], [-3.490352629592846, 50.74729788617313]]]}}, {"type": "Feature", "properties": {"type": "postcode-cell", "postcode": "EX1 3JE", "postcodes": ["EX1 3JE"]}, "geometry": {"type": "Polygon", "coordinates": [[[-3.4856120138041193, 50.732605822428546], [-3.4856418117261985, 50.73256860232955], [-3.486347931568322, 50.73239219471462], [-3.4864897618826793, 50.732419160366966], [-3.4866449749920982, 50.73289258124547], [-3.4857107729704593, 50.73303618457677], [-3.4856120138041193, 50.732605822428546]]]}}, {"type": "Feature", "properties": {"type": "postcode-cell", "postcode": "EX4 8ET", "postcodes": ["EX4 8ET"]}, "geometry": {"type": "Polygon", "coordinates": [[[-3.4872608376769585, 50.73219921044633], [-3.488075428159486, 50.73224756944133], [-3.488235289901697, 50.73264810260053], [-3.48744166447589, 50.732770109426504], [-3.4872608376769585, 50.73219921044633]]]}}, {"type": "Feature", "properties": {"type": "postcode-cell", "postcode": "EX1 3NL", "postcodes": ["EX1 3NL"]}, "geometry": {"type": "Polygon", "coordinates": [[[-3.4882765209548507, 50.72919534196011], [-3.487667376003139, 50.72917458773292], [-3.4874971414014238, 50.72908762632708], [-3.487347339184516, 50.72860700524314], [-3.487623061749959, 50.72846154659967], [-3.4882169146726025, 50.728718758229746], [-3.4885351838515866, 50.729086163286766], [-3.4882765209548507, 50.72919534196011]]]}}, {"type": "Feature", "properties": {"type": "postcode-cell", "postcode": "EX1 3NX", "postcodes": ["EX1 3NX"]}, "geometry": {"type": "Polygon", "coordinates": [[[-3.4881617109519323, 50.7280251078112], [-3.4876982926199385, 50.72835886951212], [-3.48643519267981, 50.72758498877245], [-3.486394733416209, 50.727393317750554], [-3.4866229009759544, 50.727096689196614], [-3.488261860905656, 50.727546134880576], [-3.4881617109519323, 50.7280251078112]]]}}, {"type": "Feature", "properties": {"type": "postcode-cell", "postcode": "EX1 3NJ", "postcodes": ["EX1 3NJ"]}, "geometry": {"type": "Polygon", "coordinates": [[[-3.4882169146726025, 50.728718758229746], [-3.487623061749959, 50.72846154659967], [-3.4876982926199385, 50.72835886951212], [-3.4881617109519323, 50.7280251078112], [-3.4889140143936404, 50.72843617630281], [-3.4882169146726025, 50.728718758229746]]]}}, {"type": "Feature", "properties": {"type": "postcode-cell", "postcode": "EX1 3LT", "postcodes": ["EX1 3LT"]}, "geometry": {"type": "Polygon", "coordinates": [[[-3.4876331161007035, 50.72986391361284], [-3.487580280250243, 50.72982561092722], [-3.487667376003139, 50.72917458773292], [-3.4882765209548507, 50.72919534196011], [-3.4882989313092683, 50.729548484178586], [-3.4876331161007035, 50.72986391361284]]]}}, {"type": "Feature", "properties": {"type": "postcode-cell", "postcode": "EX1 3JQ", "postcodes": ["EX1 3JQ"]}, "geometry": {"type": "Polygon", "coordinates": [[[-3.4880795406613636, 50.73134932006024], [-3.4870930250853, 50.73147552861084], [-3.487062606142136, 50.731464558902815], [-3.486786438649773, 50.73125907307886], [-3.487004020418275, 50.73051650035743], [-3.487540951085856, 50.730380975327854], [-3.4883356936870755, 50.731013814288445], [-3.4880795406613636, 50.73134932006024]]]}}, {"type": "Feature", "properties": {"type": "postcode-cell", "postcode": "EX1 3LU", "postcodes": ["EX1 3LU"]}, "geometry": {"type": "Polygon", "coordinates": [[[-3.487762173010601, 50.73013320786327], [-3.487540951085856, 50.730380975327854], [-3.487004020418275, 50.73051650035743], [-3.486037726193485, 50.73013327948253], [-3.4869772604600526, 50.729700745406795], [-3.487580280250243, 50.72982561092722], [-3.4876331161007035, 50.72986391361284], [-3.487762173010601, 50.73013320786327]]]}}, {"type": "Feature", "properties": {"type": "postcode-cell", "postcode": "EX1 3NH", "postcodes": ["EX1 3NH"]}, "geometry": {"type": "Polygon", "coordinates": [[[-3.487580280250243, 50.72982561092722], [-3.4869772604600526, 50.729700745406795], [-3.4868227217837124, 50.72933958479101], [-3.4874971414014238, 50.72908762632708], [-3.487667376003139, 50.72917458773292], [-3.487580280250243, 50.72982561092722]]]}}, {"type": "Feature", "properties": {"type": "postcode-cell", "postcode": "EX1 3JG", "postcodes": ["EX1 3JG"]}, "geometry": {"type": "Polygon", "coordinates": [[[-3.487232097123463, 50.732185429824874], [-3.4864897618826793, 50.732419160366966], [-3.486347931568322, 50.73239219471462], [-3.486100690137647, 50.732011003468095], [-3.486102144338471, 50.73194213743336], [-3.487062606142136, 50.731464558902815], [-3.4870930250853, 50.73147552861084], [-3.487232097123463, 50.732185429824874]]]}}, {"type": "Feature", "properties": {"type": "postcode-cell", "postcode": "EX1 3NN", "postcodes": ["EX1 3NN"]}, "geometry": {"type": "Polygon", "coordinates": [[[-3.487623061749959, 50.72846154659967], [-3.487347339184516, 50.72860700524314], [-3.486336188256859, 50.72854149734172], [-3.48643519267981, 50.72758498877245], [-3.4876982926199385, 50.72835886951212], [-3.487623061749959, 50.72846154659967]]]}}, {"type": "Feature", "properties": {"type": "postcode-cell", "postcode": "EX1 3NU", "postcodes": ["EX1 3NU"]}, "geometry": {"type": "Polygon", "coordinates": [[[-3.48643519267981, 50.72758498877245], [-3.486336188256859, 50.72854149734172], [-3.4858524765415, 50.72878600909922], [-3.4851021770925024, 50.72776989637138], [-3.486394733416209, 50.727393317750554], [-3.48643519267981, 50.72758498877245]]]}}, {"type": "Feature", "properties": {"type": "postcode-cell", "postcode": "EX1 3NW", "postcodes": ["EX1 3NW"]}, "geometry": {"type": "Polygon", "coordinates": [[[-3.4874971414014238, 50.72908762632708], [-3.4868227217837124, 50.72933958479101], [-3.485758039775227, 50.729040192366384], [-3.485703081709531, 50.728931169967666], [-3.4858524765415, 50.72878600909922], [-3.486336188256859, 50.72854149734172], [-3.487347339184516, 50.72860700524314], [-3.4874971414014238, 50.72908762632708]]]}}, {"type": "Feature", "properties": {"type": "postcode-cell", "postcode": "EX1 3NQ", "postcodes": ["EX1 3NQ"]}, "geometry": {"type": "Polygon", "coordinates": [[[-3.486037726193485, 50.73013327948253], [-3.485540590175795, 50.73009759775899], [-3.485758039775227, 50.729040192366384], [-3.4868227217837124, 50.72933958479101], [-3.4869772604600526, 50.729700745406795], [-3.486037726193485, 50.73013327948253]]]}}, {"type": "Feature", "properties": {"type": "postcode-cell", "postcode": "EX4 8QQ", "postcodes": ["EX4 8QQ"]}, "geometry": {"type": "Polygon", "coordinates": [[[-3.4858688750185207, 50.74093860873965], [-3.4857399897117465, 50.7403699947575], [-3.4860599897120297, 50.74019999475736], [-3.4866047700670135, 50.740650847832384], [-3.4858688750185207, 50.74093860873965]]]}}, {"type": "Feature", "properties": {"type": "postcode-cell", "postcode": "EX1 3JX", "postcodes": ["EX1 3JX"]}, "geometry": {"type": "Polygon", "coordinates": [[[-3.486102144338471, 50.73194213743336], [-3.486100690137647, 50.732011003468095], [-3.4853930491074028, 50.732215249132594], [-3.4853064897334947, 50.73216250917768], [-3.4853064897377624, 50.731817599877175], [-3.485585365948291, 50.731710587528205], [-3.486102144338471, 50.73194213743336]]]}}, {"type": "Feature", "properties": {"type": "postcode-cell", "postcode": "EX1 3LY", "postcodes": ["EX1 3LY"]}, "geometry": {"type": "Polygon", "coordinates": [[[-3.485585365948291, 50.731710587528205], [-3.4857835185108543, 50.7312770888072], [-3.4860021244228814, 50.73118295616762], [-3.486786438649773, 50.73125907307886], [-3.487062606142136, 50.731464558902815], [-3.486102144338471, 50.73194213743336], [-3.485585365948291, 50.731710587528205]]]}}, {"type": "Feature", "properties": {"type": "postcode-cell", "postcode": "EX1 3LX", "postcodes": ["EX1 3LX"]}, "geometry": {"type": "Polygon", "coordinates": [[[-3.486786438649773, 50.73125907307886], [-3.4860021244228814, 50.73118295616762], [-3.4854685464874704, 50.730254412776134], [-3.4855097895096137, 50.7301119457052], [-3.485540590175795, 50.73009759775899], [-3.486037726193485, 50.73013327948253], [-3.487004020418275, 50.73051650035743], [-3.486786438649773, 50.73125907307886]]]}}, {"type": "Feature", "properties": {"type": "postcode-cell", "postcode": "EX1 3NG", "postcodes": ["EX1 3NG"]}, "geometry": {"type": "Polygon", "coordinates": [[[-3.4855097895096137, 50.7301119457052], [-3.484596797272047, 50.72997670721125], [-3.4841510633614123, 50.72894642248951], [-3.484483463410447, 50.72881640534556], [-3.485703081709531, 50.728931169967666], [-3.485758039775227, 50.729040192366384], [-3.485540590175795, 50.73009759775899], [-3.4855097895096137, 50.7301119457052]]]}}, {"type": "Feature", "properties": {"type": "postcode-cell", "postcode": "EX4 8QW", "postcodes": ["EX4 8QW"]}, "geometry": {"type": "Polygon", "coordinates": [[[-3.486705133433253, 50.74172638386829], [-3.4858515149871327, 50.74116509847738], [-3.485909989711497, 50.741119994758094], [-3.4858688750185207, 50.74093860873965], [-3.4866047700670135, 50.740650847832384], [-3.486639989712168, 50.74067999475772], [-3.4868093568415945, 50.740657545330045], [-3.486705133433253, 50.74172638386829]]]}}, {"type": "Feature", "properties": {"type": "postcode-cell", "postcode": "EX1 3JF", "postcodes": ["EX1 3JF"]}, "geometry": {"type": "Polygon", "coordinates": [[[-3.486347931568322, 50.73239219471462], [-3.4856418117261985, 50.73256860232955], [-3.4853930491074028, 50.732215249132594], [-3.486100690137647, 50.732011003468095], [-3.486347931568322, 50.73239219471462]]]}}, {"type": "Feature", "properties": {"type": "postcode-cell", "postcode": "EX4 8QN", "postcodes": ["EX4 8QN"]}, "geometry": {"type": "Polygon", "coordinates": [[[-3.486705133433253, 50.74172638386829], [-3.487452698652695, 50.742844009490014], [-3.4860266180839155, 50.742829183071706], [-3.484619669157441, 50.74211523999619], [-3.4858515149871327, 50.74116509847738], [-3.486705133433253, 50.74172638386829]]]}}, {"type": "Feature", "properties": {"type": "postcode-cell", "postcode": "EX1 3NP", "postcodes": ["EX1 3NP"]}, "geometry": {"type": "Polygon", "coordinates": [[[-3.4858524765415, 50.72878600909922], [-3.485703081709531, 50.728931169967666], [-3.484483463410447, 50.72881640534556], [-3.4843922976619637, 50.72812119362475], [-3.484884108600674, 50.72776649712743], [-3.4851021770925024, 50.72776989637138], [-3.4858524765415, 50.72878600909922]]]}}, {"type": "Feature", "properties": {"type": "postcode-cell", "postcode": "EX1 3JD", "postcodes": ["EX1 3JD"]}, "geometry": {"type": "Polygon", "coordinates": [[[-3.4856120138041193, 50.732605822428546], [-3.484566443930932, 50.73265942099647], [-3.4844959787815974, 50.73253377511238], [-3.4846038696048267, 50.73228389966053], [-3.4853064897334947, 50.73216250917768], [-3.4853930491074028, 50.732215249132594], [-3.4856418117261985, 50.73256860232955], [-3.4856120138041193, 50.732605822428546]]]}}, {"type": "Feature", "properties": {"type": "postcode-cell", "postcode": "EX1 3NF", "postcodes": ["EX1 3NF"]}, "geometry": {"type": "Polygon", "coordinates": [[[-3.4857835185108543, 50.7312770888072], [-3.4847449796288217, 50.731193423436984], [-3.4847403987800325, 50.73084037605691], [-3.4854685464874704, 50.730254412776134], [-3.4860021244228814, 50.73118295616762], [-3.4857835185108543, 50.7312770888072]]]}}, {"type": "Feature", "properties": {"type": "postcode-cell", "postcode": "EX1 3ND", "postcodes": ["EX1 3ND"]}, "geometry": {"type": "Polygon", "coordinates": [[[-3.4853064897377624, 50.731817599877175], [-3.484242900206772, 50.731579310574084], [-3.4847449796288217, 50.731193423436984], [-3.4857835185108543, 50.7312770888072], [-3.485585365948291, 50.731710587528205], [-3.4853064897377624, 50.731817599877175]]]}}, {"type": "Feature", "properties": {"type": "postcode-cell", "postcode": "EX1 3NB", "postcodes": ["EX1 3NB"]}, "geometry": {"type": "Polygon", "coordinates": [[[-3.4857107729704593, 50.73303618457677], [-3.4846800192196232, 50.73319461993225], [-3.484488350025841, 50.732884510978266], [-3.484566443930932, 50.73265942099647], [-3.4856120138041193, 50.732605822428546], [-3.4857107729704593, 50.73303618457677]]]}}, {"type": "Feature", "properties": {"type": "postcode-cell", "postcode": "EX1 3NA", "postcodes": ["EX1 3NA"]}, "geometry": {"type": "Polygon", "coordinates": [[[-3.4844959787815974, 50.73253377511238], [-3.483535378084925, 50.732385298543065], [-3.483301542180838, 50.73192378598289], [-3.4835310315816783, 50.731584104951324], [-3.4841658430746256, 50.73160163673637], [-3.4846038696048267, 50.73228389966053], [-3.4844959787815974, 50.73253377511238]]]}}, {"type": "Feature", "properties": {"type": "postcode-cell", "postcode": "EX1 3LZ", "postcodes": ["EX1 3LZ"]}, "geometry": {"type": "Polygon", "coordinates": [[[-3.4853064897334947, 50.73216250917768], [-3.4846038696048267, 50.73228389966053], [-3.4841658430746256, 50.73160163673637], [-3.484242900206772, 50.731579310574084], [-3.4853064897377624, 50.731817599877175], [-3.4853064897334947, 50.73216250917768]]]}}, {"type": "Feature", "properties": {"type": "postcode-cell", "postcode": "EX4 8EJ", "postcodes": ["EX4 8EJ"]}, "geometry": {"type": "Polygon", "coordinates": [[[-3.483044050800233, 50.733055409503116], [-3.483225205680591, 50.73294660738949], [-3.484488350025841, 50.732884510978266], [-3.4846800192196232, 50.73319461993225], [-3.484579989714425, 50.73320999475189], [-3.4833194065361126, 50.73354313684815], [-3.483044050800233, 50.733055409503116]]]}}, {"type": "Feature", "properties": {"type": "postcode-cell", "postcode": "EX1 3RB", "postcodes": ["EX1 3RB"]}, "geometry": {"type": "Polygon", "coordinates": [[[-3.4847449796288217, 50.731193423436984], [-3.484242900206772, 50.731579310574084], [-3.4841658430746256, 50.73160163673637], [-3.4835310315816783, 50.731584104951324], [-3.4831024414697946, 50.73121104935335], [-3.483649550200637, 50.73059302663162], [-3.4847403987800325, 50.73084037605691], [-3.4847449796288217, 50.731193423436984]]]}}, {"type": "Feature", "properties": {"type": "postcode-cell", "postcode": "EX4 8RP", "postcodes": ["EX4 8RP"]}, "geometry": {"type": "MultiPolygon", "coordinates": [[[[-3.4860266180839155, 50.742829183071706], [-3.4842800914598775, 50.74370115142103], [-3.4843299897095816, 50.74303999475961], [-3.483679989709266, 50.74283999475947], [-3.484619669157441, 50.74211523999619], [-3.4860266180839155, 50.742829183071706]]], [[[-3.483038851185214, 50.744320815838066], [-3.4830599897082646, 50.74411999476048], [-3.4834543944110825, 50.74411336745713], [-3.483038851185214, 50.744320815838066]]]]}}, {"type": "Feature", "properties": {"type": "postcode-cell", "postcode": "EX1 3QQ", "postcodes": ["EX1 3QQ"]}, "geometry": {"type": "Polygon", "coordinates": [[[-3.484566443930932, 50.73265942099647], [-3.484488350025841, 50.732884510978266], [-3.483225205680591, 50.73294660738949], [-3.483535378084925, 50.732385298543065], [-3.4844959787815974, 50.73253377511238], [-3.484566443930932, 50.73265942099647]]]}}, {"type": "Feature", "properties": {"type": "postcode-cell", "postcode": "EX1 3NE", "postcodes": ["EX1 3NE"]}, "geometry": {"type": "Polygon", "coordinates": [[[-3.4854685464874704, 50.730254412776134], [-3.4847403987800325, 50.73084037605691], [-3.483649550200637, 50.73059302663162], [-3.48365395328272, 50.73020156066788], [-3.4836927470075696, 50.7301506872701], [-3.484596797272047, 50.72997670721125], [-3.4855097895096137, 50.7301119457052], [-3.4854685464874704, 50.730254412776134]]]}}, {"type": "Feature", "properties": {"type": "postcode-cell", "postcode": "EX1 3PU", "postcodes": ["EX1 3PU"]}, "geometry": {"type": "Polygon", "coordinates": [[[-3.4841510633614123, 50.72894642248951], [-3.4827338974321873, 50.72905537709689], [-3.482620040686061, 50.72902915546646], [-3.4830099897157134, 50.72841999474814], [-3.482950710433673, 50.72783216679374], [-3.4843922976619637, 50.72812119362475], [-3.484483463410447, 50.72881640534556], [-3.4841510633614123, 50.72894642248951]]]}}, {"type": "Feature", "properties": {"type": "postcode-cell", "postcode": "EX1 3NS", "postcodes": ["EX1 3NS"]}, "geometry": {"type": "Polygon", "coordinates": [[[-3.4843922976619637, 50.72812119362475], [-3.482950710433673, 50.72783216679374], [-3.48293351521961, 50.72766165175804], [-3.4836560547772604, 50.727437351852465], [-3.4844740660661575, 50.727363745874065], [-3.484884108600674, 50.72776649712743], [-3.4843922976619637, 50.72812119362475]]]}}, {"type": "Feature", "properties": {"type": "postcode-cell", "postcode": "EX1 3PT", "postcodes": ["EX1 3PT"]}, "geometry": {"type": "Polygon", "coordinates": [[[-3.484596797272047, 50.72997670721125], [-3.4836927470075696, 50.7301506872701], [-3.4827338974321873, 50.72905537709689], [-3.4841510633614123, 50.72894642248951], [-3.484596797272047, 50.72997670721125]]]}}, {"type": "Feature", "properties": {"type": "postcode-cell", "postcode": "EX1 3PN", "postcodes": ["EX1 3PN"]}, "geometry": {"type": "Polygon", "coordinates": [[[-3.483649550200637, 50.73059302663162], [-3.4831024414697946, 50.73121104935335], [-3.48146885414226, 50.730968806693305], [-3.4814799897136073, 50.73080999475003], [-3.481785629633838, 50.730332577979134], [-3.48365395328272, 50.73020156066788], [-3.483649550200637, 50.73059302663162]]]}}, {"type": "Feature", "properties": {"type": "postcode-cell", "postcode": "EX1 3NR", "postcodes": ["EX1 3NR"]}, "geometry": {"type": "Polygon", "coordinates": [[[-3.484484264473026, 50.726510171247845], [-3.4847274070623446, 50.72657685548049], [-3.4844740660661575, 50.727363745874065], [-3.4836560547772604, 50.727437351852465], [-3.4838680703941005, 50.72669777526102], [-3.484484264473026, 50.726510171247845]]]}}, {"type": "Feature", "properties": {"type": "postcode-cell", "postcode": "EX1 3PQ", "postcodes": ["EX1 3PQ"]}, "geometry": {"type": "Polygon", "coordinates": [[[-3.483301542180838, 50.73192378598289], [-3.4825313685133956, 50.7321706031105], [-3.481414919376451, 50.73173799402642], [-3.48146885414226, 50.730968806693305], [-3.4831024414697946, 50.73121104935335], [-3.4835310315816783, 50.731584104951324], [-3.483301542180838, 50.73192378598289]]]}}, {"type": "Feature", "properties": {"type": "postcode-cell", "postcode": "EX4 8EL", "postcodes": ["EX4 8EL"]}, "geometry": {"type": "Polygon", "coordinates": [[[-3.483535378084925, 50.732385298543065], [-3.483225205680591, 50.73294660738949], [-3.483044050800233, 50.733055409503116], [-3.4828119127541246, 50.73300702979888], [-3.4823336304361043, 50.73261231339574], [-3.4825313685133956, 50.7321706031105], [-3.483301542180838, 50.73192378598289], [-3.483535378084925, 50.732385298543065]]]}}, {"type": "Feature", "properties": {"type": "postcode-cell", "postcode": "EX1 3PS", "postcodes": ["EX1 3PS"]}, "geometry": {"type": "Polygon", "coordinates": [[[-3.48365395328272, 50.73020156066788], [-3.481785629633838, 50.730332577979134], [-3.482620040686061, 50.72902915546646], [-3.4827338974321873, 50.72905537709689], [-3.4836927470075696, 50.7301506872701], [-3.48365395328272, 50.73020156066788]]]}}, {"type": "Feature", "properties": {"type": "postcode-cell", "postcode": "EX1 3PX", "postcodes": ["EX1 3PX"]}, "geometry": {"type": "Polygon", "coordinates": [[[-3.4836185369979056, 50.72672461477492], [-3.4838680703941005, 50.72669777526102], [-3.4836560547772604, 50.727437351852465], [-3.48293351521961, 50.72766165175804], [-3.4828552190057156, 50.726885215895344], [-3.4836185369979056, 50.72672461477492]]]}}, {"type": "Feature", "properties": {"type": "postcode-cell", "postcode": "EX1 3PR", "postcodes": ["EX1 3PR"]}, "geometry": {"type": "Polygon", "coordinates": [[[-3.4836185369979056, 50.72672461477492], [-3.4828552190057156, 50.726885215895344], [-3.4827699897166964, 50.726039994746266], [-3.4830020032673232, 50.72610363146097], [-3.4836185369979056, 50.72672461477492]]]}}, {"type": "Feature", "properties": {"type": "postcode-cell", "postcode": "EX4 8EN", "postcodes": ["EX4 8EN"]}, "geometry": {"type": "Polygon", "coordinates": [[[-3.4828119127541246, 50.73300702979888], [-3.483044050800233, 50.733055409503116], [-3.4833194065361126, 50.73354313684815], [-3.4812499897118987, 50.73408999475264], [-3.4812886244104155, 50.7335390577036], [-3.4828119127541246, 50.73300702979888]]]}}, {"type": "Feature", "properties": {"type": "postcode-cell", "postcode": "EX1 3PG", "postcodes": ["EX1 3PG"]}, "geometry": {"type": "Polygon", "coordinates": [[[-3.4825313685133956, 50.7321706031105], [-3.4823336304361043, 50.73261231339574], [-3.4813527080865767, 50.732625189772904], [-3.481414919376451, 50.73173799402642], [-3.4825313685133956, 50.7321706031105]]]}}, {"type": "Feature", "properties": {"type": "postcode-cell", "postcode": "EX1 3PF", "postcodes": ["EX1 3PF"]}, "geometry": {"type": "Polygon", "coordinates": [[[-3.4823336304361043, 50.73261231339574], [-3.4828119127541246, 50.73300702979888], [-3.4812886244104155, 50.7335390577036], [-3.4813527080865767, 50.732625189772904], [-3.4823336304361043, 50.73261231339574]]]}}]}