{"type": "FeatureCollection", "features": [{"type": "Feature", "properties": {"type": "ward-outline", "name": "Mortehoe"}, "geometry": {"type": "Polygon", "coordinates": [[[-4.19311, 51.19891], [-4.19498, 51.1979], [-4.19612, 51.19579], [-4.19448, 51.19275], [-4.19521, 51.19126], [-4.19646, 51.19046], [-4.19765, 51.18872], [-4.19774, 51.18781], [-4.1936, 51.18682], [-4.19284, 51.18417], [-4.18837, 51.18306], [-4.18462, 51.18027], [-4.1809, 51.17899], [-4.17943, 51.1792], [-4.1788, 51.17966], [-4.17787, 51.18169], [-4.17461, 51.18295], [-4.17239, 51.18294], [-4.17169, 51.18369], [-4.17191, 51.18518], [-4.17313, 51.18658], [-4.17399, 51.18936], [-4.17409, 51.19078], [-4.17361, 51.19218], [-4.17393, 51.19277], [-4.1731, 51.19533], [-4.17219, 51.19578], [-4.17096, 51.19549], [-4.16923, 51.19581], [-4.16558, 51.19459], [-4.1646, 51.19462], [-4.16177, 51.19312], [-4.16076, 51.19218], [-4.15946, 51.18953], [-4.15893, 51.18924], [-4.15979, 51.18773], [-4.15876, 51.18388], [-4.16086, 51.18239], [-4.15872, 51.18113], [-4.15797, 51.1789], [-4.15815, 51.17812], [-4.15948, 51.17773], [-4.15944, 51.176], [-4.14792, 51.17686], [-4.13932, 51.17819], [-4.13325, 51.17952], [-4.12767, 51.17929], [-4.1217, 51.1795], [-4.11605, 51.17874], [-4.11081, 51.17727], [-4.10675, 51.17722], [-4.09933, 51.17579], [-4.09796, 51.17251], [-4.094, 51.16787], [-4.09016, 51.16183], [-4.08848, 51.16045], [-4.08668, 51.15953], [-4.08444, 51.15606], [-4.08382, 51.15405], [-4.08609, 51.15396], [-4.08959, 51.15457], [-4.09062, 51.1543], [-4.09219, 51.15461], [-4.09665, 51.15487], [-4.10068, 51.15449], [-4.10771, 51.15529], [-4.10967, 51.15408], [-4.10979, 51.15303], [-4.11094, 51.15099], [-4.11401, 51.14931], [-4.11382, 51.14809], [-4.11445, 51.1471], [-4.11616, 51.14657], [-4.11776, 51.14654], [-4.11796, 51.14629], [-4.11892, 51.14638], [-4.12004, 51.14602], [-4.12041, 51.1462], [-4.12201, 51.1458], [-4.1273, 51.14195], [-4.12886, 51.14171], [-4.13001, 51.14068], [-4.13088, 51.14054], [-4.13283, 51.13951], [-4.13404, 51.13924], [-4.13496, 51.13944], [-4.13618, 51.13897], [-4.13929, 51.1389], [-4.14502, 51.13973], [-4.14674, 51.14039], [-4.1499, 51.13981], [-4.15072, 51.14001], [-4.15219, 51.13912], [-4.15301, 51.14215], [-4.15194, 51.14225], [-4.14725, 51.14436], [-4.14636, 51.1461], [-4.14637, 51.14724], [-4.14808, 51.14738], [-4.1493, 51.148], [-4.15023, 51.1489], [-4.1505, 51.1499], [-4.15328, 51.14927], [-4.15582, 51.15208], [-4.15626, 51.15203], [-4.15884, 51.14936], [-4.16215, 51.14773], [-4.16338, 51.14858], [-4.16614, 51.14903], [-4.1691, 51.15024], [-4.17084, 51.15137], [-4.17419, 51.15153], [-4.1786, 51.1508], [-4.18417, 51.15094], [-4.18453, 51.15232], [-4.18417, 51.15456], [-4.18467, 51.15559], [-4.18619, 51.15622], [-4.19296, 51.15761], [-4.1953, 51.15743], [-4.19699, 51.15812], [-4.20118, 51.1541], [-4.20229, 51.15367], [-4.20603, 51.15384], [-4.21209, 51.15155], [-4.21551, 51.15127], [-4.2163, 51.15146], [-4.21456, 51.15423], [-4.2121, 51.16049], [-4.20976, 51.17077], [-4.20977, 51.17264], [-4.21242, 51.17336], [-4.21227, 51.17358], [-4.21291, 51.17389], [-4.21255, 51.17431], [-4.21304, 51.17439], [-4.21251, 51.17462], [-4.21333, 51.17505], [-4.2126, 51.17511], [-4.21449, 51.17646], [-4.21335, 51.17615], [-4.21422, 51.177], [-4.21326, 51.17684], [-4.2138, 51.17741], [-4.21303, 51.17707], [-4.21346, 51.17744], [-4.21221, 51.17763], [-4.21148, 51.17839], [-4.21429, 51.18045], [-4.21386, 51.18098], [-4.21388, 51.18203], [-4.21437, 51.18245], [-4.21566, 51.18241], [-4.21582, 51.18327], [-4.21715, 51.18344], [-4.21824, 51.18422], [-4.21964, 51.18438], [-4.22022, 51.18492], [-4.22081, 51.18489], [-4.22161, 51.18569], [-4.22249, 51.18581], [-4.2223, 51.18616], [-4.22373, 51.18632], [-4.22489, 51.1859], [-4.22585, 51.18596], [-4.22694, 51.18648], [-4.22597, 51.18665], [-4.22934, 51.18722], [-4.23058, 51.1878], [-4.2288, 51.18827], [-4.22926, 51.18848], [-4.22766, 51.18872], [-4.22808, 51.18896], [-4.22496, 51.18878], [-4.22238, 51.1894], [-4.22271, 51.18961], [-4.22163, 51.18953], [-4.21889, 51.18998], [-4.21874, 51.18997], [-4.21805, 51.18982], [-4.21737, 51.18932], [-4.21782, 51.19009], [-4.21679, 51.18991], [-4.21688, 51.19019], [-4.21678, 51.19018], [-4.21621, 51.18981], [-4.21635, 51.18945], [-4.21551, 51.18981], [-4.21485, 51.18965], [-4.21508, 51.18987], [-4.21471, 51.19002], [-4.21398, 51.18964], [-4.21435, 51.18991], [-4.21363, 51.19026], [-4.21267, 51.18983], [-4.21314, 51.19018], [-4.21265, 51.1905], [-4.21158, 51.1902], [-4.21213, 51.19069], [-4.21136, 51.19041], [-4.21143, 51.19061], [-4.21065, 51.19055], [-4.21093, 51.19106], [-4.2104, 51.19092], [-4.21064, 51.1914], [-4.20994, 51.19144], [-4.21009, 51.1919], [-4.20911, 51.19209], [-4.20863, 51.19191], [-4.20876, 51.19212], [-4.20831, 51.19203], [-4.20729, 51.1926], [-4.20689, 51.19405], [-4.20737, 51.19483], [-4.20796, 51.19502], [-4.20672, 51.19515], [-4.20657, 51.19551], [-4.20711, 51.1958], [-4.20667, 51.19595], [-4.20589, 51.19552], [-4.20507, 51.19564], [-4.20518, 51.19608], [-4.20495, 51.19585], [-4.20449, 51.19616], [-4.20427, 51.19677], [-4.20475, 51.19692], [-4.20408, 51.19693], [-4.20385, 51.19735], [-4.20465, 51.19798], [-4.20336, 51.19801], [-4.20353, 51.19851], [-4.2028, 51.19857], [-4.20256, 51.19905], [-4.20279, 51.19925], [-4.20398, 51.19917], [-4.20409, 51.19956], [-4.20253, 51.19935], [-4.20324, 51.1998], [-4.20206, 51.19983], [-4.20263, 51.20017], [-4.20164, 51.19983], [-4.20192, 51.20021], [-4.20118, 51.19973], [-4.2017, 51.20031], [-4.2013, 51.20062], [-4.19999, 51.20019], [-4.20019, 51.20047], [-4.19908, 51.20031], [-4.19902, 51.2003], [-4.1984, 51.19935], [-4.19605, 51.19961], [-4.19458, 51.19917], [-4.1949, 51.19937], [-4.19462, 51.1995], [-4.194, 51.19911], [-4.1944, 51.19939], [-4.19308, 51.19924], [-4.19311, 51.19891], [-4.19311, 51.19891]]]}}, {"type": "Feature", "properties": {"type": "postcode-cell", "postcode": "EX34 7DZ", "postcodes": ["EX34 7DZ"]}, "geometry": {"type": "Polygon", "coordinates": [[[-4.2160703839906795, 51.184898230537726], [-4.213192384884403, 51.183836769879306], [-4.208873331156146, 51.18167444837451], [-4.211546522285756, 51.18076443889403], [-4.213863662361315, 51.181172800945006], [-4.213879989992823, 51.18202999510994], [-4.214369989992976, 51.1824499951103], [-4.215659989993889, 51.18240999511028], [-4.215819989993625, 51.183269995110976], [-4.217149989994474, 51.18343999511114], [-4.218239989994887, 51.184219995111796], [-4.219639989995785, 51.18437999511191], [-4.220219989995954, 51.18491999511235], [-4.220809989996377, 51.18488999511232], [-4.221609989996579, 51.185689995112995], [-4.222489989997139, 51.18580999511309], [-4.222299989996853, 51.18615999511339], [-4.223729989997775, 51.186319995113514], [-4.224889989998763, 51.18589999511318], [-4.2258499899994, 51.185959995113215], [-4.22693998999993, 51.18647999511366], [-4.225969989999186, 51.18664999511381], [-4.2293399900012725, 51.18721999511428], [-4.23057999000188, 51.18779999511476], [-4.229660951842706, 51.18804266704314], [-4.2160703839906795, 51.184898230537726]]]}}, {"type": "Feature", "properties": {"type": "postcode-cell", "postcode": "EX34 7EP", "postcodes": ["EX34 7EP"]}, "geometry": {"type": "Polygon", "coordinates": [[[-4.211546522285756, 51.18076443889403], [-4.211728427403885, 51.1801470012037], [-4.213045456759758, 51.179537664193525], [-4.214289989993798, 51.180449995108624], [-4.213859989993268, 51.18097999510907], [-4.213863662361315, 51.181172800945006], [-4.211546522285756, 51.18076443889403]]]}}, {"type": "Feature", "properties": {"type": "postcode-cell", "postcode": "EX34 7EB", "postcodes": ["EX34 7EB"]}, "geometry": {"type": "Polygon", "coordinates": [[[-4.211728427403885, 51.1801470012037], [-4.211139886365658, 51.179741929144626], [-4.21251119088743, 51.1791459941296], [-4.213045456759758, 51.179537664193525], [-4.211728427403885, 51.1801470012037]]]}}, {"type": "Feature", "properties": {"type": "postcode-cell", "postcode": "EX34 7DB", "postcodes": ["EX34 7DB"]}, "geometry": {"type": "Polygon", "coordinates": [[[-4.20571587249554, 51.1776367821246], [-4.2063544871630025, 51.177084456780676], [-4.208750901160026, 51.1761546319363], [-4.209654311650544, 51.17616508092393], [-4.213326776497572, 51.176910492886925], [-4.213799989994785, 51.1774099951061], [-4.2130299899944, 51.17706999510581], [-4.213459989994536, 51.17743999510613], [-4.212209989993588, 51.17762999510627], [-4.211479989992754, 51.178389995106926], [-4.211525492657762, 51.17842335496815], [-4.20571587249554, 51.1776367821246]]]}}, {"type": "Feature", "properties": {"type": "postcode-cell", "postcode": "EX34 7DD", "postcodes": ["EX34 7DD"]}, "geometry": {"type": "MultiPolygon", "coordinates": [[[[-4.209654311650544, 51.17616508092393], [-4.2114132717089205, 51.17533746869826], [-4.212613644633651, 51.17511974881663], [-4.214489989995677, 51.17645999510529], [-4.2133499899950255, 51.17614999510505], [-4.214219989995256, 51.17699999510575], [-4.213259989994658, 51.17683999510562], [-4.213326776497572, 51.176910492886925], [-4.209654311650544, 51.17616508092393]]], [[[-4.213244719440499, 51.175005280706515], [-4.213329989995491, 51.17504999510411], [-4.2127232878139225, 51.17509986136689], [-4.213244719440499, 51.175005280706515]]]]}}, {"type": "Feature", "properties": {"type": "postcode-cell", "postcode": "EX34 7DS", "postcodes": ["EX34 7DS"]}, "geometry": {"type": "Polygon", "coordinates": [[[-4.208565725993415, 51.18649727498169], [-4.208762344284194, 51.18567150711605], [-4.21270906904509, 51.18500022541853], [-4.2160703839906795, 51.184898230537726], [-4.229660951842706, 51.18804266704314], [-4.228799990000441, 51.18826999511514], [-4.229259990000669, 51.18847999511532], [-4.227659989999451, 51.18871999511553], [-4.228079989999641, 51.18895999511572], [-4.224959989997557, 51.18877999511558], [-4.222379989995497, 51.18939999511611], [-4.222709989995633, 51.18960999511628], [-4.221629989994918, 51.18952999511621], [-4.218889989992821, 51.18997999511657], [-4.218739989992725, 51.189969995116584], [-4.218049989992309, 51.18981999511647], [-4.217369989992058, 51.189319995116044], [-4.217819989992033, 51.190089995116686], [-4.216789989991397, 51.18990999511652], [-4.216879989991336, 51.19018999511677], [-4.216779989991274, 51.19017999511676], [-4.216209989991041, 51.18980999511646], [-4.216349989991295, 51.18944999511614], [-4.2155099899905535, 51.18980999511644], [-4.214849989990171, 51.18964999511631], [-4.21507998999023, 51.1898699951165], [-4.214808137786804, 51.18998020567658], [-4.208565725993415, 51.18649727498169]]]}}, {"type": "Feature", "properties": {"type": "postcode-cell", "postcode": "EX34 7DJ", "postcodes": ["EX34 7DJ"]}, "geometry": {"type": "Polygon", "coordinates": [[[-4.2127232878139225, 51.17509986136689], [-4.212599989994959, 51.17510999510418], [-4.212613644633651, 51.17511974881663], [-4.2114132717089205, 51.17533746869826], [-4.211485929616396, 51.17310622215246], [-4.212419989995601, 51.173359995102714], [-4.2122699899954, 51.1735799951029], [-4.212909989995707, 51.173889995103174], [-4.212549989995273, 51.17430999510352], [-4.21303998999558, 51.17438999510358], [-4.212509989995112, 51.17461999510377], [-4.213244719440499, 51.175005280706515], [-4.2127232878139225, 51.17509986136689]]]}}, {"type": "Feature", "properties": {"type": "postcode-cell", "postcode": "EX34 7DL", "postcodes": ["EX34 7DL", "EX34 7DN"]}, "geometry": {"type": "Polygon", "coordinates": [[[-4.210736255785457, 51.17345008679108], [-4.207613403214363, 51.17310652982055], [-4.2090141854294965, 51.17095827567608], [-4.209816813484456, 51.170520411441196], [-4.209759989994892, 51.170769995100564], [-4.209769989994081, 51.17263999510213], [-4.211394018496616, 51.17308125045021], [-4.210736255785457, 51.17345008679108]]]}}, {"type": "Feature", "properties": {"type": "postcode-cell", "postcode": "EX34 7EA", "postcodes": ["EX34 7EA"]}, "geometry": {"type": "Polygon", "coordinates": [[[-4.211728427403885, 51.1801470012037], [-4.211546522285756, 51.18076443889403], [-4.208873331156146, 51.18167444837451], [-4.204069398760632, 51.18084824972194], [-4.203954090940565, 51.18061144163887], [-4.210838737349951, 51.17961127406333], [-4.211139886365658, 51.179741929144626], [-4.211728427403885, 51.1801470012037]]]}}, {"type": "Feature", "properties": {"type": "postcode-cell", "postcode": "EX34 7DP", "postcodes": ["EX34 7DP"]}, "geometry": {"type": "Polygon", "coordinates": [[[-4.210838737349951, 51.17961127406333], [-4.2115846287289225, 51.178466709935854], [-4.21251119088743, 51.1791459941296], [-4.211139886365658, 51.179741929144626], [-4.210838737349951, 51.17961127406333]]]}}, {"type": "Feature", "properties": {"type": "postcode-cell", "postcode": "EX34 7DH", "postcodes": ["EX34 7DH"]}, "geometry": {"type": "Polygon", "coordinates": [[[-4.209654311650544, 51.17616508092393], [-4.208750901160026, 51.1761546319363], [-4.209722719912169, 51.17417740076599], [-4.210736255785457, 51.17345008679108], [-4.211394018496616, 51.17308125045021], [-4.211485929616396, 51.17310622215246], [-4.2114132717089205, 51.17533746869826], [-4.209654311650544, 51.17616508092393]]]}}, {"type": "Feature", "properties": {"type": "postcode-cell", "postcode": "EX34 7DG", "postcodes": ["EX34 7DG"]}, "geometry": {"type": "Polygon", "coordinates": [[[-4.2063544871630025, 51.177084456780676], [-4.206139536585834, 51.174742019133056], [-4.207417646718739, 51.17363963613587], [-4.209722719912169, 51.17417740076599], [-4.208750901160026, 51.1761546319363], [-4.2063544871630025, 51.177084456780676]]]}}, {"type": "Feature", "properties": {"type": "postcode-cell", "postcode": "EX34 7ER", "postcodes": ["EX34 7ER"]}, "geometry": {"type": "Polygon", "coordinates": [[[-4.211525492657762, 51.17842335496815], [-4.2115846287289225, 51.178466709935854], [-4.210838737349951, 51.17961127406333], [-4.203954090940565, 51.18061144163887], [-4.202901931357635, 51.17907961255085], [-4.20571587249554, 51.1776367821246], [-4.211525492657762, 51.17842335496815]]]}}, {"type": "Feature", "properties": {"type": "postcode-cell", "postcode": "EX34 7DY", "postcodes": ["EX34 7DY"]}, "geometry": {"type": "Polygon", "coordinates": [[[-4.213192384884403, 51.183836769879306], [-4.208294708827937, 51.18404929159104], [-4.2047853084328946, 51.18370194341668], [-4.20349093400064, 51.183372771761626], [-4.204069398760632, 51.18084824972194], [-4.208873331156146, 51.18167444837451], [-4.213192384884403, 51.183836769879306]]]}}, {"type": "Feature", "properties": {"type": "postcode-cell", "postcode": "EX34 7ES", "postcodes": ["EX34 7ES"]}, "geometry": {"type": "Polygon", "coordinates": [[[-4.204069398760632, 51.18084824972194], [-4.20349093400064, 51.183372771761626], [-4.202823944051183, 51.184241554439936], [-4.2027926902709645, 51.184257646107824], [-4.200778561421113, 51.18509822631101], [-4.193214920375632, 51.18547735908046], [-4.192839989977328, 51.184169995111766], [-4.19096846611, 51.18370528177887], [-4.196418089317889, 51.17973271369881], [-4.202687945255031, 51.17901282748345], [-4.202901931357635, 51.17907961255085], [-4.203954090940565, 51.18061144163887], [-4.204069398760632, 51.18084824972194]]]}}, {"type": "Feature", "properties": {"type": "postcode-cell", "postcode": "EX34 7DQ", "postcodes": ["EX34 7DQ"]}, "geometry": {"type": "Polygon", "coordinates": [[[-4.209722719912169, 51.17417740076599], [-4.207417646718739, 51.17363963613587], [-4.2073526967729125, 51.17329943539564], [-4.207613403214363, 51.17310652982055], [-4.210736255785457, 51.17345008679108], [-4.209722719912169, 51.17417740076599]]]}}, {"type": "Feature", "properties": {"type": "postcode-cell", "postcode": "EX34 7DX", "postcodes": ["EX34 7DX"]}, "geometry": {"type": "Polygon", "coordinates": [[[-4.2160703839906795, 51.184898230537726], [-4.21270906904509, 51.18500022541853], [-4.210013920138795, 51.18485599010991], [-4.208294708827937, 51.18404929159104], [-4.213192384884403, 51.183836769879306], [-4.2160703839906795, 51.184898230537726]]]}}, {"type": "Feature", "properties": {"type": "postcode-cell", "postcode": "EX34 7DR", "postcodes": ["EX34 7DR"]}, "geometry": {"type": "Polygon", "coordinates": [[[-4.208762344284194, 51.18567150711605], [-4.208565725993415, 51.18649727498169], [-4.208061126107364, 51.186451626685795], [-4.20446578526235, 51.18543881981345], [-4.202823944051183, 51.184241554439936], [-4.20349093400064, 51.183372771761626], [-4.2047853084328946, 51.18370194341668], [-4.208243595604801, 51.185052940936735], [-4.208762344284194, 51.18567150711605]]]}}, {"type": "Feature", "properties": {"type": "postcode-cell", "postcode": "EX34 7DT", "postcodes": ["EX34 7DT"]}, "geometry": {"type": "Polygon", "coordinates": [[[-4.208243595604801, 51.185052940936735], [-4.210013920138795, 51.18485599010991], [-4.21270906904509, 51.18500022541853], [-4.208762344284194, 51.18567150711605], [-4.208243595604801, 51.185052940936735]]]}}, {"type": "Feature", "properties": {"type": "postcode-cell", "postcode": "EX34 7DU", "postcodes": ["EX34 7DU"]}, "geometry": {"type": "Polygon", "coordinates": [[[-4.208294708827937, 51.18404929159104], [-4.210013920138795, 51.18485599010991], [-4.208243595604801, 51.185052940936735], [-4.2047853084328946, 51.18370194341668], [-4.208294708827937, 51.18404929159104]]]}}, {"type": "Feature", "properties": {"type": "postcode-cell", "postcode": "EX34 7FL", "postcodes": ["EX34 7FL"]}, "geometry": {"type": "Polygon", "coordinates": [[[-4.205579874763383, 51.1690600269699], [-4.203614470073945, 51.16887882693472], [-4.197861147166869, 51.16768262956754], [-4.197465966600161, 51.16744557011844], [-4.1973638467650245, 51.16737952129284], [-4.195491202603083, 51.16492316575634], [-4.195126979449225, 51.16442253062099], [-4.198023194976246, 51.15770200569601], [-4.205248413854466, 51.15380447890472], [-4.206029989999719, 51.15383999508644], [-4.212089990004909, 51.15154999508454], [-4.215509990007396, 51.15126999508428], [-4.216299990007859, 51.15145999508446], [-4.214559990005441, 51.15422999508675], [-4.212099990001002, 51.160489995091986], [-4.210131871242621, 51.16913654899691], [-4.205579874763383, 51.1690600269699]]]}}, {"type": "Feature", "properties": {"type": "postcode-cell", "postcode": "EX34 7AY", "postcodes": ["EX34 7AY"]}, "geometry": {"type": "Polygon", "coordinates": [[[-4.2051819807016795, 51.17382818915924], [-4.205402073130933, 51.173660066839545], [-4.206626160310516, 51.173067416803654], [-4.2073526967729125, 51.17329943539564], [-4.207417646718739, 51.17363963613587], [-4.206139536585834, 51.174742019133056], [-4.2051819807016795, 51.17382818915924]]]}}, {"type": "Feature", "properties": {"type": "postcode-cell", "postcode": "EX34 7DW", "postcodes": ["EX34 7DW"]}, "geometry": {"type": "Polygon", "coordinates": [[[-4.206139536585834, 51.174742019133056], [-4.2063544871630025, 51.177084456780676], [-4.20571587249554, 51.1776367821246], [-4.202901931357635, 51.17907961255085], [-4.202687945255031, 51.17901282748345], [-4.201380615281377, 51.177206485721854], [-4.202294466855647, 51.17429611597576], [-4.204961595366643, 51.17375436797252], [-4.2051819807016795, 51.17382818915924], [-4.206139536585834, 51.174742019133056]]]}}, {"type": "Feature", "properties": {"type": "postcode-cell", "postcode": "EX34 7DF", "postcodes": ["EX34 7DF"]}, "geometry": {"type": "Polygon", "coordinates": [[[-4.2073526967729125, 51.17329943539564], [-4.206626160310516, 51.173067416803654], [-4.206313062608222, 51.17274775955852], [-4.206297593302485, 51.17249992570705], [-4.2073297346203224, 51.171502321911234], [-4.2090141854294965, 51.17095827567608], [-4.207613403214363, 51.17310652982055], [-4.2073526967729125, 51.17329943539564]]]}}, {"type": "Feature", "properties": {"type": "postcode-cell", "postcode": "EX34 7ED", "postcodes": ["EX34 7ED"]}, "geometry": {"type": "Polygon", "coordinates": [[[-4.214808137786804, 51.18998020567658], [-4.21470998998991, 51.190019995116614], [-4.2139799899895705, 51.18963999511632], [-4.2143499899897074, 51.18990999511654], [-4.213629989989058, 51.19025999511682], [-4.212669989988581, 51.18982999511647], [-4.21313998998875, 51.19017999511676], [-4.2126499899882734, 51.19049999511703], [-4.21157998998766, 51.19019999511677], [-4.212129989987829, 51.190689995117175], [-4.211359989987417, 51.190409995116966], [-4.211429989987376, 51.19060999511712], [-4.210649989986864, 51.19054999511707], [-4.210929989986836, 51.19105999511751], [-4.210746969296546, 51.191011650399936], [-4.206816219526514, 51.18752230802338], [-4.208061126107364, 51.186451626685795], [-4.208565725993415, 51.18649727498169], [-4.214808137786804, 51.18998020567658]]]}}, {"type": "Feature", "properties": {"type": "postcode-cell", "postcode": "EX34 7EE", "postcodes": ["EX34 7EE"]}, "geometry": {"type": "Polygon", "coordinates": [[[-4.208061126107364, 51.186451626685795], [-4.206816219526514, 51.18752230802338], [-4.20548807503592, 51.186914085045764], [-4.20446578526235, 51.18543881981345], [-4.208061126107364, 51.186451626685795]]]}}, {"type": "Feature", "properties": {"type": "postcode-cell", "postcode": "EX34 7FA", "postcodes": ["EX34 7FA", "EX34 7FB", "EX34 7FD", "EX34 7FE", "EX34 7FF", "EX34 7FG"]}, "geometry": {"type": "Polygon", "coordinates": [[[-4.206626160310516, 51.173067416803654], [-4.205402073130933, 51.173660066839545], [-4.2057003136326205, 51.172902157561985], [-4.206313062608222, 51.17274775955852], [-4.206626160310516, 51.173067416803654]]]}}, {"type": "Feature", "properties": {"type": "postcode-cell", "postcode": "EX34 7EL", "postcodes": ["EX34 7EL"]}, "geometry": {"type": "Polygon", "coordinates": [[[-4.201017795312693, 51.19350601589036], [-4.202931000663017, 51.193620154005515], [-4.2066672003280985, 51.19408728659918], [-4.206938621483454, 51.19412902263733], [-4.207369989982724, 51.19482999512065], [-4.207959989983048, 51.1950199951208], [-4.206719989982135, 51.19514999512092], [-4.206569989981875, 51.19550999512122], [-4.20710998998212, 51.19579999512147], [-4.2066699899817515, 51.195949995121595], [-4.2058899899813955, 51.19551999512124], [-4.205069989980777, 51.19563999512134], [-4.205179989980661, 51.19607999512173], [-4.204949989980601, 51.195849995121506], [-4.20448998998015, 51.19615999512179], [-4.2042699899797285, 51.196769995122295], [-4.204749989979997, 51.19691999512241], [-4.204079989979528, 51.19692999512241], [-4.203849989979186, 51.19734999512276], [-4.204649989979465, 51.197979995123305], [-4.203359989978557, 51.198009995123336], [-4.203529989978458, 51.19850999512374], [-4.202799989977924, 51.19856999512378], [-4.2025599899775505, 51.19904999512418], [-4.20278998997762, 51.199249995124354], [-4.203979989978483, 51.199169995124294], [-4.204089989978385, 51.19955999512462], [-4.202529989977398, 51.19934999512445], [-4.203239989977692, 51.19979999512482], [-4.202059989976864, 51.199829995124844], [-4.202629989977111, 51.20016999512514], [-4.201639989976573, 51.199829995124865], [-4.2019199899766, 51.20020999512517], [-4.201179989976297, 51.19972999512477], [-4.2016999899764045, 51.20030999512523], [-4.201299989975992, 51.20061999512552], [-4.199989989975272, 51.20018999512516], [-4.200189989975288, 51.200469995125374], [-4.199079989974589, 51.200309995125245], [-4.199019989974552, 51.20029999512523], [-4.19839998997454, 51.19934999512445], [-4.196049989972797, 51.199609995124675], [-4.194579989971969, 51.19916999512428], [-4.194899989972106, 51.199369995124485], [-4.194619989971855, 51.199499995124576], [-4.193999989971597, 51.199109995124246], [-4.194399989971751, 51.19938999512449], [-4.193079989970904, 51.199239995124366], [-4.193109989971068, 51.19890999512408], [-4.194979989972806, 51.19789999512324], [-4.196119989974514, 51.19578999512149], [-4.1952150993739155, 51.194112691037496], [-4.201017795312693, 51.19350601589036]]]}}, {"type": "Feature", "properties": {"type": "postcode-cell", "postcode": "EX34 7EF", "postcodes": ["EX34 7EF"]}, "geometry": {"type": "Polygon", "coordinates": [[[-4.210746969296546, 51.191011650399936], [-4.210399989986529, 51.190919995117376], [-4.210639989986487, 51.1913999951178], [-4.209939989985984, 51.19143999511781], [-4.210089989985888, 51.1918999951182], [-4.209109989985126, 51.19208999511838], [-4.20862998998487, 51.19190999511821], [-4.20875998998487, 51.19211999511839], [-4.208309989984598, 51.19202999511832], [-4.207289989983643, 51.1925999951188], [-4.206889989982733, 51.194049995120025], [-4.206938621483454, 51.19412902263733], [-4.2066672003280985, 51.19408728659918], [-4.205411142335136, 51.187127298067644], [-4.20548807503592, 51.186914085045764], [-4.206816219526514, 51.18752230802338], [-4.210746969296546, 51.191011650399936]]]}}, {"type": "Feature", "properties": {"type": "postcode-cell", "postcode": "EX34 7EG", "postcodes": ["EX34 7EG"]}, "geometry": {"type": "Polygon", "coordinates": [[[-4.20548807503592, 51.186914085045764], [-4.205411142335136, 51.187127298067644], [-4.204049326555853, 51.18852819638508], [-4.2027926902709645, 51.184257646107824], [-4.202823944051183, 51.184241554439936], [-4.20446578526235, 51.18543881981345], [-4.20548807503592, 51.186914085045764]]]}}, {"type": "Feature", "properties": {"type": "postcode-cell", "postcode": "EX34 7BS", "postcodes": ["EX34 7BS"]}, "geometry": {"type": "Polygon", "coordinates": [[[-4.2051819807016795, 51.17382818915924], [-4.204961595366643, 51.17375436797252], [-4.204450140778785, 51.17301933017913], [-4.204474444926493, 51.17278702128401], [-4.204670172617608, 51.17274853513096], [-4.2057003136326205, 51.172902157561985], [-4.205402073130933, 51.173660066839545], [-4.2051819807016795, 51.17382818915924]]]}}, {"type": "Feature", "properties": {"type": "postcode-cell", "postcode": "EX34 7HL", "postcodes": ["EX34 7HL"]}, "geometry": {"type": "Polygon", "coordinates": [[[-4.195126979449225, 51.16442253062099], [-4.187535666475229, 51.167737958199695], [-4.18391051307046, 51.167670837946424], [-4.177113368784453, 51.16603692309603], [-4.173215023055633, 51.16301348675622], [-4.172603778904623, 51.16001810885636], [-4.176677433111228, 51.15759172979771], [-4.195940270103741, 51.15769141658857], [-4.196989989991601, 51.15811999509003], [-4.197428841839942, 51.15769898792719], [-4.198023194976246, 51.15770200569601], [-4.195126979449225, 51.16442253062099]]]}}, {"type": "Feature", "properties": {"type": "postcode-cell", "postcode": "EX34 7BN", "postcodes": ["EX34 7BN"]}, "geometry": {"type": "Polygon", "coordinates": [[[-4.2090141854294965, 51.17095827567608], [-4.2073297346203224, 51.171502321911234], [-4.205901949354713, 51.17154358450978], [-4.205558012642013, 51.171514216136316], [-4.2051511776752974, 51.17084963827459], [-4.205161720352575, 51.170843005882276], [-4.20992700048252, 51.1700364340106], [-4.209816813484456, 51.170520411441196], [-4.2090141854294965, 51.17095827567608]]]}}, {"type": "Feature", "properties": {"type": "postcode-cell", "postcode": "EX34 7BP", "postcodes": ["EX34 7BP"]}, "geometry": {"type": "Polygon", "coordinates": [[[-4.2057003136326205, 51.172902157561985], [-4.204670172617608, 51.17274853513096], [-4.205453978811381, 51.172374397703884], [-4.205466033320981, 51.17237362396903], [-4.206297593302485, 51.17249992570705], [-4.206313062608222, 51.17274775955852], [-4.2057003136326205, 51.172902157561985]]]}}, {"type": "Feature", "properties": {"type": "postcode-cell", "postcode": "EX34 7BW", "postcodes": ["EX34 7BW"]}, "geometry": {"type": "Polygon", "coordinates": [[[-4.206297593302485, 51.17249992570705], [-4.205466033320981, 51.17237362396903], [-4.205901949354713, 51.17154358450978], [-4.2073297346203224, 51.171502321911234], [-4.206297593302485, 51.17249992570705]]]}}, {"type": "Feature", "properties": {"type": "postcode-cell", "postcode": "EX34 7BR", "postcodes": ["EX34 7BR"]}, "geometry": {"type": "Polygon", "coordinates": [[[-4.205466033320981, 51.17237362396903], [-4.205453978811381, 51.172374397703884], [-4.204942913011181, 51.17184289781721], [-4.205272611558635, 51.17158687065261], [-4.205558012642013, 51.171514216136316], [-4.205901949354713, 51.17154358450978], [-4.205466033320981, 51.17237362396903]]]}}, {"type": "Feature", "properties": {"type": "postcode-cell", "postcode": "EX34 7BG", "postcodes": ["EX34 7BG"]}, "geometry": {"type": "Polygon", "coordinates": [[[-4.205161720352575, 51.170843005882276], [-4.205579874763383, 51.1690600269699], [-4.210131871242621, 51.16913654899691], [-4.20992700048252, 51.1700364340106], [-4.205161720352575, 51.170843005882276]]]}}, {"type": "Feature", "properties": {"type": "postcode-cell", "postcode": "EX34 7BE", "postcodes": ["EX34 7BE"]}, "geometry": {"type": "Polygon", "coordinates": [[[-4.205579874763383, 51.1690600269699], [-4.205161720352575, 51.170843005882276], [-4.2051511776752974, 51.17084963827459], [-4.204710521317114, 51.170831375953775], [-4.20456679045182, 51.17079861043327], [-4.203614470073945, 51.16887882693472], [-4.205579874763383, 51.1690600269699]]]}}, {"type": "Feature", "properties": {"type": "postcode-cell", "postcode": "EX34 7BA", "postcodes": ["EX34 7BA"]}, "geometry": {"type": "Polygon", "coordinates": [[[-4.205453978811381, 51.172374397703884], [-4.204670172617608, 51.17274853513096], [-4.204474444926493, 51.17278702128401], [-4.203750243422681, 51.172204300018194], [-4.204942913011181, 51.17184289781721], [-4.205453978811381, 51.172374397703884]]]}}, {"type": "Feature", "properties": {"type": "postcode-cell", "postcode": "EX34 7BD", "postcodes": ["EX34 7BD"]}, "geometry": {"type": "Polygon", "coordinates": [[[-4.20456679045182, 51.17079861043327], [-4.203518073223676, 51.17130556493822], [-4.2019181094342075, 51.17167826044204], [-4.200974469811325, 51.171595332626154], [-4.197861147166869, 51.16768262956754], [-4.203614470073945, 51.16887882693472], [-4.20456679045182, 51.17079861043327]]]}}, {"type": "Feature", "properties": {"type": "postcode-cell", "postcode": "EX34 7BJ", "postcodes": ["EX34 7BJ"]}, "geometry": {"type": "Polygon", "coordinates": [[[-4.205272611558635, 51.17158687065261], [-4.204737380355404, 51.17138689376006], [-4.204710521317114, 51.170831375953775], [-4.2051511776752974, 51.17084963827459], [-4.205558012642013, 51.171514216136316], [-4.205272611558635, 51.17158687065261]]]}}, {"type": "Feature", "properties": {"type": "postcode-cell", "postcode": "EX34 7BB", "postcodes": ["EX34 7BB"]}, "geometry": {"type": "Polygon", "coordinates": [[[-4.205272611558635, 51.17158687065261], [-4.204942913011181, 51.17184289781721], [-4.203750243422681, 51.172204300018194], [-4.2019181094342075, 51.17167826044204], [-4.203518073223676, 51.17130556493822], [-4.204737380355404, 51.17138689376006], [-4.205272611558635, 51.17158687065261]]]}}, {"type": "Feature", "properties": {"type": "postcode-cell", "postcode": "EX34 7BX", "postcodes": ["EX34 7BX"]}, "geometry": {"type": "Polygon", "coordinates": [[[-4.204961595366643, 51.17375436797252], [-4.202294466855647, 51.17429611597576], [-4.202102726404935, 51.173655156647534], [-4.204450140778785, 51.17301933017913], [-4.204961595366643, 51.17375436797252]]]}}, {"type": "Feature", "properties": {"type": "postcode-cell", "postcode": "EX34 7BL", "postcodes": ["EX34 7BL"]}, "geometry": {"type": "Polygon", "coordinates": [[[-4.204710521317114, 51.170831375953775], [-4.204737380355404, 51.17138689376006], [-4.203518073223676, 51.17130556493822], [-4.20456679045182, 51.17079861043327], [-4.204710521317114, 51.170831375953775]]]}}, {"type": "Feature", "properties": {"type": "postcode-cell", "postcode": "EX34 7BT", "postcodes": ["EX34 7BT"]}, "geometry": {"type": "Polygon", "coordinates": [[[-4.204474444926493, 51.17278702128401], [-4.204450140778785, 51.17301933017913], [-4.202102726404935, 51.173655156647534], [-4.20089007903648, 51.172049105739404], [-4.200974469811325, 51.171595332626154], [-4.2019181094342075, 51.17167826044204], [-4.203750243422681, 51.172204300018194], [-4.204474444926493, 51.17278702128401]]]}}, {"type": "Feature", "properties": {"type": "postcode-cell", "postcode": "EX34 7EN", "postcodes": ["EX34 7EN"]}, "geometry": {"type": "Polygon", "coordinates": [[[-4.2066672003280985, 51.19408728659918], [-4.202931000663017, 51.193620154005515], [-4.204049326555853, 51.18852819638508], [-4.205411142335136, 51.187127298067644], [-4.2066672003280985, 51.19408728659918]]]}}, {"type": "Feature", "properties": {"type": "postcode-cell", "postcode": "EX34 7BZ", "postcodes": ["EX34 7BZ"]}, "geometry": {"type": "Polygon", "coordinates": [[[-4.202294466855647, 51.17429611597576], [-4.201380615281377, 51.177206485721854], [-4.2010153171925815, 51.17698671111035], [-4.197831928383067, 51.17461400170579], [-4.198188796149381, 51.17395816526695], [-4.20089007903648, 51.172049105739404], [-4.202102726404935, 51.173655156647534], [-4.202294466855647, 51.17429611597576]]]}}, {"type": "Feature", "properties": {"type": "postcode-cell", "postcode": "EX34 7AB", "postcodes": ["EX34 7AB"]}, "geometry": {"type": "Polygon", "coordinates": [[[-4.200974469811325, 51.171595332626154], [-4.20089007903648, 51.172049105739404], [-4.198188796149381, 51.17395816526695], [-4.1977614288073575, 51.1734303713797], [-4.197465966600161, 51.16744557011844], [-4.197861147166869, 51.16768262956754], [-4.200974469811325, 51.171595332626154]]]}}, {"type": "Feature", "properties": {"type": "postcode-cell", "postcode": "EX34 7EQ", "postcodes": ["EX34 7EQ"]}, "geometry": {"type": "Polygon", "coordinates": [[[-4.202931000663017, 51.193620154005515], [-4.201017795312693, 51.19350601589036], [-4.200778561421113, 51.18509822631101], [-4.2027926902709645, 51.184257646107824], [-4.204049326555853, 51.18852819638508], [-4.202931000663017, 51.193620154005515]]]}}, {"type": "Feature", "properties": {"type": "postcode-cell", "postcode": "EX34 7AZ", "postcodes": ["EX34 7AZ"]}, "geometry": {"type": "Polygon", "coordinates": [[[-4.188699829825557, 51.176568773783345], [-4.189678847862923, 51.176479122168814], [-4.19303692361187, 51.17744925680857], [-4.196418089317889, 51.17973271369881], [-4.19096846611, 51.18370528177887], [-4.188369989974722, 51.183059995110845], [-4.18650924289467, 51.181675657418914], [-4.186516488265466, 51.18154284764774], [-4.187075378432542, 51.17858616925776], [-4.188699829825557, 51.176568773783345]]]}}, {"type": "Feature", "properties": {"type": "postcode-cell", "postcode": "EX34 7AP", "postcodes": ["EX34 7AP"]}, "geometry": {"type": "Polygon", "coordinates": [[[-4.187075378432542, 51.17858616925776], [-4.18069600408489, 51.1771526916247], [-4.180295215886898, 51.17485292003049], [-4.18059547176432, 51.174252347952326], [-4.182397334946528, 51.17424377236833], [-4.185946588451044, 51.17450486889326], [-4.186657999394529, 51.1748690466296], [-4.188699829825557, 51.176568773783345], [-4.187075378432542, 51.17858616925776]]]}}, {"type": "Feature", "properties": {"type": "postcode-cell", "postcode": "EX34 7AA", "postcodes": ["EX34 7AA"]}, "geometry": {"type": "Polygon", "coordinates": [[[-4.197465966600161, 51.16744557011844], [-4.1977614288073575, 51.1734303713797], [-4.195203156543244, 51.1714998884449], [-4.1973638467650245, 51.16737952129284], [-4.197465966600161, 51.16744557011844]]]}}, {"type": "Feature", "properties": {"type": "postcode-cell", "postcode": "EX34 7EH", "postcodes": ["EX34 7EH"]}, "geometry": {"type": "Polygon", "coordinates": [[[-4.201017795312693, 51.19350601589036], [-4.1952150993739155, 51.194112691037496], [-4.194479989974712, 51.19274999511894], [-4.195209989975866, 51.19125999511769], [-4.1964599899770825, 51.19045999511702], [-4.1976499899786655, 51.188719995115555], [-4.197739989979124, 51.18780999511478], [-4.193599989976694, 51.18681999511397], [-4.193214920375632, 51.18547735908046], [-4.200778561421113, 51.18509822631101], [-4.201017795312693, 51.19350601589036]]]}}, {"type": "Feature", "properties": {"type": "postcode-cell", "postcode": "EX34 7AE", "postcodes": ["EX34 7AE"]}, "geometry": {"type": "Polygon", "coordinates": [[[-4.191698408812202, 51.17254026672778], [-4.195491202603083, 51.16492316575634], [-4.1973638467650245, 51.16737952129284], [-4.195203156543244, 51.1714998884449], [-4.193432040254718, 51.17339809352547], [-4.19308287162075, 51.17324368394117], [-4.191698408812202, 51.17254026672778]]]}}, {"type": "Feature", "properties": {"type": "postcode-cell", "postcode": "EX34 7AU", "postcodes": ["EX34 7AU"]}, "geometry": {"type": "Polygon", "coordinates": [[[-4.19308287162075, 51.17324368394117], [-4.189024667537736, 51.17331942070138], [-4.190470439615659, 51.17205043040403], [-4.191698408812202, 51.17254026672778], [-4.19308287162075, 51.17324368394117]]]}}, {"type": "Feature", "properties": {"type": "postcode-cell", "postcode": "EX34 7AG", "postcodes": ["EX34 7AG"]}, "geometry": {"type": "Polygon", "coordinates": [[[-4.198188796149381, 51.17395816526695], [-4.197831928383067, 51.17461400170579], [-4.19654967637711, 51.17457573226363], [-4.195928463288394, 51.17448558947847], [-4.193471717574385, 51.173675481352625], [-4.193432040254718, 51.17339809352547], [-4.195203156543244, 51.1714998884449], [-4.1977614288073575, 51.1734303713797], [-4.198188796149381, 51.17395816526695]]]}}, {"type": "Feature", "properties": {"type": "postcode-cell", "postcode": "EX34 7AR", "postcodes": ["EX34 7AR"]}, "geometry": {"type": "Polygon", "coordinates": [[[-4.201380615281377, 51.177206485721854], [-4.202687945255031, 51.17901282748345], [-4.196418089317889, 51.17973271369881], [-4.19303692361187, 51.17744925680857], [-4.194062553548821, 51.176848899088924], [-4.195699506243987, 51.17634799242457], [-4.2010153171925815, 51.17698671111035], [-4.201380615281377, 51.177206485721854]]]}}, {"type": "Feature", "properties": {"type": "postcode-cell", "postcode": "EX34 7AQ", "postcodes": ["EX34 7AQ"]}, "geometry": {"type": "Polygon", "coordinates": [[[-4.2010153171925815, 51.17698671111035], [-4.195699506243987, 51.17634799242457], [-4.19654967637711, 51.17457573226363], [-4.197831928383067, 51.17461400170579], [-4.2010153171925815, 51.17698671111035]]]}}, {"type": "Feature", "properties": {"type": "postcode-cell", "postcode": "EX34 7AJ", "postcodes": ["EX34 7AJ"]}, "geometry": {"type": "Polygon", "coordinates": [[[-4.195699506243987, 51.17634799242457], [-4.194062553548821, 51.176848899088924], [-4.195928463288394, 51.17448558947847], [-4.19654967637711, 51.17457573226363], [-4.195699506243987, 51.17634799242457]]]}}, {"type": "Feature", "properties": {"type": "postcode-cell", "postcode": "EX34 7AH", "postcodes": ["EX34 7AH"]}, "geometry": {"type": "Polygon", "coordinates": [[[-4.19303692361187, 51.17744925680857], [-4.189678847862923, 51.176479122168814], [-4.193471717574385, 51.173675481352625], [-4.195928463288394, 51.17448558947847], [-4.194062553548821, 51.176848899088924], [-4.19303692361187, 51.17744925680857]]]}}, {"type": "Feature", "properties": {"type": "postcode-cell", "postcode": "EX34 7AF", "postcodes": ["EX34 7AF"]}, "geometry": {"type": "Polygon", "coordinates": [[[-4.195491202603083, 51.16492316575634], [-4.191698408812202, 51.17254026672778], [-4.190470439615659, 51.17205043040403], [-4.187582381807056, 51.168540487361355], [-4.1875453856957305, 51.168334644536095], [-4.187535666475229, 51.167737958199695], [-4.195126979449225, 51.16442253062099], [-4.195491202603083, 51.16492316575634]]]}}, {"type": "Feature", "properties": {"type": "postcode-cell", "postcode": "EX34 7AD", "postcodes": ["EX34 7AD"]}, "geometry": {"type": "Polygon", "coordinates": [[[-4.193432040254718, 51.17339809352547], [-4.193471717574385, 51.173675481352625], [-4.189678847862923, 51.176479122168814], [-4.188699829825557, 51.176568773783345], [-4.186657999394529, 51.1748690466296], [-4.189024667537736, 51.17331942070138], [-4.19308287162075, 51.17324368394117], [-4.193432040254718, 51.17339809352547]]]}}, {"type": "Feature", "properties": {"type": "postcode-cell", "postcode": "EX34 7FH", "postcodes": ["EX34 7FH"]}, "geometry": {"type": "Polygon", "coordinates": [[[-4.187582381807056, 51.168540487361355], [-4.185946588451044, 51.17450486889326], [-4.182397334946528, 51.17424377236833], [-4.184140005969035, 51.171409514392735], [-4.1875453856957305, 51.168334644536095], [-4.187582381807056, 51.168540487361355]]]}}, {"type": "Feature", "properties": {"type": "postcode-cell", "postcode": "EX34 7EX", "postcodes": ["EX34 7EX"]}, "geometry": {"type": "Polygon", "coordinates": [[[-4.186516488265466, 51.18154284764774], [-4.185601776710276, 51.18100048938724], [-4.184619989973353, 51.18026999510854], [-4.184024009940928, 51.18006493956953], [-4.1801552546554035, 51.177770675040556], [-4.18069600408489, 51.1771526916247], [-4.187075378432542, 51.17858616925776], [-4.186516488265466, 51.18154284764774]]]}}, {"type": "Feature", "properties": {"type": "postcode-cell", "postcode": "EX34 7AS", "postcodes": ["EX34 7AS"]}, "geometry": {"type": "Polygon", "coordinates": [[[-4.190470439615659, 51.17205043040403], [-4.189024667537736, 51.17331942070138], [-4.186657999394529, 51.1748690466296], [-4.185946588451044, 51.17450486889326], [-4.187582381807056, 51.168540487361355], [-4.190470439615659, 51.17205043040403]]]}}, {"type": "Feature", "properties": {"type": "postcode-cell", "postcode": "EX33 2NQ", "postcodes": ["EX33 2NQ"]}, "geometry": {"type": "Polygon", "coordinates": [[[-4.1369382805759845, 51.14594266733953], [-4.13477479178895, 51.13939973532912], [-4.134959989957099, 51.13943999507464], [-4.136179989958142, 51.13896999507424], [-4.139289989960309, 51.13889999507418], [-4.145019989963879, 51.13972999507486], [-4.146739989964771, 51.14038999507541], [-4.1498999899671976, 51.13980999507492], [-4.150719989967672, 51.140009995075054], [-4.152189989969074, 51.13911999507434], [-4.153009989968304, 51.142149995076835], [-4.151939989967526, 51.142249995076924], [-4.147249989963374, 51.1443599950787], [-4.1463599899619945, 51.14609999508012], [-4.146369989961499, 51.14723999508108], [-4.148079989962612, 51.14737999508122], [-4.148767973625589, 51.147729629779725], [-4.1369382805759845, 51.14594266733953]]]}}, {"type": "Feature", "properties": {"type": "postcode-cell", "postcode": "EX33 1HX", "postcodes": ["EX33 1HX"]}, "geometry": {"type": "MultiPolygon", "coordinates": [[[[-4.198023194976246, 51.15770200569601], [-4.197428841839942, 51.15769898792719], [-4.201179989996254, 51.154099995086675], [-4.20228998999721, 51.153669995086304], [-4.205248413854466, 51.15380447890472], [-4.198023194976246, 51.15770200569601]]], [[[-4.176677433111228, 51.15759172979771], [-4.175256873609693, 51.151353408057616], [-4.1785999899821205, 51.15079999508399], [-4.184169989985899, 51.15093999508409], [-4.184529989985541, 51.15231999508524], [-4.184169989984311, 51.1545599950871], [-4.184669989984203, 51.15558999508796], [-4.186189989984977, 51.15621999508847], [-4.19295998998904, 51.157609995089615], [-4.195299989990733, 51.157429995089466], [-4.195940270103741, 51.15769141658857], [-4.176677433111228, 51.15759172979771]]]]}}, {"type": "Feature", "properties": {"type": "postcode-cell", "postcode": "EX34 7AN", "postcodes": ["EX34 7AN"]}, "geometry": {"type": "Polygon", "coordinates": [[[-4.184140005969035, 51.171409514392735], [-4.180066613047836, 51.17260324792561], [-4.18391051307046, 51.167670837946424], [-4.187535666475229, 51.167737958199695], [-4.1875453856957305, 51.168334644536095], [-4.184140005969035, 51.171409514392735]]]}}, {"type": "Feature", "properties": {"type": "postcode-cell", "postcode": "EX34 7EU", "postcodes": ["EX34 7EU"]}, "geometry": {"type": "MultiPolygon", "coordinates": [[[[-4.18650924289467, 51.181675657418914], [-4.185601776710276, 51.18100048938724], [-4.186516488265466, 51.18154284764774], [-4.18650924289467, 51.181675657418914]]], [[[-4.174181216514204, 51.18213410319474], [-4.1801552546554035, 51.177770675040556], [-4.184024009940928, 51.18006493956953], [-4.180899989971346, 51.178989995107464], [-4.179429989970238, 51.17919999510764], [-4.178799989969601, 51.179659995108025], [-4.177869989968072, 51.181689995109735], [-4.174609989965267, 51.18294999511079], [-4.1741897809788275, 51.18294810551201], [-4.174181216514204, 51.18213410319474]]]]}}, {"type": "Feature", "properties": {"type": "postcode-cell", "postcode": "EX34 7FJ", "postcodes": ["EX34 7FJ"]}, "geometry": {"type": "Polygon", "coordinates": [[[-4.182397334946528, 51.17424377236833], [-4.18059547176432, 51.174252347952326], [-4.1795303076187444, 51.1733550055073], [-4.179452195677275, 51.173275047362786], [-4.180066613047836, 51.17260324792561], [-4.184140005969035, 51.171409514392735], [-4.182397334946528, 51.17424377236833]]]}}, {"type": "Feature", "properties": {"type": "postcode-cell", "postcode": "EX34 7AW", "postcodes": ["EX34 7AW"]}, "geometry": {"type": "Polygon", "coordinates": [[[-4.179452195677275, 51.173275047362786], [-4.177970863770285, 51.17275248321271], [-4.176210190928699, 51.16896052170037], [-4.177113368784453, 51.16603692309603], [-4.18391051307046, 51.167670837946424], [-4.180066613047836, 51.17260324792561], [-4.179452195677275, 51.173275047362786]]]}}, {"type": "Feature", "properties": {"type": "postcode-cell", "postcode": "EX34 7EZ", "postcodes": ["EX34 7EZ"]}, "geometry": {"type": "Polygon", "coordinates": [[[-4.1801552546554035, 51.177770675040556], [-4.174181216514204, 51.18213410319474], [-4.172974474708702, 51.17958106457652], [-4.176315988093298, 51.176395347951136], [-4.180295215886898, 51.17485292003049], [-4.18069600408489, 51.1771526916247], [-4.1801552546554035, 51.177770675040556]]]}}, {"type": "Feature", "properties": {"type": "postcode-cell", "postcode": "EX34 7HA", "postcodes": ["EX34 7HA"]}, "geometry": {"type": "Polygon", "coordinates": [[[-4.180295215886898, 51.17485292003049], [-4.176315988093298, 51.176395347951136], [-4.175193909995524, 51.175296002406114], [-4.1795303076187444, 51.1733550055073], [-4.18059547176432, 51.174252347952326], [-4.180295215886898, 51.17485292003049]]]}}, {"type": "Feature", "properties": {"type": "postcode-cell", "postcode": "EX34 8FF", "postcodes": ["EX34 8FF"]}, "geometry": {"type": "Polygon", "coordinates": [[[-4.160218785252574, 51.179453503494464], [-4.171925928910277, 51.183437206521766], [-4.1716899899629265, 51.183689995111415], [-4.171909989962424, 51.185179995112655], [-4.173129989962654, 51.18657999511381], [-4.173989989962032, 51.189359995116135], [-4.174089989961479, 51.190779995117325], [-4.173609989960529, 51.19217999511849], [-4.173929989960494, 51.19276999511897], [-4.173099989958802, 51.19532999512113], [-4.172189989957975, 51.19577999512149], [-4.170959989957254, 51.19548999512125], [-4.169229989955917, 51.19580999512152], [-4.165579989953933, 51.19458999512052], [-4.164599989953243, 51.194619995120526], [-4.1617699899519485, 51.1931199951193], [-4.160759989951661, 51.1921799951185], [-4.15945998995193, 51.189529995116295], [-4.158929989951693, 51.18923999511607], [-4.159789989952947, 51.1877299951148], [-4.158759989953924, 51.18387999511158], [-4.160859989956025, 51.18238999511033], [-4.1587199899551015, 51.18112999510928], [-4.158360065086348, 51.18005984732958], [-4.160218785252574, 51.179453503494464]]]}}, {"type": "Feature", "properties": {"type": "postcode-cell", "postcode": "EX34 7HD", "postcodes": ["EX34 7HD"]}, "geometry": {"type": "Polygon", "coordinates": [[[-4.1710012669798, 51.17773054345206], [-4.1709246483700015, 51.17718858091205], [-4.17321602503523, 51.17459910350445], [-4.175193909995524, 51.175296002406114], [-4.176315988093298, 51.176395347951136], [-4.172974474708702, 51.17958106457652], [-4.1710012669798, 51.17773054345206]]]}}, {"type": "Feature", "properties": {"type": "postcode-cell", "postcode": "EX34 7HE", "postcodes": ["EX34 7HE"]}, "geometry": {"type": "Polygon", "coordinates": [[[-4.172974474708702, 51.17958106457652], [-4.174181216514204, 51.18213410319474], [-4.1741897809788275, 51.18294810551201], [-4.172389989963742, 51.18293999511077], [-4.171925928910277, 51.183437206521766], [-4.160218785252574, 51.179453503494464], [-4.161894620700251, 51.177619267542944], [-4.1710012669798, 51.17773054345206], [-4.172974474708702, 51.17958106457652]]]}}, {"type": "Feature", "properties": {"type": "postcode-cell", "postcode": "EX34 7HB", "postcodes": ["EX34 7HB"]}, "geometry": {"type": "Polygon", "coordinates": [[[-4.1795303076187444, 51.1733550055073], [-4.175193909995524, 51.175296002406114], [-4.17321602503523, 51.17459910350445], [-4.17333450305978, 51.1740415318902], [-4.174185355784968, 51.173146006463625], [-4.177970863770285, 51.17275248321271], [-4.179452195677275, 51.173275047362786], [-4.1795303076187444, 51.1733550055073]]]}}, {"type": "Feature", "properties": {"type": "postcode-cell", "postcode": "EX34 7HJ", "postcodes": ["EX34 7HJ"]}, "geometry": {"type": "Polygon", "coordinates": [[[-4.176210190928699, 51.16896052170037], [-4.172126515213637, 51.17112194058637], [-4.165351527895808, 51.16961446096994], [-4.173215023055633, 51.16301348675622], [-4.177113368784453, 51.16603692309603], [-4.176210190928699, 51.16896052170037]]]}}, {"type": "Feature", "properties": {"type": "postcode-cell", "postcode": "EX34 7HG", "postcodes": ["EX34 7HG"]}, "geometry": {"type": "Polygon", "coordinates": [[[-4.1710012669798, 51.17773054345206], [-4.161894620700251, 51.177619267542944], [-4.162548487830203, 51.171819756417094], [-4.163084328020629, 51.17203687237747], [-4.1686998988291215, 51.17520561683602], [-4.1709246483700015, 51.17718858091205], [-4.1710012669798, 51.17773054345206]]]}}, {"type": "Feature", "properties": {"type": "postcode-cell", "postcode": "EX34 7HH", "postcodes": ["EX34 7HH"]}, "geometry": {"type": "Polygon", "coordinates": [[[-4.17333450305978, 51.1740415318902], [-4.171070917889884, 51.17378639756545], [-4.169917036760978, 51.173094734314006], [-4.1729020954023595, 51.172203901259614], [-4.174185355784968, 51.173146006463625], [-4.17333450305978, 51.1740415318902]]]}}, {"type": "Feature", "properties": {"type": "postcode-cell", "postcode": "EX34 7HW", "postcodes": ["EX34 7HW"]}, "geometry": {"type": "Polygon", "coordinates": [[[-4.177970863770285, 51.17275248321271], [-4.174185355784968, 51.173146006463625], [-4.1729020954023595, 51.172203901259614], [-4.172126515213637, 51.17112194058637], [-4.176210190928699, 51.16896052170037], [-4.177970863770285, 51.17275248321271]]]}}, {"type": "Feature", "properties": {"type": "postcode-cell", "postcode": "EX34 7HQ", "postcodes": ["EX34 7HQ"]}, "geometry": {"type": "Polygon", "coordinates": [[[-4.1709246483700015, 51.17718858091205], [-4.1686998988291215, 51.17520561683602], [-4.171070917889884, 51.17378639756545], [-4.17333450305978, 51.1740415318902], [-4.17321602503523, 51.17459910350445], [-4.1709246483700015, 51.17718858091205]]]}}, {"type": "Feature", "properties": {"type": "postcode-cell", "postcode": "EX34 7HN", "postcodes": ["EX34 7HN"]}, "geometry": {"type": "Polygon", "coordinates": [[[-4.161995887399317, 51.1709562624411], [-4.158099127679482, 51.17004169038539], [-4.1671158862418505, 51.15937963728785], [-4.172603778904623, 51.16001810885636], [-4.173215023055633, 51.16301348675622], [-4.165351527895808, 51.16961446096994], [-4.161995887399317, 51.1709562624411]]]}}, {"type": "Feature", "properties": {"type": "postcode-cell", "postcode": "EX34 7AT", "postcodes": ["EX34 7AT"]}, "geometry": {"type": "Polygon", "coordinates": [[[-4.165351527895808, 51.16961446096994], [-4.172126515213637, 51.17112194058637], [-4.1729020954023595, 51.172203901259614], [-4.169917036760978, 51.173094734314006], [-4.163084328020629, 51.17203687237747], [-4.162548487830203, 51.171819756417094], [-4.161995887399317, 51.1709562624411], [-4.165351527895808, 51.16961446096994]]]}}, {"type": "Feature", "properties": {"type": "postcode-cell", "postcode": "EX33 1JA", "postcodes": ["EX33 1JA"]}, "geometry": {"type": "Polygon", "coordinates": [[[-4.172603778904623, 51.16001810885636], [-4.1671158862418505, 51.15937963728785], [-4.158409815480401, 51.15759798613998], [-4.153290655212395, 51.152031368337745], [-4.153312923293349, 51.14930643179242], [-4.155819989965868, 51.15207999508508], [-4.156259989966193, 51.152029995085066], [-4.158839989969142, 51.14935999508283], [-4.162149989972138, 51.14772999508147], [-4.163379989972609, 51.14857999508217], [-4.1661399899743135, 51.14902999508253], [-4.169099989975819, 51.15023999508354], [-4.170839989976519, 51.151369995084465], [-4.174189989978762, 51.1515299950846], [-4.175256873609693, 51.151353408057616], [-4.176677433111228, 51.15759172979771], [-4.172603778904623, 51.16001810885636]]]}}, {"type": "Feature", "properties": {"type": "postcode-cell", "postcode": "EX34 7AX", "postcodes": ["EX34 7AX"]}, "geometry": {"type": "Polygon", "coordinates": [[[-4.171070917889884, 51.17378639756545], [-4.1686998988291215, 51.17520561683602], [-4.163084328020629, 51.17203687237747], [-4.169917036760978, 51.173094734314006], [-4.171070917889884, 51.17378639756545]]]}}, {"type": "Feature", "properties": {"type": "postcode-cell", "postcode": "EX34 7HF", "postcodes": ["EX34 7HF"]}, "geometry": {"type": "Polygon", "coordinates": [[[-4.162548487830203, 51.171819756417094], [-4.161894620700251, 51.177619267542944], [-4.160218785252574, 51.179453503494464], [-4.158360065086348, 51.18005984732958], [-4.157969989955564, 51.17889999510742], [-4.158149989956032, 51.178119995106776], [-4.159479989957121, 51.177729995106446], [-4.159439989957852, 51.17599999510501], [-4.150488653162312, 51.17666833813667], [-4.150049201217235, 51.175020774058616], [-4.157113743480074, 51.16990933798745], [-4.158099127679482, 51.17004169038539], [-4.161995887399317, 51.1709562624411], [-4.162548487830203, 51.171819756417094]]]}}, {"type": "Feature", "properties": {"type": "postcode-cell", "postcode": "EX34 7BU", "postcodes": ["EX34 7BU"]}, "geometry": {"type": "Polygon", "coordinates": [[[-4.1671158862418505, 51.15937963728785], [-4.158099127679482, 51.17004169038539], [-4.157113743480074, 51.16990933798745], [-4.154248114099371, 51.16737008176401], [-4.154143620796791, 51.16264037739908], [-4.158409815480401, 51.15759798613998], [-4.1671158862418505, 51.15937963728785]]]}}, {"type": "Feature", "properties": {"type": "postcode-cell", "postcode": "EX34 8NX", "postcodes": ["EX34 8NX"]}, "geometry": {"type": "Polygon", "coordinates": [[[-4.1319881574754955, 51.17884397990877], [-4.14025082257557, 51.17171078667322], [-4.142345703201281, 51.17306309618756], [-4.140419755395043, 51.17801995448193], [-4.139319989943035, 51.178189995106884], [-4.133249989938274, 51.179519995107995], [-4.132174474098446, 51.179475684729084], [-4.1319881574754955, 51.17884397990877]]]}}, {"type": "Feature", "properties": {"type": "postcode-cell", "postcode": "EX34 8PL", "postcodes": ["EX34 8PL"]}, "geometry": {"type": "Polygon", "coordinates": [[[-4.132174474098446, 51.179475684729084], [-4.127669989934538, 51.179289995107816], [-4.124603775746547, 51.17939789015767], [-4.124176739429346, 51.17766687961451], [-4.124863834960341, 51.17722031126115], [-4.130275171922531, 51.17718053760132], [-4.1319881574754955, 51.17884397990877], [-4.132174474098446, 51.179475684729084]]]}}, {"type": "Feature", "properties": {"type": "postcode-cell", "postcode": "EX34 8NY", "postcodes": ["EX34 8NY"]}, "geometry": {"type": "Polygon", "coordinates": [[[-4.150488653162312, 51.17666833813667], [-4.147919989949539, 51.17685999510575], [-4.140419755395043, 51.17801995448193], [-4.142345703201281, 51.17306309618756], [-4.150049201217235, 51.175020774058616], [-4.150488653162312, 51.17666833813667]]]}}, {"type": "Feature", "properties": {"type": "postcode-cell", "postcode": "EX34 8JZ", "postcodes": ["EX34 8JZ"]}, "geometry": {"type": "Polygon", "coordinates": [[[-4.158409815480401, 51.15759798613998], [-4.154143620796791, 51.16264037739908], [-4.1449622722725215, 51.162318629921735], [-4.139970278366991, 51.15806057860979], [-4.153290655212395, 51.152031368337745], [-4.158409815480401, 51.15759798613998]]]}}, {"type": "Feature", "properties": {"type": "postcode-cell", "postcode": "EX34 8NR", "postcodes": ["EX34 8NR"]}, "geometry": {"type": "Polygon", "coordinates": [[[-4.150049201217235, 51.175020774058616], [-4.142345703201281, 51.17306309618756], [-4.14025082257557, 51.17171078667322], [-4.138492356840498, 51.169132494578335], [-4.138494458248676, 51.1691165739728], [-4.141712909761851, 51.16789151103634], [-4.154248114099371, 51.16737008176401], [-4.157113743480074, 51.16990933798745], [-4.150049201217235, 51.175020774058616]]]}}, {"type": "Feature", "properties": {"type": "postcode-cell", "postcode": "EX34 8NT", "postcodes": ["EX34 8NT"]}, "geometry": {"type": "Polygon", "coordinates": [[[-4.141712909761851, 51.16789151103634], [-4.138494458248676, 51.1691165739728], [-4.132097228628238, 51.16438340953226], [-4.1322499666916, 51.16383035894425], [-4.1327750697856604, 51.16232048545065], [-4.133384917502971, 51.16108934212644], [-4.135443821848751, 51.1583034152588], [-4.139970278366991, 51.15806057860979], [-4.1449622722725215, 51.162318629921735], [-4.141712909761851, 51.16789151103634]]]}}, {"type": "Feature", "properties": {"type": "postcode-cell", "postcode": "EX34 8NS", "postcodes": ["EX34 8NS"]}, "geometry": {"type": "Polygon", "coordinates": [[[-4.1449622722725215, 51.162318629921735], [-4.154143620796791, 51.16264037739908], [-4.154248114099371, 51.16737008176401], [-4.141712909761851, 51.16789151103634], [-4.1449622722725215, 51.162318629921735]]]}}, {"type": "Feature", "properties": {"type": "postcode-cell", "postcode": "EX34 8NU", "postcodes": ["EX34 8NU"]}, "geometry": {"type": "Polygon", "coordinates": [[[-4.153290655212395, 51.152031368337745], [-4.139970278366991, 51.15806057860979], [-4.135443821848751, 51.1583034152588], [-4.128510647699637, 51.15226899208705], [-4.127325903779885, 51.150610657972386], [-4.1369382805759845, 51.14594266733953], [-4.148767973625589, 51.147729629779725], [-4.149299989963178, 51.14799999508172], [-4.1502299899634245, 51.148899995082466], [-4.150499989963167, 51.1498999950833], [-4.153279989965357, 51.14926999508275], [-4.153312923293349, 51.14930643179242], [-4.153290655212395, 51.152031368337745]]]}}, {"type": "Feature", "properties": {"type": "postcode-cell", "postcode": "EX34 8NP", "postcodes": ["EX34 8NP"]}, "geometry": {"type": "Polygon", "coordinates": [[[-4.14025082257557, 51.17171078667322], [-4.1319881574754955, 51.17884397990877], [-4.130275171922531, 51.17718053760132], [-4.128000475638697, 51.17328954446454], [-4.138492356840498, 51.169132494578335], [-4.14025082257557, 51.17171078667322]]]}}, {"type": "Feature", "properties": {"type": "postcode-cell", "postcode": "EX34 8NW", "postcodes": ["EX34 8NW"]}, "geometry": {"type": "Polygon", "coordinates": [[[-4.138492356840498, 51.169132494578335], [-4.128000475638697, 51.17328954446454], [-4.123549835489371, 51.17222195436588], [-4.119828736638258, 51.16700331473773], [-4.132097228628238, 51.16438340953226], [-4.138494458248676, 51.1691165739728], [-4.138492356840498, 51.169132494578335]]]}}, {"type": "Feature", "properties": {"type": "postcode-cell", "postcode": "EX33 2NJ", "postcodes": ["EX33 2NJ"]}, "geometry": {"type": "Polygon", "coordinates": [[[-4.1369382805759845, 51.14594266733953], [-4.127325903779885, 51.150610657972386], [-4.119221706821276, 51.14956647928339], [-4.114649410433458, 51.14703818829157], [-4.116159989941056, 51.146569995080604], [-4.117759989942166, 51.14653999508059], [-4.1179599899424115, 51.14628999508037], [-4.1189199899430315, 51.146379995080444], [-4.12003998994396, 51.14601999508015], [-4.120409989944133, 51.14619999508031], [-4.122009989945408, 51.14579999507994], [-4.1272999899507345, 51.141949995076736], [-4.128859989951912, 51.141709995076546], [-4.1300099899531535, 51.140679995075686], [-4.130879989953816, 51.14053999507558], [-4.132829989955606, 51.139509995074704], [-4.134039989956555, 51.139239995074476], [-4.13477479178895, 51.13939973532912], [-4.1369382805759845, 51.14594266733953]]]}}, {"type": "Feature", "properties": {"type": "postcode-cell", "postcode": "EX34 8FN", "postcodes": ["EX34 8FN"]}, "geometry": {"type": "Polygon", "coordinates": [[[-4.114906735046653, 51.17735741831976], [-4.122193862751907, 51.17799693394828], [-4.123641303748602, 51.179431741303], [-4.121699989930339, 51.179499995108], [-4.116049989926793, 51.17873999510737], [-4.11314213667042, 51.177924283261305], [-4.114906735046653, 51.17735741831976]]]}}, {"type": "Feature", "properties": {"type": "postcode-cell", "postcode": "EX34 8FH", "postcodes": ["EX34 8FH"]}, "geometry": {"type": "Polygon", "coordinates": [[[-4.130275171922531, 51.17718053760132], [-4.124863834960341, 51.17722031126115], [-4.1246863193711, 51.17712750476386], [-4.122202433309277, 51.17344184217049], [-4.123549835489371, 51.17222195436588], [-4.128000475638697, 51.17328954446454], [-4.130275171922531, 51.17718053760132]]]}}, {"type": "Feature", "properties": {"type": "postcode-cell", "postcode": "EX34 8NE", "postcodes": ["EX34 8NE"]}, "geometry": {"type": "Polygon", "coordinates": [[[-4.122202433309277, 51.17344184217049], [-4.121578176807102, 51.17390971737333], [-4.114906735046653, 51.17735741831976], [-4.11314213667042, 51.177924283261305], [-4.110809989923845, 51.17726999510615], [-4.108332683611701, 51.1772395031915], [-4.112589929451717, 51.165088995126986], [-4.119828736638258, 51.16700331473773], [-4.123549835489371, 51.17222195436588], [-4.122202433309277, 51.17344184217049]]]}}, {"type": "Feature", "properties": {"type": "postcode-cell", "postcode": "EX34 8LZ", "postcodes": ["EX34 8LZ"]}, "geometry": {"type": "Polygon", "coordinates": [[[-4.133384917502971, 51.16108934212644], [-4.125345247597413, 51.1595173100578], [-4.12490915208023, 51.15712701476592], [-4.128510647699637, 51.15226899208705], [-4.135443821848751, 51.1583034152588], [-4.133384917502971, 51.16108934212644]]]}}, {"type": "Feature", "properties": {"type": "postcode-cell", "postcode": "EX34 8NF", "postcodes": ["EX34 8NF"]}, "geometry": {"type": "Polygon", "coordinates": [[[-4.125345247597413, 51.1595173100578], [-4.124040238817003, 51.159888054152745], [-4.123672488295543, 51.159077379470034], [-4.124367637553366, 51.15754457030927], [-4.12490915208023, 51.15712701476592], [-4.125345247597413, 51.1595173100578]]]}}, {"type": "Feature", "properties": {"type": "postcode-cell", "postcode": "EX34 8FQ", "postcodes": ["EX34 8FQ"]}, "geometry": {"type": "Polygon", "coordinates": [[[-4.1327750697856604, 51.16232048545065], [-4.123626980362277, 51.16032187798364], [-4.124040238817003, 51.159888054152745], [-4.125345247597413, 51.1595173100578], [-4.133384917502971, 51.16108934212644], [-4.1327750697856604, 51.16232048545065]]]}}, {"type": "Feature", "properties": {"type": "postcode-cell", "postcode": "EX34 8NH", "postcodes": ["EX34 8NH"]}, "geometry": {"type": "Polygon", "coordinates": [[[-4.128510647699637, 51.15226899208705], [-4.12490915208023, 51.15712701476592], [-4.124367637553366, 51.15754457030927], [-4.12075138375837, 51.15894902043206], [-4.113617501044141, 51.160631747009525], [-4.119221706821276, 51.14956647928339], [-4.127325903779885, 51.150610657972386], [-4.128510647699637, 51.15226899208705]]]}}, {"type": "Feature", "properties": {"type": "postcode-cell", "postcode": "EX34 8NL", "postcodes": ["EX34 8NL"]}, "geometry": {"type": "Polygon", "coordinates": [[[-4.1322499666916, 51.16383035894425], [-4.122884579891327, 51.16065038375685], [-4.123626980362277, 51.16032187798364], [-4.1327750697856604, 51.16232048545065], [-4.1322499666916, 51.16383035894425]]]}}, {"type": "Feature", "properties": {"type": "postcode-cell", "postcode": "EX34 8NG", "postcodes": ["EX34 8NG"]}, "geometry": {"type": "Polygon", "coordinates": [[[-4.123626980362277, 51.16032187798364], [-4.122884579891327, 51.16065038375685], [-4.111364121142981, 51.16403043285384], [-4.111137392767071, 51.163882545175476], [-4.113617501044141, 51.160631747009525], [-4.12075138375837, 51.15894902043206], [-4.123672488295543, 51.159077379470034], [-4.124040238817003, 51.159888054152745], [-4.123626980362277, 51.16032187798364]]]}}, {"type": "Feature", "properties": {"type": "postcode-cell", "postcode": "EX34 8NN", "postcodes": ["EX34 8NN"]}, "geometry": {"type": "Polygon", "coordinates": [[[-4.132097228628238, 51.16438340953226], [-4.119828736638258, 51.16700331473773], [-4.112589929451717, 51.165088995126986], [-4.111364121142981, 51.16403043285384], [-4.122884579891327, 51.16065038375685], [-4.1322499666916, 51.16383035894425], [-4.132097228628238, 51.16438340953226]]]}}, {"type": "Feature", "properties": {"type": "postcode-cell", "postcode": "EX34 8FP", "postcodes": ["EX34 8FP"]}, "geometry": {"type": "Polygon", "coordinates": [[[-4.122202433309277, 51.17344184217049], [-4.1246863193711, 51.17712750476386], [-4.1229949943563415, 51.176879079172934], [-4.121578176807102, 51.17390971737333], [-4.122202433309277, 51.17344184217049]]]}}, {"type": "Feature", "properties": {"type": "postcode-cell", "postcode": "EX34 8PS", "postcodes": ["EX34 8PS"]}, "geometry": {"type": "Polygon", "coordinates": [[[-4.124603775746547, 51.17939789015767], [-4.123641303748602, 51.179431741303], [-4.122193862751907, 51.17799693394828], [-4.122565747202664, 51.17777493001463], [-4.124176739429346, 51.17766687961451], [-4.124603775746547, 51.17939789015767]]]}}, {"type": "Feature", "properties": {"type": "postcode-cell", "postcode": "EX34 8PX", "postcodes": ["EX34 8PX"]}, "geometry": {"type": "Polygon", "coordinates": [[[-4.1246863193711, 51.17712750476386], [-4.124863834960341, 51.17722031126115], [-4.124176739429346, 51.17766687961451], [-4.122565747202664, 51.17777493001463], [-4.1229949943563415, 51.176879079172934], [-4.1246863193711, 51.17712750476386]]]}}, {"type": "Feature", "properties": {"type": "postcode-cell", "postcode": "EX34 8NQ", "postcodes": ["EX34 8NQ"]}, "geometry": {"type": "Polygon", "coordinates": [[[-4.123672488295543, 51.159077379470034], [-4.12075138375837, 51.15894902043206], [-4.124367637553366, 51.15754457030927], [-4.123672488295543, 51.159077379470034]]]}}, {"type": "Feature", "properties": {"type": "postcode-cell", "postcode": "EX34 8PY", "postcodes": ["EX34 8PY"]}, "geometry": {"type": "Polygon", "coordinates": [[[-4.1229949943563415, 51.176879079172934], [-4.122565747202664, 51.17777493001463], [-4.122193862751907, 51.17799693394828], [-4.114906735046653, 51.17735741831976], [-4.121578176807102, 51.17390971737333], [-4.1229949943563415, 51.176879079172934]]]}}, {"type": "Feature", "properties": {"type": "postcode-cell", "postcode": "EX34 8PH", "postcodes": ["EX34 8PH"]}, "geometry": {"type": "Polygon", "coordinates": [[[-4.110401124071966, 51.163773495533334], [-4.111137392767071, 51.163882545175476], [-4.111364121142981, 51.16403043285384], [-4.112589929451717, 51.165088995126986], [-4.108332683611701, 51.1772395031915], [-4.106749989921079, 51.17721999510612], [-4.09932998991662, 51.17578999510494], [-4.097959989917127, 51.17250999510223], [-4.095903401333284, 51.170100390986306], [-4.110401124071966, 51.163773495533334]]]}}, {"type": "Feature", "properties": {"type": "postcode-cell", "postcode": "EX34 8NJ", "postcodes": ["EX34 8NJ"]}, "geometry": {"type": "Polygon", "coordinates": [[[-4.119221706821276, 51.14956647928339], [-4.113617501044141, 51.160631747009525], [-4.111137392767071, 51.163882545175476], [-4.110401124071966, 51.163773495533334], [-4.091222218616594, 51.15441890948737], [-4.092189989921084, 51.15460999508735], [-4.096649989924021, 51.15486999508756], [-4.10067998992695, 51.15448999508723], [-4.107709989931412, 51.15528999508787], [-4.109669989933293, 51.15407999508687], [-4.109789989933837, 51.15302999508599], [-4.110939989935527, 51.15098999508431], [-4.1140099899383715, 51.149309995082895], [-4.113819989938779, 51.14808999508188], [-4.114449989939652, 51.147099995081064], [-4.114649410433458, 51.14703818829157], [-4.119221706821276, 51.14956647928339]]]}}, {"type": "Feature", "properties": {"type": "postcode-cell", "postcode": "EX34 8PJ", "postcodes": ["EX34 8PJ"]}, "geometry": {"type": "Polygon", "coordinates": [[[-4.110401124071966, 51.163773495533334], [-4.095903401333284, 51.170100390986306], [-4.093999989916462, 51.16786999509838], [-4.0901599899165015, 51.16182999509335], [-4.088479989915961, 51.1604499950922], [-4.086679989915136, 51.15952999509147], [-4.084439989915137, 51.15605999508858], [-4.083819989915602, 51.1540499950869], [-4.0860899899171965, 51.15395999508683], [-4.089589989919321, 51.154569995087336], [-4.090619989920146, 51.1542999950871], [-4.091222218616594, 51.15441890948737], [-4.110401124071966, 51.163773495533334]]]}}]}