{"type": "FeatureCollection", "features": [{"type": "Feature", "properties": {"type": "ward-outline", "name": "Newport"}, "geometry": {"type": "Polygon", "coordinates": [[[-4.03242, 51.07213], [-4.03203, 51.07155], [-4.03539, 51.06896], [-4.03157, 51.06835], [-4.0325, 51.06708], [-4.03262, 51.06525], [-4.03541, 51.06544], [-4.03906, 51.06644], [-4.0418, 51.06436], [-4.04174, 51.0634], [-4.04271, 51.06382], [-4.04302, 51.06362], [-4.05113, 51.06503], [-4.05172, 51.06547], [-4.05253, 51.0653], [-4.05278, 51.06566], [-4.05376, 51.06542], [-4.05377, 51.06543], [-4.05655, 51.06842], [-4.0563, 51.06945], [-4.05471, 51.07058], [-4.05403, 51.07168], [-4.05534, 51.07499], [-4.0547, 51.07543], [-4.05288, 51.07475], [-4.04962, 51.07608], [-4.04767, 51.07631], [-4.03358, 51.07288], [-4.03242, 51.07213]]]}}, {"type": "Feature", "properties": {"type": "postcode-cell", "postcode": "EX32 9BA", "postcodes": ["EX32 9BA"]}, "geometry": {"type": "Polygon", "coordinates": [[[-4.0521441706921975, 51.074574368431335], [-4.05152307908236, 51.07450661549072], [-4.051435519367697, 51.073910505837276], [-4.051720892546767, 51.07367091457966], [-4.052676032900661, 51.07419750591248], [-4.0521441706921975, 51.074574368431335]]]}}, {"type": "Feature", "properties": {"type": "postcode-cell", "postcode": "EX32 9AQ", "postcodes": ["EX32 9AQ"]}, "geometry": {"type": "Polygon", "coordinates": [[[-4.0521441706921975, 51.074574368431335], [-4.052676032900661, 51.07419750591248], [-4.054818864968971, 51.073673320191006], [-4.0553399899312925, 51.07498999502161], [-4.054699989930661, 51.07542999502194], [-4.052879989929728, 51.0747499950214], [-4.052537983355416, 51.07488953310535], [-4.0521441706921975, 51.074574368431335]]]}}, {"type": "Feature", "properties": {"type": "postcode-cell", "postcode": "EX32 9EQ", "postcodes": ["EX32 9EQ"]}, "geometry": {"type": "Polygon", "coordinates": [[[-4.051697295132073, 51.06730576269831], [-4.0503900265034565, 51.064901372421566], [-4.051129989932872, 51.065029995013404], [-4.051719989933075, 51.06546999501375], [-4.052529989933704, 51.06529999501363], [-4.052779989933713, 51.065659995013924], [-4.053759989934484, 51.06541999501371], [-4.053769989934487, 51.06542999501372], [-4.0560883939979595, 51.067923562245895], [-4.051697295132073, 51.06730576269831]]]}}, {"type": "Feature", "properties": {"type": "postcode-cell", "postcode": "EX32 0HU", "postcodes": ["EX32 0HU"]}, "geometry": {"type": "Polygon", "coordinates": [[[-4.042629232957222, 51.0651207957507], [-4.041140853275085, 51.06486038417992], [-4.0417999899268455, 51.064359995012914], [-4.04173998992723, 51.06339999501211], [-4.042709989927699, 51.063819995012466], [-4.043019989928, 51.063619995012296], [-4.044259648793722, 51.063835563614255], [-4.042629232957222, 51.0651207957507]]]}}, {"type": "Feature", "properties": {"type": "postcode-cell", "postcode": "EX32 9AH", "postcodes": ["EX32 9AH"]}, "geometry": {"type": "Polygon", "coordinates": [[[-4.052676032900661, 51.07419750591248], [-4.051720892546767, 51.07367091457966], [-4.051835373972624, 51.07346051358952], [-4.054294889484469, 51.07234936229034], [-4.054818864968971, 51.073673320191006], [-4.052676032900661, 51.07419750591248]]]}}, {"type": "Feature", "properties": {"type": "postcode-cell", "postcode": "EX32 9AX", "postcodes": ["EX32 9AX"]}, "geometry": {"type": "Polygon", "coordinates": [[[-4.0518875484649435, 51.070534068206385], [-4.050425666174185, 51.06985618553394], [-4.050157976220876, 51.06956464169151], [-4.0495227385488315, 51.06846183479471], [-4.049808110188742, 51.06801671555532], [-4.050790876468324, 51.0675717969792], [-4.051697295132073, 51.06730576269831], [-4.0560883939979595, 51.067923562245895], [-4.05654998993504, 51.06841999501617], [-4.056299989934414, 51.069449995017024], [-4.054709989932829, 51.070579995017965], [-4.054690431599637, 51.07061163426526], [-4.0518875484649435, 51.070534068206385]]]}}, {"type": "Feature", "properties": {"type": "postcode-cell", "postcode": "EX32 9HR", "postcodes": ["EX32 9HR"]}, "geometry": {"type": "Polygon", "coordinates": [[[-4.050892111033453, 51.075283908951384], [-4.051132742761438, 51.07471367359983], [-4.05152307908236, 51.07450661549072], [-4.0521441706921975, 51.074574368431335], [-4.052537983355416, 51.07488953310535], [-4.051001124600944, 51.075516546235505], [-4.050892111033453, 51.075283908951384]]]}}, {"type": "Feature", "properties": {"type": "postcode-cell", "postcode": "EX32 9BD", "postcodes": ["EX32 9BD"]}, "geometry": {"type": "Polygon", "coordinates": [[[-4.051835373972624, 51.07346051358952], [-4.051169528683859, 51.073243037625836], [-4.050837882657644, 51.07295752939799], [-4.051966578809271, 51.072441339102255], [-4.054233633481732, 51.07219457805395], [-4.054294889484469, 51.07234936229034], [-4.051835373972624, 51.07346051358952]]]}}, {"type": "Feature", "properties": {"type": "postcode-cell", "postcode": "EX32 9JR", "postcodes": ["EX32 9JR"]}, "geometry": {"type": "Polygon", "coordinates": [[[-4.051132742761438, 51.07471367359983], [-4.0504910119165105, 51.07444861237688], [-4.050348090020303, 51.0738255167294], [-4.051435519367697, 51.073910505837276], [-4.05152307908236, 51.07450661549072], [-4.051132742761438, 51.07471367359983]]]}}, {"type": "Feature", "properties": {"type": "postcode-cell", "postcode": "EX32 9EG", "postcodes": ["EX32 9EG"]}, "geometry": {"type": "Polygon", "coordinates": [[[-4.050790876468324, 51.0675717969792], [-4.048391998369219, 51.06607162618513], [-4.048553415651206, 51.06560413449214], [-4.049584944169946, 51.06476142450765], [-4.0503900265034565, 51.064901372421566], [-4.051697295132073, 51.06730576269831], [-4.050790876468324, 51.0675717969792]]]}}, {"type": "Feature", "properties": {"type": "postcode-cell", "postcode": "EX32 9AA", "postcodes": ["EX32 9AA"]}, "geometry": {"type": "Polygon", "coordinates": [[[-4.051720892546767, 51.07367091457966], [-4.051435519367697, 51.073910505837276], [-4.050348090020303, 51.0738255167294], [-4.050234607657955, 51.07377185876178], [-4.05025712921095, 51.07367211061578], [-4.051169528683859, 51.073243037625836], [-4.051835373972624, 51.07346051358952], [-4.051720892546767, 51.07367091457966]]]}}, {"type": "Feature", "properties": {"type": "postcode-cell", "postcode": "EX32 9BR", "postcodes": ["EX32 9BR"]}, "geometry": {"type": "Polygon", "coordinates": [[[-4.050837882657644, 51.07295752939799], [-4.0505704396859, 51.0728984548784], [-4.05106289385937, 51.07234174527385], [-4.051966578809271, 51.072441339102255], [-4.050837882657644, 51.07295752939799]]]}}, {"type": "Feature", "properties": {"type": "postcode-cell", "postcode": "EX32 9AJ", "postcodes": ["EX32 9AJ"]}, "geometry": {"type": "Polygon", "coordinates": [[[-4.051966578809271, 51.072441339102255], [-4.05106289385937, 51.07234174527385], [-4.050896129210899, 51.072268321817596], [-4.050755118294988, 51.07177366890773], [-4.051396817469038, 51.0707942225166], [-4.0518875484649435, 51.070534068206385], [-4.054690431599637, 51.07061163426526], [-4.054029989931877, 51.071679995018854], [-4.054233633481732, 51.07219457805395], [-4.051966578809271, 51.072441339102255]]]}}, {"type": "Feature", "properties": {"type": "postcode-cell", "postcode": "EX32 9AW", "postcodes": ["EX32 9AW"]}, "geometry": {"type": "Polygon", "coordinates": [[[-4.05106289385937, 51.07234174527385], [-4.0505704396859, 51.0728984548784], [-4.050431225052181, 51.07289397640675], [-4.050240734574532, 51.07277503446823], [-4.050192790903481, 51.072418764376984], [-4.050896129210899, 51.072268321817596], [-4.05106289385937, 51.07234174527385]]]}}, {"type": "Feature", "properties": {"type": "postcode-cell", "postcode": "EX32 9BB", "postcodes": ["EX32 9BB"]}, "geometry": {"type": "Polygon", "coordinates": [[[-4.050837882657644, 51.07295752939799], [-4.051169528683859, 51.073243037625836], [-4.05025712921095, 51.07367211061578], [-4.050142362952774, 51.0733153633535], [-4.050431225052181, 51.07289397640675], [-4.0505704396859, 51.0728984548784], [-4.050837882657644, 51.07295752939799]]]}}, {"type": "Feature", "properties": {"type": "postcode-cell", "postcode": "EX32 9JW", "postcodes": ["EX32 9JW"]}, "geometry": {"type": "Polygon", "coordinates": [[[-4.050892111033453, 51.075283908951384], [-4.049432524894172, 51.07491140475647], [-4.049274161082335, 51.074792945445786], [-4.0495642340044515, 51.074575096518466], [-4.0504910119165105, 51.07444861237688], [-4.051132742761438, 51.07471367359983], [-4.050892111033453, 51.075283908951384]]]}}, {"type": "Feature", "properties": {"type": "postcode-cell", "postcode": "EX32 9JS", "postcodes": ["EX32 9JS"]}, "geometry": {"type": "Polygon", "coordinates": [[[-4.050234607657955, 51.07377185876178], [-4.049713893197852, 51.073873571389996], [-4.049071754692817, 51.07371626855331], [-4.04910469749322, 51.07351591224671], [-4.049496845000819, 51.07321302720283], [-4.050142362952774, 51.0733153633535], [-4.05025712921095, 51.07367211061578], [-4.050234607657955, 51.07377185876178]]]}}, {"type": "Feature", "properties": {"type": "postcode-cell", "postcode": "EX32 9BE", "postcodes": ["EX32 9BE"]}, "geometry": {"type": "Polygon", "coordinates": [[[-4.050240734574532, 51.07277503446823], [-4.049394810331675, 51.072844767968476], [-4.04905800426631, 51.07271580528944], [-4.0489612538467865, 51.0723519469542], [-4.04910665739276, 51.07219741119065], [-4.0495402117505, 51.072099528499805], [-4.049895221625986, 51.072176065515805], [-4.050192790903481, 51.072418764376984], [-4.050240734574532, 51.07277503446823]]]}}, {"type": "Feature", "properties": {"type": "postcode-cell", "postcode": "EX32 9AP", "postcodes": ["EX32 9AP"]}, "geometry": {"type": "Polygon", "coordinates": [[[-4.050896129210899, 51.072268321817596], [-4.050192790903481, 51.072418764376984], [-4.049895221625986, 51.072176065515805], [-4.050755118294988, 51.07177366890773], [-4.050896129210899, 51.072268321817596]]]}}, {"type": "Feature", "properties": {"type": "postcode-cell", "postcode": "EX32 9JP", "postcodes": ["EX32 9JP"]}, "geometry": {"type": "Polygon", "coordinates": [[[-4.0504910119165105, 51.07444861237688], [-4.0495642340044515, 51.074575096518466], [-4.049713893197852, 51.073873571389996], [-4.050234607657955, 51.07377185876178], [-4.050348090020303, 51.0738255167294], [-4.0504910119165105, 51.07444861237688]]]}}, {"type": "Feature", "properties": {"type": "postcode-cell", "postcode": "EX32 9JZ", "postcodes": ["EX32 9JZ"]}, "geometry": {"type": "Polygon", "coordinates": [[[-4.050431225052181, 51.07289397640675], [-4.050142362952774, 51.0733153633535], [-4.049496845000819, 51.07321302720283], [-4.049394810331675, 51.072844767968476], [-4.050240734574532, 51.07277503446823], [-4.050431225052181, 51.07289397640675]]]}}, {"type": "Feature", "properties": {"type": "postcode-cell", "postcode": "EX32 9AR", "postcodes": ["EX32 9AR"]}, "geometry": {"type": "Polygon", "coordinates": [[[-4.050755118294988, 51.07177366890773], [-4.049895221625986, 51.072176065515805], [-4.0495402117505, 51.072099528499805], [-4.049828886104595, 51.071228127189876], [-4.051396817469038, 51.0707942225166], [-4.050755118294988, 51.07177366890773]]]}}, {"type": "Feature", "properties": {"type": "postcode-cell", "postcode": "EX32 9AL", "postcodes": ["EX32 9AL"]}, "geometry": {"type": "Polygon", "coordinates": [[[-4.051396817469038, 51.0707942225166], [-4.049828886104595, 51.071228127189876], [-4.049478482632087, 51.071207708010164], [-4.0483800877810365, 51.070538645218676], [-4.050425666174185, 51.06985618553394], [-4.0518875484649435, 51.070534068206385], [-4.051396817469038, 51.0707942225166]]]}}, {"type": "Feature", "properties": {"type": "postcode-cell", "postcode": "EX32 9HY", "postcodes": ["EX32 9HY"]}, "geometry": {"type": "Polygon", "coordinates": [[[-4.051001124600944, 51.075516546235505], [-4.049624920262661, 51.076077983691846], [-4.049399275534621, 51.07572342887618], [-4.049432524894172, 51.07491140475647], [-4.050892111033453, 51.075283908951384], [-4.051001124600944, 51.075516546235505]]]}}, {"type": "Feature", "properties": {"type": "postcode-cell", "postcode": "EX32 9JN", "postcodes": ["EX32 9JN"]}, "geometry": {"type": "Polygon", "coordinates": [[[-4.049274161082335, 51.074792945445786], [-4.049231605322989, 51.07479026915318], [-4.049019211639215, 51.074430782408925], [-4.04903410208886, 51.07372752177632], [-4.049071754692817, 51.07371626855331], [-4.049713893197852, 51.073873571389996], [-4.0495642340044515, 51.074575096518466], [-4.049274161082335, 51.074792945445786]]]}}, {"type": "Feature", "properties": {"type": "postcode-cell", "postcode": "EX32 9EL", "postcodes": ["EX32 9EL"]}, "geometry": {"type": "Polygon", "coordinates": [[[-4.048553415651206, 51.06560413449214], [-4.046352830550243, 51.065672462553195], [-4.046031369102476, 51.065645456900796], [-4.0456540585468606, 51.06512805185459], [-4.045753077070937, 51.06409524083227], [-4.049584944169946, 51.06476142450765], [-4.048553415651206, 51.06560413449214]]]}}, {"type": "Feature", "properties": {"type": "postcode-cell", "postcode": "EX32 9AN", "postcodes": ["EX32 9AN"]}, "geometry": {"type": "Polygon", "coordinates": [[[-4.0495402117505, 51.072099528499805], [-4.04910665739276, 51.07219741119065], [-4.048924991394684, 51.072019064459624], [-4.048879612048637, 51.07143793593536], [-4.049478482632087, 51.071207708010164], [-4.049828886104595, 51.071228127189876], [-4.0495402117505, 51.072099528499805]]]}}, {"type": "Feature", "properties": {"type": "postcode-cell", "postcode": "EX32 9HX", "postcodes": ["EX32 9HX"]}, "geometry": {"type": "Polygon", "coordinates": [[[-4.047469276433041, 51.07586095056812], [-4.048714356573598, 51.07546214295545], [-4.049399275534621, 51.07572342887618], [-4.049624920262661, 51.076077983691846], [-4.0496199899269225, 51.07607999502251], [-4.047669989925496, 51.07630999502272], [-4.047501738030069, 51.076269049720075], [-4.047469276433041, 51.07586095056812]]]}}, {"type": "Feature", "properties": {"type": "postcode-cell", "postcode": "EX32 9HT", "postcodes": ["EX32 9HT"]}, "geometry": {"type": "Polygon", "coordinates": [[[-4.049274161082335, 51.074792945445786], [-4.049432524894172, 51.07491140475647], [-4.049399275534621, 51.07572342887618], [-4.048714356573598, 51.07546214295545], [-4.048865945847872, 51.07484351220844], [-4.049231605322989, 51.07479026915318], [-4.049274161082335, 51.074792945445786]]]}}, {"type": "Feature", "properties": {"type": "postcode-cell", "postcode": "EX32 9JL", "postcodes": ["EX32 9JL"]}, "geometry": {"type": "Polygon", "coordinates": [[[-4.04910469749322, 51.07351591224671], [-4.048620018836078, 51.07300757828681], [-4.04905800426631, 51.07271580528944], [-4.049394810331675, 51.072844767968476], [-4.049496845000819, 51.07321302720283], [-4.04910469749322, 51.07351591224671]]]}}, {"type": "Feature", "properties": {"type": "postcode-cell", "postcode": "EX32 9AU", "postcodes": ["EX32 9AU"]}, "geometry": {"type": "Polygon", "coordinates": [[[-4.050425666174185, 51.06985618553394], [-4.0483800877810365, 51.070538645218676], [-4.048354713718188, 51.070538494693714], [-4.047963770706854, 51.07041696384028], [-4.047714137809493, 51.070009233093], [-4.047821904796275, 51.06987830207206], [-4.050157976220876, 51.06956464169151], [-4.050425666174185, 51.06985618553394]]]}}, {"type": "Feature", "properties": {"type": "postcode-cell", "postcode": "EX32 9EF", "postcodes": ["EX32 9EF"]}, "geometry": {"type": "Polygon", "coordinates": [[[-4.049808110188742, 51.06801671555532], [-4.048052670586881, 51.067293721140736], [-4.047620111274744, 51.066911173005906], [-4.047782627909674, 51.066671252268804], [-4.048391998369219, 51.06607162618513], [-4.050790876468324, 51.0675717969792], [-4.049808110188742, 51.06801671555532]]]}}, {"type": "Feature", "properties": {"type": "postcode-cell", "postcode": "EX32 9BG", "postcodes": ["EX32 9BG"]}, "geometry": {"type": "Polygon", "coordinates": [[[-4.04910665739276, 51.07219741119065], [-4.0489612538467865, 51.0723519469542], [-4.048165678017257, 51.07237264706653], [-4.047688777467948, 51.07212052010029], [-4.048190047965858, 51.07178603881308], [-4.048924991394684, 51.072019064459624], [-4.04910665739276, 51.07219741119065]]]}}, {"type": "Feature", "properties": {"type": "postcode-cell", "postcode": "EX32 9EJ", "postcodes": ["EX32 9EJ"]}, "geometry": {"type": "Polygon", "coordinates": [[[-4.048391998369219, 51.06607162618513], [-4.047782627909674, 51.066671252268804], [-4.046352830550243, 51.065672462553195], [-4.048553415651206, 51.06560413449214], [-4.048391998369219, 51.06607162618513]]]}}, {"type": "Feature", "properties": {"type": "postcode-cell", "postcode": "EX32 9JA", "postcodes": ["EX32 9JA"]}, "geometry": {"type": "Polygon", "coordinates": [[[-4.049019211639215, 51.074430782408925], [-4.048418636488238, 51.07404838288595], [-4.048868223441482, 51.073748720645575], [-4.04903410208886, 51.07372752177632], [-4.049019211639215, 51.074430782408925]]]}}, {"type": "Feature", "properties": {"type": "postcode-cell", "postcode": "EX32 9AS", "postcodes": ["EX32 9AS"]}, "geometry": {"type": "Polygon", "coordinates": [[[-4.048879612048637, 51.07143793593536], [-4.048776130712841, 51.071431322997874], [-4.048232320561698, 51.071181845545055], [-4.048354713718188, 51.070538494693714], [-4.0483800877810365, 51.070538645218676], [-4.049478482632087, 51.071207708010164], [-4.048879612048637, 51.07143793593536]]]}}, {"type": "Feature", "properties": {"type": "postcode-cell", "postcode": "EX32 9JD", "postcodes": ["EX32 9JD"]}, "geometry": {"type": "Polygon", "coordinates": [[[-4.04903410208886, 51.07372752177632], [-4.048868223441482, 51.073748720645575], [-4.04815097648669, 51.07348722310489], [-4.048229179521401, 51.07305803470753], [-4.048620018836078, 51.07300757828681], [-4.04910469749322, 51.07351591224671], [-4.049071754692817, 51.07371626855331], [-4.04903410208886, 51.07372752177632]]]}}, {"type": "Feature", "properties": {"type": "postcode-cell", "postcode": "EX32 9HZ", "postcodes": ["EX32 9HZ"]}, "geometry": {"type": "Polygon", "coordinates": [[[-4.048865945847872, 51.07484351220844], [-4.048269286302603, 51.07480717225737], [-4.047709831358282, 51.0742794584839], [-4.048418636488238, 51.07404838288595], [-4.049019211639215, 51.074430782408925], [-4.049231605322989, 51.07479026915318], [-4.048865945847872, 51.07484351220844]]]}}, {"type": "Feature", "properties": {"type": "postcode-cell", "postcode": "EX32 9DJ", "postcodes": ["EX32 9DJ"]}, "geometry": {"type": "Polygon", "coordinates": [[[-4.048232320561698, 51.071181845545055], [-4.048048543164644, 51.07127665819896], [-4.047511141341413, 51.07122395034393], [-4.047911042050238, 51.070443819370155], [-4.047963770706854, 51.07041696384028], [-4.048354713718188, 51.070538494693714], [-4.048232320561698, 51.071181845545055]]]}}, {"type": "Feature", "properties": {"type": "postcode-cell", "postcode": "EX32 9DX", "postcodes": ["EX32 9DX"]}, "geometry": {"type": "Polygon", "coordinates": [[[-4.050157976220876, 51.06956464169151], [-4.047821904796275, 51.06987830207206], [-4.047959258803953, 51.06934570428545], [-4.048933835581376, 51.06860135081184], [-4.0495227385488315, 51.06846183479471], [-4.050157976220876, 51.06956464169151]]]}}, {"type": "Feature", "properties": {"type": "postcode-cell", "postcode": "EX32 9BH", "postcodes": ["EX32 9BH"]}, "geometry": {"type": "Polygon", "coordinates": [[[-4.048924991394684, 51.072019064459624], [-4.048190047965858, 51.07178603881308], [-4.048186406161937, 51.0717076917909], [-4.048776130712841, 51.071431322997874], [-4.048879612048637, 51.07143793593536], [-4.048924991394684, 51.072019064459624]]]}}, {"type": "Feature", "properties": {"type": "postcode-cell", "postcode": "EX32 9JE", "postcodes": ["EX32 9JE"]}, "geometry": {"type": "Polygon", "coordinates": [[[-4.04905800426631, 51.07271580528944], [-4.048620018836078, 51.07300757828681], [-4.048229179521401, 51.07305803470753], [-4.047865382197996, 51.07291747398461], [-4.0478449280498685, 51.07289779378331], [-4.048165678017257, 51.07237264706653], [-4.0489612538467865, 51.0723519469542], [-4.04905800426631, 51.07271580528944]]]}}, {"type": "Feature", "properties": {"type": "postcode-cell", "postcode": "EX32 9DU", "postcodes": ["EX32 9DU"]}, "geometry": {"type": "Polygon", "coordinates": [[[-4.047821904796275, 51.06987830207206], [-4.047714137809493, 51.070009233093], [-4.047110750920499, 51.06992249511216], [-4.046721545171277, 51.069351154636976], [-4.0471065020009735, 51.069189869154606], [-4.047959258803953, 51.06934570428545], [-4.047821904796275, 51.06987830207206]]]}}, {"type": "Feature", "properties": {"type": "postcode-cell", "postcode": "EX32 9FB", "postcodes": ["EX32 9FB"]}, "geometry": {"type": "Polygon", "coordinates": [[[-4.0495227385488315, 51.06846183479471], [-4.048933835581376, 51.06860135081184], [-4.048097330252499, 51.0685411898725], [-4.0471902140046705, 51.06789454038923], [-4.048052670586881, 51.067293721140736], [-4.049808110188742, 51.06801671555532], [-4.0495227385488315, 51.06846183479471]]]}}, {"type": "Feature", "properties": {"type": "postcode-cell", "postcode": "EX32 9FD", "postcodes": ["EX32 9FD"]}, "geometry": {"type": "Polygon", "coordinates": [[[-4.048186406161937, 51.0717076917909], [-4.047998088628119, 51.071550514160826], [-4.048048543164644, 51.07127665819896], [-4.048232320561698, 51.071181845545055], [-4.048776130712841, 51.071431322997874], [-4.048186406161937, 51.0717076917909]]]}}, {"type": "Feature", "properties": {"type": "postcode-cell", "postcode": "EX32 9HU", "postcodes": ["EX32 9HU"]}, "geometry": {"type": "Polygon", "coordinates": [[[-4.047491603488491, 51.07545144030606], [-4.048269286302603, 51.07480717225737], [-4.048865945847872, 51.07484351220844], [-4.048714356573598, 51.07546214295545], [-4.047469276433041, 51.07586095056812], [-4.047451217301456, 51.07582161882575], [-4.047491603488491, 51.07545144030606]]]}}, {"type": "Feature", "properties": {"type": "postcode-cell", "postcode": "EX32 8BE", "postcodes": ["EX32 8BE"]}, "geometry": {"type": "Polygon", "coordinates": [[[-4.047451217301456, 51.07582161882575], [-4.044386608661387, 51.07490640447042], [-4.044565079846342, 51.0746315594428], [-4.046281997351167, 51.074460470179], [-4.047491603488491, 51.07545144030606], [-4.047451217301456, 51.07582161882575]]]}}, {"type": "Feature", "properties": {"type": "postcode-cell", "postcode": "EX32 9JB", "postcodes": ["EX32 9JB"]}, "geometry": {"type": "Polygon", "coordinates": [[[-4.048868223441482, 51.073748720645575], [-4.048418636488238, 51.07404838288595], [-4.047709831358282, 51.0742794584839], [-4.0476572533388335, 51.074264034000464], [-4.047738795488899, 51.073623660956756], [-4.04815097648669, 51.07348722310489], [-4.048868223441482, 51.073748720645575]]]}}, {"type": "Feature", "properties": {"type": "postcode-cell", "postcode": "EX32 9JF", "postcodes": ["EX32 9JF"]}, "geometry": {"type": "Polygon", "coordinates": [[[-4.048165678017257, 51.07237264706653], [-4.0478449280498685, 51.07289779378331], [-4.04731982506956, 51.07278122254671], [-4.0468760907614225, 51.07221520398344], [-4.047009593167465, 51.07212820675048], [-4.047147825243535, 51.072092190279996], [-4.047688777467948, 51.07212052010029], [-4.048165678017257, 51.07237264706653]]]}}, {"type": "Feature", "properties": {"type": "postcode-cell", "postcode": "EX32 9JG", "postcodes": ["EX32 9JG"]}, "geometry": {"type": "Polygon", "coordinates": [[[-4.04815097648669, 51.07348722310489], [-4.047738795488899, 51.073623660956756], [-4.047328661559612, 51.07343061445417], [-4.047865382197996, 51.07291747398461], [-4.048229179521401, 51.07305803470753], [-4.04815097648669, 51.07348722310489]]]}}, {"type": "Feature", "properties": {"type": "postcode-cell", "postcode": "EX32 9FE", "postcodes": ["EX32 9FE"]}, "geometry": {"type": "Polygon", "coordinates": [[[-4.048186406161937, 51.0717076917909], [-4.048190047965858, 51.07178603881308], [-4.047688777467948, 51.07212052010029], [-4.047147825243535, 51.072092190279996], [-4.047428056972455, 51.07159332005077], [-4.047998088628119, 51.071550514160826], [-4.048186406161937, 51.0717076917909]]]}}, {"type": "Feature", "properties": {"type": "postcode-cell", "postcode": "EX32 9JJ", "postcodes": ["EX32 9JJ"]}, "geometry": {"type": "Polygon", "coordinates": [[[-4.0476572533388335, 51.074264034000464], [-4.046591404961994, 51.07432713352098], [-4.046758900274964, 51.07339898335087], [-4.047328661559612, 51.07343061445417], [-4.047738795488899, 51.073623660956756], [-4.0476572533388335, 51.074264034000464]]]}}, {"type": "Feature", "properties": {"type": "postcode-cell", "postcode": "EX32 9HA", "postcodes": ["EX32 9HA"]}, "geometry": {"type": "Polygon", "coordinates": [[[-4.048269286302603, 51.07480717225737], [-4.047491603488491, 51.07545144030606], [-4.046281997351167, 51.074460470179], [-4.046591404961994, 51.07432713352098], [-4.0476572533388335, 51.074264034000464], [-4.047709831358282, 51.0742794584839], [-4.048269286302603, 51.07480717225737]]]}}, {"type": "Feature", "properties": {"type": "postcode-cell", "postcode": "EX32 9AT", "postcodes": ["EX32 9AT"]}, "geometry": {"type": "Polygon", "coordinates": [[[-4.048048543164644, 51.07127665819896], [-4.047998088628119, 51.071550514160826], [-4.047428056972455, 51.07159332005077], [-4.04731076287647, 51.07134320961137], [-4.047446930335125, 51.071242976124346], [-4.047511141341413, 51.07122395034393], [-4.048048543164644, 51.07127665819896]]]}}, {"type": "Feature", "properties": {"type": "postcode-cell", "postcode": "EX32 9JH", "postcodes": ["EX32 9JH"]}, "geometry": {"type": "Polygon", "coordinates": [[[-4.048052670586881, 51.067293721140736], [-4.0471902140046705, 51.06789454038923], [-4.046606846532554, 51.06802436381789], [-4.046152564771447, 51.066948600093], [-4.047620111274744, 51.066911173005906], [-4.048052670586881, 51.067293721140736]]]}}, {"type": "Feature", "properties": {"type": "postcode-cell", "postcode": "EX32 2JA", "postcodes": ["EX32 2JA", "EX32 9EN"]}, "geometry": {"type": "Polygon", "coordinates": [[[-4.047959258803953, 51.06934570428545], [-4.0471065020009735, 51.069189869154606], [-4.047100145885445, 51.06861373419703], [-4.048097330252499, 51.0685411898725], [-4.048933835581376, 51.06860135081184], [-4.047959258803953, 51.06934570428545]]]}}, {"type": "Feature", "properties": {"type": "postcode-cell", "postcode": "EX32 9BJ", "postcodes": ["EX32 9BJ"]}, "geometry": {"type": "Polygon", "coordinates": [[[-4.047511141341413, 51.07122395034393], [-4.047446930335125, 51.071242976124346], [-4.046982463059177, 51.07074000213929], [-4.047911042050238, 51.070443819370155], [-4.047511141341413, 51.07122395034393]]]}}, {"type": "Feature", "properties": {"type": "postcode-cell", "postcode": "EX32 9DT", "postcodes": ["EX32 9DT"]}, "geometry": {"type": "Polygon", "coordinates": [[[-4.047911042050238, 51.070443819370155], [-4.046982463059177, 51.07074000213929], [-4.046527381673939, 51.07079439279031], [-4.046526899164319, 51.07079417351635], [-4.046417685863907, 51.070332085500475], [-4.047038370256191, 51.06993928249496], [-4.047110750920499, 51.06992249511216], [-4.047714137809493, 51.070009233093], [-4.047963770706854, 51.07041696384028], [-4.047911042050238, 51.070443819370155]]]}}, {"type": "Feature", "properties": {"type": "postcode-cell", "postcode": "EX32 9BQ", "postcodes": ["EX32 9BQ"]}, "geometry": {"type": "Polygon", "coordinates": [[[-4.047147825243535, 51.072092190279996], [-4.047009593167465, 51.07212820675048], [-4.0465135877890805, 51.071361068702416], [-4.0465895128767695, 51.07128367136278], [-4.04731076287647, 51.07134320961137], [-4.047428056972455, 51.07159332005077], [-4.047147825243535, 51.072092190279996]]]}}, {"type": "Feature", "properties": {"type": "postcode-cell", "postcode": "EX32 9LD", "postcodes": ["EX32 9LD"]}, "geometry": {"type": "Polygon", "coordinates": [[[-4.0478449280498685, 51.07289779378331], [-4.047865382197996, 51.07291747398461], [-4.047328661559612, 51.07343061445417], [-4.046758900274964, 51.07339898335087], [-4.046617314041303, 51.07327583026963], [-4.04731982506956, 51.07278122254671], [-4.0478449280498685, 51.07289779378331]]]}}, {"type": "Feature", "properties": {"type": "postcode-cell", "postcode": "EX32 9FH", "postcodes": ["EX32 9FH"]}, "geometry": {"type": "Polygon", "coordinates": [[[-4.04731076287647, 51.07134320961137], [-4.0465895128767695, 51.07128367136278], [-4.046527381673939, 51.07079439279031], [-4.046982463059177, 51.07074000213929], [-4.047446930335125, 51.071242976124346], [-4.04731076287647, 51.07134320961137]]]}}, {"type": "Feature", "properties": {"type": "postcode-cell", "postcode": "EX32 9DZ", "postcodes": ["EX32 9DZ"]}, "geometry": {"type": "Polygon", "coordinates": [[[-4.0471902140046705, 51.06789454038923], [-4.048097330252499, 51.0685411898725], [-4.047100145885445, 51.06861373419703], [-4.046324320428954, 51.06841486283335], [-4.046606846532554, 51.06802436381789], [-4.0471902140046705, 51.06789454038923]]]}}, {"type": "Feature", "properties": {"type": "postcode-cell", "postcode": "EX32 9DY", "postcodes": ["EX32 9DY"]}, "geometry": {"type": "Polygon", "coordinates": [[[-4.0471065020009735, 51.069189869154606], [-4.046721545171277, 51.069351154636976], [-4.045777533288902, 51.06919563127201], [-4.045721685555875, 51.06857237150465], [-4.046324320428954, 51.06841486283335], [-4.047100145885445, 51.06861373419703], [-4.0471065020009735, 51.069189869154606]]]}}, {"type": "Feature", "properties": {"type": "postcode-cell", "postcode": "EX32 9EH", "postcodes": ["EX32 9EH"]}, "geometry": {"type": "Polygon", "coordinates": [[[-4.047620111274744, 51.066911173005906], [-4.046152564771447, 51.066948600093], [-4.045873200259703, 51.06688298461269], [-4.045894780426993, 51.065974808099504], [-4.046031369102476, 51.065645456900796], [-4.046352830550243, 51.065672462553195], [-4.047782627909674, 51.066671252268804], [-4.047620111274744, 51.066911173005906]]]}}, {"type": "Feature", "properties": {"type": "postcode-cell", "postcode": "EX32 8PB", "postcodes": ["EX32 8PB"]}, "geometry": {"type": "Polygon", "coordinates": [[[-4.044386608661387, 51.07490640447042], [-4.047451217301456, 51.07582161882575], [-4.047469276433041, 51.07586095056812], [-4.047501738030069, 51.076269049720075], [-4.043878886265072, 51.075387325967284], [-4.044386608661387, 51.07490640447042]]]}}, {"type": "Feature", "properties": {"type": "postcode-cell", "postcode": "EX32 9JU", "postcodes": ["EX32 9JU"]}, "geometry": {"type": "Polygon", "coordinates": [[[-4.046591404961994, 51.07432713352098], [-4.046281997351167, 51.074460470179], [-4.044565079846342, 51.0746315594428], [-4.044319428088565, 51.07395569823178], [-4.045328709351027, 51.07323070164982], [-4.046288240799362, 51.073179359755315], [-4.046617314041303, 51.07327583026963], [-4.046758900274964, 51.07339898335087], [-4.046591404961994, 51.07432713352098]]]}}, {"type": "Feature", "properties": {"type": "postcode-cell", "postcode": "EX32 9JQ", "postcodes": ["EX32 9JQ"]}, "geometry": {"type": "Polygon", "coordinates": [[[-4.04731982506956, 51.07278122254671], [-4.046617314041303, 51.07327583026963], [-4.046288240799362, 51.073179359755315], [-4.046545081849613, 51.07226787899422], [-4.0468760907614225, 51.07221520398344], [-4.04731982506956, 51.07278122254671]]]}}, {"type": "Feature", "properties": {"type": "postcode-cell", "postcode": "EX32 9ES", "postcodes": ["EX32 9ES"]}, "geometry": {"type": "Polygon", "coordinates": [[[-4.045873200259703, 51.06688298461269], [-4.044945946526384, 51.06713379975848], [-4.044714948551088, 51.06705930882997], [-4.044424733287716, 51.066078127337136], [-4.045894780426993, 51.065974808099504], [-4.045873200259703, 51.06688298461269]]]}}, {"type": "Feature", "properties": {"type": "postcode-cell", "postcode": "EX32 9ED", "postcodes": ["EX32 9ED"]}, "geometry": {"type": "Polygon", "coordinates": [[[-4.046417685863907, 51.070332085500475], [-4.045873747730468, 51.07014476105289], [-4.045997290812855, 51.0697771747383], [-4.047038370256191, 51.06993928249496], [-4.046417685863907, 51.070332085500475]]]}}, {"type": "Feature", "properties": {"type": "postcode-cell", "postcode": "EX32 9EB", "postcodes": ["EX32 9EB"]}, "geometry": {"type": "Polygon", "coordinates": [[[-4.047038370256191, 51.06993928249496], [-4.045997290812855, 51.0697771747383], [-4.04568808528841, 51.069300873740694], [-4.045777533288902, 51.06919563127201], [-4.046721545171277, 51.069351154636976], [-4.047110750920499, 51.06992249511216], [-4.047038370256191, 51.06993928249496]]]}}, {"type": "Feature", "properties": {"type": "postcode-cell", "postcode": "EX32 9LQ", "postcodes": ["EX32 9LQ"]}, "geometry": {"type": "Polygon", "coordinates": [[[-4.0465895128767695, 51.07128367136278], [-4.0465135877890805, 51.071361068702416], [-4.046458344036155, 51.071374110178695], [-4.0454902290441055, 51.07114354487828], [-4.04547524716567, 51.07112431604273], [-4.045796787117531, 51.070813020640976], [-4.046526899164319, 51.07079417351635], [-4.046527381673939, 51.07079439279031], [-4.0465895128767695, 51.07128367136278]]]}}, {"type": "Feature", "properties": {"type": "postcode-cell", "postcode": "EX32 9EW", "postcodes": ["EX32 9EW"]}, "geometry": {"type": "Polygon", "coordinates": [[[-4.046324320428954, 51.06841486283335], [-4.045721685555875, 51.06857237150465], [-4.044754956266236, 51.06821258274317], [-4.044945946526384, 51.06713379975848], [-4.045873200259703, 51.06688298461269], [-4.046152564771447, 51.066948600093], [-4.046606846532554, 51.06802436381789], [-4.046324320428954, 51.06841486283335]]]}}, {"type": "Feature", "properties": {"type": "postcode-cell", "postcode": "EX32 9LJ", "postcodes": ["EX32 9LJ"]}, "geometry": {"type": "Polygon", "coordinates": [[[-4.046545081849613, 51.07226787899422], [-4.046492930984892, 51.072261076411074], [-4.045826407787765, 51.07168527846425], [-4.046458344036155, 51.071374110178695], [-4.0465135877890805, 51.071361068702416], [-4.047009593167465, 51.07212820675048], [-4.0468760907614225, 51.07221520398344], [-4.046545081849613, 51.07226787899422]]]}}, {"type": "Feature", "properties": {"type": "postcode-cell", "postcode": "EX32 9BT", "postcodes": ["EX32 9BT"]}, "geometry": {"type": "Polygon", "coordinates": [[[-4.04568808528841, 51.069300873740694], [-4.045110488137111, 51.06950758954144], [-4.044153512504684, 51.06920650660887], [-4.044149070633059, 51.06866560874652], [-4.0446926534194425, 51.068230608345225], [-4.044754956266236, 51.06821258274317], [-4.045721685555875, 51.06857237150465], [-4.045777533288902, 51.06919563127201], [-4.04568808528841, 51.069300873740694]]]}}, {"type": "Feature", "properties": {"type": "postcode-cell", "postcode": "EX32 9EE", "postcodes": ["EX32 9EE"]}, "geometry": {"type": "Polygon", "coordinates": [[[-4.046526899164319, 51.07079417351635], [-4.045796787117531, 51.070813020640976], [-4.045237633078506, 51.070352651492534], [-4.045873747730468, 51.07014476105289], [-4.046417685863907, 51.070332085500475], [-4.046526899164319, 51.07079417351635]]]}}, {"type": "Feature", "properties": {"type": "postcode-cell", "postcode": "EX32 8QA", "postcodes": ["EX32 8QA"]}, "geometry": {"type": "Polygon", "coordinates": [[[-4.044386608661387, 51.07490640447042], [-4.043878886265072, 51.075387325967284], [-4.0407821034157125, 51.07463351956429], [-4.0411294810229075, 51.07334349076058], [-4.043578404931828, 51.07352541094016], [-4.044319428088565, 51.07395569823178], [-4.044565079846342, 51.0746315594428], [-4.044386608661387, 51.07490640447042]]]}}, {"type": "Feature", "properties": {"type": "postcode-cell", "postcode": "EX32 9JX", "postcodes": ["EX32 9JX"]}, "geometry": {"type": "Polygon", "coordinates": [[[-4.046288240799362, 51.073179359755315], [-4.045328709351027, 51.07323070164982], [-4.045260201173981, 51.07247037454652], [-4.046492930984892, 51.072261076411074], [-4.046545081849613, 51.07226787899422], [-4.046288240799362, 51.073179359755315]]]}}, {"type": "Feature", "properties": {"type": "postcode-cell", "postcode": "EX32 9EA", "postcodes": ["EX32 9EA"]}, "geometry": {"type": "Polygon", "coordinates": [[[-4.04568808528841, 51.069300873740694], [-4.045997290812855, 51.0697771747383], [-4.045873747730468, 51.07014476105289], [-4.045237633078506, 51.070352651492534], [-4.044710718984369, 51.07028323597435], [-4.0446132435036395, 51.07021621108357], [-4.045110488137111, 51.06950758954144], [-4.04568808528841, 51.069300873740694]]]}}, {"type": "Feature", "properties": {"type": "postcode-cell", "postcode": "EX32 9FQ", "postcodes": ["EX32 9FQ"]}, "geometry": {"type": "Polygon", "coordinates": [[[-4.045826407787765, 51.07168527846425], [-4.045594855566758, 51.071661568861025], [-4.0454902290441055, 51.07114354487828], [-4.046458344036155, 51.071374110178695], [-4.045826407787765, 51.07168527846425]]]}}, {"type": "Feature", "properties": {"type": "postcode-cell", "postcode": "EX32 9BN", "postcodes": ["EX32 9BN"]}, "geometry": {"type": "Polygon", "coordinates": [[[-4.045796787117531, 51.070813020640976], [-4.04547524716567, 51.07112431604273], [-4.044587373324832, 51.07110563911523], [-4.044710718984369, 51.07028323597435], [-4.045237633078506, 51.070352651492534], [-4.045796787117531, 51.070813020640976]]]}}, {"type": "Feature", "properties": {"type": "postcode-cell", "postcode": "EX32 9DL", "postcodes": ["EX32 9DL"]}, "geometry": {"type": "Polygon", "coordinates": [[[-4.045260201173981, 51.07247037454652], [-4.044931321501253, 51.072267432224734], [-4.044941485233934, 51.071894627151735], [-4.045594855566758, 51.071661568861025], [-4.045826407787765, 51.07168527846425], [-4.046492930984892, 51.072261076411074], [-4.045260201173981, 51.07247037454652]]]}}, {"type": "Feature", "properties": {"type": "postcode-cell", "postcode": "EX32 8QZ", "postcodes": ["EX32 8QZ"]}, "geometry": {"type": "Polygon", "coordinates": [[[-4.045260201173981, 51.07247037454652], [-4.045328709351027, 51.07323070164982], [-4.044319428088565, 51.07395569823178], [-4.043578404931828, 51.07352541094016], [-4.043661224898325, 51.072521439098836], [-4.044931321501253, 51.072267432224734], [-4.045260201173981, 51.07247037454652]]]}}, {"type": "Feature", "properties": {"type": "postcode-cell", "postcode": "EX32 9BL", "postcodes": ["EX32 9BL"]}, "geometry": {"type": "Polygon", "coordinates": [[[-4.044941485233934, 51.071894627151735], [-4.044895176041467, 51.07186226394355], [-4.0445652720013605, 51.071120770136105], [-4.044587373324832, 51.07110563911523], [-4.04547524716567, 51.07112431604273], [-4.0454902290441055, 51.07114354487828], [-4.045594855566758, 51.071661568861025], [-4.044941485233934, 51.071894627151735]]]}}, {"type": "Feature", "properties": {"type": "postcode-cell", "postcode": "EX32 9BP", "postcodes": ["EX32 9BP"]}, "geometry": {"type": "Polygon", "coordinates": [[[-4.0446132435036395, 51.07021621108357], [-4.044232556876467, 51.07017655416882], [-4.044061668223673, 51.06926561798633], [-4.044153512504684, 51.06920650660887], [-4.045110488137111, 51.06950758954144], [-4.0446132435036395, 51.07021621108357]]]}}, {"type": "Feature", "properties": {"type": "postcode-cell", "postcode": "EX32 9BW", "postcodes": ["EX32 9BW"]}, "geometry": {"type": "Polygon", "coordinates": [[[-4.044710718984369, 51.07028323597435], [-4.044587373324832, 51.07110563911523], [-4.0445652720013605, 51.071120770136105], [-4.043058599484438, 51.071283869571374], [-4.0433076508015295, 51.07022978972355], [-4.044232556876467, 51.07017655416882], [-4.0446132435036395, 51.07021621108357], [-4.044710718984369, 51.07028323597435]]]}}, {"type": "Feature", "properties": {"type": "postcode-cell", "postcode": "EX32 9EX", "postcodes": ["EX32 9EX"]}, "geometry": {"type": "Polygon", "coordinates": [[[-4.044945946526384, 51.06713379975848], [-4.044754956266236, 51.06821258274317], [-4.0446926534194425, 51.068230608345225], [-4.042322228257761, 51.067783523204675], [-4.042469909990085, 51.06743949330303], [-4.043541339827543, 51.066935690235276], [-4.044714948551088, 51.06705930882997], [-4.044945946526384, 51.06713379975848]]]}}, {"type": "Feature", "properties": {"type": "postcode-cell", "postcode": "EX32 9ET", "postcodes": ["EX32 9ET"]}, "geometry": {"type": "Polygon", "coordinates": [[[-4.045894780426993, 51.065974808099504], [-4.044424733287716, 51.066078127337136], [-4.0438967875125735, 51.0657001288747], [-4.0456540585468606, 51.06512805185459], [-4.046031369102476, 51.065645456900796], [-4.045894780426993, 51.065974808099504]]]}}, {"type": "Feature", "properties": {"type": "postcode-cell", "postcode": "EX32 9ER", "postcodes": ["EX32 9ER"]}, "geometry": {"type": "Polygon", "coordinates": [[[-4.044424733287716, 51.066078127337136], [-4.044714948551088, 51.06705930882997], [-4.043541339827543, 51.066935690235276], [-4.042942888007039, 51.06579464641205], [-4.043003749432953, 51.065664637710526], [-4.0438967875125735, 51.0657001288747], [-4.044424733287716, 51.066078127337136]]]}}, {"type": "Feature", "properties": {"type": "postcode-cell", "postcode": "EX32 8QJ", "postcodes": ["EX32 8QJ"]}, "geometry": {"type": "Polygon", "coordinates": [[[-4.043661224898325, 51.072521439098836], [-4.043578404931828, 51.07352541094016], [-4.0411294810229075, 51.07334349076058], [-4.040854677653068, 51.07303016473226], [-4.041787776124532, 51.07171085113213], [-4.042551412962627, 51.071654558323196], [-4.043661224898325, 51.072521439098836]]]}}, {"type": "Feature", "properties": {"type": "postcode-cell", "postcode": "EX32 9LN", "postcodes": ["EX32 9LN"]}, "geometry": {"type": "Polygon", "coordinates": [[[-4.042551412962627, 51.071654558323196], [-4.042652953123926, 51.07160258730945], [-4.044895176041467, 51.07186226394355], [-4.044941485233934, 51.071894627151735], [-4.044931321501253, 51.072267432224734], [-4.043661224898325, 51.072521439098836], [-4.042551412962627, 51.071654558323196]]]}}, {"type": "Feature", "properties": {"type": "postcode-cell", "postcode": "EX32 9FF", "postcodes": ["EX32 9FF"]}, "geometry": {"type": "Polygon", "coordinates": [[[-4.0438967875125735, 51.0657001288747], [-4.043003749432953, 51.065664637710526], [-4.042629232957222, 51.0651207957507], [-4.044259648793722, 51.063835563614255], [-4.045753077070937, 51.06409524083227], [-4.0456540585468606, 51.06512805185459], [-4.0438967875125735, 51.0657001288747]]]}}, {"type": "Feature", "properties": {"type": "postcode-cell", "postcode": "EX32 9LW", "postcodes": ["EX32 9LW"]}, "geometry": {"type": "Polygon", "coordinates": [[[-4.044895176041467, 51.07186226394355], [-4.042652953123926, 51.07160258730945], [-4.043058599484438, 51.071283869571374], [-4.0445652720013605, 51.071120770136105], [-4.044895176041467, 51.07186226394355]]]}}, {"type": "Feature", "properties": {"type": "postcode-cell", "postcode": "EX32 9EY", "postcodes": ["EX32 9EY"]}, "geometry": {"type": "Polygon", "coordinates": [[[-4.042469909990085, 51.06743949330303], [-4.041419097473503, 51.066529479116916], [-4.042942888007039, 51.06579464641205], [-4.043541339827543, 51.066935690235276], [-4.042469909990085, 51.06743949330303]]]}}, {"type": "Feature", "properties": {"type": "postcode-cell", "postcode": "EX32 9BU", "postcodes": ["EX32 9BU"]}, "geometry": {"type": "Polygon", "coordinates": [[[-4.044061668223673, 51.06926561798633], [-4.042813346276116, 51.069587440678056], [-4.042434961052427, 51.0690441107866], [-4.04243068011622, 51.06899370269987], [-4.042504543930684, 51.068828115633764], [-4.044149070633059, 51.06866560874652], [-4.044153512504684, 51.06920650660887], [-4.044061668223673, 51.06926561798633]]]}}, {"type": "Feature", "properties": {"type": "postcode-cell", "postcode": "EX32 9LL", "postcodes": ["EX32 9LL"]}, "geometry": {"type": "Polygon", "coordinates": [[[-4.042813346276116, 51.069587440678056], [-4.042797245943117, 51.06990803948736], [-4.042208613147868, 51.07004975875336], [-4.040740196880976, 51.070066427014545], [-4.040430141293248, 51.069864411932706], [-4.040466339076643, 51.06976122480152], [-4.042434961052427, 51.0690441107866], [-4.042813346276116, 51.069587440678056]]]}}, {"type": "Feature", "properties": {"type": "postcode-cell", "postcode": "EX32 9BS", "postcodes": ["EX32 9BS"]}, "geometry": {"type": "Polygon", "coordinates": [[[-4.042797245943117, 51.06990803948736], [-4.042813346276116, 51.069587440678056], [-4.044061668223673, 51.06926561798633], [-4.044232556876467, 51.07017655416882], [-4.0433076508015295, 51.07022978972355], [-4.042797245943117, 51.06990803948736]]]}}, {"type": "Feature", "properties": {"type": "postcode-cell", "postcode": "EX32 9BX", "postcodes": ["EX32 9BX"]}, "geometry": {"type": "Polygon", "coordinates": [[[-4.0433076508015295, 51.07022978972355], [-4.043058599484438, 51.071283869571374], [-4.042652953123926, 51.07160258730945], [-4.042551412962627, 51.071654558323196], [-4.041787776124532, 51.07171085113213], [-4.041723962171283, 51.071665724729954], [-4.042208613147868, 51.07004975875336], [-4.042797245943117, 51.06990803948736], [-4.0433076508015295, 51.07022978972355]]]}}, {"type": "Feature", "properties": {"type": "postcode-cell", "postcode": "EX32 9EP", "postcodes": ["EX32 9EP"]}, "geometry": {"type": "Polygon", "coordinates": [[[-4.044149070633059, 51.06866560874652], [-4.042504543930684, 51.068828115633764], [-4.042129286940426, 51.06792365356328], [-4.042322228257761, 51.067783523204675], [-4.0446926534194425, 51.068230608345225], [-4.044149070633059, 51.06866560874652]]]}}, {"type": "Feature", "properties": {"type": "postcode-cell", "postcode": "EX32 9DR", "postcodes": ["EX32 9DR"]}, "geometry": {"type": "Polygon", "coordinates": [[[-4.04243068011622, 51.06899370269987], [-4.040865828461834, 51.06890279873042], [-4.040902074659661, 51.06799544693885], [-4.040990603365003, 51.06797830201975], [-4.042129286940426, 51.06792365356328], [-4.042504543930684, 51.068828115633764], [-4.04243068011622, 51.06899370269987]]]}}, {"type": "Feature", "properties": {"type": "postcode-cell", "postcode": "EX32 9DP", "postcodes": ["EX32 9DP"]}, "geometry": {"type": "Polygon", "coordinates": [[[-4.042129286940426, 51.06792365356328], [-4.040990603365003, 51.06797830201975], [-4.040933578300911, 51.06661493459925], [-4.041123562198968, 51.06650188636378], [-4.041419097473503, 51.066529479116916], [-4.042469909990085, 51.06743949330303], [-4.042322228257761, 51.067783523204675], [-4.042129286940426, 51.06792365356328]]]}}, {"type": "Feature", "properties": {"type": "postcode-cell", "postcode": "EX32 9EU", "postcodes": ["EX32 9EU"]}, "geometry": {"type": "Polygon", "coordinates": [[[-4.042942888007039, 51.06579464641205], [-4.041419097473503, 51.066529479116916], [-4.041123562198968, 51.06650188636378], [-4.040252348319151, 51.065534877519895], [-4.041140853275085, 51.06486038417992], [-4.042629232957222, 51.0651207957507], [-4.043003749432953, 51.065664637710526], [-4.042942888007039, 51.06579464641205]]]}}, {"type": "Feature", "properties": {"type": "postcode-cell", "postcode": "EX32 9BY", "postcodes": ["EX32 9BY"]}, "geometry": {"type": "Polygon", "coordinates": [[[-4.041723962171283, 51.071665724729954], [-4.040993680142378, 51.07129612884179], [-4.040740196880976, 51.070066427014545], [-4.042208613147868, 51.07004975875336], [-4.041723962171283, 51.071665724729954]]]}}, {"type": "Feature", "properties": {"type": "postcode-cell", "postcode": "EX32 9AZ", "postcodes": ["EX32 9AZ"]}, "geometry": {"type": "Polygon", "coordinates": [[[-4.041787776124532, 51.07171085113213], [-4.040854677653068, 51.07303016473226], [-4.03880617409468, 51.072801888671435], [-4.038397494723689, 51.07221970602222], [-4.039148786215949, 51.07143413331066], [-4.039800487641241, 51.07130629840618], [-4.040993680142378, 51.07129612884179], [-4.041723962171283, 51.071665724729954], [-4.041787776124532, 51.07171085113213]]]}}, {"type": "Feature", "properties": {"type": "postcode-cell", "postcode": "EX32 8NX", "postcodes": ["EX32 8NX"]}, "geometry": {"type": "Polygon", "coordinates": [[[-4.03880617409468, 51.072801888671435], [-4.040854677653068, 51.07303016473226], [-4.0411294810229075, 51.07334349076058], [-4.0407821034157125, 51.07463351956429], [-4.037588133745583, 51.07385594389666], [-4.03880617409468, 51.072801888671435]]]}}, {"type": "Feature", "properties": {"type": "postcode-cell", "postcode": "EX32 9BZ", "postcodes": ["EX32 9BZ"]}, "geometry": {"type": "Polygon", "coordinates": [[[-4.042434961052427, 51.0690441107866], [-4.040466339076643, 51.06976122480152], [-4.04040218160656, 51.069298434372364], [-4.040865828461834, 51.06890279873042], [-4.04243068011622, 51.06899370269987], [-4.042434961052427, 51.0690441107866]]]}}, {"type": "Feature", "properties": {"type": "postcode-cell", "postcode": "EX32 9FA", "postcodes": ["EX32 9FA"]}, "geometry": {"type": "Polygon", "coordinates": [[[-4.041123562198968, 51.06650188636378], [-4.040933578300911, 51.06661493459925], [-4.039677866463261, 51.0670296761972], [-4.038262828074214, 51.06652342030481], [-4.0381780794513835, 51.06619839021626], [-4.0390599899240565, 51.06643999501462], [-4.040252348319151, 51.065534877519895], [-4.041123562198968, 51.06650188636378]]]}}, {"type": "Feature", "properties": {"type": "postcode-cell", "postcode": "EX32 9DE", "postcodes": ["EX32 9DE"]}, "geometry": {"type": "Polygon", "coordinates": [[[-4.040430141293248, 51.069864411932706], [-4.039487125652433, 51.069997934742155], [-4.039032249126885, 51.069990056772404], [-4.038153715252825, 51.06969380791029], [-4.037961989491489, 51.06944904176873], [-4.039629998332363, 51.06881589903205], [-4.04040218160656, 51.069298434372364], [-4.040466339076643, 51.06976122480152], [-4.040430141293248, 51.069864411932706]]]}}, {"type": "Feature", "properties": {"type": "postcode-cell", "postcode": "EX32 9DB", "postcodes": ["EX32 9DB"]}, "geometry": {"type": "Polygon", "coordinates": [[[-4.04040218160656, 51.069298434372364], [-4.039629998332363, 51.06881589903205], [-4.039599910828911, 51.068134603358025], [-4.040068765560299, 51.06791630452151], [-4.040902074659661, 51.06799544693885], [-4.040865828461834, 51.06890279873042], [-4.04040218160656, 51.069298434372364]]]}}, {"type": "Feature", "properties": {"type": "postcode-cell", "postcode": "EX32 9DD", "postcodes": ["EX32 9DD"]}, "geometry": {"type": "Polygon", "coordinates": [[[-4.040740196880976, 51.070066427014545], [-4.040993680142378, 51.07129612884179], [-4.039800487641241, 51.07130629840618], [-4.039487125652433, 51.069997934742155], [-4.040430141293248, 51.069864411932706], [-4.040740196880976, 51.070066427014545]]]}}, {"type": "Feature", "properties": {"type": "postcode-cell", "postcode": "EX32 9DW", "postcodes": ["EX32 9DW"]}, "geometry": {"type": "Polygon", "coordinates": [[[-4.040902074659661, 51.06799544693885], [-4.040068765560299, 51.06791630452151], [-4.039677866463261, 51.0670296761972], [-4.040933578300911, 51.06661493459925], [-4.040990603365003, 51.06797830201975], [-4.040902074659661, 51.06799544693885]]]}}, {"type": "Feature", "properties": {"type": "postcode-cell", "postcode": "EX32 9DH", "postcodes": ["EX32 9DH"]}, "geometry": {"type": "Polygon", "coordinates": [[[-4.039599910828911, 51.068134603358025], [-4.03873008198466, 51.06811658378957], [-4.0375688292343215, 51.06738083654983], [-4.038262828074214, 51.06652342030481], [-4.039677866463261, 51.0670296761972], [-4.040068765560299, 51.06791630452151], [-4.039599910828911, 51.068134603358025]]]}}, {"type": "Feature", "properties": {"type": "postcode-cell", "postcode": "EX32 0HG", "postcodes": ["EX32 0HG"]}, "geometry": {"type": "Polygon", "coordinates": [[[-4.0367621250119905, 51.067641983596374], [-4.0357226533953945, 51.06658238769244], [-4.037276920990243, 51.06595150276303], [-4.0381780794513835, 51.06619839021626], [-4.038262828074214, 51.06652342030481], [-4.0375688292343215, 51.06738083654983], [-4.0367621250119905, 51.067641983596374]]]}}, {"type": "Feature", "properties": {"type": "postcode-cell", "postcode": "EX32 9PG", "postcodes": ["EX32 9PG"]}, "geometry": {"type": "Polygon", "coordinates": [[[-4.0375688292343215, 51.06738083654983], [-4.03873008198466, 51.06811658378957], [-4.037908823682023, 51.06893091186748], [-4.03643382428122, 51.067894074458785], [-4.0367621250119905, 51.067641983596374], [-4.0375688292343215, 51.06738083654983]]]}}, {"type": "Feature", "properties": {"type": "postcode-cell", "postcode": "EX32 9DQ", "postcodes": ["EX32 9DQ"]}, "geometry": {"type": "Polygon", "coordinates": [[[-4.039800487641241, 51.07130629840618], [-4.039148786215949, 51.07143413331066], [-4.0387387756001765, 51.07099282742315], [-4.039032249126885, 51.069990056772404], [-4.039487125652433, 51.069997934742155], [-4.039800487641241, 51.07130629840618]]]}}, {"type": "Feature", "properties": {"type": "postcode-cell", "postcode": "EX32 9DN", "postcodes": ["EX32 9DN"]}, "geometry": {"type": "Polygon", "coordinates": [[[-4.039148786215949, 51.07143413331066], [-4.038397494723689, 51.07221970602222], [-4.037467261805873, 51.07196695541774], [-4.03702428015035, 51.071067978632534], [-4.037579938283174, 51.07081777463848], [-4.0387387756001765, 51.07099282742315], [-4.039148786215949, 51.07143413331066]]]}}, {"type": "Feature", "properties": {"type": "postcode-cell", "postcode": "EX32 9LT", "postcodes": ["EX32 9LT"]}, "geometry": {"type": "Polygon", "coordinates": [[[-4.037961989491489, 51.06944904176873], [-4.037953861221638, 51.069444097294195], [-4.037908823682023, 51.06893091186748], [-4.03873008198466, 51.06811658378957], [-4.039599910828911, 51.068134603358025], [-4.039629998332363, 51.06881589903205], [-4.037961989491489, 51.06944904176873]]]}}, {"type": "Feature", "properties": {"type": "postcode-cell", "postcode": "EX32 9DG", "postcodes": ["EX32 9DG"]}, "geometry": {"type": "Polygon", "coordinates": [[[-4.039032249126885, 51.069990056772404], [-4.0387387756001765, 51.07099282742315], [-4.037579938283174, 51.07081777463848], [-4.038013212194591, 51.069847395959634], [-4.038153715252825, 51.06969380791029], [-4.039032249126885, 51.069990056772404]]]}}, {"type": "Feature", "properties": {"type": "postcode-cell", "postcode": "EX32 8PG", "postcodes": ["EX32 8PG"]}, "geometry": {"type": "Polygon", "coordinates": [[[-4.034822809812656, 51.07258745277888], [-4.037467261805873, 51.07196695541774], [-4.038397494723689, 51.07221970602222], [-4.03880617409468, 51.072801888671435], [-4.037588133745583, 51.07385594389666], [-4.034163024597057, 51.073021970173905], [-4.034822809812656, 51.07258745277888]]]}}, {"type": "Feature", "properties": {"type": "postcode-cell", "postcode": "EX32 9PE", "postcodes": ["EX32 9PE"]}, "geometry": {"type": "Polygon", "coordinates": [[[-4.037961989491489, 51.06944904176873], [-4.038153715252825, 51.06969380791029], [-4.038013212194591, 51.069847395959634], [-4.036354874195897, 51.070477580138515], [-4.0360869610577765, 51.07035587281562], [-4.03626707561379, 51.069985360076224], [-4.037713888148213, 51.069440916558776], [-4.037953861221638, 51.069444097294195], [-4.037961989491489, 51.06944904176873]]]}}, {"type": "Feature", "properties": {"type": "postcode-cell", "postcode": "EX32 9PD", "postcodes": ["EX32 9PD"]}, "geometry": {"type": "Polygon", "coordinates": [[[-4.037579938283174, 51.07081777463848], [-4.03702428015035, 51.071067978632534], [-4.036902100218641, 51.07103239165592], [-4.036354874195897, 51.070477580138515], [-4.038013212194591, 51.069847395959634], [-4.037579938283174, 51.07081777463848]]]}}, {"type": "Feature", "properties": {"type": "postcode-cell", "postcode": "EX32 9PH", "postcodes": ["EX32 9PH"]}, "geometry": {"type": "Polygon", "coordinates": [[[-4.037953861221638, 51.069444097294195], [-4.037713888148213, 51.069440916558776], [-4.035394918431856, 51.068937604903375], [-4.0347210682037, 51.068650401434425], [-4.035382704139731, 51.068217533722375], [-4.03643382428122, 51.067894074458785], [-4.037908823682023, 51.06893091186748], [-4.037953861221638, 51.069444097294195]]]}}, {"type": "Feature", "properties": {"type": "postcode-cell", "postcode": "EX32 9DF", "postcodes": ["EX32 9DF"]}, "geometry": {"type": "Polygon", "coordinates": [[[-4.037713888148213, 51.069440916558776], [-4.03626707561379, 51.069985360076224], [-4.035394918431856, 51.068937604903375], [-4.037713888148213, 51.069440916558776]]]}}, {"type": "Feature", "properties": {"type": "postcode-cell", "postcode": "EX32 9HB", "postcodes": ["EX32 9HB"]}, "geometry": {"type": "Polygon", "coordinates": [[[-4.03374661193872, 51.07292056964503], [-4.033579989917465, 51.07287999501994], [-4.032419989917014, 51.07212999501933], [-4.032029989917008, 51.071549995018856], [-4.033875363044591, 51.070127567142066], [-4.03374661193872, 51.07292056964503]]]}}, {"type": "Feature", "properties": {"type": "postcode-cell", "postcode": "EX32 9PA", "postcodes": ["EX32 9PA"]}, "geometry": {"type": "Polygon", "coordinates": [[[-4.037467261805873, 51.07196695541774], [-4.034822809812656, 51.07258745277888], [-4.035371951098538, 51.0713960845645], [-4.036902100218641, 51.07103239165592], [-4.03702428015035, 51.071067978632534], [-4.037467261805873, 51.07196695541774]]]}}, {"type": "Feature", "properties": {"type": "postcode-cell", "postcode": "EX32 9LP", "postcodes": ["EX32 9LP"]}, "geometry": {"type": "Polygon", "coordinates": [[[-4.034822809812656, 51.07258745277888], [-4.034163024597057, 51.073021970173905], [-4.03374661193872, 51.07292056964503], [-4.033875363044591, 51.070127567142066], [-4.033906675931313, 51.07010342993362], [-4.034819513951012, 51.07044077777027], [-4.035371951098538, 51.0713960845645], [-4.034822809812656, 51.07258745277888]]]}}, {"type": "Feature", "properties": {"type": "postcode-cell", "postcode": "EX32 9PF", "postcodes": ["EX32 9PF"]}, "geometry": {"type": "Polygon", "coordinates": [[[-4.0360869610577765, 51.07035587281562], [-4.034819513951012, 51.07044077777027], [-4.033906675931313, 51.07010342993362], [-4.035389989920442, 51.068959995016705], [-4.034159136570818, 51.068763460598504], [-4.0347210682037, 51.068650401434425], [-4.035394918431856, 51.068937604903375], [-4.03626707561379, 51.069985360076224], [-4.0360869610577765, 51.07035587281562]]]}}, {"type": "Feature", "properties": {"type": "postcode-cell", "postcode": "EX32 9FR", "postcodes": ["EX32 9FR"]}, "geometry": {"type": "Polygon", "coordinates": [[[-4.03643382428122, 51.067894074458785], [-4.035382704139731, 51.068217533722375], [-4.034764812172684, 51.06656847944794], [-4.034869693785264, 51.06650888945777], [-4.0357226533953945, 51.06658238769244], [-4.0367621250119905, 51.067641983596374], [-4.03643382428122, 51.067894074458785]]]}}, {"type": "Feature", "properties": {"type": "postcode-cell", "postcode": "EX32 9FP", "postcodes": ["EX32 9FP"]}, "geometry": {"type": "Polygon", "coordinates": [[[-4.0357226533953945, 51.06658238769244], [-4.034869693785264, 51.06650888945777], [-4.03492946081302, 51.06540727567909], [-4.035409989922028, 51.06543999501381], [-4.037276920990243, 51.06595150276303], [-4.0357226533953945, 51.06658238769244]]]}}, {"type": "Feature", "properties": {"type": "postcode-cell", "postcode": "EX32 9PB", "postcodes": ["EX32 9PB"]}, "geometry": {"type": "Polygon", "coordinates": [[[-4.036902100218641, 51.07103239165592], [-4.035371951098538, 51.0713960845645], [-4.034819513951012, 51.07044077777027], [-4.0360869610577765, 51.07035587281562], [-4.036354874195897, 51.070477580138515], [-4.036902100218641, 51.07103239165592]]]}}, {"type": "Feature", "properties": {"type": "postcode-cell", "postcode": "EX32 9FJ", "postcodes": ["EX32 9FJ"]}, "geometry": {"type": "Polygon", "coordinates": [[[-4.033317298863584, 51.06633942399446], [-4.032561955110876, 51.06613504001804], [-4.032619989920223, 51.06524999501368], [-4.034243767654154, 51.06536058316916], [-4.033317298863584, 51.06633942399446]]]}}, {"type": "Feature", "properties": {"type": "postcode-cell", "postcode": "EX32 9FL", "postcodes": ["EX32 9FL"]}, "geometry": {"type": "Polygon", "coordinates": [[[-4.034764812172684, 51.06656847944794], [-4.033919718949358, 51.06668597397543], [-4.033317298863584, 51.06633942399446], [-4.034243767654154, 51.06536058316916], [-4.03492946081302, 51.06540727567909], [-4.034869693785264, 51.06650888945777], [-4.034764812172684, 51.06656847944794]]]}}, {"type": "Feature", "properties": {"type": "postcode-cell", "postcode": "EX32 9FS", "postcodes": ["EX32 9FS"]}, "geometry": {"type": "Polygon", "coordinates": [[[-4.0347210682037, 51.068650401434425], [-4.034159136570818, 51.068763460598504], [-4.032435037415194, 51.06848814327547], [-4.033919718949358, 51.06668597397543], [-4.034764812172684, 51.06656847944794], [-4.035382704139731, 51.068217533722375], [-4.0347210682037, 51.068650401434425]]]}}, {"type": "Feature", "properties": {"type": "postcode-cell", "postcode": "EX32 9LA", "postcodes": ["EX32 9LA"]}, "geometry": {"type": "Polygon", "coordinates": [[[-4.033317298863584, 51.06633942399446], [-4.033919718949358, 51.06668597397543], [-4.032435037415194, 51.06848814327547], [-4.031569989918126, 51.06834999501624], [-4.03249998991932, 51.067079995015185], [-4.032561955110876, 51.06613504001804], [-4.033317298863584, 51.06633942399446]]]}}]}