{"type": "FeatureCollection", "features": [{"type": "Feature", "properties": {"type": "ward-outline", "name": "Newton Poppleford & Harpford"}, "geometry": {"type": "Polygon", "coordinates": [[[-3.26908, 50.70893], [-3.27003, 50.7074], [-3.26978, 50.70674], [-3.27176, 50.70611], [-3.27176, 50.70575], [-3.26981, 50.70526], [-3.26807, 50.70416], [-3.27038, 50.70358], [-3.26995, 50.70244], [-3.27084, 50.70212], [-3.27072, 50.70159], [-3.27174, 50.70149], [-3.27167, 50.70094], [-3.27363, 50.69997], [-3.273, 50.69966], [-3.27519, 50.6983], [-3.27038, 50.69576], [-3.26881, 50.69445], [-3.26816, 50.69284], [-3.27002, 50.69033], [-3.2711, 50.68566], [-3.27513, 50.68159], [-3.27878, 50.68246], [-3.28197, 50.68199], [-3.28422, 50.68216], [-3.28501, 50.68188], [-3.28843, 50.68203], [-3.28921, 50.68178], [-3.28928, 50.68278], [-3.29355, 50.68223], [-3.29403, 50.68339], [-3.2935, 50.68372], [-3.29365, 50.6847], [-3.29704, 50.68632], [-3.29622, 50.68697], [-3.294, 50.69053], [-3.29442, 50.69215], [-3.29365, 50.69335], [-3.29395, 50.69513], [-3.2925, 50.69504], [-3.29151, 50.69536], [-3.28793, 50.69728], [-3.28753, 50.69778], [-3.29232, 50.69808], [-3.29311, 50.69697], [-3.29582, 50.69729], [-3.29619, 50.69447], [-3.30308, 50.69476], [-3.30343, 50.69467], [-3.30343, 50.69331], [-3.30563, 50.69267], [-3.31142, 50.69245], [-3.31275, 50.69194], [-3.31271, 50.69094], [-3.31487, 50.69108], [-3.32395, 50.69009], [-3.32675, 50.69054], [-3.32745, 50.6909], [-3.33011, 50.69373], [-3.33206, 50.695], [-3.33762, 50.70002], [-3.33413, 50.69919], [-3.33353, 50.70353], [-3.33365, 50.70676], [-3.33608, 50.71463], [-3.33275, 50.71976], [-3.33186, 50.7249], [-3.32996, 50.72244], [-3.32746, 50.72195], [-3.32255, 50.72009], [-3.32076, 50.71985], [-3.31918, 50.72018], [-3.31837, 50.71993], [-3.3164, 50.71753], [-3.31573, 50.71727], [-3.31098, 50.71694], [-3.30828, 50.71643], [-3.30639, 50.71678], [-3.29564, 50.71685], [-3.29389, 50.71733], [-3.29293, 50.71673], [-3.29335, 50.71549], [-3.29408, 50.71534], [-3.29382, 50.71434], [-3.29273, 50.71405], [-3.29201, 50.7132], [-3.29038, 50.71293], [-3.29048, 50.71165], [-3.27447, 50.71046], [-3.27264, 50.71012], [-3.27126, 50.71042], [-3.27039, 50.71016], [-3.27031, 50.70963], [-3.26908, 50.70893]]]}}, {"type": "Feature", "properties": {"type": "postcode-cell", "postcode": "EX11 1SG", "postcodes": ["EX11 1SG"]}, "geometry": {"type": "Polygon", "coordinates": [[[-3.318368278564217, 50.71676307329186], [-3.32516999340462, 50.71161665180689], [-3.3348547863057276, 50.7106622970538], [-3.336079989630142, 50.7146299947397], [-3.3327499896255914, 50.71975999474377], [-3.3318599896225534, 50.72489999474779], [-3.32995998962256, 50.72243999474593], [-3.3274599896212385, 50.72194999474556], [-3.322549989619083, 50.720089994744185], [-3.320759989618084, 50.71984999474404], [-3.319179989616943, 50.72017999474432], [-3.3183699896165586, 50.71992999474412], [-3.3178238020200697, 50.719264616892], [-3.318368278564217, 50.71676307329186]]]}}, {"type": "Feature", "properties": {"type": "postcode-cell", "postcode": "EX10 0DF", "postcodes": ["EX10 0DF"]}, "geometry": {"type": "Polygon", "coordinates": [[[-3.32516999340462, 50.71161665180689], [-3.3237693754879025, 50.70874634946322], [-3.323839704940459, 50.70315448619157], [-3.3259445244354064, 50.701173490945365], [-3.3337323449609526, 50.6975038500206], [-3.3345143544835496, 50.69721615308699], [-3.3376199896381578, 50.70001999472827], [-3.334129989636388, 50.699189994727696], [-3.3335299896339174, 50.70352999473108], [-3.333649989632432, 50.706759994733616], [-3.3348547863057276, 50.7106622970538], [-3.32516999340462, 50.71161665180689]]]}}, {"type": "Feature", "properties": {"type": "postcode-cell", "postcode": "EX10 0DA", "postcodes": ["EX10 0DA"]}, "geometry": {"type": "Polygon", "coordinates": [[[-3.3237693754879025, 50.70874634946322], [-3.314453673452222, 50.706787849519735], [-3.3149950080355857, 50.70444960596295], [-3.323839704940459, 50.70315448619157], [-3.3237693754879025, 50.70874634946322]]]}}, {"type": "Feature", "properties": {"type": "postcode-cell", "postcode": "EX10 0BL", "postcodes": ["EX10 0BL"]}, "geometry": {"type": "Polygon", "coordinates": [[[-3.3259445244354064, 50.701173490945365], [-3.320630102247739, 50.70022622250369], [-3.3149365304926577, 50.69667671195392], [-3.3337323449609526, 50.6975038500206], [-3.3259445244354064, 50.701173490945365]]]}}, {"type": "Feature", "properties": {"type": "postcode-cell", "postcode": "EX10 0BN", "postcodes": ["EX10 0BN"]}, "geometry": {"type": "Polygon", "coordinates": [[[-3.3337323449609526, 50.6975038500206], [-3.3149365304926577, 50.69667671195392], [-3.3149128774890166, 50.6966710519338], [-3.313470973377829, 50.69478917685145], [-3.313442675120253, 50.693777184478535], [-3.3140541242727326, 50.69102711936841], [-3.314869989628347, 50.6910799947217], [-3.323949989634462, 50.690089994720765], [-3.326749989635983, 50.69053999472106], [-3.327449989636243, 50.69089999472133], [-3.3301099896365285, 50.6937299947235], [-3.332059989637126, 50.69499999472443], [-3.3345143544835496, 50.69721615308699], [-3.3337323449609526, 50.6975038500206]]]}}, {"type": "Feature", "properties": {"type": "postcode-cell", "postcode": "EX10 0JD", "postcodes": ["EX10 0JD"]}, "geometry": {"type": "Polygon", "coordinates": [[[-3.313442675120253, 50.693777184478535], [-3.3071610196111774, 50.69545372637261], [-3.3069161590190754, 50.69536406160815], [-3.304646785727376, 50.69295602493433], [-3.305629989621846, 50.69266999472309], [-3.3114199896255423, 50.692449994722814], [-3.312749989626615, 50.69193999472241], [-3.312709989627073, 50.69093999472161], [-3.3140541242727326, 50.69102711936841], [-3.313442675120253, 50.693777184478535]]]}}, {"type": "Feature", "properties": {"type": "postcode-cell", "postcode": "EX10 0DB", "postcodes": ["EX10 0DB"]}, "geometry": {"type": "Polygon", "coordinates": [[[-3.3149950080355857, 50.70444960596295], [-3.313801853952452, 50.70367162946052], [-3.3134184608365373, 50.701568661022065], [-3.3135075095180944, 50.7012137502286], [-3.3146156686215402, 50.70032166843533], [-3.320630102247739, 50.70022622250369], [-3.3259445244354064, 50.701173490945365], [-3.323839704940459, 50.70315448619157], [-3.3149950080355857, 50.70444960596295]]]}}, {"type": "Feature", "properties": {"type": "postcode-cell", "postcode": "EX10 0DE", "postcodes": ["EX10 0DE"]}, "geometry": {"type": "Polygon", "coordinates": [[[-3.320630102247739, 50.70022622250369], [-3.3146156686215402, 50.70032166843533], [-3.3145280065293155, 50.69762817047656], [-3.3149128774890166, 50.6966710519338], [-3.3149365304926577, 50.69667671195392], [-3.320630102247739, 50.70022622250369]]]}}, {"type": "Feature", "properties": {"type": "postcode-cell", "postcode": "EX11 1SF", "postcodes": ["EX11 1SF"]}, "geometry": {"type": "Polygon", "coordinates": [[[-3.318368278564217, 50.71676307329186], [-3.3164960609343286, 50.71507150791645], [-3.3117375894270187, 50.70974172539658], [-3.311953772739045, 50.70924800822761], [-3.314453673452222, 50.706787849519735], [-3.3237693754879025, 50.70874634946322], [-3.32516999340462, 50.71161665180689], [-3.318368278564217, 50.71676307329186]]]}}, {"type": "Feature", "properties": {"type": "postcode-cell", "postcode": "EX11 1SD", "postcodes": ["EX11 1SD"]}, "geometry": {"type": "Polygon", "coordinates": [[[-3.3117375894270187, 50.70974172539658], [-3.306346086074338, 50.70966373785241], [-3.305069078182938, 50.70627255450775], [-3.307166682525424, 50.70459419291127], [-3.311953772739045, 50.70924800822761], [-3.3117375894270187, 50.70974172539658]]]}}, {"type": "Feature", "properties": {"type": "postcode-cell", "postcode": "EX10 0DD", "postcodes": ["EX10 0DD"]}, "geometry": {"type": "Polygon", "coordinates": [[[-3.3134184608365373, 50.701568661022065], [-3.308317045252552, 50.70139272264546], [-3.3101633740065264, 50.69983255175828], [-3.3103799974445844, 50.69972879275529], [-3.310566374990768, 50.69969708049542], [-3.3135075095180944, 50.7012137502286], [-3.3134184608365373, 50.701568661022065]]]}}, {"type": "Feature", "properties": {"type": "postcode-cell", "postcode": "EX10 0BW", "postcodes": ["EX10 0BW"]}, "geometry": {"type": "Polygon", "coordinates": [[[-3.3146156686215402, 50.70032166843533], [-3.3135075095180944, 50.7012137502286], [-3.310566374990768, 50.69969708049542], [-3.310668035855347, 50.698976862555476], [-3.3145280065293155, 50.69762817047656], [-3.3146156686215402, 50.70032166843533]]]}}, {"type": "Feature", "properties": {"type": "postcode-cell", "postcode": "EX11 1SE", "postcodes": ["EX11 1SE"]}, "geometry": {"type": "Polygon", "coordinates": [[[-3.3149950080355857, 50.70444960596295], [-3.314453673452222, 50.706787849519735], [-3.311953772739045, 50.70924800822761], [-3.307166682525424, 50.70459419291127], [-3.307320072504649, 50.70404146500733], [-3.313801853952452, 50.70367162946052], [-3.3149950080355857, 50.70444960596295]]]}}, {"type": "Feature", "properties": {"type": "postcode-cell", "postcode": "EX10 0BJ", "postcodes": ["EX10 0BJ"]}, "geometry": {"type": "Polygon", "coordinates": [[[-3.3145280065293155, 50.69762817047656], [-3.310668035855347, 50.698976862555476], [-3.3100034724826632, 50.69825505218239], [-3.3103807505119, 50.69660448415946], [-3.313470973377829, 50.69478917685145], [-3.3149128774890166, 50.6966710519338], [-3.3145280065293155, 50.69762817047656]]]}}, {"type": "Feature", "properties": {"type": "postcode-cell", "postcode": "EX10 0BG", "postcodes": ["EX10 0BG"]}, "geometry": {"type": "Polygon", "coordinates": [[[-3.3103807505119, 50.69660448415946], [-3.3088370007930377, 50.696825970158955], [-3.3071799826644708, 50.69615752737289], [-3.3071610196111774, 50.69545372637261], [-3.313442675120253, 50.693777184478535], [-3.313470973377829, 50.69478917685145], [-3.3103807505119, 50.69660448415946]]]}}, {"type": "Feature", "properties": {"type": "postcode-cell", "postcode": "EX11 1SA", "postcodes": ["EX11 1SA"]}, "geometry": {"type": "Polygon", "coordinates": [[[-3.3164960609343286, 50.71507150791645], [-3.3065399139790688, 50.712962850912945], [-3.3049029540488917, 50.71012116335605], [-3.306346086074338, 50.70966373785241], [-3.3117375894270187, 50.70974172539658], [-3.3164960609343286, 50.71507150791645]]]}}, {"type": "Feature", "properties": {"type": "postcode-cell", "postcode": "EX10 0BR", "postcodes": ["EX10 0BR"]}, "geometry": {"type": "Polygon", "coordinates": [[[-3.305578294032388, 50.70162226216186], [-3.306967073454884, 50.69922188965133], [-3.307971539264487, 50.699474248844744], [-3.3080779527885835, 50.70000940001877], [-3.3064732676175814, 50.701848162678026], [-3.3055972616677436, 50.702220087305655], [-3.305577152306341, 50.70219195033512], [-3.305578294032388, 50.70162226216186]]]}}, {"type": "Feature", "properties": {"type": "postcode-cell", "postcode": "EX10 0BU", "postcodes": ["EX10 0BU"]}, "geometry": {"type": "Polygon", "coordinates": [[[-3.305577152306341, 50.70219195033512], [-3.3018449187489747, 50.70023317389348], [-3.3018762702588953, 50.7000916026989], [-3.3034551627691906, 50.699041609614696], [-3.3041257921889904, 50.698826604246236], [-3.3046180403376693, 50.69884875523146], [-3.305578294032388, 50.70162226216186], [-3.305577152306341, 50.70219195033512]]]}}, {"type": "Feature", "properties": {"type": "postcode-cell", "postcode": "EX10 0BS", "postcodes": ["EX10 0BS"]}, "geometry": {"type": "Polygon", "coordinates": [[[-3.308317045252552, 50.70139272264546], [-3.3064732676175814, 50.701848162678026], [-3.3080779527885835, 50.70000940001877], [-3.3101633740065264, 50.69983255175828], [-3.308317045252552, 50.70139272264546]]]}}, {"type": "Feature", "properties": {"type": "postcode-cell", "postcode": "EX10 0BZ", "postcodes": ["EX10 0BZ"]}, "geometry": {"type": "Polygon", "coordinates": [[[-3.313801853952452, 50.70367162946052], [-3.307320072504649, 50.70404146500733], [-3.3055531409728607, 50.70247647470166], [-3.3055972616677436, 50.702220087305655], [-3.3064732676175814, 50.701848162678026], [-3.308317045252552, 50.70139272264546], [-3.3134184608365373, 50.701568661022065], [-3.313801853952452, 50.70367162946052]]]}}, {"type": "Feature", "properties": {"type": "postcode-cell", "postcode": "EX10 0BP", "postcodes": ["EX10 0BP"]}, "geometry": {"type": "Polygon", "coordinates": [[[-3.310566374990768, 50.69969708049542], [-3.3103799974445844, 50.69972879275529], [-3.308583526831622, 50.699215927891544], [-3.3084475235083084, 50.6985538953067], [-3.308639421382653, 50.6984423426738], [-3.3100034724826632, 50.69825505218239], [-3.310668035855347, 50.698976862555476], [-3.310566374990768, 50.69969708049542]]]}}, {"type": "Feature", "properties": {"type": "postcode-cell", "postcode": "EX10 0UA", "postcodes": ["EX10 0UA"]}, "geometry": {"type": "Polygon", "coordinates": [[[-3.3101633740065264, 50.69983255175828], [-3.3080779527885835, 50.70000940001877], [-3.307971539264487, 50.699474248844744], [-3.308583526831622, 50.699215927891544], [-3.3103799974445844, 50.69972879275529], [-3.3101633740065264, 50.69983255175828]]]}}, {"type": "Feature", "properties": {"type": "postcode-cell", "postcode": "EX10 0FD", "postcodes": ["EX10 0FD"]}, "geometry": {"type": "Polygon", "coordinates": [[[-3.30824318883957, 50.697753222934935], [-3.3085460256604895, 50.69700176759666], [-3.3088370007930377, 50.696825970158955], [-3.3103807505119, 50.69660448415946], [-3.3100034724826632, 50.69825505218239], [-3.308639421382653, 50.6984423426738], [-3.30824318883957, 50.697753222934935]]]}}, {"type": "Feature", "properties": {"type": "postcode-cell", "postcode": "EX10 0BH", "postcodes": ["EX10 0BH"]}, "geometry": {"type": "Polygon", "coordinates": [[[-3.308639421382653, 50.6984423426738], [-3.3084475235083084, 50.6985538953067], [-3.3065854263054915, 50.69852922300589], [-3.3066485374343633, 50.69822225297811], [-3.30824318883957, 50.697753222934935], [-3.308639421382653, 50.6984423426738]]]}}, {"type": "Feature", "properties": {"type": "postcode-cell", "postcode": "EX10 0BB", "postcodes": ["EX10 0BB"]}, "geometry": {"type": "Polygon", "coordinates": [[[-3.307971539264487, 50.699474248844744], [-3.306967073454884, 50.69922188965133], [-3.3065736601652924, 50.69853934662254], [-3.3065854263054915, 50.69852922300589], [-3.3084475235083084, 50.6985538953067], [-3.308583526831622, 50.699215927891544], [-3.307971539264487, 50.699474248844744]]]}}, {"type": "Feature", "properties": {"type": "postcode-cell", "postcode": "EX10 0BQ", "postcodes": ["EX10 0BQ"]}, "geometry": {"type": "Polygon", "coordinates": [[[-3.3088370007930377, 50.696825970158955], [-3.3085460256604895, 50.69700176759666], [-3.3064928423931823, 50.697444607304476], [-3.306103339774943, 50.6971916300016], [-3.3066310787715647, 50.6963894218169], [-3.3071799826644708, 50.69615752737289], [-3.3088370007930377, 50.696825970158955]]]}}, {"type": "Feature", "properties": {"type": "postcode-cell", "postcode": "EX10 0FB", "postcodes": ["EX10 0FB"]}, "geometry": {"type": "Polygon", "coordinates": [[[-3.3065736601652924, 50.69853934662254], [-3.3046701064351307, 50.69882128574485], [-3.3047024577295026, 50.69778005621486], [-3.3054772839167987, 50.69713422606547], [-3.306103339774943, 50.6971916300016], [-3.3064928423931823, 50.697444607304476], [-3.3066485374343633, 50.69822225297811], [-3.3065854263054915, 50.69852922300589], [-3.3065736601652924, 50.69853934662254]]]}}, {"type": "Feature", "properties": {"type": "postcode-cell", "postcode": "EX10 0DQ", "postcodes": ["EX10 0DQ"]}, "geometry": {"type": "Polygon", "coordinates": [[[-3.30824318883957, 50.697753222934935], [-3.3066485374343633, 50.69822225297811], [-3.3064928423931823, 50.697444607304476], [-3.3085460256604895, 50.69700176759666], [-3.30824318883957, 50.697753222934935]]]}}, {"type": "Feature", "properties": {"type": "postcode-cell", "postcode": "EX10 0BT", "postcodes": ["EX10 0BT"]}, "geometry": {"type": "Polygon", "coordinates": [[[-3.306967073454884, 50.69922188965133], [-3.305578294032388, 50.70162226216186], [-3.3046180403376693, 50.69884875523146], [-3.3046701064351307, 50.69882128574485], [-3.3065736601652924, 50.69853934662254], [-3.306967073454884, 50.69922188965133]]]}}, {"type": "Feature", "properties": {"type": "postcode-cell", "postcode": "EX10 0BY", "postcodes": ["EX10 0BY"]}, "geometry": {"type": "Polygon", "coordinates": [[[-3.307166682525424, 50.70459419291127], [-3.305069078182938, 50.70627255450775], [-3.298086880093709, 50.706057710139845], [-3.299409576306844, 50.704026045599086], [-3.299603739355473, 50.70392625710973], [-3.3055531409728607, 50.70247647470166], [-3.307320072504649, 50.70404146500733], [-3.307166682525424, 50.70459419291127]]]}}, {"type": "Feature", "properties": {"type": "postcode-cell", "postcode": "EX11 1RY", "postcodes": ["EX11 1RY"]}, "geometry": {"type": "Polygon", "coordinates": [[[-3.318368278564217, 50.71676307329186], [-3.3178238020200697, 50.719264616892], [-3.3163999896164955, 50.71752999474228], [-3.3157299896162056, 50.717269994742125], [-3.3109799896134127, 50.71693999474192], [-3.3082799896119823, 50.71642999474158], [-3.3063899896106386, 50.71677999474188], [-3.303285966145742, 50.71680030879245], [-3.3031922005010146, 50.715035785028306], [-3.3065399139790688, 50.712962850912945], [-3.3164960609343286, 50.71507150791645], [-3.318368278564217, 50.71676307329186]]]}}, {"type": "Feature", "properties": {"type": "postcode-cell", "postcode": "EX11 1RZ", "postcodes": ["EX11 1RZ"]}, "geometry": {"type": "Polygon", "coordinates": [[[-3.3065399139790688, 50.712962850912945], [-3.3031922005010146, 50.715035785028306], [-3.301508061402312, 50.71065783721941], [-3.3049029540488917, 50.71012116335605], [-3.3065399139790688, 50.712962850912945]]]}}, {"type": "Feature", "properties": {"type": "postcode-cell", "postcode": "EX10 0BE", "postcodes": ["EX10 0BE"]}, "geometry": {"type": "Polygon", "coordinates": [[[-3.3071799826644708, 50.69615752737289], [-3.3066310787715647, 50.6963894218169], [-3.3051376441926172, 50.69584626891745], [-3.3069161590190754, 50.69536406160815], [-3.3071610196111774, 50.69545372637261], [-3.3071799826644708, 50.69615752737289]]]}}, {"type": "Feature", "properties": {"type": "postcode-cell", "postcode": "EX10 0BX", "postcodes": ["EX10 0BX"]}, "geometry": {"type": "Polygon", "coordinates": [[[-3.3055972616677436, 50.702220087305655], [-3.3055531409728607, 50.70247647470166], [-3.299603739355473, 50.70392625710973], [-3.3003590624598194, 50.700624674227555], [-3.3015712539682283, 50.70030175493703], [-3.3018449187489747, 50.70023317389348], [-3.305577152306341, 50.70219195033512], [-3.3055972616677436, 50.702220087305655]]]}}, {"type": "Feature", "properties": {"type": "postcode-cell", "postcode": "EX10 0FH", "postcodes": ["EX10 0FH"]}, "geometry": {"type": "Polygon", "coordinates": [[[-3.3066310787715647, 50.6963894218169], [-3.306103339774943, 50.6971916300016], [-3.3054772839167987, 50.69713422606547], [-3.3033651150647443, 50.695812824975775], [-3.3051376441926172, 50.69584626891745], [-3.3066310787715647, 50.6963894218169]]]}}, {"type": "Feature", "properties": {"type": "postcode-cell", "postcode": "EX10 0AJ", "postcodes": ["EX10 0AJ"]}, "geometry": {"type": "Polygon", "coordinates": [[[-3.2939159633574, 50.714709129785554], [-3.2938199896040214, 50.7143399947402], [-3.292729989603484, 50.71404999473998], [-3.2920099896034496, 50.713199994739334], [-3.290379989602572, 50.71292999473915], [-3.290479989603254, 50.71164999473817], [-3.290169925463813, 50.71162696960519], [-3.2928275897492787, 50.71041851597458], [-3.302369965450707, 50.7168062876953], [-3.300338973446026, 50.716819518674576], [-3.2939159633574, 50.714709129785554]]]}}, {"type": "Feature", "properties": {"type": "postcode-cell", "postcode": "EX11 1RX", "postcodes": ["EX11 1RX"]}, "geometry": {"type": "Polygon", "coordinates": [[[-3.303285966145742, 50.71680030879245], [-3.302369965450707, 50.7168062876953], [-3.2928275897492787, 50.71041851597458], [-3.2950091808878574, 50.709080124966704], [-3.301508061402312, 50.71065783721941], [-3.3031922005010146, 50.715035785028306], [-3.303285966145742, 50.71680030879245]]]}}, {"type": "Feature", "properties": {"type": "postcode-cell", "postcode": "EX11 1SB", "postcodes": ["EX11 1SB"]}, "geometry": {"type": "Polygon", "coordinates": [[[-3.3049029540488917, 50.71012116335605], [-3.301508061402312, 50.71065783721941], [-3.2950091808878574, 50.709080124966704], [-3.295277095372356, 50.707961148047545], [-3.298086880093709, 50.706057710139845], [-3.305069078182938, 50.70627255450775], [-3.306346086074338, 50.70966373785241], [-3.3049029540488917, 50.71012116335605]]]}}, {"type": "Feature", "properties": {"type": "postcode-cell", "postcode": "EX10 0EA", "postcodes": ["EX10 0EA"]}, "geometry": {"type": "MultiPolygon", "coordinates": [[[[-3.2962952851999394, 50.68596413643996], [-3.2970399896196017, 50.6863199947183], [-3.2962659356189814, 50.68693357473275], [-3.2962952851999394, 50.68596413643996]]], [[[-3.3069161590190754, 50.69536406160815], [-3.3051376441926172, 50.69584626891745], [-3.3033651150647443, 50.695812824975775], [-3.3024886291385465, 50.69555878951645], [-3.301080957105355, 50.69467589782044], [-3.3030799896192513, 50.69475999472478], [-3.3034299896195116, 50.69466999472468], [-3.30342998962017, 50.69330999472363], [-3.304646785727376, 50.69295602493433], [-3.3069161590190754, 50.69536406160815]]]]}}, {"type": "Feature", "properties": {"type": "postcode-cell", "postcode": "EX10 0HF", "postcodes": ["EX10 0HF"]}, "geometry": {"type": "Polygon", "coordinates": [[[-3.297631240609017, 50.69763521066873], [-3.2961070734745808, 50.698313319595535], [-3.295246516594847, 50.698172341135624], [-3.295658580687492, 50.697270937261386], [-3.2958199896135243, 50.69728999472687], [-3.2958884802398183, 50.696768008978914], [-3.296924744623837, 50.6945009401398], [-3.2985877557392698, 50.694570963316814], [-3.297631240609017, 50.69763521066873]]]}}, {"type": "Feature", "properties": {"type": "postcode-cell", "postcode": "EX10 0BD", "postcodes": ["EX10 0BD"]}, "geometry": {"type": "Polygon", "coordinates": [[[-3.3054772839167987, 50.69713422606547], [-3.3047024577295026, 50.69778005621486], [-3.303338245145138, 50.69732056691179], [-3.3030841578618726, 50.697111751554395], [-3.3024886291385465, 50.69555878951645], [-3.3033651150647443, 50.695812824975775], [-3.3054772839167987, 50.69713422606547]]]}}, {"type": "Feature", "properties": {"type": "postcode-cell", "postcode": "EX10 0JP", "postcodes": ["EX10 0JP"]}, "geometry": {"type": "Polygon", "coordinates": [[[-3.3046180403376693, 50.69884875523146], [-3.3041257921889904, 50.698826604246236], [-3.3037137490264494, 50.6984874521052], [-3.303338245145138, 50.69732056691179], [-3.3047024577295026, 50.69778005621486], [-3.3046701064351307, 50.69882128574485], [-3.3046180403376693, 50.69884875523146]]]}}, {"type": "Feature", "properties": {"type": "postcode-cell", "postcode": "EX10 0DH", "postcodes": ["EX10 0DH"]}, "geometry": {"type": "Polygon", "coordinates": [[[-3.297603800279461, 50.70185932078745], [-3.298176499669596, 50.70066271454442], [-3.299877253653303, 50.70053646182388], [-3.3003288016912102, 50.70061562867204], [-3.3003590624598194, 50.700624674227555], [-3.299603739355473, 50.70392625710973], [-3.299409576306844, 50.704026045599086], [-3.2987183501863764, 50.70340933627847], [-3.297603800279461, 50.70185932078745]]]}}, {"type": "Feature", "properties": {"type": "postcode-cell", "postcode": "EX10 0DJ", "postcodes": ["EX10 0DJ"]}, "geometry": {"type": "Polygon", "coordinates": [[[-3.2987183501863764, 50.70340933627847], [-3.295067573254937, 50.70221487078347], [-3.2949233540744016, 50.70210162399417], [-3.2968582572603484, 50.70159506886936], [-3.297603800279461, 50.70185932078745], [-3.2987183501863764, 50.70340933627847]]]}}, {"type": "Feature", "properties": {"type": "postcode-cell", "postcode": "EX10 0EF", "postcodes": ["EX10 0EF"]}, "geometry": {"type": "Polygon", "coordinates": [[[-3.303338245145138, 50.69732056691179], [-3.3037137490264494, 50.6984874521052], [-3.302452353433813, 50.69806177362683], [-3.3030841578618726, 50.697111751554395], [-3.303338245145138, 50.69732056691179]]]}}, {"type": "Feature", "properties": {"type": "postcode-cell", "postcode": "EX10 0DG", "postcodes": ["EX10 0DG"]}, "geometry": {"type": "Polygon", "coordinates": [[[-3.3030841578618726, 50.697111751554395], [-3.302452353433813, 50.69806177362683], [-3.3017666680958286, 50.698266361905205], [-3.3003386727636523, 50.69786149947569], [-3.299317375870579, 50.69460167733043], [-3.301080957105355, 50.69467589782044], [-3.3024886291385465, 50.69555878951645], [-3.3030841578618726, 50.697111751554395]]]}}, {"type": "Feature", "properties": {"type": "postcode-cell", "postcode": "EX10 0DU", "postcodes": ["EX10 0DU"]}, "geometry": {"type": "Polygon", "coordinates": [[[-3.3018762702588953, 50.7000916026989], [-3.3016108980921235, 50.6997007869483], [-3.3018931538285248, 50.698466340107736], [-3.3034551627691906, 50.699041609614696], [-3.3018762702588953, 50.7000916026989]]]}}, {"type": "Feature", "properties": {"type": "postcode-cell", "postcode": "EX10 0EE", "postcodes": ["EX10 0EE"]}, "geometry": {"type": "Polygon", "coordinates": [[[-3.3034551627691906, 50.699041609614696], [-3.3018931538285248, 50.698466340107736], [-3.3017666680958286, 50.698266361905205], [-3.302452353433813, 50.69806177362683], [-3.3037137490264494, 50.6984874521052], [-3.3041257921889904, 50.698826604246236], [-3.3034551627691906, 50.699041609614696]]]}}, {"type": "Feature", "properties": {"type": "postcode-cell", "postcode": "EX10 0DT", "postcodes": ["EX10 0DT"]}, "geometry": {"type": "Polygon", "coordinates": [[[-3.3018449187489747, 50.70023317389348], [-3.3015712539682283, 50.70030175493703], [-3.299831410256064, 50.699258603700635], [-3.301047072888015, 50.699321057618725], [-3.3016108980921235, 50.6997007869483], [-3.3018762702588953, 50.7000916026989], [-3.3018449187489747, 50.70023317389348]]]}}, {"type": "Feature", "properties": {"type": "postcode-cell", "postcode": "EX10 0SS", "postcodes": ["EX10 0SS"]}, "geometry": {"type": "Polygon", "coordinates": [[[-3.3018931538285248, 50.698466340107736], [-3.3016108980921235, 50.6997007869483], [-3.301047072888015, 50.699321057618725], [-3.300207908452989, 50.69807272258659], [-3.3003386727636523, 50.69786149947569], [-3.3017666680958286, 50.698266361905205], [-3.3018931538285248, 50.698466340107736]]]}}, {"type": "Feature", "properties": {"type": "postcode-cell", "postcode": "EX10 0EW", "postcodes": ["EX10 0EW"]}, "geometry": {"type": "Polygon", "coordinates": [[[-3.300207908452989, 50.69807272258659], [-3.299199063692862, 50.698784655520825], [-3.297823901344261, 50.69858806284765], [-3.297818209914797, 50.69858349355013], [-3.297631240609017, 50.69763521066873], [-3.2985877557392698, 50.694570963316814], [-3.299317375870579, 50.69460167733043], [-3.3003386727636523, 50.69786149947569], [-3.300207908452989, 50.69807272258659]]]}}, {"type": "Feature", "properties": {"type": "postcode-cell", "postcode": "EX10 0ED", "postcodes": ["EX10 0ED"]}, "geometry": {"type": "Polygon", "coordinates": [[[-3.300207908452989, 50.69807272258659], [-3.301047072888015, 50.699321057618725], [-3.299831410256064, 50.699258603700635], [-3.2997673290196703, 50.699252109737074], [-3.2992220744025, 50.698954189897094], [-3.299199063692862, 50.698784655520825], [-3.300207908452989, 50.69807272258659]]]}}, {"type": "Feature", "properties": {"type": "postcode-cell", "postcode": "EX10 0DS", "postcodes": ["EX10 0DS"]}, "geometry": {"type": "Polygon", "coordinates": [[[-3.299831410256064, 50.699258603700635], [-3.3015712539682283, 50.70030175493703], [-3.3003590624598194, 50.700624674227555], [-3.3003288016912102, 50.70061562867204], [-3.2997673290196703, 50.699252109737074], [-3.299831410256064, 50.699258603700635]]]}}, {"type": "Feature", "properties": {"type": "postcode-cell", "postcode": "EX10 0DR", "postcodes": ["EX10 0DR"]}, "geometry": {"type": "Polygon", "coordinates": [[[-3.2997673290196703, 50.699252109737074], [-3.3003288016912102, 50.70061562867204], [-3.299877253653303, 50.70053646182388], [-3.2988369263932706, 50.69950690816965], [-3.2992220744025, 50.698954189897094], [-3.2997673290196703, 50.699252109737074]]]}}, {"type": "Feature", "properties": {"type": "postcode-cell", "postcode": "EX10 0DP", "postcodes": ["EX10 0DP"]}, "geometry": {"type": "Polygon", "coordinates": [[[-3.299877253653303, 50.70053646182388], [-3.298176499669596, 50.70066271454442], [-3.298175764018059, 50.70066220492684], [-3.298068348322017, 50.69967926707122], [-3.2988369263932706, 50.69950690816965], [-3.299877253653303, 50.70053646182388]]]}}, {"type": "Feature", "properties": {"type": "postcode-cell", "postcode": "EX10 0AQ", "postcodes": ["EX10 0AQ"]}, "geometry": {"type": "Polygon", "coordinates": [[[-3.300338973446026, 50.716819518674576], [-3.2956399896039335, 50.71684999474211], [-3.293889989602615, 50.71732999474253], [-3.2929299896023116, 50.71672999474207], [-3.293349989603172, 50.71548999474111], [-3.2940799896036976, 50.71533999474098], [-3.2939159633574, 50.714709129785554], [-3.300338973446026, 50.716819518674576]]]}}, {"type": "Feature", "properties": {"type": "postcode-cell", "postcode": "EX10 0DN", "postcodes": ["EX10 0DN"]}, "geometry": {"type": "Polygon", "coordinates": [[[-3.297603800279461, 50.70185932078745], [-3.2968582572603484, 50.70159506886936], [-3.296092254086874, 50.70102291680928], [-3.296217459955135, 50.70058833890069], [-3.2962288666452664, 50.700582231801775], [-3.2969188557965303, 50.70041162508774], [-3.29701547020459, 50.70040048001957], [-3.298175764018059, 50.70066220492684], [-3.298176499669596, 50.70066271454442], [-3.297603800279461, 50.70185932078745]]]}}, {"type": "Feature", "properties": {"type": "postcode-cell", "postcode": "EX10 0EZ", "postcodes": ["EX10 0EZ"]}, "geometry": {"type": "Polygon", "coordinates": [[[-3.299409576306844, 50.704026045599086], [-3.298086880093709, 50.706057710139845], [-3.295277095372356, 50.707961148047545], [-3.2949182711745797, 50.707613626766545], [-3.295067573254937, 50.70221487078347], [-3.2987183501863764, 50.70340933627847], [-3.299409576306844, 50.704026045599086]]]}}, {"type": "Feature", "properties": {"type": "postcode-cell", "postcode": "EX10 0HD", "postcodes": ["EX10 0HD"]}, "geometry": {"type": "Polygon", "coordinates": [[[-3.2992220744025, 50.698954189897094], [-3.2988369263932706, 50.69950690816965], [-3.298068348322017, 50.69967926707122], [-3.2979993589589993, 50.699657106898634], [-3.29770364241891, 50.69948347281035], [-3.297542033670375, 50.699171267497356], [-3.297823901344261, 50.69858806284765], [-3.299199063692862, 50.698784655520825], [-3.2992220744025, 50.698954189897094]]]}}, {"type": "Feature", "properties": {"type": "postcode-cell", "postcode": "EX10 0DW", "postcodes": ["EX10 0DW"]}, "geometry": {"type": "Polygon", "coordinates": [[[-3.298175764018059, 50.70066220492684], [-3.29701547020459, 50.70040048001957], [-3.297137217135685, 50.700078147570004], [-3.2979993589589993, 50.699657106898634], [-3.298068348322017, 50.69967926707122], [-3.298175764018059, 50.70066220492684]]]}}, {"type": "Feature", "properties": {"type": "postcode-cell", "postcode": "EX10 0EB", "postcodes": ["EX10 0EB"]}, "geometry": {"type": "Polygon", "coordinates": [[[-3.2979993589589993, 50.699657106898634], [-3.297137217135685, 50.700078147570004], [-3.296981036258374, 50.699700902590344], [-3.29770364241891, 50.69948347281035], [-3.2979993589589993, 50.699657106898634]]]}}, {"type": "Feature", "properties": {"type": "postcode-cell", "postcode": "EX10 0HA", "postcodes": ["EX10 0HA"]}, "geometry": {"type": "Polygon", "coordinates": [[[-3.2938519964635637, 50.70669171967619], [-3.291583351966971, 50.70284608562823], [-3.293727803524804, 50.70164944389913], [-3.2949233540744016, 50.70210162399417], [-3.295067573254937, 50.70221487078347], [-3.2949182711745797, 50.707613626766545], [-3.2938519964635637, 50.70669171967619]]]}}, {"type": "Feature", "properties": {"type": "postcode-cell", "postcode": "EX10 0NH", "postcodes": ["EX10 0NH"]}, "geometry": {"type": "Polygon", "coordinates": [[[-3.2949182711745797, 50.707613626766545], [-3.295277095372356, 50.707961148047545], [-3.2950091808878574, 50.709080124966704], [-3.2928275897492787, 50.71041851597458], [-3.290169925463813, 50.71162696960519], [-3.274469989593916, 50.71045999473751], [-3.2728724808184113, 50.71016319170116], [-3.2749825944100808, 50.70832138500792], [-3.2877737047631714, 50.704827118265236], [-3.2938519964635637, 50.70669171967619], [-3.2949182711745797, 50.707613626766545]]]}}, {"type": "Feature", "properties": {"type": "postcode-cell", "postcode": "EX10 0UZ", "postcodes": ["EX10 0UZ"]}, "geometry": {"type": "Polygon", "coordinates": [[[-3.297137217135685, 50.700078147570004], [-3.29701547020459, 50.70040048001957], [-3.2969188557965303, 50.70041162508774], [-3.2964399789892345, 50.699586339957065], [-3.296981036258374, 50.699700902590344], [-3.297137217135685, 50.700078147570004]]]}}, {"type": "Feature", "properties": {"type": "postcode-cell", "postcode": "EX10 0DY", "postcodes": ["EX10 0DY"]}, "geometry": {"type": "Polygon", "coordinates": [[[-3.29770364241891, 50.69948347281035], [-3.296981036258374, 50.699700902590344], [-3.2964399789892345, 50.699586339957065], [-3.2961637621050355, 50.69947556052706], [-3.2961608351247222, 50.69936737949457], [-3.296347217487613, 50.69925321592612], [-3.297542033670375, 50.699171267497356], [-3.29770364241891, 50.69948347281035]]]}}, {"type": "Feature", "properties": {"type": "postcode-cell", "postcode": "EX10 0DX", "postcodes": ["EX10 0DX"]}, "geometry": {"type": "Polygon", "coordinates": [[[-3.2964399789892345, 50.699586339957065], [-3.2969188557965303, 50.70041162508774], [-3.2962288666452664, 50.700582231801775], [-3.2961600643999382, 50.699479133624806], [-3.2961637621050355, 50.69947556052706], [-3.2964399789892345, 50.699586339957065]]]}}, {"type": "Feature", "properties": {"type": "postcode-cell", "postcode": "EX10 0DZ", "postcodes": ["EX10 0DZ"]}, "geometry": {"type": "Polygon", "coordinates": [[[-3.297542033670375, 50.699171267497356], [-3.296347217487613, 50.69925321592612], [-3.2966102287692163, 50.69862715289698], [-3.297818209914797, 50.69858349355013], [-3.297823901344261, 50.69858806284765], [-3.297542033670375, 50.699171267497356]]]}}, {"type": "Feature", "properties": {"type": "postcode-cell", "postcode": "EX10 0SP", "postcodes": ["EX10 0SP"]}, "geometry": {"type": "Polygon", "coordinates": [[[-3.296347217487613, 50.69925321592612], [-3.2961608351247222, 50.69936737949457], [-3.295477977564923, 50.69905259691878], [-3.295195635315798, 50.69819673427965], [-3.295246516594847, 50.698172341135624], [-3.2961070734745808, 50.698313319595535], [-3.2966102287692163, 50.69862715289698], [-3.296347217487613, 50.69925321592612]]]}}, {"type": "Feature", "properties": {"type": "postcode-cell", "postcode": "EX10 0HE", "postcodes": ["EX10 0HE"]}, "geometry": {"type": "Polygon", "coordinates": [[[-3.2966102287692163, 50.69862715289698], [-3.2961070734745808, 50.698313319595535], [-3.297631240609017, 50.69763521066873], [-3.297818209914797, 50.69858349355013], [-3.2966102287692163, 50.69862715289698]]]}}, {"type": "Feature", "properties": {"type": "postcode-cell", "postcode": "EX10 0EG", "postcodes": ["EX10 0EG"]}, "geometry": {"type": "Polygon", "coordinates": [[[-3.296217459955135, 50.70058833890069], [-3.295899312504626, 50.700470791166104], [-3.2952630062236454, 50.69988032128492], [-3.2961600643999382, 50.699479133624806], [-3.2962288666452664, 50.700582231801775], [-3.296217459955135, 50.70058833890069]]]}}, {"type": "Feature", "properties": {"type": "postcode-cell", "postcode": "EX10 0NL", "postcodes": ["EX10 0NL"]}, "geometry": {"type": "Polygon", "coordinates": [[[-3.2962659356189814, 50.68693357473275], [-3.2962199896187787, 50.68696999471883], [-3.2939999896156764, 50.690529994721636], [-3.294145122304007, 50.69108980553841], [-3.2909455986021405, 50.69546189952226], [-3.285837454016396, 50.69841643954273], [-3.281929769083701, 50.6990040773248], [-3.270570613581733, 50.68794916878501], [-3.27109998960388, 50.68565999471825], [-3.275129989608349, 50.68158999471501], [-3.2787799896101806, 50.682459994715614], [-3.281969989612381, 50.6819899947152], [-3.2842199896136894, 50.6821599947153], [-3.285009989614314, 50.68187999471508], [-3.288429989616356, 50.682029994715116], [-3.2892099896169595, 50.681779994714894], [-3.2892799896165172, 50.68277999471569], [-3.2935499896194247, 50.68222999471517], [-3.294029989619161, 50.68338999471605], [-3.2934999896186725, 50.68371999471635], [-3.2936499896182894, 50.684699994717114], [-3.2962952851999394, 50.68596413643996], [-3.2962659356189814, 50.68693357473275]]]}}, {"type": "Feature", "properties": {"type": "postcode-cell", "postcode": "EX10 0EN", "postcodes": ["EX10 0EN"]}, "geometry": {"type": "MultiPolygon", "coordinates": [[[[-3.2958884802398183, 50.696768008978914], [-3.296189989615122, 50.69446999472465], [-3.296924744623837, 50.6945009401398], [-3.2958884802398183, 50.696768008978914]]], [[[-3.295246516594847, 50.698172341135624], [-3.295195635315798, 50.69819673427965], [-3.295078979843723, 50.698206197086], [-3.2928993884439075, 50.69726590828409], [-3.2931099896120006, 50.69696999472666], [-3.295658580687492, 50.697270937261386], [-3.295246516594847, 50.698172341135624]]], [[[-3.2909455986021405, 50.69546189952226], [-3.294145122304007, 50.69108980553841], [-3.294419989615153, 50.692149994722904], [-3.2936499896140914, 50.693349994723825], [-3.293949989613416, 50.695129994725214], [-3.2924999896125593, 50.69503999472517], [-3.291509989611792, 50.695359994725436], [-3.291051807594067, 50.695605738445494], [-3.2909455986021405, 50.69546189952226]]]]}}, {"type": "Feature", "properties": {"type": "postcode-cell", "postcode": "EX10 0EL", "postcodes": ["EX10 0EL"]}, "geometry": {"type": "Polygon", "coordinates": [[[-3.295477977564923, 50.69905259691878], [-3.2941911889628015, 50.69956850112081], [-3.2941017848084084, 50.69952285645161], [-3.2937213424496896, 50.698821237565944], [-3.295078979843723, 50.698206197086], [-3.295195635315798, 50.69819673427965], [-3.295477977564923, 50.69905259691878]]]}}, {"type": "Feature", "properties": {"type": "postcode-cell", "postcode": "EX10 0EJ", "postcodes": ["EX10 0EJ"]}, "geometry": {"type": "Polygon", "coordinates": [[[-3.2961600643999382, 50.699479133624806], [-3.2952630062236454, 50.69988032128492], [-3.2944741713219243, 50.699850072568005], [-3.2943246914153503, 50.69973816350435], [-3.2941911889628015, 50.69956850112081], [-3.295477977564923, 50.69905259691878], [-3.2961608351247222, 50.69936737949457], [-3.2961637621050355, 50.69947556052706], [-3.2961600643999382, 50.699479133624806]]]}}, {"type": "Feature", "properties": {"type": "postcode-cell", "postcode": "EX10 0DL", "postcodes": ["EX10 0DL"]}, "geometry": {"type": "Polygon", "coordinates": [[[-3.2949233540744016, 50.70210162399417], [-3.293727803524804, 50.70164944389913], [-3.2937698500605483, 50.70155963457788], [-3.293835453235806, 50.70151965548399], [-3.296092254086874, 50.70102291680928], [-3.2968582572603484, 50.70159506886936], [-3.2949233540744016, 50.70210162399417]]]}}, {"type": "Feature", "properties": {"type": "postcode-cell", "postcode": "EX10 0EQ", "postcodes": ["EX10 0EQ"]}, "geometry": {"type": "Polygon", "coordinates": [[[-3.293835453235806, 50.70151965548399], [-3.2944931271551035, 50.700505800893694], [-3.295899312504626, 50.700470791166104], [-3.296217459955135, 50.70058833890069], [-3.296092254086874, 50.70102291680928], [-3.293835453235806, 50.70151965548399]]]}}, {"type": "Feature", "properties": {"type": "postcode-cell", "postcode": "EX10 0ER", "postcodes": ["EX10 0ER"]}, "geometry": {"type": "Polygon", "coordinates": [[[-3.2937698500605483, 50.70155963457788], [-3.2933269018433555, 50.70107172929546], [-3.293447927582546, 50.700270158696945], [-3.2943246914153503, 50.69973816350435], [-3.2944741713219243, 50.699850072568005], [-3.2944931271551035, 50.700505800893694], [-3.293835453235806, 50.70151965548399], [-3.2937698500605483, 50.70155963457788]]]}}, {"type": "Feature", "properties": {"type": "postcode-cell", "postcode": "EX10 0EH", "postcodes": ["EX10 0EH"]}, "geometry": {"type": "Polygon", "coordinates": [[[-3.295899312504626, 50.700470791166104], [-3.2944931271551035, 50.700505800893694], [-3.2944741713219243, 50.699850072568005], [-3.2952630062236454, 50.69988032128492], [-3.295899312504626, 50.700470791166104]]]}}, {"type": "Feature", "properties": {"type": "postcode-cell", "postcode": "EX10 0ES", "postcodes": ["EX10 0ES"]}, "geometry": {"type": "Polygon", "coordinates": [[[-3.2943246914153503, 50.69973816350435], [-3.293447927582546, 50.700270158696945], [-3.292756945468278, 50.69986661989414], [-3.292759638196615, 50.69981995261906], [-3.2941017848084084, 50.69952285645161], [-3.2941911889628015, 50.69956850112081], [-3.2943246914153503, 50.69973816350435]]]}}, {"type": "Feature", "properties": {"type": "postcode-cell", "postcode": "EX10 0HB", "postcodes": ["EX10 0HB"]}, "geometry": {"type": "Polygon", "coordinates": [[[-3.2937213424496896, 50.698821237565944], [-3.293101010760781, 50.69865670903547], [-3.2926486288691557, 50.69761824271255], [-3.2928993884439075, 50.69726590828409], [-3.295078979843723, 50.698206197086], [-3.2937213424496896, 50.698821237565944]]]}}, {"type": "Feature", "properties": {"type": "postcode-cell", "postcode": "EX10 0EY", "postcodes": ["EX10 0EY"]}, "geometry": {"type": "Polygon", "coordinates": [[[-3.293727803524804, 50.70164944389913], [-3.291583351966971, 50.70284608562823], [-3.2906890709477614, 50.70252148319005], [-3.290112975465712, 50.700465861229546], [-3.292432585461329, 50.700484970599], [-3.2933269018433555, 50.70107172929546], [-3.2937698500605483, 50.70155963457788], [-3.293727803524804, 50.70164944389913]]]}}, {"type": "Feature", "properties": {"type": "postcode-cell", "postcode": "EX10 0SU", "postcodes": ["EX10 0SU"]}, "geometry": {"type": "Polygon", "coordinates": [[[-3.293101010760781, 50.69865670903547], [-3.292593743560962, 50.69887549654767], [-3.2916639846773603, 50.69888571368018], [-3.2915114932746676, 50.698029372308184], [-3.2923199896109736, 50.698079994727536], [-3.2926486288691557, 50.69761824271255], [-3.293101010760781, 50.69865670903547]]]}}, {"type": "Feature", "properties": {"type": "postcode-cell", "postcode": "EX10 0EP", "postcodes": ["EX10 0EP"]}, "geometry": {"type": "Polygon", "coordinates": [[[-3.2933269018433555, 50.70107172929546], [-3.292432585461329, 50.700484970599], [-3.292756945468278, 50.69986661989414], [-3.293447927582546, 50.700270158696945], [-3.2933269018433555, 50.70107172929546]]]}}, {"type": "Feature", "properties": {"type": "postcode-cell", "postcode": "EX10 0EU", "postcodes": ["EX10 0EU"]}, "geometry": {"type": "Polygon", "coordinates": [[[-3.292759638196615, 50.69981995261906], [-3.292505150887528, 50.6996766115379], [-3.292593743560962, 50.69887549654767], [-3.293101010760781, 50.69865670903547], [-3.2937213424496896, 50.698821237565944], [-3.2941017848084084, 50.69952285645161], [-3.292759638196615, 50.69981995261906]]]}}, {"type": "Feature", "properties": {"type": "postcode-cell", "postcode": "EX10 0ET", "postcodes": ["EX10 0ET"]}, "geometry": {"type": "Polygon", "coordinates": [[[-3.292759638196615, 50.69981995261906], [-3.292756945468278, 50.69986661989414], [-3.292432585461329, 50.700484970599], [-3.290112975465712, 50.700465861229546], [-3.289507760089293, 50.69978974882238], [-3.2898471998318506, 50.69970641262176], [-3.292505150887528, 50.6996766115379], [-3.292759638196615, 50.69981995261906]]]}}, {"type": "Feature", "properties": {"type": "postcode-cell", "postcode": "EX10 0ST", "postcodes": ["EX10 0ST"]}, "geometry": {"type": "Polygon", "coordinates": [[[-3.289507760089293, 50.69978974882238], [-3.285837454016396, 50.69841643954273], [-3.2909455986021405, 50.69546189952226], [-3.291051807594067, 50.695605738445494], [-3.287929989608644, 50.697279994727005], [-3.2875299896081533, 50.69777999472739], [-3.2915114932746676, 50.698029372308184], [-3.2916639846773603, 50.69888571368018], [-3.2898471998318506, 50.69970641262176], [-3.289507760089293, 50.69978974882238]]]}}, {"type": "Feature", "properties": {"type": "postcode-cell", "postcode": "EX10 0EX", "postcodes": ["EX10 0EX"]}, "geometry": {"type": "Polygon", "coordinates": [[[-3.292505150887528, 50.6996766115379], [-3.2898471998318506, 50.69970641262176], [-3.2916639846773603, 50.69888571368018], [-3.292593743560962, 50.69887549654767], [-3.292505150887528, 50.6996766115379]]]}}, {"type": "Feature", "properties": {"type": "postcode-cell", "postcode": "EX10 0NQ", "postcodes": ["EX10 0NQ"]}, "geometry": {"type": "Polygon", "coordinates": [[[-3.291583351966971, 50.70284608562823], [-3.2938519964635637, 50.70669171967619], [-3.2877737047631714, 50.704827118265236], [-3.287879264195831, 50.70280253352241], [-3.2906890709477614, 50.70252148319005], [-3.291583351966971, 50.70284608562823]]]}}, {"type": "Feature", "properties": {"type": "postcode-cell", "postcode": "EX10 0NG", "postcodes": ["EX10 0NG"]}, "geometry": {"type": "Polygon", "coordinates": [[[-3.285837454016396, 50.69841643954273], [-3.289507760089293, 50.69978974882238], [-3.290112975465712, 50.700465861229546], [-3.2906890709477614, 50.70252148319005], [-3.287879264195831, 50.70280253352241], [-3.2814814280189215, 50.70077763839604], [-3.281929769083701, 50.6990040773248], [-3.285837454016396, 50.69841643954273]]]}}, {"type": "Feature", "properties": {"type": "postcode-cell", "postcode": "EX10 0NJ", "postcodes": ["EX10 0NJ"]}, "geometry": {"type": "Polygon", "coordinates": [[[-3.2877737047631714, 50.704827118265236], [-3.2749825944100808, 50.70832138500792], [-3.2814814280189215, 50.70077763839604], [-3.287879264195831, 50.70280253352241], [-3.2877737047631714, 50.704827118265236]]]}}, {"type": "Feature", "properties": {"type": "postcode-cell", "postcode": "EX10 0FE", "postcodes": ["EX10 0FE"]}, "geometry": {"type": "Polygon", "coordinates": [[[-3.281929769083701, 50.6990040773248], [-3.2814814280189215, 50.70077763839604], [-3.2749825944100808, 50.70832138500792], [-3.2728724808184113, 50.71016319170116], [-3.272639989592948, 50.710119994737255], [-3.2712599895919494, 50.710419994737535], [-3.2703899895915374, 50.71015999473733], [-3.2703099895917447, 50.70962999473692], [-3.2690799895913254, 50.70892999473641], [-3.270029989592656, 50.707399994735205], [-3.269779989592822, 50.70673999473468], [-3.2717599895943525, 50.70610999473416], [-3.2717599895945253, 50.70574999473388], [-3.269809989593558, 50.70525999473354], [-3.2680699895930183, 50.7041599947327], [-3.2703799895947245, 50.70357999473219], [-3.2699499895950153, 50.702439994731336], [-3.270839989595721, 50.70211999473106], [-3.270719989595903, 50.70158999473065], [-3.271739989596582, 50.70148999473056], [-3.2716699895968064, 50.70093999473015], [-3.2736299895984904, 50.69996999472935], [-3.272999989598251, 50.69965999472912], [-3.2751899896002636, 50.698299994727996], [-3.270379989598526, 50.69575999472611], [-3.2688099895981937, 50.69444999472513], [-3.2681599895985736, 50.69283999472386], [-3.2700199896009434, 50.690329994721914], [-3.270570613581733, 50.68794916878501], [-3.281929769083701, 50.6990040773248]]]}}]}