{"type": "FeatureCollection", "features": [{"type": "Feature", "properties": {"type": "ward-outline", "name": "North Molton"}, "geometry": {"type": "Polygon", "coordinates": [[[-3.65233, 51.05964], [-3.65403, 51.05993], [-3.65478, 51.05946], [-3.65755, 51.059], [-3.66081, 51.05792], [-3.66415, 51.05487], [-3.66673, 51.05078], [-3.66759, 51.04822], [-3.66748, 51.0473], [-3.66836, 51.04617], [-3.67134, 51.04549], [-3.67405, 51.0431], [-3.67461, 51.04103], [-3.67205, 51.03872], [-3.67204, 51.03624], [-3.67032, 51.03513], [-3.66997, 51.03427], [-3.67081, 51.0334], [-3.67291, 51.03283], [-3.67456, 51.03134], [-3.67442, 51.03113], [-3.67566, 51.03047], [-3.67597, 51.02957], [-3.6754, 51.02873], [-3.672, 51.02912], [-3.66858, 51.02883], [-3.66599, 51.02949], [-3.66519, 51.0294], [-3.66485, 51.02847], [-3.6665, 51.02663], [-3.66658, 51.02602], [-3.66524, 51.02641], [-3.66362, 51.02607], [-3.66304, 51.02651], [-3.66256, 51.02593], [-3.66179, 51.02575], [-3.66125, 51.02591], [-3.6592, 51.0255], [-3.65757, 51.02562], [-3.65646, 51.02287], [-3.65726, 51.02037], [-3.65674, 51.01757], [-3.65034, 51.01647], [-3.6506, 51.01474], [-3.64967, 51.01053], [-3.65262, 51.01106], [-3.65782, 51.01035], [-3.66247, 51.01107], [-3.67759, 51.01156], [-3.67993, 51.01143], [-3.68427, 51.01012], [-3.6873, 51.01246], [-3.68764, 51.01316], [-3.68711, 51.01414], [-3.68917, 51.01544], [-3.69005, 51.0166], [-3.69009, 51.01709], [-3.68936, 51.01727], [-3.68915, 51.01785], [-3.68803, 51.01854], [-3.68839, 51.02044], [-3.69041, 51.0214], [-3.69017, 51.02181], [-3.69084, 51.02265], [-3.69034, 51.02413], [-3.68946, 51.02476], [-3.69026, 51.02689], [-3.69203, 51.02712], [-3.69237, 51.0269], [-3.69253, 51.02711], [-3.69282, 51.02684], [-3.69313, 51.02698], [-3.6936, 51.0267], [-3.69387, 51.02692], [-3.69431, 51.02667], [-3.69499, 51.02704], [-3.69567, 51.02663], [-3.69593, 51.02713], [-3.6977, 51.02754], [-3.69866, 51.02726], [-3.69936, 51.02749], [-3.70149, 51.02663], [-3.70315, 51.02632], [-3.70441, 51.02683], [-3.70489, 51.0265], [-3.70481, 51.026], [-3.70587, 51.02656], [-3.70623, 51.02633], [-3.70744, 51.02651], [-3.70777, 51.02606], [-3.70812, 51.02622], [-3.70873, 51.02595], [-3.71103, 51.02663], [-3.71145, 51.02701], [-3.71206, 51.02693], [-3.71233, 51.02724], [-3.71319, 51.02733], [-3.71417, 51.0272], [-3.71436, 51.02671], [-3.71561, 51.0262], [-3.71774, 51.02661], [-3.71789, 51.02636], [-3.72128, 51.02645], [-3.72267, 51.02614], [-3.72276, 51.0265], [-3.72349, 51.02611], [-3.72327, 51.02591], [-3.72412, 51.02599], [-3.72375, 51.02572], [-3.72413, 51.02516], [-3.72696, 51.02501], [-3.72752, 51.02517], [-3.72707, 51.02606], [-3.7259, 51.02632], [-3.72594, 51.0266], [-3.72496, 51.02695], [-3.72526, 51.0274], [-3.72324, 51.02895], [-3.7234, 51.02995], [-3.72284, 51.03054], [-3.72309, 51.03112], [-3.72351, 51.03108], [-3.72325, 51.0332], [-3.72404, 51.03459], [-3.7248, 51.03496], [-3.72962, 51.03414], [-3.73169, 51.03452], [-3.73304, 51.03513], [-3.73707, 51.03551], [-3.74219, 51.03519], [-3.74458, 51.03472], [-3.74669, 51.03461], [-3.74684, 51.03481], [-3.75012, 51.03404], [-3.75095, 51.03591], [-3.75379, 51.03635], [-3.75369, 51.0369], [-3.76202, 51.03884], [-3.76305, 51.03952], [-3.76379, 51.03961], [-3.76381, 51.04031], [-3.76582, 51.04196], [-3.77403, 51.04271], [-3.78018, 51.04268], [-3.78598, 51.04397], [-3.7881, 51.04382], [-3.78998, 51.04413], [-3.79225, 51.0437], [-3.79378, 51.0438], [-3.79395, 51.04201], [-3.79491, 51.0415], [-3.79528, 51.04013], [-3.79641, 51.03939], [-3.79653, 51.03879], [-3.79725, 51.03868], [-3.79783, 51.03793], [-3.79927, 51.03813], [-3.80071, 51.03758], [-3.80038, 51.03733], [-3.80062, 51.03688], [-3.80262, 51.03667], [-3.80289, 51.03628], [-3.80448, 51.0359], [-3.80487, 51.03472], [-3.80589, 51.03429], [-3.80544, 51.0336], [-3.80697, 51.03305], [-3.80702, 51.0334], [-3.80731, 51.03332], [-3.8074, 51.03258], [-3.80866, 51.03118], [-3.80948, 51.03152], [-3.81066, 51.0308], [-3.81152, 51.02963], [-3.81247, 51.02956], [-3.81286, 51.02838], [-3.81391, 51.02842], [-3.81459, 51.02805], [-3.81469, 51.02876], [-3.8155, 51.02826], [-3.81617, 51.02876], [-3.81712, 51.02819], [-3.81712, 51.02774], [-3.81872, 51.02835], [-3.82063, 51.02806], [-3.82076, 51.02775], [-3.82342, 51.02771], [-3.82493, 51.02678], [-3.82493, 51.02728], [-3.82574, 51.02782], [-3.82535, 51.02958], [-3.82623, 51.03108], [-3.82581, 51.03162], [-3.82616, 51.0321], [-3.826, 51.03316], [-3.82541, 51.03333], [-3.82599, 51.03474], [-3.8259, 51.03704], [-3.82522, 51.03811], [-3.82647, 51.03855], [-3.83335, 51.03886], [-3.83699, 51.03975], [-3.83877, 51.03981], [-3.83766, 51.04339], [-3.83913, 51.04466], [-3.84168, 51.04602], [-3.84302, 51.0461], [-3.84537, 51.04528], [-3.84694, 51.04513], [-3.85161, 51.04587], [-3.849, 51.04815], [-3.8502, 51.04903], [-3.85284, 51.04926], [-3.85231, 51.05309], [-3.85452, 51.05371], [-3.85746, 51.05347], [-3.85734, 51.05326], [-3.85809, 51.05309], [-3.85877, 51.054], [-3.85801, 51.05416], [-3.85871, 51.05538], [-3.86395, 51.0559], [-3.86503, 51.05507], [-3.86674, 51.05449], [-3.87127, 51.05473], [-3.87262, 51.05338], [-3.87302, 51.05329], [-3.87392, 51.05376], [-3.87509, 51.05298], [-3.87654, 51.05365], [-3.88367, 51.05543], [-3.88903, 51.05573], [-3.89504, 51.05667], [-3.90134, 51.05687], [-3.90451, 51.05614], [-3.90608, 51.05614], [-3.90644, 51.05359], [-3.90557, 51.0526], [-3.90671, 51.0509], [-3.90716, 51.04904], [-3.90802, 51.04832], [-3.90813, 51.04712], [-3.90869, 51.04699], [-3.90845, 51.04646], [-3.91082, 51.04623], [-3.91243, 51.04488], [-3.91503, 51.04363], [-3.91751, 51.04407], [-3.92511, 51.0439], [-3.9273, 51.04432], [-3.93125, 51.04413], [-3.93592, 51.04507], [-3.93627, 51.04409], [-3.93867, 51.04436], [-3.93964, 51.04528], [-3.93888, 51.04674], [-3.93742, 51.0474], [-3.93594, 51.05128], [-3.93684, 51.05181], [-3.94042, 51.05234], [-3.94051, 51.05256], [-3.94426, 51.05247], [-3.9445, 51.05282], [-3.94369, 51.05322], [-3.93997, 51.05418], [-3.93973, 51.05459], [-3.94117, 51.05668], [-3.94423, 51.05785], [-3.94349, 51.05951], [-3.94195, 51.06033], [-3.94107, 51.06123], [-3.9407, 51.06381], [-3.93881, 51.06531], [-3.93761, 51.0682], [-3.93464, 51.07044], [-3.93344, 51.07089], [-3.9329, 51.0707], [-3.93212, 51.07112], [-3.93131, 51.07399], [-3.93148, 51.07484], [-3.93044, 51.07578], [-3.93039, 51.07631], [-3.9317, 51.07746], [-3.9319, 51.07821], [-3.93066, 51.07974], [-3.9306, 51.08036], [-3.93176, 51.08114], [-3.93259, 51.08226], [-3.9325, 51.0848], [-3.92953, 51.08742], [-3.92359, 51.08952], [-3.91885, 51.09077], [-3.91549, 51.091], [-3.91321, 51.09163], [-3.91165, 51.09043], [-3.90705, 51.09118], [-3.9066, 51.09352], [-3.90217, 51.09597], [-3.90285, 51.09728], [-3.90311, 51.09964], [-3.90588, 51.10071], [-3.9077, 51.10244], [-3.90824, 51.1025], [-3.90916, 51.10704], [-3.90835, 51.10912], [-3.90847, 51.11095], [-3.90808, 51.11042], [-3.90648, 51.11085], [-3.90514, 51.10917], [-3.90438, 51.10986], [-3.90286, 51.11028], [-3.89842, 51.10926], [-3.89726, 51.10951], [-3.89416, 51.10923], [-3.89398, 51.11051], [-3.89481, 51.11333], [-3.89283, 51.11349], [-3.89203, 51.11322], [-3.89115, 51.11431], [-3.88826, 51.11525], [-3.88721, 51.11664], [-3.88548, 51.11722], [-3.88629, 51.11899], [-3.88787, 51.11953], [-3.88916, 51.11925], [-3.88971, 51.11947], [-3.88973, 51.12106], [-3.89056, 51.1216], [-3.89043, 51.1223], [-3.8911, 51.12261], [-3.89099, 51.12301], [-3.89246, 51.12287], [-3.89242, 51.12357], [-3.89318, 51.12358], [-3.89333, 51.1242], [-3.89426, 51.12437], [-3.89325, 51.12553], [-3.89071, 51.12637], [-3.88833, 51.1276], [-3.88726, 51.12709], [-3.88357, 51.12763], [-3.88125, 51.12841], [-3.88052, 51.12923], [-3.87738, 51.12955], [-3.87331, 51.13105], [-3.87198, 51.13096], [-3.86932, 51.13177], [-3.86572, 51.13232], [-3.85662, 51.13515], [-3.84201, 51.13888], [-3.83474, 51.14138], [-3.8341, 51.1402], [-3.83449, 51.13838], [-3.83115, 51.13538], [-3.82525, 51.13125], [-3.82211, 51.12695], [-3.81641, 51.12267], [-3.81373, 51.12105], [-3.80718, 51.11792], [-3.80429, 51.11569], [-3.7975, 51.11408], [-3.79144, 51.11137], [-3.78703, 51.11017], [-3.78012, 51.1077], [-3.77691, 51.10694], [-3.7674, 51.10578], [-3.75755, 51.10054], [-3.75087, 51.09513], [-3.74549, 51.09254], [-3.74134, 51.08985], [-3.73863, 51.08868], [-3.73005, 51.08678], [-3.72247, 51.0829], [-3.71995, 51.08082], [-3.71491, 51.08018], [-3.70925, 51.08069], [-3.70759, 51.08045], [-3.70613, 51.08069], [-3.70433, 51.08041], [-3.70152, 51.08076], [-3.69786, 51.08039], [-3.6965, 51.08096], [-3.69504, 51.08107], [-3.69431, 51.08061], [-3.69244, 51.08056], [-3.68877, 51.07844], [-3.6873, 51.07617], [-3.68563, 51.07515], [-3.68419, 51.07476], [-3.68416, 51.07439], [-3.68237, 51.07335], [-3.67964, 51.07271], [-3.67563, 51.07282], [-3.6728, 51.07119], [-3.66983, 51.0704], [-3.66638, 51.07019], [-3.66492, 51.0695], [-3.6648, 51.06763], [-3.66434, 51.06715], [-3.65999, 51.06612], [-3.65919, 51.06616], [-3.65823, 51.06557], [-3.6562, 51.06507], [-3.65336, 51.06498], [-3.65323, 51.06473], [-3.65029, 51.06408], [-3.65088, 51.0616], [-3.65231, 51.0604], [-3.65233, 51.05964]]]}}, {"type": "Feature", "properties": {"type": "postcode-cell", "postcode": "EX32 7PL", "postcodes": ["EX32 7PL"]}, "geometry": {"type": "Polygon", "coordinates": [[[-3.9258171928337933, 51.07916594890272], [-3.930354727220039, 51.073705082771184], [-3.931412776659992, 51.073625818857145], [-3.931309989847927, 51.07398999502137], [-3.9314799898476602, 51.07483999502206], [-3.930439989846535, 51.07577999502284], [-3.9303899898462635, 51.07630999502327], [-3.931699989846628, 51.07745999502421], [-3.9318999898464257, 51.078209995024835], [-3.930659989844901, 51.07973999502609], [-3.9305999898445827, 51.08035999502662], [-3.93175998984501, 51.081139995027236], [-3.932589989845066, 51.082259995028174], [-3.9324999898438593, 51.084799995030245], [-3.9295299898406837, 51.08741999503242], [-3.9274137621680585, 51.088168212416406], [-3.9258171928337933, 51.07916594890272]]]}}, {"type": "Feature", "properties": {"type": "postcode-cell", "postcode": "EX32 0SN", "postcodes": ["EX32 0SN"]}, "geometry": {"type": "Polygon", "coordinates": [[[-3.9258171928337933, 51.07916594890272], [-3.918384005346651, 51.08108623730054], [-3.912673752564073, 51.07992361961796], [-3.910346897803673, 51.07637827805945], [-3.920618619778714, 51.072519090793826], [-3.9251855724748665, 51.072306192375706], [-3.930354727220039, 51.073705082771184], [-3.9258171928337933, 51.07916594890272]]]}}, {"type": "Feature", "properties": {"type": "postcode-cell", "postcode": "EX32 0SA", "postcodes": ["EX32 0SA"]}, "geometry": {"type": "Polygon", "coordinates": [[[-3.923404584090084, 51.05959034934935], [-3.9222218262053574, 51.05923824103253], [-3.9202994249382157, 51.05846223209826], [-3.9255603737363955, 51.0439863739826], [-3.9272999898586116, 51.044319994997046], [-3.9312499898613487, 51.04412999499687], [-3.935919989864058, 51.045069994997604], [-3.9362699898647326, 51.0440899949968], [-3.938669989866225, 51.044359994997016], [-3.9396399898664614, 51.04527999499778], [-3.9388799898652906, 51.046739994998966], [-3.9374199898640145, 51.047399994999516], [-3.9359399898612724, 51.0512799950027], [-3.9368399898616366, 51.05180999500315], [-3.9404199898638037, 51.05233999500356], [-3.940509989863763, 51.05255999500374], [-3.9442599898663246, 51.052469995003634], [-3.944499989866328, 51.052819995003915], [-3.9436899898656055, 51.053219995004255], [-3.939969989862671, 51.05417999500505], [-3.939729989862327, 51.05458999500541], [-3.9411699898623533, 51.05667999500712], [-3.944229989863881, 51.05784999500805], [-3.9434922177667113, 51.059504997458696], [-3.923404584090084, 51.05959034934935]]]}}, {"type": "Feature", "properties": {"type": "postcode-cell", "postcode": "EX36 3HQ", "postcodes": ["EX36 3HQ"]}, "geometry": {"type": "Polygon", "coordinates": [[[-3.8143977128814868, 51.04149296768485], [-3.8006700341893076, 51.03754972580318], [-3.800379989777138, 51.03732999499211], [-3.8006199897775033, 51.03687999499174], [-3.802619989778925, 51.036669994991556], [-3.802889989779281, 51.03627999499124], [-3.8044799897805075, 51.03589999499093], [-3.8048699897813063, 51.03471999498994], [-3.8058899897821794, 51.03428999498959], [-3.805439989782198, 51.03359999498904], [-3.806969989783464, 51.03304999498861], [-3.8070199897833357, 51.03339999498887], [-3.807309989783565, 51.0333199949888], [-3.807399989783961, 51.03257999498819], [-3.8086599897854376, 51.03117999498705], [-3.8094799897858285, 51.03151999498734], [-3.8106599897869367, 51.03079999498672], [-3.811519989788041, 51.02962999498577], [-3.812469989788705, 51.0295599949857], [-3.812859989789499, 51.02837999498472], [-3.8139099897901794, 51.02841999498475], [-3.8145899897908, 51.02804999498445], [-3.814689989790541, 51.02875999498504], [-3.8154999897913076, 51.02825999498462], [-3.816169989791524, 51.028759994985], [-3.817119989792415, 51.028189994984565], [-3.8171199897926185, 51.02773999498418], [-3.818719989793402, 51.02834999498466], [-3.820629989794803, 51.02805999498444], [-3.8207599897950306, 51.02774999498417], [-3.8234199897968164, 51.027709994984114], [-3.824929989798241, 51.02677999498334], [-3.824929989798014, 51.02727999498373], [-3.8257399897983078, 51.02781999498419], [-3.825349989797245, 51.029579994985625], [-3.826229989797145, 51.03107999498685], [-3.825809989796623, 51.0316199949873], [-3.826159989796635, 51.032099994987696], [-3.8259999897960473, 51.03315999498854], [-3.825409989795578, 51.03332999498869], [-3.825989989795319, 51.03473999498985], [-3.8259117751634304, 51.03673882208326], [-3.8143977128814868, 51.04149296768485]]]}}, {"type": "Feature", "properties": {"type": "postcode-cell", "postcode": "EX32 0SL", "postcodes": ["EX32 0SL"]}, "geometry": {"type": "Polygon", "coordinates": [[[-3.923404584090084, 51.05959034934935], [-3.9434922177667113, 51.059504997458696], [-3.943489989862636, 51.0595099950094], [-3.9419499898612336, 51.0603299950101], [-3.941069989860235, 51.06122999501084], [-3.9406999898588233, 51.06380999501295], [-3.938809989856879, 51.065309995014196], [-3.9376099898547707, 51.06819999501657], [-3.9346399898517643, 51.07043999501843], [-3.933439989850757, 51.07088999501882], [-3.9328999898504797, 51.070699995018664], [-3.932119989849766, 51.071119995019025], [-3.931412776659992, 51.073625818857145], [-3.930354727220039, 51.073705082771184], [-3.9251855724748665, 51.072306192375706], [-3.92334069982765, 51.06780981491296], [-3.923404584090084, 51.05959034934935]]]}}, {"type": "Feature", "properties": {"type": "postcode-cell", "postcode": "EX32 0SF", "postcodes": ["EX32 0SF"]}, "geometry": {"type": "Polygon", "coordinates": [[[-3.92334069982765, 51.06780981491296], [-3.9205866987729423, 51.066906173148524], [-3.918173245431212, 51.06507406713478], [-3.9185109970920675, 51.06405152917315], [-3.9222218262053574, 51.05923824103253], [-3.923404584090084, 51.05959034934935], [-3.92334069982765, 51.06780981491296]]]}}, {"type": "Feature", "properties": {"type": "postcode-cell", "postcode": "EX32 7PR", "postcodes": ["EX32 7PR"]}, "geometry": {"type": "Polygon", "coordinates": [[[-3.896129074315689, 51.09335582241512], [-3.89563587847037, 51.08905214210559], [-3.897549118362965, 51.08647135620204], [-3.909433576969888, 51.086097284918445], [-3.9188629474459673, 51.090766578295025], [-3.9188499898319953, 51.090769995035224], [-3.9154899898296343, 51.09099999503542], [-3.9132099898278168, 51.09162999503596], [-3.9116499898273123, 51.09042999503497], [-3.907049989823884, 51.09117999503561], [-3.906599989822526, 51.09351999503754], [-3.904165339835078, 51.094866524312806], [-3.896129074315689, 51.09335582241512]]]}}, {"type": "Feature", "properties": {"type": "postcode-cell", "postcode": "EX32 7PN", "postcodes": ["EX32 7PN"]}, "geometry": {"type": "Polygon", "coordinates": [[[-3.9274137621680585, 51.088168212416406], [-3.923589989835745, 51.089519995034166], [-3.9212375928841, 51.09014038516702], [-3.918384005346651, 51.08108623730054], [-3.9258171928337933, 51.07916594890272], [-3.9274137621680585, 51.088168212416406]]]}}, {"type": "Feature", "properties": {"type": "postcode-cell", "postcode": "EX32 7PW", "postcodes": ["EX32 7PW"]}, "geometry": {"type": "Polygon", "coordinates": [[[-3.9212375928841, 51.09014038516702], [-3.9188629474459673, 51.090766578295025], [-3.909433576969888, 51.086097284918445], [-3.912673752564073, 51.07992361961796], [-3.918384005346651, 51.08108623730054], [-3.9212375928841, 51.09014038516702]]]}}, {"type": "Feature", "properties": {"type": "postcode-cell", "postcode": "EX32 0UY", "postcodes": ["EX32 0UY"]}, "geometry": {"type": "Polygon", "coordinates": [[[-3.918173245431212, 51.06507406713478], [-3.9177934390191176, 51.065392416310985], [-3.9173861637389735, 51.06555478552942], [-3.9164937003079654, 51.06566277312659], [-3.915500565873061, 51.0655886532103], [-3.9185109970920675, 51.06405152917315], [-3.918173245431212, 51.06507406713478]]]}}, {"type": "Feature", "properties": {"type": "postcode-cell", "postcode": "EX32 0SJ", "postcodes": ["EX32 0SJ"]}, "geometry": {"type": "Polygon", "coordinates": [[[-3.92334069982765, 51.06780981491296], [-3.9251855724748665, 51.072306192375706], [-3.920618619778714, 51.072519090793826], [-3.9137941398347054, 51.06830611870252], [-3.913584918253922, 51.067916218175036], [-3.9171071886799993, 51.0667350302321], [-3.919385201409864, 51.06662785336397], [-3.9205866987729423, 51.066906173148524], [-3.92334069982765, 51.06780981491296]]]}}, {"type": "Feature", "properties": {"type": "postcode-cell", "postcode": "EX32 0SG", "postcodes": ["EX32 0SG"]}, "geometry": {"type": "Polygon", "coordinates": [[[-3.9177934390191176, 51.065392416310985], [-3.9192921300894135, 51.066588543555575], [-3.9181390184733114, 51.06623798961058], [-3.9173861637389735, 51.06555478552942], [-3.9177934390191176, 51.065392416310985]]]}}, {"type": "Feature", "properties": {"type": "postcode-cell", "postcode": "EX32 0TX", "postcodes": ["EX32 0TX"]}, "geometry": {"type": "Polygon", "coordinates": [[[-3.9205866987729423, 51.066906173148524], [-3.919385201409864, 51.06662785336397], [-3.9192921300894135, 51.066588543555575], [-3.9177934390191176, 51.065392416310985], [-3.918173245431212, 51.06507406713478], [-3.9205866987729423, 51.066906173148524]]]}}, {"type": "Feature", "properties": {"type": "postcode-cell", "postcode": "EX32 0SP", "postcodes": ["EX32 0SP"]}, "geometry": {"type": "Polygon", "coordinates": [[[-3.9137941398347054, 51.06830611870252], [-3.9043217297636468, 51.07256662056521], [-3.904290256460387, 51.07255356426426], [-3.9043885035200834, 51.07234797680158], [-3.9105165099641406, 51.064896799906535], [-3.9119883350322837, 51.065909492519864], [-3.913584918253922, 51.067916218175036], [-3.9137941398347054, 51.06830611870252]]]}}, {"type": "Feature", "properties": {"type": "postcode-cell", "postcode": "EX32 0SE", "postcodes": ["EX32 0SE"]}, "geometry": {"type": "Polygon", "coordinates": [[[-3.9185109970920675, 51.06405152917315], [-3.915500565873061, 51.0655886532103], [-3.9119883350322837, 51.065909492519864], [-3.9105165099641406, 51.064896799906535], [-3.9104372081667433, 51.06478748802441], [-3.910412306263495, 51.06474829143794], [-3.915845350345584, 51.058420692484354], [-3.9202994249382157, 51.05846223209826], [-3.9222218262053574, 51.05923824103253], [-3.9185109970920675, 51.06405152917315]]]}}, {"type": "Feature", "properties": {"type": "postcode-cell", "postcode": "EX32 0SH", "postcodes": ["EX32 0SH"]}, "geometry": {"type": "Polygon", "coordinates": [[[-3.919385201409864, 51.06662785336397], [-3.9171071886799993, 51.0667350302321], [-3.9173728403824075, 51.06621929391908], [-3.9181390184733114, 51.06623798961058], [-3.9192921300894135, 51.066588543555575], [-3.919385201409864, 51.06662785336397]]]}}, {"type": "Feature", "properties": {"type": "postcode-cell", "postcode": "EX32 0SQ", "postcodes": ["EX32 0SQ"]}, "geometry": {"type": "Polygon", "coordinates": [[[-3.9173861637389735, 51.06555478552942], [-3.9181390184733114, 51.06623798961058], [-3.9173728403824075, 51.06621929391908], [-3.9164937003079654, 51.06566277312659], [-3.9173861637389735, 51.06555478552942]]]}}, {"type": "Feature", "properties": {"type": "postcode-cell", "postcode": "EX32 0SY", "postcodes": ["EX32 0SY"]}, "geometry": {"type": "Polygon", "coordinates": [[[-3.913584918253922, 51.067916218175036], [-3.9119883350322837, 51.065909492519864], [-3.915500565873061, 51.0655886532103], [-3.9164937003079654, 51.06566277312659], [-3.9173728403824075, 51.06621929391908], [-3.9171071886799993, 51.0667350302321], [-3.913584918253922, 51.067916218175036]]]}}, {"type": "Feature", "properties": {"type": "postcode-cell", "postcode": "EX32 0TG", "postcodes": ["EX32 0TG"]}, "geometry": {"type": "Polygon", "coordinates": [[[-3.878726300395462, 51.06154045053643], [-3.8691201889270004, 51.05877874865941], [-3.867711793110258, 51.05454149630137], [-3.871269989816402, 51.0547299950059], [-3.8726199898179137, 51.05337999500479], [-3.8730199898182236, 51.05328999500472], [-3.8739199898186123, 51.05375999500509], [-3.875089989819747, 51.052979995004456], [-3.876539989820412, 51.05364999500499], [-3.883050102054642, 51.05527526325716], [-3.878726300395462, 51.06154045053643]]]}}, {"type": "Feature", "properties": {"type": "postcode-cell", "postcode": "EX32 0SB", "postcodes": ["EX32 0SB"]}, "geometry": {"type": "Polygon", "coordinates": [[[-3.9202994249382157, 51.05846223209826], [-3.915845350345584, 51.058420692484354], [-3.90632749246896, 51.054386878830314], [-3.906439989840444, 51.05358999500477], [-3.9055699898403082, 51.052599995003966], [-3.9067099898418385, 51.05089999500255], [-3.9071599898429827, 51.04903999500102], [-3.908019989843884, 51.04831999500043], [-3.9081299898444968, 51.04711999499946], [-3.9086899898449308, 51.04698999499934], [-3.908449989845012, 51.046459994998905], [-3.9108199898467038, 51.046229994998704], [-3.912429989848392, 51.04487999499759], [-3.9150299898506975, 51.043629994996564], [-3.9175099898521597, 51.044069994996896], [-3.925109989857333, 51.04389999499671], [-3.9255603737363955, 51.0439863739826], [-3.9202994249382157, 51.05846223209826]]]}}, {"type": "Feature", "properties": {"type": "postcode-cell", "postcode": "EX32 0SW", "postcodes": ["EX32 0SW"]}, "geometry": {"type": "Polygon", "coordinates": [[[-3.910346897803673, 51.07637827805945], [-3.9096606781835757, 51.0762422733881], [-3.9043217297636468, 51.07256662056521], [-3.9137941398347054, 51.06830611870252], [-3.920618619778714, 51.072519090793826], [-3.910346897803673, 51.07637827805945]]]}}, {"type": "Feature", "properties": {"type": "postcode-cell", "postcode": "EX32 7LQ", "postcodes": ["EX32 7LQ"]}, "geometry": {"type": "Polygon", "coordinates": [[[-3.8987607685706207, 51.105287223722605], [-3.89947160365293, 51.10433229464458], [-3.9071693557766385, 51.10193561771139], [-3.907699989819245, 51.10243999504487], [-3.9082399898195814, 51.10249999504491], [-3.909159989818153, 51.107039995048645], [-3.908349989816675, 51.10911999505036], [-3.908469989815927, 51.110949995051875], [-3.9080799898159047, 51.11041999505144], [-3.9064799898146356, 51.110849995051794], [-3.9051399898144927, 51.10916999505041], [-3.9043799898136706, 51.10985999505099], [-3.902859989812458, 51.11027999505135], [-3.898715456139289, 51.109327879125864], [-3.8987607685706207, 51.105287223722605]]]}}, {"type": "Feature", "properties": {"type": "postcode-cell", "postcode": "EX32 7PP", "postcodes": ["EX32 7PP"]}, "geometry": {"type": "Polygon", "coordinates": [[[-3.909433576969888, 51.086097284918445], [-3.897549118362965, 51.08647135620204], [-3.896413009407864, 51.08353546064498], [-3.897733752124528, 51.08224933412569], [-3.9096606781835757, 51.0762422733881], [-3.910346897803673, 51.07637827805945], [-3.912673752564073, 51.07992361961796], [-3.909433576969888, 51.086097284918445]]]}}, {"type": "Feature", "properties": {"type": "postcode-cell", "postcode": "EX32 0SX", "postcodes": ["EX32 0SX"]}, "geometry": {"type": "Polygon", "coordinates": [[[-3.904290256460387, 51.07255356426426], [-3.8982425681256765, 51.07191244075437], [-3.8963669453124137, 51.07127526018505], [-3.8981153388864165, 51.06576745381834], [-3.8997936704304337, 51.06308667352263], [-3.9032178304297913, 51.06394744006013], [-3.904641063228545, 51.06878518180865], [-3.9043885035200834, 51.07234797680158], [-3.904290256460387, 51.07255356426426]]]}}, {"type": "Feature", "properties": {"type": "postcode-cell", "postcode": "EX32 0SR", "postcodes": ["EX32 0SR"]}, "geometry": {"type": "Polygon", "coordinates": [[[-3.910412306263495, 51.06474829143794], [-3.905828885851384, 51.0643007901001], [-3.9032178304297913, 51.06394744006013], [-3.8997936704304337, 51.06308667352263], [-3.8977967813724157, 51.05968545444655], [-3.898521460086583, 51.05678056011403], [-3.901339989835543, 51.056869995007496], [-3.9045099898379996, 51.05613999500688], [-3.9060799898390486, 51.056139995006866], [-3.90632749246896, 51.054386878830314], [-3.915845350345584, 51.058420692484354], [-3.910412306263495, 51.06474829143794]]]}}, {"type": "Feature", "properties": {"type": "postcode-cell", "postcode": "EX32 0RD", "postcodes": ["EX32 0RD"]}, "geometry": {"type": "Polygon", "coordinates": [[[-3.8977967813724157, 51.05968545444655], [-3.8881000952284124, 51.062840548709865], [-3.8794892541283215, 51.06298669693579], [-3.878726300395462, 51.06154045053643], [-3.883050102054642, 51.05527526325716], [-3.88366998982437, 51.0554299950064], [-3.8890299898278196, 51.05572999500661], [-3.895039989831418, 51.056669995007354], [-3.898521460086583, 51.05678056011403], [-3.8977967813724157, 51.05968545444655]]]}}, {"type": "Feature", "properties": {"type": "postcode-cell", "postcode": "EX32 0SS", "postcodes": ["EX32 0SS"]}, "geometry": {"type": "Polygon", "coordinates": [[[-3.9105165099641406, 51.064896799906535], [-3.9043885035200834, 51.07234797680158], [-3.904641063228545, 51.06878518180865], [-3.905400540511693, 51.06780909277129], [-3.9104372081667433, 51.06478748802441], [-3.9105165099641406, 51.064896799906535]]]}}, {"type": "Feature", "properties": {"type": "postcode-cell", "postcode": "EX32 7LJ", "postcodes": ["EX32 7LJ"]}, "geometry": {"type": "Polygon", "coordinates": [[[-3.8987607685706207, 51.105287223722605], [-3.8846516176358037, 51.101570869489464], [-3.8843824264819378, 51.1011599391428], [-3.8881675167560084, 51.09653524376056], [-3.8953846262997702, 51.09409185752973], [-3.89947160365293, 51.10433229464458], [-3.8987607685706207, 51.105287223722605]]]}}, {"type": "Feature", "properties": {"type": "postcode-cell", "postcode": "EX32 7PZ", "postcodes": ["EX32 7PZ"]}, "geometry": {"type": "Polygon", "coordinates": [[[-3.896413009407864, 51.08353546064498], [-3.8846104690455445, 51.07795276979793], [-3.8843756525087185, 51.07735482774011], [-3.888317675850512, 51.072469088750665], [-3.8904766932879085, 51.07191898075236], [-3.8963669453124137, 51.07127526018505], [-3.8982425681256765, 51.07191244075437], [-3.897733752124528, 51.08224933412569], [-3.896413009407864, 51.08353546064498]]]}}, {"type": "Feature", "properties": {"type": "postcode-cell", "postcode": "EX32 0ST", "postcodes": ["EX32 0ST"]}, "geometry": {"type": "Polygon", "coordinates": [[[-3.904641063228545, 51.06878518180865], [-3.9032178304297913, 51.06394744006013], [-3.905828885851384, 51.0643007901001], [-3.905400540511693, 51.06780909277129], [-3.904641063228545, 51.06878518180865]]]}}, {"type": "Feature", "properties": {"type": "postcode-cell", "postcode": "EX32 0SU", "postcodes": ["EX32 0SU"]}, "geometry": {"type": "Polygon", "coordinates": [[[-3.9104372081667433, 51.06478748802441], [-3.905400540511693, 51.06780909277129], [-3.905828885851384, 51.0643007901001], [-3.910412306263495, 51.06474829143794], [-3.9104372081667433, 51.06478748802441]]]}}, {"type": "Feature", "properties": {"type": "postcode-cell", "postcode": "EX32 7QA", "postcodes": ["EX32 7QA"]}, "geometry": {"type": "Polygon", "coordinates": [[[-3.9096606781835757, 51.0762422733881], [-3.897733752124528, 51.08224933412569], [-3.8982425681256765, 51.07191244075437], [-3.904290256460387, 51.07255356426426], [-3.9043217297636468, 51.07256662056521], [-3.9096606781835757, 51.0762422733881]]]}}, {"type": "Feature", "properties": {"type": "postcode-cell", "postcode": "EX32 0TA", "postcodes": ["EX32 0TA"]}, "geometry": {"type": "Polygon", "coordinates": [[[-3.8981153388864165, 51.06576745381834], [-3.8902468435777493, 51.06538775804262], [-3.8881000952284124, 51.062840548709865], [-3.8977967813724157, 51.05968545444655], [-3.8997936704304337, 51.06308667352263], [-3.8981153388864165, 51.06576745381834]]]}}, {"type": "Feature", "properties": {"type": "postcode-cell", "postcode": "EX32 7PS", "postcodes": ["EX32 7PS"]}, "geometry": {"type": "Polygon", "coordinates": [[[-3.904165339835078, 51.094866524312806], [-3.902169989818447, 51.09596999503956], [-3.9028499898183138, 51.09727999504065], [-3.903109989817424, 51.099639995042594], [-3.905879989818801, 51.10070999504345], [-3.9071693557766385, 51.10193561771139], [-3.89947160365293, 51.10433229464458], [-3.8953846262997702, 51.09409185752973], [-3.896129074315689, 51.09335582241512], [-3.904165339835078, 51.094866524312806]]]}}, {"type": "Feature", "properties": {"type": "postcode-cell", "postcode": "EX32 7PT", "postcodes": ["EX32 7PT"]}, "geometry": {"type": "Polygon", "coordinates": [[[-3.89563587847037, 51.08905214210559], [-3.881396135988646, 51.08793922610926], [-3.8793905186480218, 51.083363145115335], [-3.8846104690455445, 51.07795276979793], [-3.896413009407864, 51.08353546064498], [-3.897549118362965, 51.08647135620204], [-3.89563587847037, 51.08905214210559]]]}}, {"type": "Feature", "properties": {"type": "postcode-cell", "postcode": "EX32 0TD", "postcodes": ["EX32 0TD"]}, "geometry": {"type": "Polygon", "coordinates": [[[-3.888317675850512, 51.072469088750665], [-3.8785774938349253, 51.065434796708], [-3.8794892541283215, 51.06298669693579], [-3.8881000952284124, 51.062840548709865], [-3.8902468435777493, 51.06538775804262], [-3.8904766932879085, 51.07191898075236], [-3.888317675850512, 51.072469088750665]]]}}, {"type": "Feature", "properties": {"type": "postcode-cell", "postcode": "EX32 7PU", "postcodes": ["EX32 7PU"]}, "geometry": {"type": "Polygon", "coordinates": [[[-3.8953846262997702, 51.09409185752973], [-3.8881675167560084, 51.09653524376056], [-3.8784119293072723, 51.0929454131138], [-3.8777320259191903, 51.090713680399375], [-3.881396135988646, 51.08793922610926], [-3.89563587847037, 51.08905214210559], [-3.896129074315689, 51.09335582241512], [-3.8953846262997702, 51.09409185752973]]]}}, {"type": "Feature", "properties": {"type": "postcode-cell", "postcode": "EX32 0TB", "postcodes": ["EX32 0TB"]}, "geometry": {"type": "Polygon", "coordinates": [[[-3.8963669453124137, 51.07127526018505], [-3.8904766932879085, 51.07191898075236], [-3.8902468435777493, 51.06538775804262], [-3.8981153388864165, 51.06576745381834], [-3.8963669453124137, 51.07127526018505]]]}}, {"type": "Feature", "properties": {"type": "postcode-cell", "postcode": "EX32 7LH", "postcodes": ["EX32 7LH"]}, "geometry": {"type": "Polygon", "coordinates": [[[-3.898715456139289, 51.109327879125864], [-3.8984199898099345, 51.109259995050515], [-3.8972599898090454, 51.10950999505073], [-3.8941599898070907, 51.109229995050526], [-3.8939799898063914, 51.11050999505157], [-3.894809989805678, 51.113329995053896], [-3.8928299898042757, 51.11348999505404], [-3.8920299898038593, 51.11321999505381], [-3.8911499898027784, 51.11430999505473], [-3.888259989800416, 51.11524999505552], [-3.887730645175311, 51.11595075793455], [-3.8817841961830566, 51.11538691540803], [-3.8846516176358037, 51.101570869489464], [-3.8987607685706207, 51.105287223722605], [-3.898715456139289, 51.109327879125864]]]}}, {"type": "Feature", "properties": {"type": "postcode-cell", "postcode": "EX32 7PY", "postcodes": ["EX32 7PY"]}, "geometry": {"type": "Polygon", "coordinates": [[[-3.8843756525087185, 51.07735482774011], [-3.874134708708585, 51.075481866953695], [-3.868084373054855, 51.070066783452056], [-3.8785774938349253, 51.065434796708], [-3.888317675850512, 51.072469088750665], [-3.8843756525087185, 51.07735482774011]]]}}, {"type": "Feature", "properties": {"type": "postcode-cell", "postcode": "EX31 4TP", "postcodes": ["EX31 4TP"]}, "geometry": {"type": "Polygon", "coordinates": [[[-3.871531761215311, 51.11868512038238], [-3.8785321910619186, 51.115744223501274], [-3.8817841961830566, 51.11538691540803], [-3.887730645175311, 51.11595075793455], [-3.887209989799079, 51.116639995056644], [-3.8854799897976586, 51.117219995057134], [-3.8862899897974033, 51.11898999505858], [-3.8878699897982205, 51.11952999505901], [-3.8891599897992126, 51.119249995058794], [-3.8897099897994822, 51.119469995058964], [-3.889729989798781, 51.121059995060286], [-3.890559989799093, 51.1215999950607], [-3.890429989798692, 51.1222999950613], [-3.891099989799001, 51.122609995061524], [-3.890989989798746, 51.12300999506188], [-3.8924599897997996, 51.12286999506174], [-3.892419989799457, 51.12356999506233], [-3.89317998979996, 51.123579995062336], [-3.893329989799783, 51.12419999506285], [-3.8942599898003305, 51.12436999506298], [-3.8932499897991293, 51.12552999506395], [-3.890709989797044, 51.126369995064664], [-3.8883299897948924, 51.127599995065665], [-3.8872599897944045, 51.127089995065255], [-3.8835699897916807, 51.12762999506572], [-3.881249989789772, 51.12840999506638], [-3.8805199897889135, 51.129229995067064], [-3.877379989786661, 51.12954999506733], [-3.873348766103583, 51.13103570516168], [-3.871531761215311, 51.11868512038238]]]}}, {"type": "Feature", "properties": {"type": "postcode-cell", "postcode": "EX32 7QG", "postcodes": ["EX32 7QG"]}, "geometry": {"type": "Polygon", "coordinates": [[[-3.8846516176358037, 51.101570869489464], [-3.8817841961830566, 51.11538691540803], [-3.8785321910619186, 51.115744223501274], [-3.869338043863868, 51.10281278231595], [-3.8739335584132877, 51.101363346317314], [-3.8800491616046404, 51.100817522052886], [-3.8843824264819378, 51.1011599391428], [-3.8846516176358037, 51.101570869489464]]]}}, {"type": "Feature", "properties": {"type": "postcode-cell", "postcode": "EX32 7QE", "postcodes": ["EX32 7QE"]}, "geometry": {"type": "Polygon", "coordinates": [[[-3.8783846712198082, 51.09297000334422], [-3.8784119293072723, 51.0929454131138], [-3.8881675167560084, 51.09653524376056], [-3.8843824264819378, 51.1011599391428], [-3.8800491616046404, 51.100817522052886], [-3.878621745844079, 51.0976684133045], [-3.878195622078761, 51.09593142121301], [-3.8783846712198082, 51.09297000334422]]]}}, {"type": "Feature", "properties": {"type": "postcode-cell", "postcode": "EX32 7QH", "postcodes": ["EX32 7QH"]}, "geometry": {"type": "Polygon", "coordinates": [[[-3.878195622078761, 51.09593142121301], [-3.8763224924153983, 51.09722775748481], [-3.874595754555308, 51.09779234063625], [-3.8740010129961893, 51.09516917498558], [-3.8783846712198082, 51.09297000334422], [-3.878195622078761, 51.09593142121301]]]}}, {"type": "Feature", "properties": {"type": "postcode-cell", "postcode": "EX32 7PX", "postcodes": ["EX32 7PX"]}, "geometry": {"type": "Polygon", "coordinates": [[[-3.8846104690455445, 51.07795276979793], [-3.8793905186480218, 51.083363145115335], [-3.8648887164604018, 51.08353136647721], [-3.874134708708585, 51.075481866953695], [-3.8843756525087185, 51.07735482774011], [-3.8846104690455445, 51.07795276979793]]]}}, {"type": "Feature", "properties": {"type": "postcode-cell", "postcode": "EX32 7QR", "postcodes": ["EX32 7QR"]}, "geometry": {"type": "Polygon", "coordinates": [[[-3.8602949110460907, 51.11768777165594], [-3.871531761215311, 51.11868512038238], [-3.873348766103583, 51.13103570516168], [-3.873309989783253, 51.13104999506859], [-3.8719799897824014, 51.13095999506851], [-3.869319989780249, 51.131769995069185], [-3.865719989777586, 51.132319995069636], [-3.8566199897702083, 51.13514999507201], [-3.843231942798627, 51.13856811741028], [-3.8602949110460907, 51.11768777165594]]]}}, {"type": "Feature", "properties": {"type": "postcode-cell", "postcode": "EX32 7FD", "postcodes": ["EX32 7FD"]}, "geometry": {"type": "Polygon", "coordinates": [[[-3.878621745844079, 51.0976684133045], [-3.8763224924153983, 51.09722775748481], [-3.878195622078761, 51.09593142121301], [-3.878621745844079, 51.0976684133045]]]}}, {"type": "Feature", "properties": {"type": "postcode-cell", "postcode": "EX32 7QL", "postcodes": ["EX32 7QL"]}, "geometry": {"type": "Polygon", "coordinates": [[[-3.8783846712198082, 51.09297000334422], [-3.8740010129961893, 51.09516917498558], [-3.871962301141666, 51.095290832077666], [-3.870858260624135, 51.08961472019808], [-3.8777320259191903, 51.090713680399375], [-3.8784119293072723, 51.0929454131138], [-3.8783846712198082, 51.09297000334422]]]}}, {"type": "Feature", "properties": {"type": "postcode-cell", "postcode": "EX32 0TF", "postcodes": ["EX32 0TF"]}, "geometry": {"type": "Polygon", "coordinates": [[[-3.8794892541283215, 51.06298669693579], [-3.8785774938349253, 51.065434796708], [-3.868084373054855, 51.070066783452056], [-3.8607926992897603, 51.06953922026529], [-3.858409196420507, 51.06404231978918], [-3.8691201889270004, 51.05877874865941], [-3.878726300395462, 51.06154045053643], [-3.8794892541283215, 51.06298669693579]]]}}, {"type": "Feature", "properties": {"type": "postcode-cell", "postcode": "EX32 7QW", "postcodes": ["EX32 7QW"]}, "geometry": {"type": "Polygon", "coordinates": [[[-3.8785321910619186, 51.115744223501274], [-3.871531761215311, 51.11868512038238], [-3.8602949110460907, 51.11768777165594], [-3.847528805460597, 51.11142234501919], [-3.8647688799660482, 51.101647230926496], [-3.869338043863868, 51.10281278231595], [-3.8785321910619186, 51.115744223501274]]]}}, {"type": "Feature", "properties": {"type": "postcode-cell", "postcode": "EX32 7QF", "postcodes": ["EX32 7QF"]}, "geometry": {"type": "Polygon", "coordinates": [[[-3.8800491616046404, 51.100817522052886], [-3.8739335584132877, 51.101363346317314], [-3.874595754555308, 51.09779234063625], [-3.8763224924153983, 51.09722775748481], [-3.878621745844079, 51.0976684133045], [-3.8800491616046404, 51.100817522052886]]]}}, {"type": "Feature", "properties": {"type": "postcode-cell", "postcode": "EX32 7QD", "postcodes": ["EX32 7QD"]}, "geometry": {"type": "Polygon", "coordinates": [[[-3.881396135988646, 51.08793922610926], [-3.8777320259191903, 51.090713680399375], [-3.870858260624135, 51.08961472019808], [-3.861598343560649, 51.087754633170576], [-3.860696107475234, 51.08484266640193], [-3.8648887164604018, 51.08353136647721], [-3.8793905186480218, 51.083363145115335], [-3.881396135988646, 51.08793922610926]]]}}, {"type": "Feature", "properties": {"type": "postcode-cell", "postcode": "EX32 7QJ", "postcodes": ["EX32 7QJ"]}, "geometry": {"type": "Polygon", "coordinates": [[[-3.8739335584132877, 51.101363346317314], [-3.869338043863868, 51.10281278231595], [-3.8647688799660482, 51.101647230926496], [-3.862378563190473, 51.09661410430659], [-3.871962301141666, 51.095290832077666], [-3.8740010129961893, 51.09516917498558], [-3.874595754555308, 51.09779234063625], [-3.8739335584132877, 51.101363346317314]]]}}, {"type": "Feature", "properties": {"type": "postcode-cell", "postcode": "EX36 3EJ", "postcodes": ["EX36 3EJ"]}, "geometry": {"type": "Polygon", "coordinates": [[[-3.847121027417994, 51.05919757459916], [-3.836644503678944, 51.05514934470834], [-3.8350390624390767, 51.049664722733155], [-3.8403111581494684, 51.0452899684785], [-3.8416799898006224, 51.046019994998936], [-3.8430199898014776, 51.04609999499901], [-3.8453699898034155, 51.04527999499833], [-3.8469399898045302, 51.045129994998184], [-3.8516099898073066, 51.04586999499877], [-3.8489999898045295, 51.04814999500064], [-3.850199989804931, 51.04902999500136], [-3.8528399898065864, 51.04925999500153], [-3.852309989804491, 51.053089995004655], [-3.8536595819546036, 51.05346862060642], [-3.847121027417994, 51.05919757459916]]]}}, {"type": "Feature", "properties": {"type": "postcode-cell", "postcode": "EX32 7QS", "postcodes": ["EX32 7QS"]}, "geometry": {"type": "Polygon", "coordinates": [[[-3.870858260624135, 51.08961472019808], [-3.871962301141666, 51.095290832077666], [-3.862378563190473, 51.09661410430659], [-3.859784037854868, 51.09418085144958], [-3.859444147336959, 51.09302693634849], [-3.861598343560649, 51.087754633170576], [-3.870858260624135, 51.08961472019808]]]}}, {"type": "Feature", "properties": {"type": "postcode-cell", "postcode": "EX32 7QN", "postcodes": ["EX32 7QN"]}, "geometry": {"type": "Polygon", "coordinates": [[[-3.8647688799660482, 51.101647230926496], [-3.847528805460597, 51.11142234501919], [-3.8343032668420487, 51.1097112055656], [-3.83624564868535, 51.105995971990986], [-3.859784037854868, 51.09418085144958], [-3.862378563190473, 51.09661410430659], [-3.8647688799660482, 51.101647230926496]]]}}, {"type": "Feature", "properties": {"type": "postcode-cell", "postcode": "EX32 7QB", "postcodes": ["EX32 7QB"]}, "geometry": {"type": "Polygon", "coordinates": [[[-3.874134708708585, 51.075481866953695], [-3.8648887164604018, 51.08353136647721], [-3.860696107475234, 51.08484266640193], [-3.8560578645254626, 51.082294567565306], [-3.853844161893632, 51.074739038173306], [-3.8607926992897603, 51.06953922026529], [-3.868084373054855, 51.070066783452056], [-3.874134708708585, 51.075481866953695]]]}}, {"type": "Feature", "properties": {"type": "postcode-cell", "postcode": "EX36 3EL", "postcodes": ["EX36 3EL"]}, "geometry": {"type": "Polygon", "coordinates": [[[-3.8557739776156628, 51.06253885587043], [-3.86126918512997, 51.05563399185342], [-3.8639499898109837, 51.05589999500689], [-3.8650299898120806, 51.05506999500623], [-3.8667399898134867, 51.05448999500573], [-3.867711793110258, 51.05454149630137], [-3.8691201889270004, 51.05877874865941], [-3.858409196420507, 51.06404231978918], [-3.8557739776156628, 51.06253885587043]]]}}, {"type": "Feature", "properties": {"type": "postcode-cell", "postcode": "EX36 3ET", "postcodes": ["EX36 3ET"]}, "geometry": {"type": "Polygon", "coordinates": [[[-3.858409196420507, 51.06404231978918], [-3.8607926992897603, 51.06953922026529], [-3.853844161893632, 51.074739038173306], [-3.8423186920311045, 51.07266546206675], [-3.8403270519160166, 51.06767982148087], [-3.8472712062037178, 51.05939182398339], [-3.8557739776156628, 51.06253885587043], [-3.858409196420507, 51.06404231978918]]]}}, {"type": "Feature", "properties": {"type": "postcode-cell", "postcode": "EX36 3EY", "postcodes": ["EX36 3EY"]}, "geometry": {"type": "Polygon", "coordinates": [[[-3.861598343560649, 51.087754633170576], [-3.859444147336959, 51.09302693634849], [-3.838092469260709, 51.092863566518034], [-3.8357798618977426, 51.088864155739785], [-3.8361788771081855, 51.08831724745417], [-3.8411185094033145, 51.08576255629255], [-3.8560578645254626, 51.082294567565306], [-3.860696107475234, 51.08484266640193], [-3.861598343560649, 51.087754633170576]]]}}, {"type": "Feature", "properties": {"type": "postcode-cell", "postcode": "EX36 3EN", "postcodes": ["EX36 3EN"]}, "geometry": {"type": "Polygon", "coordinates": [[[-3.8557739776156628, 51.06253885587043], [-3.8472712062037178, 51.05939182398339], [-3.847121027417994, 51.05919757459916], [-3.8536595819546036, 51.05346862060642], [-3.8545199898056843, 51.05370999500516], [-3.8574599898077544, 51.05346999500495], [-3.85733998980777, 51.05325999500479], [-3.8580899898083483, 51.05308999500464], [-3.8587699898083887, 51.053999995005384], [-3.8580099898078095, 51.054159995005506], [-3.8587099898077226, 51.05537999500651], [-3.86126918512997, 51.05563399185342], [-3.8557739776156628, 51.06253885587043]]]}}, {"type": "Feature", "properties": {"type": "postcode-cell", "postcode": "EX36 3HA", "postcodes": ["EX36 3HA"]}, "geometry": {"type": "Polygon", "coordinates": [[[-3.8343032668420487, 51.1097112055656], [-3.806702602887964, 51.117551650837086], [-3.8056643282196685, 51.11675050699669], [-3.803524278449392, 51.10981449195676], [-3.8163206450761713, 51.08927260826289], [-3.8357798618977426, 51.088864155739785], [-3.838092469260709, 51.092863566518034], [-3.83624564868535, 51.105995971990986], [-3.8343032668420487, 51.1097112055656]]]}}, {"type": "Feature", "properties": {"type": "postcode-cell", "postcode": "EX32 7WF", "postcodes": ["EX32 7WF"]}, "geometry": {"type": "Polygon", "coordinates": [[[-3.83624564868535, 51.105995971990986], [-3.838092469260709, 51.092863566518034], [-3.859444147336959, 51.09302693634849], [-3.859784037854868, 51.09418085144958], [-3.83624564868535, 51.105995971990986]]]}}, {"type": "Feature", "properties": {"type": "postcode-cell", "postcode": "EX32 7QP", "postcodes": ["EX32 7QP"]}, "geometry": {"type": "Polygon", "coordinates": [[[-3.8343032668420487, 51.1097112055656], [-3.847528805460597, 51.11142234501919], [-3.8602949110460907, 51.11768777165594], [-3.843231942798627, 51.13856811741028], [-3.8420099897587363, 51.13887999507514], [-3.834739989752738, 51.14137999507724], [-3.8340999897528434, 51.140199995076266], [-3.8344899897539313, 51.138379995074764], [-3.8311499897530537, 51.135379995072306], [-3.825249989750979, 51.13124999506893], [-3.82210998975083, 51.1269499950654], [-3.816409989748969, 51.122669995061905], [-3.8137299897479124, 51.121049995060595], [-3.807179989744967, 51.11791999505805], [-3.806702602887964, 51.117551650837086], [-3.8343032668420487, 51.1097112055656]]]}}, {"type": "Feature", "properties": {"type": "postcode-cell", "postcode": "EX36 3EX", "postcodes": ["EX36 3EX"]}, "geometry": {"type": "Polygon", "coordinates": [[[-3.8361788771081855, 51.08831724745417], [-3.826842219618924, 51.075905275619974], [-3.8380761690259253, 51.074371166059876], [-3.8411185094033145, 51.08576255629255], [-3.8361788771081855, 51.08831724745417]]]}}, {"type": "Feature", "properties": {"type": "postcode-cell", "postcode": "EX36 3EP", "postcodes": ["EX36 3EP"]}, "geometry": {"type": "Polygon", "coordinates": [[[-3.8472712062037178, 51.05939182398339], [-3.8403270519160166, 51.06767982148087], [-3.825967460174454, 51.06412461223], [-3.8258904328478285, 51.061241281136546], [-3.836644503678944, 51.05514934470834], [-3.847121027417994, 51.05919757459916], [-3.8472712062037178, 51.05939182398339]]]}}, {"type": "Feature", "properties": {"type": "postcode-cell", "postcode": "EX36 3EU", "postcodes": ["EX36 3EU"]}, "geometry": {"type": "Polygon", "coordinates": [[[-3.8411185094033145, 51.08576255629255], [-3.8380761690259253, 51.074371166059876], [-3.8423186920311045, 51.07266546206675], [-3.853844161893632, 51.074739038173306], [-3.8560578645254626, 51.082294567565306], [-3.8411185094033145, 51.08576255629255]]]}}, {"type": "Feature", "properties": {"type": "postcode-cell", "postcode": "EX36 3LG", "postcodes": ["EX36 3LG"]}, "geometry": {"type": "Polygon", "coordinates": [[[-3.744553162268182, 51.08984776770495], [-3.7732759001467535, 51.090454614290486], [-3.8013198312221355, 51.107754492889576], [-3.803524278449392, 51.10981449195676], [-3.8056643282196685, 51.11675050699669], [-3.8042899897440523, 51.11568999505623], [-3.797499989740263, 51.114079995054944], [-3.7914399897374587, 51.11136999505274], [-3.787029989735071, 51.11016999505178], [-3.7801199897316047, 51.107699995049806], [-3.7769099897298153, 51.10693999504919], [-3.767399989724028, 51.10577999504828], [-3.7575499897198847, 51.10053999504406], [-3.7508699897179274, 51.09512999503964], [-3.7454899897155483, 51.09253999503756], [-3.742528320700086, 51.09062031016314], [-3.744553162268182, 51.08984776770495]]]}}, {"type": "Feature", "properties": {"type": "postcode-cell", "postcode": "EX36 3LA", "postcodes": ["EX36 3LA"]}, "geometry": {"type": "Polygon", "coordinates": [[[-3.803524278449392, 51.10981449195676], [-3.8013198312221355, 51.107754492889576], [-3.7953238534009284, 51.08428730578104], [-3.798880066643289, 51.082234572161134], [-3.8133977591464157, 51.08442926944453], [-3.8163206450761713, 51.08927260826289], [-3.803524278449392, 51.10981449195676]]]}}, {"type": "Feature", "properties": {"type": "postcode-cell", "postcode": "EX36 3EW", "postcodes": ["EX36 3EW"]}, "geometry": {"type": "Polygon", "coordinates": [[[-3.8258904328478285, 51.061241281136546], [-3.8161449411994437, 51.05737108478121], [-3.8160925222318087, 51.05727008603941], [-3.8160543301591523, 51.05596978939879], [-3.8168428468725417, 51.05386135493406], [-3.8201244730615227, 51.047415729400974], [-3.8350390624390767, 51.049664722733155], [-3.836644503678944, 51.05514934470834], [-3.8258904328478285, 51.061241281136546]]]}}, {"type": "Feature", "properties": {"type": "postcode-cell", "postcode": "EX36 3ES", "postcodes": ["EX36 3ES"]}, "geometry": {"type": "Polygon", "coordinates": [[[-3.8380761690259253, 51.074371166059876], [-3.826842219618924, 51.075905275619974], [-3.8208678055488305, 51.074793395381214], [-3.818772052219439, 51.07208837889312], [-3.825967460174454, 51.06412461223], [-3.8403270519160166, 51.06767982148087], [-3.8423186920311045, 51.07266546206675], [-3.8380761690259253, 51.074371166059876]]]}}, {"type": "Feature", "properties": {"type": "postcode-cell", "postcode": "EX36 3EZ", "postcodes": ["EX36 3EZ"]}, "geometry": {"type": "Polygon", "coordinates": [[[-3.8357798618977426, 51.088864155739785], [-3.8163206450761713, 51.08927260826289], [-3.8133977591464157, 51.08442926944453], [-3.8208678055488305, 51.074793395381214], [-3.826842219618924, 51.075905275619974], [-3.8361788771081855, 51.08831724745417], [-3.8357798618977426, 51.088864155739785]]]}}, {"type": "Feature", "properties": {"type": "postcode-cell", "postcode": "EX36 3HH", "postcodes": ["EX36 3HH"]}, "geometry": {"type": "Polygon", "coordinates": [[[-3.817266195631985, 51.0451382991048], [-3.8143977128814868, 51.04149296768485], [-3.8259117751634304, 51.03673882208326], [-3.8258999897942125, 51.037039994991716], [-3.8252199897932737, 51.0381099949926], [-3.8264699897939045, 51.038549994992955], [-3.833349989798336, 51.03885999499317], [-3.8369899898003523, 51.039749994993855], [-3.83876998980151, 51.03980999499392], [-3.837659989799145, 51.04338999499682], [-3.8391299897995417, 51.04465999499784], [-3.8403111581494684, 51.0452899684785], [-3.8350390624390767, 51.049664722733155], [-3.8201244730615227, 51.047415729400974], [-3.817266195631985, 51.0451382991048]]]}}, {"type": "Feature", "properties": {"type": "postcode-cell", "postcode": "EX36 3GJ", "postcodes": ["EX36 3GJ"]}, "geometry": {"type": "Polygon", "coordinates": [[[-3.8201244730615227, 51.047415729400974], [-3.8168428468725417, 51.05386135493406], [-3.8083590945127734, 51.051313575317465], [-3.8082311878780315, 51.05066204216476], [-3.817266195631985, 51.0451382991048], [-3.8201244730615227, 51.047415729400974]]]}}, {"type": "Feature", "properties": {"type": "postcode-cell", "postcode": "EX36 3ER", "postcodes": ["EX36 3ER"]}, "geometry": {"type": "Polygon", "coordinates": [[[-3.8258904328478285, 51.061241281136546], [-3.825967460174454, 51.06412461223], [-3.818772052219439, 51.07208837889312], [-3.799695460557755, 51.06767006849875], [-3.8161449411994437, 51.05737108478121], [-3.8258904328478285, 51.061241281136546]]]}}, {"type": "Feature", "properties": {"type": "postcode-cell", "postcode": "EX36 3LE", "postcodes": ["EX36 3LE"]}, "geometry": {"type": "Polygon", "coordinates": [[[-3.8208678055488305, 51.074793395381214], [-3.8133977591464157, 51.08442926944453], [-3.798880066643289, 51.082234572161134], [-3.795557418501861, 51.06974835807981], [-3.7989820947940838, 51.06767336834253], [-3.799695460557755, 51.06767006849875], [-3.818772052219439, 51.07208837889312], [-3.8208678055488305, 51.074793395381214]]]}}, {"type": "Feature", "properties": {"type": "postcode-cell", "postcode": "EX36 3PT", "postcodes": ["EX36 3PT"]}, "geometry": {"type": "Polygon", "coordinates": [[[-3.67700815080349, 51.017537413161506], [-3.6715817733236076, 51.011365520010486], [-3.677589989708054, 51.01155999497202], [-3.679929989709647, 51.01142999497191], [-3.684269989713097, 51.01011999497081], [-3.6872999897139995, 51.01245999497267], [-3.6876399897139, 51.01315999497325], [-3.6871099897131026, 51.014139994974045], [-3.6891699897138506, 51.015439994975075], [-3.6900499897138928, 51.016599994976026], [-3.690089989713693, 51.017089994976416], [-3.689359989713133, 51.01726999497658], [-3.6891499897127247, 51.017849994977055], [-3.6880299897116755, 51.01853999497762], [-3.6883482196742663, 51.020219550569585], [-3.67700815080349, 51.017537413161506]]]}}, {"type": "Feature", "properties": {"type": "postcode-cell", "postcode": "EX36 3NL", "postcodes": ["EX36 3NL"]}, "geometry": {"type": "Polygon", "coordinates": [[[-3.7260811920013706, 51.03641699656679], [-3.7165949027660066, 51.036490331251024], [-3.7140435843565074, 51.035322051000605], [-3.705708934883569, 51.02892692615769], [-3.7059685786080685, 51.02649700797281], [-3.7062299897200326, 51.02632999498382], [-3.7074399897207457, 51.02650999498396], [-3.7077699897211667, 51.02605999498356], [-3.7081199897213235, 51.0262199949837], [-3.70872998972185, 51.02594999498348], [-3.711029989723048, 51.02662999498401], [-3.71144998972315, 51.027009994984304], [-3.7120599897235875, 51.02692999498426], [-3.7123299897236217, 51.027239994984505], [-3.713189989724146, 51.02732999498456], [-3.7141699897248515, 51.02719999498445], [-3.714359989725202, 51.02670999498406], [-3.7156099897262553, 51.02619999498361], [-3.7177399897274697, 51.02660999498395], [-3.717889989727686, 51.02635999498374], [-3.7212799897298714, 51.02644999498379], [-3.72266998973093, 51.026139994983524], [-3.722759989730823, 51.026499994983816], [-3.723489989731483, 51.02610999498349], [-3.723269989731429, 51.025909994983344], [-3.724119989731954, 51.025989994983405], [-3.723749989731834, 51.02571999498318], [-3.7241299897323428, 51.02515999498273], [-3.7269599897342727, 51.0250099949826], [-3.727519989734569, 51.02516999498272], [-3.727069989733863, 51.02605999498344], [-3.7258999897329725, 51.026319994983645], [-3.7259399897328707, 51.02659999498388], [-3.724959989732064, 51.02694999498417], [-3.7252599897320553, 51.02739999498454], [-3.7232399897300135, 51.028949994985794], [-3.7233999897296592, 51.02994999498661], [-3.7228399897290183, 51.03053999498711], [-3.723089989728917, 51.03111999498758], [-3.723509989729213, 51.03107999498755], [-3.723249989728064, 51.033199994989275], [-3.7240399897279493, 51.034589994990405], [-3.724799989728278, 51.0349599949907], [-3.728944307609431, 51.03425495874335], [-3.7260811920013706, 51.03641699656679]]]}}, {"type": "Feature", "properties": {"type": "postcode-cell", "postcode": "EX36 3GH", "postcodes": ["EX36 3GH"]}, "geometry": {"type": "Polygon", "coordinates": [[[-3.8145143270667896, 51.05540748026861], [-3.808867159305248, 51.05287269517616], [-3.8081512831211217, 51.05214480567271], [-3.8083590945127734, 51.051313575317465], [-3.8168428468725417, 51.05386135493406], [-3.8160543301591523, 51.05596978939879], [-3.8145143270667896, 51.05540748026861]]]}}, {"type": "Feature", "properties": {"type": "postcode-cell", "postcode": "EX36 3HF", "postcodes": ["EX36 3HF"]}, "geometry": {"type": "Polygon", "coordinates": [[[-3.8160543301591523, 51.05596978939879], [-3.8160925222318087, 51.05727008603941], [-3.8056952541116624, 51.05600891288511], [-3.8058658262850957, 51.05457462692796], [-3.806771320925871, 51.05394332727068], [-3.806991135465004, 51.05391736418205], [-3.8145143270667896, 51.05540748026861], [-3.8160543301591523, 51.05596978939879]]]}}, {"type": "Feature", "properties": {"type": "postcode-cell", "postcode": "EX36 3HN", "postcodes": ["EX36 3HN"]}, "geometry": {"type": "Polygon", "coordinates": [[[-3.808867159305248, 51.05287269517616], [-3.806991135465004, 51.05391736418205], [-3.806771320925871, 51.05394332727068], [-3.8064545529428218, 51.05265451148933], [-3.8081512831211217, 51.05214480567271], [-3.808867159305248, 51.05287269517616]]]}}, {"type": "Feature", "properties": {"type": "postcode-cell", "postcode": "EX36 3HG", "postcodes": ["EX36 3HG"]}, "geometry": {"type": "Polygon", "coordinates": [[[-3.817266195631985, 51.0451382991048], [-3.8082311878780315, 51.05066204216476], [-3.8057598631094582, 51.050474495896275], [-3.7996679971776266, 51.04827948977816], [-3.795229304959236, 51.04163118934275], [-3.7958055591949686, 51.0397858210461], [-3.7964099897735664, 51.03938999499383], [-3.7965299897739206, 51.03878999499333], [-3.797249989774446, 51.03867999499325], [-3.7978299897751744, 51.03792999499261], [-3.799269989776037, 51.03812999499279], [-3.8007099897772427, 51.037579994992306], [-3.8006700341893076, 51.03754972580318], [-3.8143977128814868, 51.04149296768485], [-3.817266195631985, 51.0451382991048]]]}}, {"type": "Feature", "properties": {"type": "postcode-cell", "postcode": "EX36 3HD", "postcodes": ["EX36 3HD"]}, "geometry": {"type": "Polygon", "coordinates": [[[-3.8083590945127734, 51.051313575317465], [-3.8081512831211217, 51.05214480567271], [-3.8064545529428218, 51.05265451148933], [-3.8061859974164203, 51.052608739045134], [-3.8054536119508433, 51.052304680155835], [-3.8057598631094582, 51.050474495896275], [-3.8082311878780315, 51.05066204216476], [-3.8083590945127734, 51.051313575317465]]]}}, {"type": "Feature", "properties": {"type": "postcode-cell", "postcode": "EX36 3DE", "postcodes": ["EX36 3DE"]}, "geometry": {"type": "Polygon", "coordinates": [[[-3.8161449411994437, 51.05737108478121], [-3.799695460557755, 51.06767006849875], [-3.7989820947940838, 51.06767336834253], [-3.7970083210086525, 51.06354008779859], [-3.7974810635782, 51.06163281317341], [-3.798840795311463, 51.05903328881892], [-3.7993957256077775, 51.05849334771238], [-3.799894663212056, 51.05812575117656], [-3.801572538245695, 51.057305663870245], [-3.8056952541116624, 51.05600891288511], [-3.8160925222318087, 51.05727008603941], [-3.8161449411994437, 51.05737108478121]]]}}, {"type": "Feature", "properties": {"type": "postcode-cell", "postcode": "EX36 3HJ", "postcodes": ["EX36 3HJ"]}, "geometry": {"type": "Polygon", "coordinates": [[[-3.8145143270667896, 51.05540748026861], [-3.806991135465004, 51.05391736418205], [-3.808867159305248, 51.05287269517616], [-3.8145143270667896, 51.05540748026861]]]}}, {"type": "Feature", "properties": {"type": "postcode-cell", "postcode": "EX36 3HW", "postcodes": ["EX36 3HW"]}, "geometry": {"type": "Polygon", "coordinates": [[[-3.806771320925871, 51.05394332727068], [-3.8058658262850957, 51.05457462692796], [-3.804774906564761, 51.053765813857744], [-3.8061859974164203, 51.052608739045134], [-3.8064545529428218, 51.05265451148933], [-3.806771320925871, 51.05394332727068]]]}}, {"type": "Feature", "properties": {"type": "postcode-cell", "postcode": "EX36 3HX", "postcodes": ["EX36 3HX"]}, "geometry": {"type": "Polygon", "coordinates": [[[-3.8030347595917195, 51.05267587441339], [-3.803196197000139, 51.05301181232333], [-3.80044646651582, 51.054630337911185], [-3.8003925663434117, 51.053923794403566], [-3.801478157759709, 51.051724632893524], [-3.8030347595917195, 51.05267587441339]]]}}, {"type": "Feature", "properties": {"type": "postcode-cell", "postcode": "EX36 3FJ", "postcodes": ["EX36 3FJ"]}, "geometry": {"type": "Polygon", "coordinates": [[[-3.801478157759709, 51.051724632893524], [-3.7999813515969483, 51.049847015843945], [-3.799849958383955, 51.04960567639628], [-3.7996679971776266, 51.04827948977816], [-3.8057598631094582, 51.050474495896275], [-3.8054536119508433, 51.052304680155835], [-3.8030347595917195, 51.05267587441339], [-3.801478157759709, 51.051724632893524]]]}}, {"type": "Feature", "properties": {"type": "postcode-cell", "postcode": "EX36 3HP", "postcodes": ["EX36 3HP"]}, "geometry": {"type": "Polygon", "coordinates": [[[-3.8056952541116624, 51.05600891288511], [-3.801572538245695, 51.057305663870245], [-3.8033521296868207, 51.05322585366633], [-3.804774906564761, 51.053765813857744], [-3.8058658262850957, 51.05457462692796], [-3.8056952541116624, 51.05600891288511]]]}}, {"type": "Feature", "properties": {"type": "postcode-cell", "postcode": "EX36 3HL", "postcodes": ["EX36 3HL"]}, "geometry": {"type": "Polygon", "coordinates": [[[-3.8061859974164203, 51.052608739045134], [-3.804774906564761, 51.053765813857744], [-3.8033521296868207, 51.05322585366633], [-3.803196197000139, 51.05301181232333], [-3.8030347595917195, 51.05267587441339], [-3.8054536119508433, 51.052304680155835], [-3.8061859974164203, 51.052608739045134]]]}}, {"type": "Feature", "properties": {"type": "postcode-cell", "postcode": "EX36 3HS", "postcodes": ["EX36 3HS"]}, "geometry": {"type": "Polygon", "coordinates": [[[-3.7993957256077775, 51.05849334771238], [-3.798170073159864, 51.0537777573166], [-3.7988114752215307, 51.0533700189454], [-3.8003925663434117, 51.053923794403566], [-3.80044646651582, 51.054630337911185], [-3.799894663212056, 51.05812575117656], [-3.7993957256077775, 51.05849334771238]]]}}, {"type": "Feature", "properties": {"type": "postcode-cell", "postcode": "EX36 3HT", "postcodes": ["EX36 3HT"]}, "geometry": {"type": "Polygon", "coordinates": [[[-3.801478157759709, 51.051724632893524], [-3.8003925663434117, 51.053923794403566], [-3.7988114752215307, 51.0533700189454], [-3.7999813515969483, 51.049847015843945], [-3.801478157759709, 51.051724632893524]]]}}, {"type": "Feature", "properties": {"type": "postcode-cell", "postcode": "EX36 3HR", "postcodes": ["EX36 3HR"]}, "geometry": {"type": "Polygon", "coordinates": [[[-3.799894663212056, 51.05812575117656], [-3.80044646651582, 51.054630337911185], [-3.803196197000139, 51.05301181232333], [-3.8033521296868207, 51.05322585366633], [-3.801572538245695, 51.057305663870245], [-3.799894663212056, 51.05812575117656]]]}}, {"type": "Feature", "properties": {"type": "postcode-cell", "postcode": "EX36 3HU", "postcodes": ["EX36 3HU"]}, "geometry": {"type": "Polygon", "coordinates": [[[-3.799849958383955, 51.04960567639628], [-3.7999813515969483, 51.049847015843945], [-3.7988114752215307, 51.0533700189454], [-3.798170073159864, 51.0537777573166], [-3.7972813560780705, 51.053410342474855], [-3.798501516847803, 51.05101480548737], [-3.799849958383955, 51.04960567639628]]]}}, {"type": "Feature", "properties": {"type": "postcode-cell", "postcode": "EX36 3JE", "postcodes": ["EX36 3JE"]}, "geometry": {"type": "Polygon", "coordinates": [[[-3.798501516847803, 51.05101480548737], [-3.795922812709275, 51.05278835224361], [-3.794859103551584, 51.05286212283598], [-3.7942240733501995, 51.052791228725056], [-3.790906319294877, 51.051685397248036], [-3.7873880464646055, 51.05000190857049], [-3.7876466990672633, 51.049165254167356], [-3.793092070865225, 51.04375503551427], [-3.793779989769811, 51.04379999499744], [-3.793856393117719, 51.04299552757868], [-3.795229304959236, 51.04163118934275], [-3.7996679971776266, 51.04827948977816], [-3.799849958383955, 51.04960567639628], [-3.798501516847803, 51.05101480548737]]]}}, {"type": "Feature", "properties": {"type": "postcode-cell", "postcode": "EX36 3LN", "postcodes": ["EX36 3LN"]}, "geometry": {"type": "Polygon", "coordinates": [[[-3.798880066643289, 51.082234572161134], [-3.7953238534009284, 51.08428730578104], [-3.781650655808832, 51.08529995358318], [-3.7811803784601317, 51.071337740040335], [-3.795557418501861, 51.06974835807981], [-3.798880066643289, 51.082234572161134]]]}}, {"type": "Feature", "properties": {"type": "postcode-cell", "postcode": "EX36 3JD", "postcodes": ["EX36 3JD"]}, "geometry": {"type": "Polygon", "coordinates": [[[-3.798840795311463, 51.05903328881892], [-3.796163147552998, 51.05558931481223], [-3.7958395365584434, 51.05472991800988], [-3.796167201993908, 51.05402262630379], [-3.7968144426741404, 51.05347437996314], [-3.7972813560780705, 51.053410342474855], [-3.798170073159864, 51.0537777573166], [-3.7993957256077775, 51.05849334771238], [-3.798840795311463, 51.05903328881892]]]}}, {"type": "Feature", "properties": {"type": "postcode-cell", "postcode": "EX36 3JJ", "postcodes": ["EX36 3JJ"]}, "geometry": {"type": "Polygon", "coordinates": [[[-3.796163147552998, 51.05558931481223], [-3.793632584177217, 51.054755679421596], [-3.793758235469606, 51.05411265330069], [-3.79511652145757, 51.05431057448435], [-3.7958395365584434, 51.05472991800988], [-3.796163147552998, 51.05558931481223]]]}}, {"type": "Feature", "properties": {"type": "postcode-cell", "postcode": "EX36 3JF", "postcodes": ["EX36 3JF"]}, "geometry": {"type": "Polygon", "coordinates": [[[-3.7972813560780705, 51.053410342474855], [-3.7968144426741404, 51.05347437996314], [-3.795922812709275, 51.05278835224361], [-3.798501516847803, 51.05101480548737], [-3.7972813560780705, 51.053410342474855]]]}}, {"type": "Feature", "properties": {"type": "postcode-cell", "postcode": "EX36 3JG", "postcodes": ["EX36 3JG"]}, "geometry": {"type": "Polygon", "coordinates": [[[-3.796167201993908, 51.05402262630379], [-3.794859103551584, 51.05286212283598], [-3.795922812709275, 51.05278835224361], [-3.7968144426741404, 51.05347437996314], [-3.796167201993908, 51.05402262630379]]]}}, {"type": "Feature", "properties": {"type": "postcode-cell", "postcode": "EX36 3JQ", "postcodes": ["EX36 3JQ"]}, "geometry": {"type": "Polygon", "coordinates": [[[-3.7958395365584434, 51.05472991800988], [-3.79511652145757, 51.05431057448435], [-3.7942240733501995, 51.052791228725056], [-3.794859103551584, 51.05286212283598], [-3.796167201993908, 51.05402262630379], [-3.7958395365584434, 51.05472991800988]]]}}, {"type": "Feature", "properties": {"type": "postcode-cell", "postcode": "EX36 3JR", "postcodes": ["EX36 3JR"]}, "geometry": {"type": "Polygon", "coordinates": [[[-3.7873880464646055, 51.05000190857049], [-3.7858206162851915, 51.05209501713321], [-3.780366036874972, 51.05630641822699], [-3.7800814656988106, 51.05635802614394], [-3.7734051843246093, 51.054288434193595], [-3.773720870302515, 51.04724138507815], [-3.7876466990672633, 51.049165254167356], [-3.7873880464646055, 51.05000190857049]]]}}, {"type": "Feature", "properties": {"type": "postcode-cell", "postcode": "EX36 3JS", "postcodes": ["EX36 3JS"]}, "geometry": {"type": "MultiPolygon", "coordinates": [[[[-3.795229304959236, 51.04163118934275], [-3.793856393117719, 51.04299552757868], [-3.7939499897707405, 51.04200999499598], [-3.794909989771608, 51.041499994995554], [-3.7952799897724785, 51.04012999499442], [-3.7958055591949686, 51.0397858210461], [-3.795229304959236, 51.04163118934275]]], [[[-3.7876466990672633, 51.049165254167356], [-3.773720870302515, 51.04724138507815], [-3.769122425543219, 51.04226175158716], [-3.7740299897572256, 51.04270999499668], [-3.7801799897613098, 51.04267999499661], [-3.7859799897645625, 51.043969994997624], [-3.788099989766036, 51.0438199949975], [-3.7899799897671396, 51.044129994997725], [-3.792249989768841, 51.043699994997375], [-3.793092070865225, 51.04375503551427], [-3.7876466990672633, 51.049165254167356]]]]}}, {"type": "Feature", "properties": {"type": "postcode-cell", "postcode": "EX36 3JH", "postcodes": ["EX36 3JH"]}, "geometry": {"type": "Polygon", "coordinates": [[[-3.7942240733501995, 51.052791228725056], [-3.79511652145757, 51.05431057448435], [-3.793758235469606, 51.05411265330069], [-3.7929028812477075, 51.05348498345226], [-3.790906319294877, 51.051685397248036], [-3.7942240733501995, 51.052791228725056]]]}}, {"type": "Feature", "properties": {"type": "postcode-cell", "postcode": "EX36 3JN", "postcodes": ["EX36 3JN"]}, "geometry": {"type": "Polygon", "coordinates": [[[-3.798840795311463, 51.05903328881892], [-3.7974810635782, 51.06163281317341], [-3.793914336051708, 51.057804169995876], [-3.7928994413782893, 51.054902957676084], [-3.793256960106338, 51.05479918040385], [-3.793632584177217, 51.054755679421596], [-3.796163147552998, 51.05558931481223], [-3.798840795311463, 51.05903328881892]]]}}, {"type": "Feature", "properties": {"type": "postcode-cell", "postcode": "EX36 3JZ", "postcodes": ["EX36 3JZ"]}, "geometry": {"type": "Polygon", "coordinates": [[[-3.7929028812477075, 51.05348498345226], [-3.793256960106338, 51.05479918040385], [-3.7928994413782893, 51.054902957676084], [-3.7893421186813163, 51.054050727912376], [-3.7858206162851915, 51.05209501713321], [-3.7873880464646055, 51.05000190857049], [-3.790906319294877, 51.051685397248036], [-3.7929028812477075, 51.05348498345226]]]}}, {"type": "Feature", "properties": {"type": "postcode-cell", "postcode": "EX36 3JL", "postcodes": ["EX36 3JL"]}, "geometry": {"type": "Polygon", "coordinates": [[[-3.793632584177217, 51.054755679421596], [-3.793256960106338, 51.05479918040385], [-3.7929028812477075, 51.05348498345226], [-3.793758235469606, 51.05411265330069], [-3.793632584177217, 51.054755679421596]]]}}, {"type": "Feature", "properties": {"type": "postcode-cell", "postcode": "EX36 3JP", "postcodes": ["EX36 3JP"]}, "geometry": {"type": "Polygon", "coordinates": [[[-3.7974810635782, 51.06163281317341], [-3.7970083210086525, 51.06354008779859], [-3.780366036874972, 51.05630641822699], [-3.7858206162851915, 51.05209501713321], [-3.7893421186813163, 51.054050727912376], [-3.793914336051708, 51.057804169995876], [-3.7974810635782, 51.06163281317341]]]}}, {"type": "Feature", "properties": {"type": "postcode-cell", "postcode": "EX36 3JW", "postcodes": ["EX36 3JW"]}, "geometry": {"type": "Polygon", "coordinates": [[[-3.793914336051708, 51.057804169995876], [-3.7893421186813163, 51.054050727912376], [-3.7928994413782893, 51.054902957676084], [-3.793914336051708, 51.057804169995876]]]}}, {"type": "Feature", "properties": {"type": "postcode-cell", "postcode": "EX36 3LW", "postcodes": ["EX36 3LW"]}, "geometry": {"type": "Polygon", "coordinates": [[[-3.7989820947940838, 51.06767336834253], [-3.795557418501861, 51.06974835807981], [-3.7811803784601317, 51.071337740040335], [-3.7725810802156823, 51.06942202610903], [-3.7800814656988106, 51.05635802614394], [-3.780366036874972, 51.05630641822699], [-3.7970083210086525, 51.06354008779859], [-3.7989820947940838, 51.06767336834253]]]}}, {"type": "Feature", "properties": {"type": "postcode-cell", "postcode": "EX36 3LF", "postcodes": ["EX36 3LF"]}, "geometry": {"type": "Polygon", "coordinates": [[[-3.8013198312221355, 51.107754492889576], [-3.7732759001467535, 51.090454614290486], [-3.781650655808832, 51.08529995358318], [-3.7953238534009284, 51.08428730578104], [-3.8013198312221355, 51.107754492889576]]]}}, {"type": "Feature", "properties": {"type": "postcode-cell", "postcode": "EX36 3LQ", "postcodes": ["EX36 3LQ"]}, "geometry": {"type": "Polygon", "coordinates": [[[-3.7811803784601317, 51.071337740040335], [-3.781650655808832, 51.08529995358318], [-3.7732759001467535, 51.090454614290486], [-3.744553162268182, 51.08984776770495], [-3.7611386187656053, 51.070112577309274], [-3.7725810802156823, 51.06942202610903], [-3.7811803784601317, 51.071337740040335]]]}}, {"type": "Feature", "properties": {"type": "postcode-cell", "postcode": "EX36 3JY", "postcodes": ["EX36 3JY"]}, "geometry": {"type": "Polygon", "coordinates": [[[-3.7405887038564205, 51.0455157646052], [-3.7356563316879137, 51.046155366172094], [-3.7260811920013706, 51.03641699656679], [-3.728944307609431, 51.03425495874335], [-3.7296199897318276, 51.034139994989985], [-3.7316899897330185, 51.03451999499028], [-3.7330399897336295, 51.03512999499078], [-3.7370699897361126, 51.035509994991074], [-3.7421899897396353, 51.035189994990766], [-3.7445799897414265, 51.034719994990354], [-3.7466899897428703, 51.03460999499028], [-3.7468399897428766, 51.034809994990425], [-3.7501199897453956, 51.03403999498977], [-3.7509499897450826, 51.03590999499131], [-3.751705966201913, 51.03602712569173], [-3.7405887038564205, 51.0455157646052]]]}}, {"type": "Feature", "properties": {"type": "postcode-cell", "postcode": "EX36 3JT", "postcodes": ["EX36 3JT"]}, "geometry": {"type": "Polygon", "coordinates": [[[-3.7734051843246093, 51.054288434193595], [-3.757558135248707, 51.05585478946509], [-3.7564769568352396, 51.05454371018173], [-3.75637011726356, 51.054256172253424], [-3.765748024327198, 51.04190092156243], [-3.7658199897521385, 51.04195999499613], [-3.769122425543219, 51.04226175158716], [-3.773720870302515, 51.04724138507815], [-3.7734051843246093, 51.054288434193595]]]}}, {"type": "Feature", "properties": {"type": "postcode-cell", "postcode": "EX36 3LP", "postcodes": ["EX36 3LP"]}, "geometry": {"type": "Polygon", "coordinates": [[[-3.757558135248707, 51.05585478946509], [-3.7734051843246093, 51.054288434193595], [-3.7800814656988106, 51.05635802614394], [-3.7725810802156823, 51.06942202610903], [-3.7611386187656053, 51.070112577309274], [-3.7567185497980184, 51.06447164157106], [-3.757558135248707, 51.05585478946509]]]}}, {"type": "Feature", "properties": {"type": "postcode-cell", "postcode": "EX36 3LR", "postcodes": ["EX36 3LR"]}, "geometry": {"type": "Polygon", "coordinates": [[[-3.7567185497980184, 51.06447164157106], [-3.7373889244711846, 51.06304022027277], [-3.7353257361761205, 51.05687668701549], [-3.7564769568352396, 51.05454371018173], [-3.757558135248707, 51.05585478946509], [-3.7567185497980184, 51.06447164157106]]]}}, {"type": "Feature", "properties": {"type": "postcode-cell", "postcode": "EX36 3LX", "postcodes": ["EX36 3LX"]}, "geometry": {"type": "Polygon", "coordinates": [[[-3.742528320700086, 51.09062031016314], [-3.741339989714031, 51.089849995035394], [-3.7386299897127757, 51.08867999503445], [-3.731648899482503, 51.08713412585749], [-3.725948955844187, 51.06987513027058], [-3.7373889244711846, 51.06304022027277], [-3.7567185497980184, 51.06447164157106], [-3.7611386187656053, 51.070112577309274], [-3.744553162268182, 51.08984776770495], [-3.742528320700086, 51.09062031016314]]]}}, {"type": "Feature", "properties": {"type": "postcode-cell", "postcode": "EX36 3JU", "postcodes": ["EX36 3JU"]}, "geometry": {"type": "Polygon", "coordinates": [[[-3.75637011726356, 51.054256172253424], [-3.7405887038564205, 51.0455157646052], [-3.751705966201913, 51.03602712569173], [-3.7537899897467577, 51.03634999499162], [-3.7536899897464395, 51.03689999499208], [-3.7620199897510536, 51.03883999499359], [-3.763049989751425, 51.03951999499416], [-3.763789989751873, 51.03960999499422], [-3.7638099897515636, 51.040309994994786], [-3.765748024327198, 51.04190092156243], [-3.75637011726356, 51.054256172253424]]]}}, {"type": "Feature", "properties": {"type": "postcode-cell", "postcode": "EX36 3LS", "postcodes": ["EX36 3LS"]}, "geometry": {"type": "Polygon", "coordinates": [[[-3.7373889244711846, 51.06304022027277], [-3.725948955844187, 51.06987513027058], [-3.7047665987191367, 51.05769452270328], [-3.7073705995562674, 51.05617157508309], [-3.714049515962621, 51.05320202829885], [-3.728517972114623, 51.05118692619428], [-3.7353257361761205, 51.05687668701549], [-3.7373889244711846, 51.06304022027277]]]}}, {"type": "Feature", "properties": {"type": "postcode-cell", "postcode": "EX36 3JX", "postcodes": ["EX36 3JX"]}, "geometry": {"type": "Polygon", "coordinates": [[[-3.7564769568352396, 51.05454371018173], [-3.7353257361761205, 51.05687668701549], [-3.728517972114623, 51.05118692619428], [-3.7356563316879137, 51.046155366172094], [-3.7405887038564205, 51.0455157646052], [-3.75637011726356, 51.054256172253424], [-3.7564769568352396, 51.05454371018173]]]}}, {"type": "Feature", "properties": {"type": "postcode-cell", "postcode": "EX36 3LT", "postcodes": ["EX36 3LT"]}, "geometry": {"type": "Polygon", "coordinates": [[[-3.731648899482503, 51.08713412585749], [-3.7300499897079713, 51.08677999503293], [-3.722469989704742, 51.0828999950298], [-3.719949989704032, 51.08081999502811], [-3.714909989701, 51.08017999502763], [-3.709249989697032, 51.080689995028074], [-3.7075899896960482, 51.080449995027884], [-3.7061299896949738, 51.08068999502807], [-3.704329989693916, 51.08040999502786], [-3.701519989691904, 51.08075999502816], [-3.6978599896896625, 51.08038999502788], [-3.6964999896885034, 51.080959995028365], [-3.6950399896874933, 51.08106999502846], [-3.694309989687223, 51.08060999502807], [-3.692439989686015, 51.08055999502806], [-3.6887699896845714, 51.07843999502636], [-3.6872999896846492, 51.0761699950245], [-3.68562998968402, 51.07514999502368], [-3.684189989683252, 51.07475999502339], [-3.684159989683402, 51.07438999502306], [-3.683201396778184, 51.07383305650893], [-3.6899202226870984, 51.06029735419758], [-3.6937224196738634, 51.05889776541359], [-3.7047665987191367, 51.05769452270328], [-3.725948955844187, 51.06987513027058], [-3.731648899482503, 51.08713412585749]]]}}, {"type": "Feature", "properties": {"type": "postcode-cell", "postcode": "EX36 3ND", "postcodes": ["EX36 3ND"]}, "geometry": {"type": "Polygon", "coordinates": [[[-3.7073705995562674, 51.05617157508309], [-3.7054824662253183, 51.04138671832174], [-3.7140435843565074, 51.035322051000605], [-3.7165949027660066, 51.036490331251024], [-3.714049515962621, 51.05320202829885], [-3.7073705995562674, 51.05617157508309]]]}}, {"type": "Feature", "properties": {"type": "postcode-cell", "postcode": "EX36 3NE", "postcodes": ["EX36 3NE"]}, "geometry": {"type": "Polygon", "coordinates": [[[-3.728517972114623, 51.05118692619428], [-3.714049515962621, 51.05320202829885], [-3.7165949027660066, 51.036490331251024], [-3.7260811920013706, 51.03641699656679], [-3.7356563316879137, 51.046155366172094], [-3.728517972114623, 51.05118692619428]]]}}, {"type": "Feature", "properties": {"type": "postcode-cell", "postcode": "TA22 9QT", "postcodes": ["TA22 9QT"]}, "geometry": {"type": "Polygon", "coordinates": [[[-3.6861960959581395, 51.058703158145946], [-3.6899202226870984, 51.06029735419758], [-3.683201396778184, 51.07383305650893], [-3.6823699896827056, 51.07334999502225], [-3.6796399896812058, 51.07270999502174], [-3.6756299896785176, 51.07281999502184], [-3.67279998967741, 51.07118999502054], [-3.6698299896758213, 51.0703999950199], [-3.666379989673653, 51.07018999501977], [-3.6649199896730136, 51.0694999950192], [-3.664799989673796, 51.067629995017676], [-3.6643399896737163, 51.067149995017296], [-3.6599899896713346, 51.066119995016486], [-3.6591899896707947, 51.066159995016534], [-3.658229989670436, 51.06556999501605], [-3.6561999896693362, 51.06506999501566], [-3.6533599896675137, 51.064979995015605], [-3.6532299896675453, 51.064729995015405], [-3.6502899896659193, 51.064079995014886], [-3.6508799896674478, 51.06159999501287], [-3.652309989668941, 51.060399995011885], [-3.6523299896693047, 51.059639995011274], [-3.6540299896702857, 51.059929995011466], [-3.6547799896709936, 51.05945999501111], [-3.657549989673023, 51.05899999501072], [-3.660809989675657, 51.057919995009804], [-3.6641499896792538, 51.0548699950073], [-3.6642577117888546, 51.05469924153891], [-3.6861960959581395, 51.058703158145946]]]}}, {"type": "Feature", "properties": {"type": "postcode-cell", "postcode": "EX36 3NH", "postcodes": ["EX36 3NH"]}, "geometry": {"type": "Polygon", "coordinates": [[[-3.6861960959581395, 51.058703158145946], [-3.6742597489995155, 51.04232465574162], [-3.674609989692499, 51.041029994995974], [-3.6720499896918852, 51.03871999499411], [-3.6720443451992626, 51.037320288592404], [-3.6836389018103435, 51.03526090678839], [-3.6857256512478846, 51.03558493394017], [-3.6933403560336893, 51.05097982843434], [-3.6937224196738634, 51.05889776541359], [-3.6899202226870984, 51.06029735419758], [-3.6861960959581395, 51.058703158145946]]]}}, {"type": "Feature", "properties": {"type": "postcode-cell", "postcode": "EX36 3NP", "postcodes": ["EX36 3NP"]}, "geometry": {"type": "Polygon", "coordinates": [[[-3.7140435843565074, 51.035322051000605], [-3.7054824662253183, 51.04138671832174], [-3.699143575247602, 51.04012694162453], [-3.697348735178174, 51.03351830695813], [-3.705708934883569, 51.02892692615769], [-3.7140435843565074, 51.035322051000605]]]}}, {"type": "Feature", "properties": {"type": "postcode-cell", "postcode": "EX36 3NG", "postcodes": ["EX36 3NG"]}, "geometry": {"type": "Polygon", "coordinates": [[[-3.7047665987191367, 51.05769452270328], [-3.6937224196738634, 51.05889776541359], [-3.6933403560336893, 51.05097982843434], [-3.699143575247602, 51.04012694162453], [-3.7054824662253183, 51.04138671832174], [-3.7073705995562674, 51.05617157508309], [-3.7047665987191367, 51.05769452270328]]]}}, {"type": "Feature", "properties": {"type": "postcode-cell", "postcode": "EX36 3NJ", "postcodes": ["EX36 3NJ"]}, "geometry": {"type": "Polygon", "coordinates": [[[-3.697348735178174, 51.03351830695813], [-3.6857256512478846, 51.03558493394017], [-3.6836389018103435, 51.03526090678839], [-3.682690822378078, 51.02614400235278], [-3.6894915505687464, 51.020963518393636], [-3.690409989711917, 51.02139999497993], [-3.690169989711571, 51.02180999498025], [-3.6908399897116206, 51.02264999498091], [-3.6903399897106106, 51.02412999498213], [-3.6894599897097433, 51.024759994982645], [-3.6902599897092867, 51.02688999498437], [-3.692029989710342, 51.02711999498453], [-3.692369989710666, 51.026899994984376], [-3.692529989710676, 51.027109994984535], [-3.69281998971099, 51.0268399949843], [-3.6931299897111276, 51.02697999498443], [-3.693599989711565, 51.026699994984206], [-3.693869989711642, 51.026919994984375], [-3.694309989712047, 51.02666999498417], [-3.694989989712322, 51.02703999498447], [-3.6956699897129575, 51.02662999498412], [-3.695929989712897, 51.02712999498451], [-3.69769998971387, 51.02753999498486], [-3.69865998971463, 51.02725999498461], [-3.699359989714983, 51.027489994984805], [-3.70148998971678, 51.02662999498408], [-3.703149989718013, 51.026319994983815], [-3.7044099897186045, 51.02682999498421], [-3.704889989719071, 51.02649999498396], [-3.7048099897192484, 51.02599999498355], [-3.7058699897196883, 51.026559994984], [-3.7059685786080685, 51.02649700797281], [-3.705708934883569, 51.02892692615769], [-3.697348735178174, 51.03351830695813]]]}}, {"type": "Feature", "properties": {"type": "postcode-cell", "postcode": "EX36 3NQ", "postcodes": ["EX36 3NQ"]}, "geometry": {"type": "Polygon", "coordinates": [[[-3.699143575247602, 51.04012694162453], [-3.6933403560336893, 51.05097982843434], [-3.6857256512478846, 51.03558493394017], [-3.697348735178174, 51.03351830695813], [-3.699143575247602, 51.04012694162453]]]}}, {"type": "Feature", "properties": {"type": "postcode-cell", "postcode": "EX36 3PS", "postcodes": ["EX36 3PS"]}, "geometry": {"type": "Polygon", "coordinates": [[[-3.682690822378078, 51.02614400235278], [-3.668336219403881, 51.025458526341616], [-3.67700815080349, 51.017537413161506], [-3.6883482196742663, 51.020219550569585], [-3.688389989711035, 51.02043999497916], [-3.6894915505687464, 51.020963518393636], [-3.682690822378078, 51.02614400235278]]]}}, {"type": "Feature", "properties": {"type": "postcode-cell", "postcode": "EX36 3NT", "postcodes": ["EX36 3NT"]}, "geometry": {"type": "Polygon", "coordinates": [[[-3.6861960959581395, 51.058703158145946], [-3.6642577117888546, 51.05469924153891], [-3.666729989682831, 51.05077999500396], [-3.6675899896845783, 51.04821999500187], [-3.6674799896849297, 51.04729999500114], [-3.668359989686028, 51.046169995000184], [-3.6713399896882977, 51.04548999499962], [-3.674049989691177, 51.043099994997675], [-3.6742597489995155, 51.04232465574162], [-3.6861960959581395, 51.058703158145946]]]}}, {"type": "Feature", "properties": {"type": "postcode-cell", "postcode": "EX36 3PN", "postcodes": ["EX36 3PN"]}, "geometry": {"type": "Polygon", "coordinates": [[[-3.67700815080349, 51.017537413161506], [-3.668336219403881, 51.025458526341616], [-3.6665793000117213, 51.02602525387522], [-3.6665799896941658, 51.026019994983834], [-3.6652399896931085, 51.02640999498418], [-3.663619989692205, 51.02606999498388], [-3.66303998969162, 51.026509994984266], [-3.6625599896915757, 51.0259299949838], [-3.6617899896911537, 51.025749994983656], [-3.6612499896907256, 51.025909994983806], [-3.659199989689573, 51.02549999498346], [-3.657569989688453, 51.025619994983586], [-3.6564599896889995, 51.02286999498136], [-3.6572599896906777, 51.02036999497933], [-3.6567399896916326, 51.01756999497706], [-3.650339989687958, 51.01646999497621], [-3.6505999896889296, 51.01473999497482], [-3.6496699896902705, 51.010529994971414], [-3.6526199896919533, 51.01105999497182], [-3.6578199896956787, 51.0103499949712], [-3.662469989698387, 51.01106999497173], [-3.6715817733236076, 51.011365520010486], [-3.67700815080349, 51.017537413161506]]]}}, {"type": "Feature", "properties": {"type": "postcode-cell", "postcode": "EX36 3PR", "postcodes": ["EX36 3PR"]}, "geometry": {"type": "Polygon", "coordinates": [[[-3.6836389018103435, 51.03526090678839], [-3.6720443451992626, 51.037320288592404], [-3.672039989693024, 51.03623999499212], [-3.670319989692409, 51.035129994991216], [-3.669969989692578, 51.03426999499051], [-3.670809989693528, 51.03339999498981], [-3.6729099896951665, 51.03282999498933], [-3.6745599896969363, 51.03133999498811], [-3.6744199896969434, 51.03112999498792], [-3.6756599896980604, 51.0304699949874], [-3.675969989698677, 51.029569994986645], [-3.675399989698691, 51.02872999498598], [-3.671999989696285, 51.029119994986324], [-3.668579989694177, 51.02882999498611], [-3.6659899896921773, 51.029489994986655], [-3.665189989691694, 51.0293999949866], [-3.664849989691901, 51.02846999498584], [-3.6664999896938317, 51.02662999498435], [-3.6665793000117213, 51.02602525387522], [-3.668336219403881, 51.025458526341616], [-3.682690822378078, 51.02614400235278], [-3.6836389018103435, 51.03526090678839]]]}}]}