{"type": "FeatureCollection", "features": [{"type": "Feature", "properties": {"type": "ward-outline", "name": "Roundswell"}, "geometry": {"type": "Polygon", "coordinates": [[[-4.05411, 51.06427], [-4.05893, 51.06419], [-4.07163, 51.06218], [-4.08131, 51.06223], [-4.08487, 51.06252], [-4.08398, 51.06546], [-4.08526, 51.06685], [-4.08588, 51.06824], [-4.08552, 51.07211], [-4.07906, 51.07183], [-4.07894, 51.07272], [-4.07775, 51.07344], [-4.07618, 51.07547], [-4.07097, 51.07784], [-4.07084, 51.07787], [-4.07039, 51.07732], [-4.0708, 51.0779], [-4.07019, 51.07819], [-4.07012, 51.07823], [-4.06693, 51.07917], [-4.06976, 51.07839], [-4.06781, 51.07928], [-4.06628, 51.0794], [-4.06457, 51.07892], [-4.05639, 51.07495], [-4.05574, 51.07312], [-4.0548, 51.0719], [-4.05705, 51.06952], [-4.0572, 51.06846], [-4.05674, 51.06755], [-4.05475, 51.06572], [-4.05411, 51.06427]]]}}, {"type": "Feature", "properties": {"type": "postcode-cell", "postcode": "EX31 3SF", "postcodes": ["EX31 3SF"]}, "geometry": {"type": "Polygon", "coordinates": [[[-4.084594166781545, 51.07084647373362], [-4.085645424799442, 51.07076163251818], [-4.085519989953102, 51.07210999501909], [-4.083793115603633, 51.07203518132948], [-4.084594166781545, 51.07084647373362]]]}}, {"type": "Feature", "properties": {"type": "postcode-cell", "postcode": "EX31 2HD", "postcodes": ["EX31 2HD"]}, "geometry": {"type": "Polygon", "coordinates": [[[-4.08257866593905, 51.07121678831505], [-4.081162159156984, 51.071077379069735], [-4.080899333608743, 51.07011384564886], [-4.081038813742688, 51.07002709323271], [-4.081865574326937, 51.06988286758503], [-4.0827790385518306, 51.07059543604824], [-4.08257866593905, 51.07121678831505]]]}}, {"type": "Feature", "properties": {"type": "postcode-cell", "postcode": "EX31 3SG", "postcodes": ["EX31 3SG"]}, "geometry": {"type": "Polygon", "coordinates": [[[-4.0827790385518306, 51.07059543604824], [-4.083941402343272, 51.070262745684495], [-4.084594166781545, 51.07084647373362], [-4.083793115603633, 51.07203518132948], [-4.083204834514073, 51.07200968923054], [-4.08257866593905, 51.07121678831505], [-4.0827790385518306, 51.07059543604824]]]}}, {"type": "Feature", "properties": {"type": "postcode-cell", "postcode": "EX31 3QS", "postcodes": ["EX31 3QS"]}, "geometry": {"type": "Polygon", "coordinates": [[[-4.084564111058281, 51.069165281523674], [-4.084129949484609, 51.068689405871204], [-4.0844007290073465, 51.06836216817126], [-4.085874382297831, 51.068300281524785], [-4.085780737220287, 51.06930701652495], [-4.084564111058281, 51.069165281523674]]]}}, {"type": "Feature", "properties": {"type": "postcode-cell", "postcode": "EX31 3SE", "postcodes": ["EX31 3SE"]}, "geometry": {"type": "Polygon", "coordinates": [[[-4.084594166781545, 51.07084647373362], [-4.083941402343272, 51.070262745684495], [-4.08400217715041, 51.07015325728299], [-4.085725701606819, 51.06989866173126], [-4.085645424799442, 51.07076163251818], [-4.084594166781545, 51.07084647373362]]]}}, {"type": "Feature", "properties": {"type": "postcode-cell", "postcode": "EX31 3QR", "postcodes": ["EX31 3QR"]}, "geometry": {"type": "Polygon", "coordinates": [[[-4.0844007290073465, 51.06836216817126], [-4.084045594783365, 51.06764847044952], [-4.085378846331572, 51.06711647030545], [-4.085879989955069, 51.068239995015894], [-4.085874382297831, 51.068300281524785], [-4.0844007290073465, 51.06836216817126]]]}}, {"type": "Feature", "properties": {"type": "postcode-cell", "postcode": "EX31 3NH", "postcodes": ["EX31 3NH"]}, "geometry": {"type": "Polygon", "coordinates": [[[-4.084045594783365, 51.06764847044952], [-4.082989963209348, 51.067541836062134], [-4.082259488916407, 51.06727392327422], [-4.083148333529291, 51.06550760855111], [-4.0840595558898825, 51.06554640154384], [-4.085259989955263, 51.066849995014756], [-4.085378846331572, 51.06711647030545], [-4.084045594783365, 51.06764847044952]]]}}, {"type": "Feature", "properties": {"type": "postcode-cell", "postcode": "EX31 3SD", "postcodes": ["EX31 3SD"]}, "geometry": {"type": "Polygon", "coordinates": [[[-4.083941402343272, 51.070262745684495], [-4.0827790385518306, 51.07059543604824], [-4.081865574326937, 51.06988286758503], [-4.082119558601331, 51.06958118100781], [-4.082913641326343, 51.06940291982113], [-4.083839129375565, 51.06970402239927], [-4.08400217715041, 51.07015325728299], [-4.083941402343272, 51.070262745684495]]]}}, {"type": "Feature", "properties": {"type": "postcode-cell", "postcode": "EX31 3RL", "postcodes": ["EX31 3RL"]}, "geometry": {"type": "Polygon", "coordinates": [[[-4.085780737220287, 51.06930701652495], [-4.085725701606819, 51.06989866173126], [-4.08400217715041, 51.07015325728299], [-4.083839129375565, 51.06970402239927], [-4.084564111058281, 51.069165281523674], [-4.085780737220287, 51.06930701652495]]]}}, {"type": "Feature", "properties": {"type": "postcode-cell", "postcode": "EX31 3QP", "postcodes": ["EX31 3QP"]}, "geometry": {"type": "Polygon", "coordinates": [[[-4.083839129375565, 51.06970402239927], [-4.082913641326343, 51.06940291982113], [-4.0831810686051355, 51.06886545590847], [-4.083496976782262, 51.06870842210479], [-4.084129949484609, 51.068689405871204], [-4.084564111058281, 51.069165281523674], [-4.083839129375565, 51.06970402239927]]]}}, {"type": "Feature", "properties": {"type": "postcode-cell", "postcode": "EX31 3RG", "postcodes": ["EX31 3RG"]}, "geometry": {"type": "Polygon", "coordinates": [[[-4.084129949484609, 51.068689405871204], [-4.083496976782262, 51.06870842210479], [-4.083169634691036, 51.06827943044178], [-4.082989963209348, 51.067541836062134], [-4.084045594783365, 51.06764847044952], [-4.0844007290073465, 51.06836216817126], [-4.084129949484609, 51.068689405871204]]]}}, {"type": "Feature", "properties": {"type": "postcode-cell", "postcode": "EX31 3TA", "postcodes": ["EX31 3TA"]}, "geometry": {"type": "Polygon", "coordinates": [[[-4.083148333529291, 51.06550760855111], [-4.083145236463839, 51.06550597533639], [-4.082953468015068, 51.06514963486997], [-4.083915135683626, 51.06355890265185], [-4.084580753293259, 51.063475490669845], [-4.08397998995501, 51.06545999501361], [-4.0840595558898825, 51.06554640154384], [-4.083148333529291, 51.06550760855111]]]}}, {"type": "Feature", "properties": {"type": "postcode-cell", "postcode": "EX31 3SU", "postcodes": ["EX31 3SU"]}, "geometry": {"type": "Polygon", "coordinates": [[[-4.081572764102461, 51.062663852326885], [-4.081289435756412, 51.06296289738251], [-4.080624669398382, 51.063237990294034], [-4.079648667457654, 51.06319681051396], [-4.078986299582548, 51.06294461553186], [-4.078689162352957, 51.06221653687638], [-4.081309989954628, 51.062229995010945], [-4.081729277475194, 51.0622641562934], [-4.081572764102461, 51.062663852326885]]]}}, {"type": "Feature", "properties": {"type": "postcode-cell", "postcode": "EX31 3RZ", "postcodes": ["EX31 3RZ"]}, "geometry": {"type": "Polygon", "coordinates": [[[-4.083915135683626, 51.06355890265185], [-4.083372915085768, 51.06335085125988], [-4.083012277010477, 51.06236867848259], [-4.084869989956922, 51.06251999501119], [-4.084580753293259, 51.063475490669845], [-4.083915135683626, 51.06355890265185]]]}}, {"type": "Feature", "properties": {"type": "postcode-cell", "postcode": "EX31 3WL", "postcodes": ["EX31 3WL"]}, "geometry": {"type": "Polygon", "coordinates": [[[-4.082953468015068, 51.06514963486997], [-4.082483121468203, 51.06473646297901], [-4.082229306922622, 51.064030239186074], [-4.0826168297568, 51.06356304187622], [-4.083372915085768, 51.06335085125988], [-4.083915135683626, 51.06355890265185], [-4.082953468015068, 51.06514963486997]]]}}, {"type": "Feature", "properties": {"type": "postcode-cell", "postcode": "EX31 3RQ", "postcodes": ["EX31 3RQ"]}, "geometry": {"type": "Polygon", "coordinates": [[[-4.0831810686051355, 51.06886545590847], [-4.082244841386091, 51.06857361631166], [-4.083169634691036, 51.06827943044178], [-4.083496976782262, 51.06870842210479], [-4.0831810686051355, 51.06886545590847]]]}}, {"type": "Feature", "properties": {"type": "postcode-cell", "postcode": "EX31 3NJ", "postcodes": ["EX31 3NJ"]}, "geometry": {"type": "Polygon", "coordinates": [[[-4.083145236463839, 51.06550597533639], [-4.080959263630135, 51.06562876515626], [-4.078691419104686, 51.0654781217884], [-4.078411747720018, 51.06522930773277], [-4.079418720660814, 51.064665983578095], [-4.081083118657647, 51.06443739063072], [-4.082483121468203, 51.06473646297901], [-4.082953468015068, 51.06514963486997], [-4.083145236463839, 51.06550597533639]]]}}, {"type": "Feature", "properties": {"type": "postcode-cell", "postcode": "EX31 2HB", "postcodes": ["EX31 2HB"]}, "geometry": {"type": "Polygon", "coordinates": [[[-4.083204834514073, 51.07200968923054], [-4.079973808923934, 51.07186962519359], [-4.079867130769992, 51.07172360749452], [-4.081162159156984, 51.071077379069735], [-4.08257866593905, 51.07121678831505], [-4.083204834514073, 51.07200968923054]]]}}, {"type": "Feature", "properties": {"type": "postcode-cell", "postcode": "EX31 3RP", "postcodes": ["EX31 3RP"]}, "geometry": {"type": "Polygon", "coordinates": [[[-4.083169634691036, 51.06827943044178], [-4.082244841386091, 51.06857361631166], [-4.081883498930425, 51.06851844338506], [-4.082010235202718, 51.06735693576307], [-4.082259488916407, 51.06727392327422], [-4.082989963209348, 51.067541836062134], [-4.083169634691036, 51.06827943044178]]]}}, {"type": "Feature", "properties": {"type": "postcode-cell", "postcode": "EX31 2DF", "postcodes": ["EX31 2DF"]}, "geometry": {"type": "Polygon", "coordinates": [[[-4.081865574326937, 51.06988286758503], [-4.081038813742688, 51.07002709323271], [-4.080303761498499, 51.06904588654509], [-4.080444022719635, 51.068780588459], [-4.081574718629739, 51.06877277565177], [-4.082119558601331, 51.06958118100781], [-4.081865574326937, 51.06988286758503]]]}}, {"type": "Feature", "properties": {"type": "postcode-cell", "postcode": "EX31 3TH", "postcodes": ["EX31 3TH"]}, "geometry": {"type": "Polygon", "coordinates": [[[-4.0826168297568, 51.06356304187622], [-4.081572764102461, 51.062663852326885], [-4.081729277475194, 51.0622641562934], [-4.083012277010477, 51.06236867848259], [-4.083372915085768, 51.06335085125988], [-4.0826168297568, 51.06356304187622]]]}}, {"type": "Feature", "properties": {"type": "postcode-cell", "postcode": "EX31 3RH", "postcodes": ["EX31 3RH"]}, "geometry": {"type": "Polygon", "coordinates": [[[-4.0831810686051355, 51.06886545590847], [-4.082913641326343, 51.06940291982113], [-4.082119558601331, 51.06958118100781], [-4.081574718629739, 51.06877277565177], [-4.081883498930425, 51.06851844338506], [-4.082244841386091, 51.06857361631166], [-4.0831810686051355, 51.06886545590847]]]}}, {"type": "Feature", "properties": {"type": "postcode-cell", "postcode": "EX31 3GY", "postcodes": ["EX31 3GY"]}, "geometry": {"type": "Polygon", "coordinates": [[[-4.082483121468203, 51.06473646297901], [-4.081083118657647, 51.06443739063072], [-4.080921542643035, 51.06389554572668], [-4.081677304810227, 51.063775781114366], [-4.082229306922622, 51.064030239186074], [-4.082483121468203, 51.06473646297901]]]}}, {"type": "Feature", "properties": {"type": "postcode-cell", "postcode": "EX31 3NL", "postcodes": ["EX31 3NL"]}, "geometry": {"type": "Polygon", "coordinates": [[[-4.083148333529291, 51.06550760855111], [-4.082259488916407, 51.06727392327422], [-4.082010235202718, 51.06735693576307], [-4.080795019636261, 51.06734817676272], [-4.080959263630135, 51.06562876515626], [-4.083145236463839, 51.06550597533639], [-4.083148333529291, 51.06550760855111]]]}}, {"type": "Feature", "properties": {"type": "postcode-cell", "postcode": "EX31 3HA", "postcodes": ["EX31 3HA"]}, "geometry": {"type": "Polygon", "coordinates": [[[-4.082229306922622, 51.064030239186074], [-4.081677304810227, 51.063775781114366], [-4.081289435756412, 51.06296289738251], [-4.081572764102461, 51.062663852326885], [-4.0826168297568, 51.06356304187622], [-4.082229306922622, 51.064030239186074]]]}}, {"type": "Feature", "properties": {"type": "postcode-cell", "postcode": "EX31 3RJ", "postcodes": ["EX31 3RJ"]}, "geometry": {"type": "Polygon", "coordinates": [[[-4.081574718629739, 51.06877277565177], [-4.080444022719635, 51.068780588459], [-4.079823444433226, 51.06816815185975], [-4.08018756220321, 51.067409646956065], [-4.080795019636261, 51.06734817676272], [-4.082010235202718, 51.06735693576307], [-4.081883498930425, 51.06851844338506], [-4.081574718629739, 51.06877277565177]]]}}, {"type": "Feature", "properties": {"type": "postcode-cell", "postcode": "EX31 3FN", "postcodes": ["EX31 3FN"]}, "geometry": {"type": "Polygon", "coordinates": [[[-4.080624669398382, 51.063237990294034], [-4.081289435756412, 51.06296289738251], [-4.081677304810227, 51.063775781114366], [-4.080921542643035, 51.06389554572668], [-4.0806499933547995, 51.06380286062646], [-4.080624669398382, 51.063237990294034]]]}}, {"type": "Feature", "properties": {"type": "postcode-cell", "postcode": "EX31 3NW", "postcodes": ["EX31 3NW"]}, "geometry": {"type": "Polygon", "coordinates": [[[-4.0806499933547995, 51.06380286062646], [-4.079872291641356, 51.06411472167726], [-4.079648667457654, 51.06319681051396], [-4.080624669398382, 51.063237990294034], [-4.0806499933547995, 51.06380286062646]]]}}, {"type": "Feature", "properties": {"type": "postcode-cell", "postcode": "EX31 2EH", "postcodes": ["EX31 2EH"]}, "geometry": {"type": "Polygon", "coordinates": [[[-4.076886320378665, 51.073430613963886], [-4.076999468468358, 51.073122114471744], [-4.078359849704828, 51.073031736696656], [-4.078397422257264, 51.07304827550487], [-4.077749989947219, 51.07343999502022], [-4.077491445639528, 51.07377430459772], [-4.076886320378665, 51.073430613963886]]]}}, {"type": "Feature", "properties": {"type": "postcode-cell", "postcode": "EX31 2HZ", "postcodes": ["EX31 2HZ"]}, "geometry": {"type": "Polygon", "coordinates": [[[-4.079516966260193, 51.071577504187786], [-4.079282660697809, 51.07139189537012], [-4.079198001330286, 51.07124139344104], [-4.079223603895345, 51.071088068740956], [-4.080611096601394, 51.07014547727587], [-4.080899333608743, 51.07011384564886], [-4.081162159156984, 51.071077379069735], [-4.079867130769992, 51.07172360749452], [-4.079516966260193, 51.071577504187786]]]}}, {"type": "Feature", "properties": {"type": "postcode-cell", "postcode": "EX31 2EL", "postcodes": ["EX31 2EL"]}, "geometry": {"type": "Polygon", "coordinates": [[[-4.079867130769992, 51.07172360749452], [-4.079973808923934, 51.07186962519359], [-4.079059989948829, 51.071829995018874], [-4.078939989948349, 51.07271999501961], [-4.078397422257264, 51.07304827550487], [-4.078359849704828, 51.073031736696656], [-4.078021721180011, 51.07251782953611], [-4.078015084210709, 51.07237063864693], [-4.079516966260193, 51.071577504187786], [-4.079867130769992, 51.07172360749452]]]}}, {"type": "Feature", "properties": {"type": "postcode-cell", "postcode": "EX31 3AR", "postcodes": ["EX31 3AR"]}, "geometry": {"type": "Polygon", "coordinates": [[[-4.080795019636261, 51.06734817676272], [-4.08018756220321, 51.067409646956065], [-4.078807674294695, 51.066632334768144], [-4.078691419104686, 51.0654781217884], [-4.080959263630135, 51.06562876515626], [-4.080795019636261, 51.06734817676272]]]}}, {"type": "Feature", "properties": {"type": "postcode-cell", "postcode": "EX31 2DG", "postcodes": ["EX31 2DG"]}, "geometry": {"type": "Polygon", "coordinates": [[[-4.080899333608743, 51.07011384564886], [-4.080611096601394, 51.07014547727587], [-4.078737248538181, 51.069676175226064], [-4.080303761498499, 51.06904588654509], [-4.081038813742688, 51.07002709323271], [-4.080899333608743, 51.07011384564886]]]}}, {"type": "Feature", "properties": {"type": "postcode-cell", "postcode": "EX31 3FH", "postcodes": ["EX31 3FH"]}, "geometry": {"type": "Polygon", "coordinates": [[[-4.081083118657647, 51.06443739063072], [-4.079418720660814, 51.064665983578095], [-4.079872291641356, 51.06411472167726], [-4.0806499933547995, 51.06380286062646], [-4.080921542643035, 51.06389554572668], [-4.081083118657647, 51.06443739063072]]]}}, {"type": "Feature", "properties": {"type": "postcode-cell", "postcode": "EX31 2DT", "postcodes": ["EX31 2DT"]}, "geometry": {"type": "Polygon", "coordinates": [[[-4.080444022719635, 51.068780588459], [-4.080303761498499, 51.06904588654509], [-4.078737248538181, 51.069676175226064], [-4.078673973238926, 51.069680157967916], [-4.078572769614291, 51.06962462014817], [-4.078308652013762, 51.06887328555149], [-4.078582765322534, 51.06848669525744], [-4.079823444433226, 51.06816815185975], [-4.080444022719635, 51.068780588459]]]}}, {"type": "Feature", "properties": {"type": "postcode-cell", "postcode": "EX31 3FX", "postcodes": ["EX31 3FX"]}, "geometry": {"type": "Polygon", "coordinates": [[[-4.079418720660814, 51.064665983578095], [-4.078411747720018, 51.06522930773277], [-4.077401295115944, 51.06488951294928], [-4.078986299582548, 51.06294461553186], [-4.079648667457654, 51.06319681051396], [-4.079872291641356, 51.06411472167726], [-4.079418720660814, 51.064665983578095]]]}}, {"type": "Feature", "properties": {"type": "postcode-cell", "postcode": "EX31 2DQ", "postcodes": ["EX31 2DQ"]}, "geometry": {"type": "Polygon", "coordinates": [[[-4.080611096601394, 51.07014547727587], [-4.079223603895345, 51.071088068740956], [-4.0786471582521, 51.069984496428916], [-4.078673973238926, 51.069680157967916], [-4.078737248538181, 51.069676175226064], [-4.080611096601394, 51.07014547727587]]]}}, {"type": "Feature", "properties": {"type": "postcode-cell", "postcode": "EX31 2DS", "postcodes": ["EX31 2DS"]}, "geometry": {"type": "Polygon", "coordinates": [[[-4.079823444433226, 51.06816815185975], [-4.078582765322534, 51.06848669525744], [-4.077298594823633, 51.06747392322536], [-4.078807674294695, 51.066632334768144], [-4.08018756220321, 51.067409646956065], [-4.079823444433226, 51.06816815185975]]]}}, {"type": "Feature", "properties": {"type": "postcode-cell", "postcode": "EX31 3NN", "postcodes": ["EX31 3NN"]}, "geometry": {"type": "Polygon", "coordinates": [[[-4.078691419104686, 51.0654781217884], [-4.078807674294695, 51.066632334768144], [-4.077298594823633, 51.06747392322536], [-4.076424440803503, 51.0675764149669], [-4.075761699309283, 51.0669142834577], [-4.076192122360319, 51.065089808166846], [-4.076517932306133, 51.06480560060841], [-4.077401295115944, 51.06488951294928], [-4.078411747720018, 51.06522930773277], [-4.078691419104686, 51.0654781217884]]]}}, {"type": "Feature", "properties": {"type": "postcode-cell", "postcode": "EX31 3SX", "postcodes": ["EX31 3SX"]}, "geometry": {"type": "Polygon", "coordinates": [[[-4.078986299582548, 51.06294461553186], [-4.077401295115944, 51.06488951294928], [-4.076517932306133, 51.06480560060841], [-4.075453028076001, 51.0639051295372], [-4.074658695560535, 51.06219572538694], [-4.078689162352957, 51.06221653687638], [-4.078986299582548, 51.06294461553186]]]}}, {"type": "Feature", "properties": {"type": "postcode-cell", "postcode": "EX31 2DH", "postcodes": ["EX31 2DH"]}, "geometry": {"type": "Polygon", "coordinates": [[[-4.079223603895345, 51.071088068740956], [-4.079198001330286, 51.07124139344104], [-4.078882246325234, 51.0711765158036], [-4.0776458491010175, 51.07057541585481], [-4.0786471582521, 51.069984496428916], [-4.079223603895345, 51.071088068740956]]]}}, {"type": "Feature", "properties": {"type": "postcode-cell", "postcode": "EX31 2DJ", "postcodes": ["EX31 2DJ"]}, "geometry": {"type": "Polygon", "coordinates": [[[-4.0786471582521, 51.069984496428916], [-4.0776458491010175, 51.07057541585481], [-4.077136815734049, 51.07065285906201], [-4.07650029868325, 51.069834119748855], [-4.078572769614291, 51.06962462014817], [-4.078673973238926, 51.069680157967916], [-4.0786471582521, 51.069984496428916]]]}}, {"type": "Feature", "properties": {"type": "postcode-cell", "postcode": "EX31 2EZ", "postcodes": ["EX31 2EZ"]}, "geometry": {"type": "Polygon", "coordinates": [[[-4.075711819589739, 51.074552732106696], [-4.075834427754599, 51.07444832809998], [-4.076830576670995, 51.074628814229605], [-4.076179989945248, 51.075469995021905], [-4.075975064494643, 51.075563223363304], [-4.075711819589739, 51.074552732106696]]]}}, {"type": "Feature", "properties": {"type": "postcode-cell", "postcode": "EX31 2AQ", "postcodes": ["EX31 2AQ"]}, "geometry": {"type": "Polygon", "coordinates": [[[-4.078882246325234, 51.0711765158036], [-4.0770573152598235, 51.0710780149702], [-4.07698137735357, 51.07103625970608], [-4.077136815734049, 51.07065285906201], [-4.0776458491010175, 51.07057541585481], [-4.078882246325234, 51.0711765158036]]]}}, {"type": "Feature", "properties": {"type": "postcode-cell", "postcode": "EX31 2DA", "postcodes": ["EX31 2DA"]}, "geometry": {"type": "Polygon", "coordinates": [[[-4.079516966260193, 51.071577504187786], [-4.078015084210709, 51.07237063864693], [-4.07732155045497, 51.07196559114519], [-4.07748657938194, 51.07173623432018], [-4.079282660697809, 51.07139189537012], [-4.079516966260193, 51.071577504187786]]]}}, {"type": "Feature", "properties": {"type": "postcode-cell", "postcode": "EX31 2BZ", "postcodes": ["EX31 2BZ"]}, "geometry": {"type": "Polygon", "coordinates": [[[-4.078021721180011, 51.07251782953611], [-4.076510327616431, 51.0726855590631], [-4.076531003733099, 51.07242847284371], [-4.076782597812216, 51.072091847395406], [-4.07732155045497, 51.07196559114519], [-4.078015084210709, 51.07237063864693], [-4.078021721180011, 51.07251782953611]]]}}, {"type": "Feature", "properties": {"type": "postcode-cell", "postcode": "EX31 2DL", "postcodes": ["EX31 2DL"]}, "geometry": {"type": "Polygon", "coordinates": [[[-4.079282660697809, 51.07139189537012], [-4.07748657938194, 51.07173623432018], [-4.0770573152598235, 51.0710780149702], [-4.078882246325234, 51.0711765158036], [-4.079198001330286, 51.07124139344104], [-4.079282660697809, 51.07139189537012]]]}}, {"type": "Feature", "properties": {"type": "postcode-cell", "postcode": "EX31 2DR", "postcodes": ["EX31 2DR"]}, "geometry": {"type": "Polygon", "coordinates": [[[-4.078308652013762, 51.06887328555149], [-4.0763760124258805, 51.0687355565146], [-4.076371075693141, 51.067637541328736], [-4.076424440803503, 51.0675764149669], [-4.077298594823633, 51.06747392322536], [-4.078582765322534, 51.06848669525744], [-4.078308652013762, 51.06887328555149]]]}}, {"type": "Feature", "properties": {"type": "postcode-cell", "postcode": "EX31 2DE", "postcodes": ["EX31 2DE"]}, "geometry": {"type": "Polygon", "coordinates": [[[-4.07650029868325, 51.069834119748855], [-4.07555073061577, 51.06956529009093], [-4.0763760124258805, 51.0687355565146], [-4.078308652013762, 51.06887328555149], [-4.078572769614291, 51.06962462014817], [-4.07650029868325, 51.069834119748855]]]}}, {"type": "Feature", "properties": {"type": "postcode-cell", "postcode": "EX31 2EU", "postcodes": ["EX31 2EU"]}, "geometry": {"type": "Polygon", "coordinates": [[[-4.0770573152598235, 51.0710780149702], [-4.07748657938194, 51.07173623432018], [-4.07732155045497, 51.07196559114519], [-4.076782597812216, 51.072091847395406], [-4.0757519304924, 51.07129700208942], [-4.07698137735357, 51.07103625970608], [-4.0770573152598235, 51.0710780149702]]]}}, {"type": "Feature", "properties": {"type": "postcode-cell", "postcode": "EX31 2EY", "postcodes": ["EX31 2EY"]}, "geometry": {"type": "Polygon", "coordinates": [[[-4.075834427754599, 51.07444832809998], [-4.075862749495441, 51.07390978227029], [-4.07590043641107, 51.07384775081632], [-4.0760146156577095, 51.073831119029684], [-4.0771880713567645, 51.07416657462235], [-4.076830576670995, 51.074628814229605], [-4.075834427754599, 51.07444832809998]]]}}, {"type": "Feature", "properties": {"type": "postcode-cell", "postcode": "EX31 2EQ", "postcodes": ["EX31 2EQ"]}, "geometry": {"type": "Polygon", "coordinates": [[[-4.078359849704828, 51.073031736696656], [-4.076999468468358, 51.073122114471744], [-4.076508837255867, 51.07268840707138], [-4.076510327616431, 51.0726855590631], [-4.078021721180011, 51.07251782953611], [-4.078359849704828, 51.073031736696656]]]}}, {"type": "Feature", "properties": {"type": "postcode-cell", "postcode": "EX31 2EG", "postcodes": ["EX31 2EG"]}, "geometry": {"type": "Polygon", "coordinates": [[[-4.076999468468358, 51.073122114471744], [-4.076886320378665, 51.073430613963886], [-4.0760146156577095, 51.073831119029684], [-4.07590043641107, 51.07384775081632], [-4.075577600043531, 51.07354401043211], [-4.075944482769958, 51.07283422395497], [-4.076508837255867, 51.07268840707138], [-4.076999468468358, 51.073122114471744]]]}}, {"type": "Feature", "properties": {"type": "postcode-cell", "postcode": "EX31 2DN", "postcodes": ["EX31 2DN"]}, "geometry": {"type": "Polygon", "coordinates": [[[-4.077136815734049, 51.07065285906201], [-4.07698137735357, 51.07103625970608], [-4.0757519304924, 51.07129700208942], [-4.075290577143773, 51.07125291853215], [-4.075324576409026, 51.06960881271334], [-4.07555073061577, 51.06956529009093], [-4.07650029868325, 51.069834119748855], [-4.077136815734049, 51.07065285906201]]]}}, {"type": "Feature", "properties": {"type": "postcode-cell", "postcode": "EX31 3TY", "postcodes": ["EX31 3TY"]}, "geometry": {"type": "Polygon", "coordinates": [[[-4.075761699309283, 51.0669142834577], [-4.072606349645545, 51.0668864042419], [-4.072350904511787, 51.06668110565754], [-4.07313224303217, 51.066101565690985], [-4.076192122360319, 51.065089808166846], [-4.075761699309283, 51.0669142834577]]]}}, {"type": "Feature", "properties": {"type": "postcode-cell", "postcode": "EX31 3AS", "postcodes": ["EX31 3AS"]}, "geometry": {"type": "Polygon", "coordinates": [[[-4.07555073061577, 51.06956529009093], [-4.075324576409026, 51.06960881271334], [-4.074599163753557, 51.069480975400154], [-4.074380445250311, 51.06932596636713], [-4.074623093984084, 51.06800124544565], [-4.076371075693141, 51.067637541328736], [-4.0763760124258805, 51.0687355565146], [-4.07555073061577, 51.06956529009093]]]}}, {"type": "Feature", "properties": {"type": "postcode-cell", "postcode": "EX31 2EF", "postcodes": ["EX31 2EF"]}, "geometry": {"type": "Polygon", "coordinates": [[[-4.077491445639528, 51.07377430459772], [-4.0771880713567645, 51.07416657462235], [-4.0760146156577095, 51.073831119029684], [-4.076886320378665, 51.073430613963886], [-4.077491445639528, 51.07377430459772]]]}}, {"type": "Feature", "properties": {"type": "postcode-cell", "postcode": "EX31 2BY", "postcodes": ["EX31 2BY"]}, "geometry": {"type": "Polygon", "coordinates": [[[-4.076508837255867, 51.07268840707138], [-4.075944482769958, 51.07283422395497], [-4.075393967052489, 51.07268877547461], [-4.075302565146432, 51.072029411716926], [-4.076531003733099, 51.07242847284371], [-4.076510327616431, 51.0726855590631], [-4.076508837255867, 51.07268840707138]]]}}, {"type": "Feature", "properties": {"type": "postcode-cell", "postcode": "EX31 2BX", "postcodes": ["EX31 2BX"]}, "geometry": {"type": "Polygon", "coordinates": [[[-4.075302565146432, 51.072029411716926], [-4.075393967052489, 51.07268877547461], [-4.0748433559066894, 51.072788589854724], [-4.074107991437291, 51.07252405049098], [-4.073653049619497, 51.07185346602712], [-4.073880920182691, 51.07164107360919], [-4.074788780937054, 51.07149665459382], [-4.075302565146432, 51.072029411716926]]]}}, {"type": "Feature", "properties": {"type": "postcode-cell", "postcode": "EX31 2DB", "postcodes": ["EX31 2DB"]}, "geometry": {"type": "Polygon", "coordinates": [[[-4.074788780937054, 51.07149665459382], [-4.075290577143773, 51.07125291853215], [-4.0757519304924, 51.07129700208942], [-4.076782597812216, 51.072091847395406], [-4.076531003733099, 51.07242847284371], [-4.075302565146432, 51.072029411716926], [-4.074788780937054, 51.07149665459382]]]}}, {"type": "Feature", "properties": {"type": "postcode-cell", "postcode": "EX31 2DX", "postcodes": ["EX31 2DX"]}, "geometry": {"type": "Polygon", "coordinates": [[[-4.075975064494643, 51.075563223363304], [-4.073589779205784, 51.076648326314825], [-4.074072712486967, 51.07481592005871], [-4.074148515244659, 51.074722088993084], [-4.075711819589739, 51.074552732106696], [-4.075975064494643, 51.075563223363304]]]}}, {"type": "Feature", "properties": {"type": "postcode-cell", "postcode": "EX31 2EB", "postcodes": ["EX31 2EB"]}, "geometry": {"type": "Polygon", "coordinates": [[[-4.075862749495441, 51.07390978227029], [-4.074083822881687, 51.074171406918374], [-4.073959225455533, 51.07399457720998], [-4.074163389918208, 51.07356360468695], [-4.074854206091246, 51.07340297451518], [-4.075577600043531, 51.07354401043211], [-4.07590043641107, 51.07384775081632], [-4.075862749495441, 51.07390978227029]]]}}, {"type": "Feature", "properties": {"type": "postcode-cell", "postcode": "EX31 2EE", "postcodes": ["EX31 2EE"]}, "geometry": {"type": "Polygon", "coordinates": [[[-4.075577600043531, 51.07354401043211], [-4.074854206091246, 51.07340297451518], [-4.0748433559066894, 51.072788589854724], [-4.075393967052489, 51.07268877547461], [-4.075944482769958, 51.07283422395497], [-4.075577600043531, 51.07354401043211]]]}}, {"type": "Feature", "properties": {"type": "postcode-cell", "postcode": "EX31 2DD", "postcodes": ["EX31 2DD"]}, "geometry": {"type": "Polygon", "coordinates": [[[-4.074788780937054, 51.07149665459382], [-4.073880920182691, 51.07164107360919], [-4.07320295475475, 51.07084915698814], [-4.073082990337883, 51.0705011724908], [-4.074599163753557, 51.069480975400154], [-4.075324576409026, 51.06960881271334], [-4.075290577143773, 51.07125291853215], [-4.074788780937054, 51.07149665459382]]]}}, {"type": "Feature", "properties": {"type": "postcode-cell", "postcode": "EX31 3AQ", "postcodes": ["EX31 3AQ"]}, "geometry": {"type": "Polygon", "coordinates": [[[-4.076371075693141, 51.067637541328736], [-4.074623093984084, 51.06800124544565], [-4.072769608753505, 51.06723435697235], [-4.072606349645545, 51.0668864042419], [-4.075761699309283, 51.0669142834577], [-4.076424440803503, 51.0675764149669], [-4.076371075693141, 51.067637541328736]]]}}, {"type": "Feature", "properties": {"type": "postcode-cell", "postcode": "EX31 2DY", "postcodes": ["EX31 2DY"]}, "geometry": {"type": "Polygon", "coordinates": [[[-4.075711819589739, 51.074552732106696], [-4.074148515244659, 51.074722088993084], [-4.074083822881687, 51.074171406918374], [-4.075862749495441, 51.07390978227029], [-4.075834427754599, 51.07444832809998], [-4.075711819589739, 51.074552732106696]]]}}, {"type": "Feature", "properties": {"type": "postcode-cell", "postcode": "EX31 2FD", "postcodes": ["EX31 2FD"]}, "geometry": {"type": "MultiPolygon", "coordinates": [[[[-4.06879173922504, 51.076790029736316], [-4.070432905308644, 51.07738070533536], [-4.070799989940508, 51.07789999502391], [-4.070189989939962, 51.07818999502417], [-4.070119989939898, 51.07822999502419], [-4.066929989937309, 51.07916999502499], [-4.069759989939582, 51.078389995024345], [-4.067809989937857, 51.07927999502507], [-4.066279989936764, 51.079399995025184], [-4.065607575975353, 51.079211251451156], [-4.06879173922504, 51.076790029736316]]], [[[-4.071296467035674, 51.07769149623629], [-4.070969989940649, 51.07783999502387], [-4.070839989940547, 51.0778699950239], [-4.070442481101991, 51.07738415166674], [-4.071296467035674, 51.07769149623629]]]]}}, {"type": "Feature", "properties": {"type": "postcode-cell", "postcode": "EX31 2DZ", "postcodes": ["EX31 2DZ"]}, "geometry": {"type": "Polygon", "coordinates": [[[-4.074148515244659, 51.074722088993084], [-4.074072712486967, 51.07481592005871], [-4.071656189364081, 51.074171189492674], [-4.0716664189560055, 51.07414064278256], [-4.073244422344663, 51.07393937592918], [-4.073959225455533, 51.07399457720998], [-4.074083822881687, 51.074171406918374], [-4.074148515244659, 51.074722088993084]]]}}, {"type": "Feature", "properties": {"type": "postcode-cell", "postcode": "EX31 3AH", "postcodes": ["EX31 3AH"]}, "geometry": {"type": "Polygon", "coordinates": [[[-4.074623093984084, 51.06800124544565], [-4.074380445250311, 51.06932596636713], [-4.072457077630748, 51.068780150354364], [-4.072769608753505, 51.06723435697235], [-4.074623093984084, 51.06800124544565]]]}}, {"type": "Feature", "properties": {"type": "postcode-cell", "postcode": "EX31 3UE", "postcodes": ["EX31 3UE"]}, "geometry": {"type": "Polygon", "coordinates": [[[-4.076192122360319, 51.065089808166846], [-4.07313224303217, 51.066101565690985], [-4.073067278561512, 51.06467734618176], [-4.075453028076001, 51.0639051295372], [-4.076517932306133, 51.06480560060841], [-4.076192122360319, 51.065089808166846]]]}}, {"type": "Feature", "properties": {"type": "postcode-cell", "postcode": "EX31 2ED", "postcodes": ["EX31 2ED"]}, "geometry": {"type": "Polygon", "coordinates": [[[-4.074854206091246, 51.07340297451518], [-4.074163389918208, 51.07356360468695], [-4.073774625903316, 51.07322054687561], [-4.074107991437291, 51.07252405049098], [-4.0748433559066894, 51.072788589854724], [-4.074854206091246, 51.07340297451518]]]}}, {"type": "Feature", "properties": {"type": "postcode-cell", "postcode": "EX31 2EA", "postcodes": ["EX31 2EA"]}, "geometry": {"type": "Polygon", "coordinates": [[[-4.074163389918208, 51.07356360468695], [-4.073959225455533, 51.07399457720998], [-4.073244422344663, 51.07393937592918], [-4.073007612309511, 51.073231701818514], [-4.073061943538079, 51.073192831667605], [-4.073774625903316, 51.07322054687561], [-4.074163389918208, 51.07356360468695]]]}}, {"type": "Feature", "properties": {"type": "postcode-cell", "postcode": "EX31 3AJ", "postcodes": ["EX31 3AJ"]}, "geometry": {"type": "Polygon", "coordinates": [[[-4.073082990337883, 51.0705011724908], [-4.072287737713626, 51.07030056462802], [-4.0716101669451605, 51.06958612605011], [-4.07225162293805, 51.06885478844034], [-4.072457077630748, 51.068780150354364], [-4.074380445250311, 51.06932596636713], [-4.074599163753557, 51.069480975400154], [-4.073082990337883, 51.0705011724908]]]}}, {"type": "Feature", "properties": {"type": "postcode-cell", "postcode": "EX31 2BU", "postcodes": ["EX31 2BU"]}, "geometry": {"type": "Polygon", "coordinates": [[[-4.074107991437291, 51.07252405049098], [-4.073774625903316, 51.07322054687561], [-4.073061943538079, 51.073192831667605], [-4.072560805672041, 51.07237491449541], [-4.072642832261951, 51.072125968325985], [-4.073653049619497, 51.07185346602712], [-4.074107991437291, 51.07252405049098]]]}}, {"type": "Feature", "properties": {"type": "postcode-cell", "postcode": "EX31 3AG", "postcodes": ["EX31 3AG"]}, "geometry": {"type": "Polygon", "coordinates": [[[-4.072606349645545, 51.0668864042419], [-4.072769608753505, 51.06723435697235], [-4.072457077630748, 51.068780150354364], [-4.07225162293805, 51.06885478844034], [-4.0698274970061155, 51.06828817679577], [-4.068004794378864, 51.06655986609128], [-4.068486575948103, 51.066078741671156], [-4.072350904511787, 51.06668110565754], [-4.072606349645545, 51.0668864042419]]]}}, {"type": "Feature", "properties": {"type": "postcode-cell", "postcode": "EX31 3TZ", "postcodes": ["EX31 3TZ"]}, "geometry": {"type": "Polygon", "coordinates": [[[-4.07313224303217, 51.066101565690985], [-4.072350904511787, 51.06668110565754], [-4.068486575948103, 51.066078741671156], [-4.068324302710062, 51.06384232594147], [-4.073067278561512, 51.06467734618176], [-4.07313224303217, 51.066101565690985]]]}}, {"type": "Feature", "properties": {"type": "postcode-cell", "postcode": "EX31 2BH", "postcodes": ["EX31 2BH"]}, "geometry": {"type": "Polygon", "coordinates": [[[-4.073653049619497, 51.07185346602712], [-4.072642832261951, 51.072125968325985], [-4.070678837796747, 51.07164895184525], [-4.070541991785626, 51.07151760965867], [-4.07320295475475, 51.07084915698814], [-4.073880920182691, 51.07164107360919], [-4.073653049619497, 51.07185346602712]]]}}, {"type": "Feature", "properties": {"type": "postcode-cell", "postcode": "EX31 2DW", "postcodes": ["EX31 2DW"]}, "geometry": {"type": "Polygon", "coordinates": [[[-4.073007612309511, 51.073231701818514], [-4.071548467747463, 51.07374758384653], [-4.071258331958628, 51.07343748518401], [-4.072560805672041, 51.07237491449541], [-4.073061943538079, 51.073192831667605], [-4.073007612309511, 51.073231701818514]]]}}, {"type": "Feature", "properties": {"type": "postcode-cell", "postcode": "EX31 3HU", "postcodes": ["EX31 3HU"]}, "geometry": {"type": "Polygon", "coordinates": [[[-4.068324302710062, 51.06384232594147], [-4.068486575948103, 51.066078741671156], [-4.068004794378864, 51.06655986609128], [-4.06693678128379, 51.0670833072049], [-4.055270334076912, 51.0661985199803], [-4.054749989935025, 51.065719995013964], [-4.054109989935235, 51.06426999501277], [-4.0589299899385445, 51.064189995012676], [-4.067924330059589, 51.062766641341646], [-4.068324302710062, 51.06384232594147]]]}}, {"type": "Feature", "properties": {"type": "postcode-cell", "postcode": "EX31 3UF", "postcodes": ["EX31 3UF"]}, "geometry": {"type": "Polygon", "coordinates": [[[-4.075453028076001, 51.0639051295372], [-4.073067278561512, 51.06467734618176], [-4.068324302710062, 51.06384232594147], [-4.067924330059589, 51.062766641341646], [-4.071629989948069, 51.06217999501097], [-4.074658695560535, 51.06219572538694], [-4.075453028076001, 51.0639051295372]]]}}, {"type": "Feature", "properties": {"type": "postcode-cell", "postcode": "EX31 2DU", "postcodes": ["EX31 2DU"]}, "geometry": {"type": "Polygon", "coordinates": [[[-4.073589779205784, 51.076648326314825], [-4.071717504606146, 51.0774999836901], [-4.071499738814705, 51.0743773505109], [-4.071656189364081, 51.074171189492674], [-4.074072712486967, 51.07481592005871], [-4.073589779205784, 51.076648326314825]]]}}, {"type": "Feature", "properties": {"type": "postcode-cell", "postcode": "EX31 2DP", "postcodes": ["EX31 2DP"]}, "geometry": {"type": "Polygon", "coordinates": [[[-4.071656189364081, 51.074171189492674], [-4.071499738814705, 51.0743773505109], [-4.069256478692616, 51.074373353057304], [-4.0687327924838455, 51.073467902856144], [-4.068748401669128, 51.07338786837231], [-4.070385586949309, 51.0730895191389], [-4.071258331958628, 51.07343748518401], [-4.071548467747463, 51.07374758384653], [-4.0716664189560055, 51.07414064278256], [-4.071656189364081, 51.074171189492674]]]}}, {"type": "Feature", "properties": {"type": "postcode-cell", "postcode": "EX31 2BT", "postcodes": ["EX31 2BT"]}, "geometry": {"type": "Polygon", "coordinates": [[[-4.073244422344663, 51.07393937592918], [-4.0716664189560055, 51.07414064278256], [-4.071548467747463, 51.07374758384653], [-4.073007612309511, 51.073231701818514], [-4.073244422344663, 51.07393937592918]]]}}, {"type": "Feature", "properties": {"type": "postcode-cell", "postcode": "EX31 2BQ", "postcodes": ["EX31 2BQ"]}, "geometry": {"type": "Polygon", "coordinates": [[[-4.070678837796747, 51.07164895184525], [-4.070385586949309, 51.0730895191389], [-4.068748401669128, 51.07338786837231], [-4.0675471846696905, 51.07249206523961], [-4.067242892693077, 51.07175641199111], [-4.067579045963757, 51.07124799702811], [-4.07023234142114, 51.07134070713708], [-4.070324674390809, 51.071371813465454], [-4.070541991785626, 51.07151760965867], [-4.070678837796747, 51.07164895184525]]]}}, {"type": "Feature", "properties": {"type": "postcode-cell", "postcode": "EX31 3AA", "postcodes": ["EX31 3AA"]}, "geometry": {"type": "Polygon", "coordinates": [[[-4.07320295475475, 51.07084915698814], [-4.070541991785626, 51.07151760965867], [-4.070324674390809, 51.071371813465454], [-4.072287737713626, 51.07030056462802], [-4.073082990337883, 51.0705011724908], [-4.07320295475475, 51.07084915698814]]]}}, {"type": "Feature", "properties": {"type": "postcode-cell", "postcode": "EX31 2BG", "postcodes": ["EX31 2BG"]}, "geometry": {"type": "Polygon", "coordinates": [[[-4.072642832261951, 51.072125968325985], [-4.072560805672041, 51.07237491449541], [-4.071258331958628, 51.07343748518401], [-4.070385586949309, 51.0730895191389], [-4.070678837796747, 51.07164895184525], [-4.072642832261951, 51.072125968325985]]]}}, {"type": "Feature", "properties": {"type": "postcode-cell", "postcode": "EX31 3AB", "postcodes": ["EX31 3AB"]}, "geometry": {"type": "Polygon", "coordinates": [[[-4.072287737713626, 51.07030056462802], [-4.070324674390809, 51.071371813465454], [-4.07023234142114, 51.07134070713708], [-4.070613874299187, 51.069755491570554], [-4.0716101669451605, 51.06958612605011], [-4.072287737713626, 51.07030056462802]]]}}, {"type": "Feature", "properties": {"type": "postcode-cell", "postcode": "EX31 3AD", "postcodes": ["EX31 3AD"]}, "geometry": {"type": "Polygon", "coordinates": [[[-4.07023234142114, 51.07134070713708], [-4.067579045963757, 51.07124799702811], [-4.067012290526137, 51.07021309901702], [-4.0698654114856865, 51.06948884138564], [-4.070613874299187, 51.069755491570554], [-4.07023234142114, 51.07134070713708]]]}}, {"type": "Feature", "properties": {"type": "postcode-cell", "postcode": "EX31 3AE", "postcodes": ["EX31 3AE"]}, "geometry": {"type": "Polygon", "coordinates": [[[-4.0698654114856865, 51.06948884138564], [-4.067012290526137, 51.07021309901702], [-4.066124390046391, 51.069549466456266], [-4.06693678128379, 51.0670833072049], [-4.068004794378864, 51.06655986609128], [-4.0698274970061155, 51.06828817679577], [-4.0698654114856865, 51.06948884138564]]]}}, {"type": "Feature", "properties": {"type": "postcode-cell", "postcode": "EX31 3AF", "postcodes": ["EX31 3AF"]}, "geometry": {"type": "Polygon", "coordinates": [[[-4.0698274970061155, 51.06828817679577], [-4.07225162293805, 51.06885478844034], [-4.0716101669451605, 51.06958612605011], [-4.070613874299187, 51.069755491570554], [-4.0698654114856865, 51.06948884138564], [-4.0698274970061155, 51.06828817679577]]]}}, {"type": "Feature", "properties": {"type": "postcode-cell", "postcode": "EX31 2AT", "postcodes": ["EX31 2AT"]}, "geometry": {"type": "Polygon", "coordinates": [[[-4.071717504606146, 51.0774999836901], [-4.071296467035674, 51.07769149623629], [-4.070442481101991, 51.07738415166674], [-4.070389989940486, 51.07731999502345], [-4.070432905308644, 51.07738070533536], [-4.06879173922504, 51.076790029736316], [-4.068174183752355, 51.07653030790712], [-4.069256478692616, 51.074373353057304], [-4.071499738814705, 51.0743773505109], [-4.071717504606146, 51.0774999836901]]]}}, {"type": "Feature", "properties": {"type": "postcode-cell", "postcode": "EX31 2BE", "postcodes": ["EX31 2BE"]}, "geometry": {"type": "Polygon", "coordinates": [[[-4.0687327924838455, 51.073467902856144], [-4.06628896083787, 51.07475702755053], [-4.065519106587323, 51.074174659071055], [-4.0675471846696905, 51.07249206523961], [-4.068748401669128, 51.07338786837231], [-4.0687327924838455, 51.073467902856144]]]}}, {"type": "Feature", "properties": {"type": "postcode-cell", "postcode": "EX31 3HN", "postcodes": ["EX31 3HN"]}, "geometry": {"type": "Polygon", "coordinates": [[[-4.0675471846696905, 51.07249206523961], [-4.065519106587323, 51.074174659071055], [-4.063797863639406, 51.07372879439484], [-4.06262187859323, 51.0727017200367], [-4.067242892693077, 51.07175641199111], [-4.0675471846696905, 51.07249206523961]]]}}, {"type": "Feature", "properties": {"type": "postcode-cell", "postcode": "EX31 2BS", "postcodes": ["EX31 2BS"]}, "geometry": {"type": "Polygon", "coordinates": [[[-4.069256478692616, 51.074373353057304], [-4.068174183752355, 51.07653030790712], [-4.067098037590695, 51.07634982349514], [-4.067048634031187, 51.07628955019871], [-4.066974171700119, 51.07617663661228], [-4.06628896083787, 51.07475702755053], [-4.0687327924838455, 51.073467902856144], [-4.069256478692616, 51.074373353057304]]]}}, {"type": "Feature", "properties": {"type": "postcode-cell", "postcode": "EX31 2FA", "postcodes": ["EX31 2FA"]}, "geometry": {"type": "Polygon", "coordinates": [[[-4.06879173922504, 51.076790029736316], [-4.065607575975353, 51.079211251451156], [-4.0646658407481, 51.07894690144837], [-4.064711104643047, 51.07877722366478], [-4.066100821235082, 51.0767181276264], [-4.067098037590695, 51.07634982349514], [-4.068174183752355, 51.07653030790712], [-4.06879173922504, 51.076790029736316]]]}}, {"type": "Feature", "properties": {"type": "postcode-cell", "postcode": "EX31 3HS", "postcodes": ["EX31 3HS"]}, "geometry": {"type": "Polygon", "coordinates": [[[-4.067579045963757, 51.07124799702811], [-4.067242892693077, 51.07175641199111], [-4.06262187859323, 51.0727017200367], [-4.062137553130858, 51.072551140276026], [-4.060502129924323, 51.07037527746016], [-4.066124390046391, 51.069549466456266], [-4.067012290526137, 51.07021309901702], [-4.067579045963757, 51.07124799702811]]]}}, {"type": "Feature", "properties": {"type": "postcode-cell", "postcode": "EX31 2BD", "postcodes": ["EX31 2BD"]}, "geometry": {"type": "Polygon", "coordinates": [[[-4.066974171700119, 51.07617663661228], [-4.063446828094046, 51.074959769648004], [-4.063329663603164, 51.07486516775149], [-4.063797863639406, 51.07372879439484], [-4.065519106587323, 51.074174659071055], [-4.06628896083787, 51.07475702755053], [-4.066974171700119, 51.07617663661228]]]}}, {"type": "Feature", "properties": {"type": "postcode-cell", "postcode": "EX31 2FE", "postcodes": ["EX31 2FE"]}, "geometry": {"type": "Polygon", "coordinates": [[[-4.0628395310741166, 51.07714754007268], [-4.064711104643047, 51.07877722366478], [-4.0646658407481, 51.07894690144837], [-4.064569989935815, 51.07891999502477], [-4.0614618989013325, 51.07741169431754], [-4.0628395310741166, 51.07714754007268]]]}}, {"type": "Feature", "properties": {"type": "postcode-cell", "postcode": "EX31 2BA", "postcodes": ["EX31 2BA"]}, "geometry": {"type": "Polygon", "coordinates": [[[-4.067098037590695, 51.07634982349514], [-4.066100821235082, 51.0767181276264], [-4.064611442039534, 51.07671874795213], [-4.063611881052376, 51.07587700716136], [-4.063792798315979, 51.07551182765083], [-4.067048634031187, 51.07628955019871], [-4.067098037590695, 51.07634982349514]]]}}, {"type": "Feature", "properties": {"type": "postcode-cell", "postcode": "EX31 2AY", "postcodes": ["EX31 2AY"]}, "geometry": {"type": "Polygon", "coordinates": [[[-4.063446828094046, 51.074959769648004], [-4.063792798315979, 51.07551182765083], [-4.063611881052376, 51.07587700716136], [-4.062652218797304, 51.07577336830658], [-4.062191791638173, 51.07549928098225], [-4.063329663603164, 51.07486516775149], [-4.063446828094046, 51.074959769648004]]]}}, {"type": "Feature", "properties": {"type": "postcode-cell", "postcode": "EX31 3HT", "postcodes": ["EX31 3HT"]}, "geometry": {"type": "Polygon", "coordinates": [[[-4.066124390046391, 51.069549466456266], [-4.060502129924323, 51.07037527746016], [-4.057133026261736, 51.068933210390576], [-4.057199989935465, 51.068459995016205], [-4.056739989935558, 51.067549995015455], [-4.055270334076912, 51.0661985199803], [-4.06693678128379, 51.0670833072049], [-4.066124390046391, 51.069549466456266]]]}}, {"type": "Feature", "properties": {"type": "postcode-cell", "postcode": "EX31 2BB", "postcodes": ["EX31 2BB"]}, "geometry": {"type": "Polygon", "coordinates": [[[-4.067048634031187, 51.07628955019871], [-4.063792798315979, 51.07551182765083], [-4.063446828094046, 51.074959769648004], [-4.066974171700119, 51.07617663661228], [-4.067048634031187, 51.07628955019871]]]}}, {"type": "Feature", "properties": {"type": "postcode-cell", "postcode": "EX31 2AU", "postcodes": ["EX31 2AU"]}, "geometry": {"type": "Polygon", "coordinates": [[[-4.063797863639406, 51.07372879439484], [-4.063329663603164, 51.07486516775149], [-4.062191791638173, 51.07549928098225], [-4.061840163397482, 51.07552744301961], [-4.060612319045038, 51.074325001021286], [-4.061011675461047, 51.073450770066124], [-4.062137553130858, 51.072551140276026], [-4.06262187859323, 51.0727017200367], [-4.063797863639406, 51.07372879439484]]]}}, {"type": "Feature", "properties": {"type": "postcode-cell", "postcode": "EX31 2AS", "postcodes": ["EX31 2AS"]}, "geometry": {"type": "Polygon", "coordinates": [[[-4.060502129924323, 51.07037527746016], [-4.062137553130858, 51.072551140276026], [-4.061011675461047, 51.073450770066124], [-4.055981907587766, 51.073801104347865], [-4.055739989932398, 51.07311999502005], [-4.054799989932302, 51.07189999501905], [-4.057049989934892, 51.069519995017075], [-4.057133026261736, 51.068933210390576], [-4.060502129924323, 51.07037527746016]]]}}, {"type": "Feature", "properties": {"type": "postcode-cell", "postcode": "EX31 2BN", "postcodes": ["EX31 2BN"]}, "geometry": {"type": "Polygon", "coordinates": [[[-4.064711104643047, 51.07877722366478], [-4.0628395310741166, 51.07714754007268], [-4.063311182987746, 51.07694592655047], [-4.064611442039534, 51.07671874795213], [-4.066100821235082, 51.0767181276264], [-4.064711104643047, 51.07877722366478]]]}}, {"type": "Feature", "properties": {"type": "postcode-cell", "postcode": "EX31 2AX", "postcodes": ["EX31 2AX"]}, "geometry": {"type": "Polygon", "coordinates": [[[-4.0628395310741166, 51.07714754007268], [-4.0614618989013325, 51.07741169431754], [-4.0603821648708545, 51.07688767596623], [-4.060455763836162, 51.07670252015493], [-4.061840163397482, 51.07552744301961], [-4.062191791638173, 51.07549928098225], [-4.062652218797304, 51.07577336830658], [-4.063311182987746, 51.07694592655047], [-4.0628395310741166, 51.07714754007268]]]}}, {"type": "Feature", "properties": {"type": "postcode-cell", "postcode": "EX31 2AZ", "postcodes": ["EX31 2AZ"]}, "geometry": {"type": "Polygon", "coordinates": [[[-4.064611442039534, 51.07671874795213], [-4.063311182987746, 51.07694592655047], [-4.062652218797304, 51.07577336830658], [-4.063611881052376, 51.07587700716136], [-4.064611442039534, 51.07671874795213]]]}}, {"type": "Feature", "properties": {"type": "postcode-cell", "postcode": "EX31 2BP", "postcodes": ["EX31 2BP"]}, "geometry": {"type": "Polygon", "coordinates": [[[-4.059427310650824, 51.074928079122415], [-4.060612319045038, 51.074325001021286], [-4.061840163397482, 51.07552744301961], [-4.060455763836162, 51.07670252015493], [-4.059427310650824, 51.074928079122415]]]}}, {"type": "Feature", "properties": {"type": "postcode-cell", "postcode": "EX31 2AP", "postcodes": ["EX31 2AP"]}, "geometry": {"type": "Polygon", "coordinates": [[[-4.059427310650824, 51.074928079122415], [-4.060455763836162, 51.07670252015493], [-4.0603821648708545, 51.07688767596623], [-4.056409102626682, 51.07495927246481], [-4.059427310650824, 51.074928079122415]]]}}, {"type": "Feature", "properties": {"type": "postcode-cell", "postcode": "EX31 2AG", "postcodes": ["EX31 2AG"]}, "geometry": {"type": "Polygon", "coordinates": [[[-4.060612319045038, 51.074325001021286], [-4.059427310650824, 51.074928079122415], [-4.056409102626682, 51.07495927246481], [-4.056389989932025, 51.07494999502155], [-4.055981907587766, 51.073801104347865], [-4.061011675461047, 51.073450770066124], [-4.060612319045038, 51.074325001021286]]]}}]}