{"type": "FeatureCollection", "features": [{"type": "Feature", "properties": {"type": "ward-outline", "name": "South Tawton"}, "geometry": {"type": "Polygon", "coordinates": [[[-3.8535, 50.78179], [-3.85387, 50.77797], [-3.85618, 50.77488], [-3.85467, 50.77311], [-3.85501, 50.77205], [-3.85772, 50.76928], [-3.86003, 50.76726], [-3.86201, 50.76669], [-3.86357, 50.76664], [-3.86821, 50.76377], [-3.86925, 50.76344], [-3.8739, 50.75952], [-3.87521, 50.75891], [-3.87628, 50.75881], [-3.87709, 50.75909], [-3.88007, 50.75712], [-3.87266, 50.74878], [-3.86948, 50.74684], [-3.86538, 50.74716], [-3.86375, 50.74757], [-3.86271, 50.74835], [-3.86264, 50.74903], [-3.86178, 50.74924], [-3.86097, 50.75009], [-3.86113, 50.75091], [-3.8607, 50.75134], [-3.86119, 50.75142], [-3.8614, 50.75251], [-3.86027, 50.75254], [-3.85967, 50.7504], [-3.85681, 50.74496], [-3.85845, 50.73987], [-3.86181, 50.73644], [-3.8624, 50.73225], [-3.86104, 50.72995], [-3.85611, 50.72582], [-3.8562, 50.72501], [-3.85806, 50.72436], [-3.86228, 50.72389], [-3.86955, 50.72482], [-3.87263, 50.72478], [-3.87432, 50.72344], [-3.8743, 50.72172], [-3.87661, 50.72212], [-3.87991, 50.72219], [-3.88129, 50.72], [-3.87586, 50.71913], [-3.87297, 50.71822], [-3.86373, 50.71711], [-3.85588, 50.71531], [-3.85633, 50.71443], [-3.85566, 50.71253], [-3.85635, 50.70981], [-3.85636, 50.70695], [-3.85775, 50.70572], [-3.85795, 50.70505], [-3.85787, 50.70356], [-3.85696, 50.70199], [-3.85704, 50.70097], [-3.85599, 50.6993], [-3.85623, 50.69802], [-3.85565, 50.69718], [-3.85748, 50.69697], [-3.86116, 50.69569], [-3.86461, 50.6941], [-3.86719, 50.69244], [-3.8688, 50.69413], [-3.86872, 50.69479], [-3.8706, 50.6978], [-3.87052, 50.69833], [-3.87243, 50.70015], [-3.87352, 50.69976], [-3.87466, 50.70111], [-3.87573, 50.70162], [-3.87595, 50.70239], [-3.87664, 50.70292], [-3.87734, 50.70291], [-3.87913, 50.70414], [-3.88472, 50.70592], [-3.88684, 50.70603], [-3.88935, 50.708], [-3.8937, 50.70994], [-3.89355, 50.71051], [-3.89545, 50.71133], [-3.89596, 50.71096], [-3.89589, 50.71036], [-3.89749, 50.71035], [-3.89772, 50.71011], [-3.89826, 50.71029], [-3.89953, 50.70976], [-3.9001, 50.70988], [-3.90305, 50.70742], [-3.90318, 50.70694], [-3.904, 50.70639], [-3.90575, 50.70614], [-3.90596, 50.7055], [-3.90805, 50.70484], [-3.91024, 50.70483], [-3.91071, 50.70505], [-3.912, 50.70471], [-3.91457, 50.70227], [-3.91638, 50.70136], [-3.91687, 50.70036], [-3.91661, 50.69852], [-3.91914, 50.69435], [-3.91988, 50.6945], [-3.92232, 50.69405], [-3.92328, 50.6944], [-3.9255, 50.69411], [-3.93019, 50.68912], [-3.93587, 50.68881], [-3.94803, 50.69321], [-3.95865, 50.70153], [-3.96655, 50.70649], [-3.97522, 50.71116], [-3.97688, 50.71342], [-3.97633, 50.71615], [-3.97363, 50.71785], [-3.97282, 50.71914], [-3.97338, 50.71997], [-3.97265, 50.72108], [-3.97387, 50.72424], [-3.9737, 50.72569], [-3.97413, 50.7259], [-3.97387, 50.72682], [-3.97438, 50.7284], [-3.97391, 50.72946], [-3.97476, 50.73071], [-3.97621, 50.73178], [-3.97641, 50.73296], [-3.97782, 50.73396], [-3.98238, 50.73603], [-3.98086, 50.73604], [-3.97802, 50.73756], [-3.97408, 50.73913], [-3.97018, 50.74005], [-3.96713, 50.74012], [-3.96706, 50.74042], [-3.95893, 50.73885], [-3.95893, 50.73967], [-3.95397, 50.73869], [-3.95019, 50.73832], [-3.94597, 50.73862], [-3.93578, 50.74059], [-3.93088, 50.74113], [-3.92484, 50.7411], [-3.91655, 50.73974], [-3.91615, 50.74005], [-3.91616, 50.74095], [-3.91509, 50.74206], [-3.91468, 50.74326], [-3.91515, 50.74477], [-3.91303, 50.74606], [-3.91411, 50.74641], [-3.91452, 50.74689], [-3.91347, 50.74832], [-3.91257, 50.74879], [-3.91287, 50.74946], [-3.91413, 50.75026], [-3.91388, 50.75057], [-3.91274, 50.75054], [-3.91184, 50.751], [-3.91249, 50.75148], [-3.91166, 50.75189], [-3.91124, 50.75311], [-3.91152, 50.75383], [-3.91047, 50.75425], [-3.90941, 50.75564], [-3.91076, 50.75633], [-3.91078, 50.75833], [-3.91183, 50.75935], [-3.91139, 50.76016], [-3.91199, 50.76059], [-3.91116, 50.76088], [-3.91202, 50.7629], [-3.91119, 50.76319], [-3.91098, 50.76386], [-3.90982, 50.76432], [-3.91052, 50.76459], [-3.91069, 50.76516], [-3.91172, 50.76554], [-3.91179, 50.76621], [-3.91121, 50.76648], [-3.91175, 50.76726], [-3.9112, 50.77073], [-3.91275, 50.7716], [-3.91223, 50.77242], [-3.91146, 50.77237], [-3.91143, 50.77397], [-3.90998, 50.77418], [-3.91053, 50.77462], [-3.90993, 50.77472], [-3.90998, 50.77524], [-3.91125, 50.77567], [-3.91068, 50.77627], [-3.91137, 50.7764], [-3.91149, 50.77686], [-3.90967, 50.77709], [-3.9099, 50.77786], [-3.90952, 50.77851], [-3.90866, 50.77858], [-3.90815, 50.77826], [-3.90776, 50.77891], [-3.90813, 50.77929], [-3.90666, 50.7796], [-3.90723, 50.77987], [-3.90838, 50.77978], [-3.90816, 50.78012], [-3.90746, 50.78045], [-3.90474, 50.78065], [-3.90488, 50.78178], [-3.90359, 50.78133], [-3.89688, 50.78092], [-3.89471, 50.77995], [-3.897, 50.7771], [-3.89943, 50.77645], [-3.90004, 50.77602], [-3.89763, 50.77495], [-3.89625, 50.77511], [-3.8922, 50.77724], [-3.89065, 50.7775], [-3.88968, 50.77815], [-3.88772, 50.77877], [-3.88998, 50.7799], [-3.89197, 50.78151], [-3.89276, 50.78325], [-3.88198, 50.78263], [-3.8535, 50.78179]]]}}, {"type": "Feature", "properties": {"type": "postcode-cell", "postcode": "EX20 1QU", "postcodes": ["EX20 1QU"]}, "geometry": {"type": "Polygon", "coordinates": [[[-3.96228501030148, 50.73103694707372], [-3.974264483931765, 50.72804216227611], [-3.97437999003347, 50.72839999474103], [-3.9739099900326758, 50.729459994741894], [-3.9747599900326676, 50.73070999474286], [-3.976209990033136, 50.731779994743725], [-3.97640999003273, 50.732959994744654], [-3.977819990033203, 50.73395999474544], [-3.982379990035276, 50.736029994747014], [-3.980859990034264, 50.73603999474704], [-3.9780199900316906, 50.7375599947483], [-3.9740799900283674, 50.739129994749625], [-3.97017999002537, 50.7400499947504], [-3.967129990023321, 50.74011999475048], [-3.9670599900231363, 50.740419994750724], [-3.9662680140069244, 50.74026708444384], [-3.96228501030148, 50.73103694707372]]]}}, {"type": "Feature", "properties": {"type": "postcode-cell", "postcode": "EX20 1QX", "postcodes": ["EX20 1QX"]}, "geometry": {"type": "Polygon", "coordinates": [[[-3.9662680140069244, 50.74026708444384], [-3.958929990018483, 50.73884999474958], [-3.9589299900021153, 50.7395979853041], [-3.952254571535831, 50.73225610265347], [-3.952858555065315, 50.73179480918241], [-3.9587504256370982, 50.73027083056284], [-3.96228501030148, 50.73103694707372], [-3.9662680140069244, 50.74026708444384]]]}}, {"type": "Feature", "properties": {"type": "postcode-cell", "postcode": "EX20 1QY", "postcodes": ["EX20 1QY"]}, "geometry": {"type": "Polygon", "coordinates": [[[-3.96228501030148, 50.73103694707372], [-3.9587504256370982, 50.73027083056284], [-3.959591174152362, 50.72716474166984], [-3.9628306876883648, 50.72371795306127], [-3.9730776770702807, 50.719521927811876], [-3.9733799900366638, 50.71996999473432], [-3.9726499900356753, 50.72107999473522], [-3.973869990035036, 50.72423999473773], [-3.973699990034262, 50.7256899947389], [-3.9741299900344504, 50.72589999473904], [-3.973869990033855, 50.72681999473977], [-3.974264483931765, 50.72804216227611], [-3.96228501030148, 50.73103694707372]]]}}, {"type": "Feature", "properties": {"type": "postcode-cell", "postcode": "EX20 1RA", "postcodes": ["EX20 1RA"]}, "geometry": {"type": "Polygon", "coordinates": [[[-3.959591174152362, 50.72716474166984], [-3.9513075555820736, 50.724750723100456], [-3.9503418635047445, 50.72328899874882], [-3.9628306876883648, 50.72371795306127], [-3.959591174152362, 50.72716474166984]]]}}, {"type": "Feature", "properties": {"type": "postcode-cell", "postcode": "EX20 1QL", "postcodes": ["EX20 1QL"]}, "geometry": {"type": "Polygon", "coordinates": [[[-3.942696341947539, 50.73811740358627], [-3.94961294308317, 50.732534962983415], [-3.952254571535831, 50.73225610265347], [-3.9589299900021153, 50.7395979853041], [-3.958929990018108, 50.73966999475024], [-3.9539699900152803, 50.73868999474952], [-3.9501899900129547, 50.73831999474927], [-3.9459699900100302, 50.73861999474956], [-3.9422771279516695, 50.73933404541799], [-3.942696341947539, 50.73811740358627]]]}}, {"type": "Feature", "properties": {"type": "postcode-cell", "postcode": "EX20 1QZ", "postcodes": ["EX20 1QZ"]}, "geometry": {"type": "Polygon", "coordinates": [[[-3.9628306876883648, 50.72371795306127], [-3.9503418635047445, 50.72328899874882], [-3.9377595294016268, 50.71567556157402], [-3.937287900139613, 50.70895335781619], [-3.937950751426367, 50.70338324801279], [-3.9449559584301, 50.692097880163445], [-3.948029990032212, 50.69320999471334], [-3.958649990035389, 50.70152999471983], [-3.9665499900383243, 50.706489994723675], [-3.9752199900419085, 50.71115999472727], [-3.976879990041972, 50.71341999472906], [-3.9763299900403593, 50.71614999473124], [-3.973629990037799, 50.71784999473264], [-3.9728199900366725, 50.71913999473366], [-3.9730776770702807, 50.719521927811876], [-3.9628306876883648, 50.72371795306127]]]}}, {"type": "Feature", "properties": {"type": "postcode-cell", "postcode": "EX20 2PY", "postcodes": ["EX20 2PY"]}, "geometry": {"type": "Polygon", "coordinates": [[[-3.937287900139613, 50.70895335781619], [-3.9196238613348653, 50.719598847244065], [-3.9155048500769154, 50.7207740470441], [-3.9138628593472897, 50.720729419615], [-3.911963041924603, 50.720551738466064], [-3.9095441481886675, 50.718378737931204], [-3.9102670696712423, 50.71704684085392], [-3.934437117556497, 50.704698122529116], [-3.937950751426367, 50.70338324801279], [-3.937287900139613, 50.70895335781619]]]}}, {"type": "Feature", "properties": {"type": "postcode-cell", "postcode": "EX20 1RD", "postcodes": ["EX20 1RD"]}, "geometry": {"type": "Polygon", "coordinates": [[[-3.9513075555820736, 50.724750723100456], [-3.952858555065315, 50.73179480918241], [-3.952254571535831, 50.73225610265347], [-3.94961294308317, 50.732534962983415], [-3.938623697430843, 50.72734375507187], [-3.9363997884672113, 50.72063576680024], [-3.9369387426366114, 50.71761101079634], [-3.9377595294016268, 50.71567556157402], [-3.9503418635047445, 50.72328899874882], [-3.9513075555820736, 50.724750723100456]]]}}, {"type": "Feature", "properties": {"type": "postcode-cell", "postcode": "EX20 1RB", "postcodes": ["EX20 1RB"]}, "geometry": {"type": "Polygon", "coordinates": [[[-3.9587504256370982, 50.73027083056284], [-3.952858555065315, 50.73179480918241], [-3.9513075555820736, 50.724750723100456], [-3.959591174152362, 50.72716474166984], [-3.9587504256370982, 50.73027083056284]]]}}, {"type": "Feature", "properties": {"type": "postcode-cell", "postcode": "EX20 2SD", "postcodes": ["EX20 2SD"]}, "geometry": {"type": "MultiPolygon", "coordinates": [[[[-3.9075092873469766, 50.77984813779958], [-3.908379989966377, 50.779779994782956], [-3.9081749213107093, 50.78009691923474], [-3.9075092873469766, 50.77984813779958]]], [[[-3.8988406692623805, 50.776607638278854], [-3.8994299899620075, 50.77644999478037], [-3.9000399899626084, 50.77601999478006], [-3.897629989961509, 50.77494999477923], [-3.896665837768478, 50.77506178236998], [-3.8965298666728736, 50.774478745158284], [-3.9084088074249954, 50.76358350308628], [-3.9105465697039032, 50.76403187071647], [-3.909819989974417, 50.76431999477056], [-3.910519989974757, 50.76458999477079], [-3.9106899899746064, 50.765159994771224], [-3.9117199899751105, 50.76553999477153], [-3.911789989974848, 50.766209994772055], [-3.911209989974343, 50.76647999477227], [-3.9117499899743415, 50.7672599947729], [-3.911199989972388, 50.77072999477568], [-3.9127499899730087, 50.771599994776345], [-3.9122299899722894, 50.77241999477701], [-3.911459989971806, 50.772369994777], [-3.9114299899710527, 50.773969994778255], [-3.9099799899700005, 50.77417999477845], [-3.9105299899701618, 50.774619994778796], [-3.9099299899697217, 50.774719994778884], [-3.9099799899695147, 50.77523999477929], [-3.911249989970155, 50.77566999477961], [-3.9106799899695033, 50.776269994780115], [-3.9113699899698986, 50.77639999478022], [-3.9114899899697666, 50.77685999478058], [-3.9096699899684624, 50.77708999478078], [-3.909899989968261, 50.777859994781394], [-3.909519989967713, 50.77850999478193], [-3.9086599899671124, 50.77857999478197], [-3.9081499899669216, 50.77825999478175], [-3.907759989966368, 50.778909994782275], [-3.908129989966439, 50.77928999478256], [-3.906778510228495, 50.77957500154879], [-3.8988406692623805, 50.776607638278854]]]]}}, {"type": "Feature", "properties": {"type": "postcode-cell", "postcode": "EX20 1RE", "postcodes": ["EX20 1RE"]}, "geometry": {"type": "Polygon", "coordinates": [[[-3.94961294308317, 50.732534962983415], [-3.942696341947539, 50.73811740358627], [-3.9371619554087, 50.73247291357107], [-3.937785056778651, 50.72868396892562], [-3.938623697430843, 50.72734375507187], [-3.94961294308317, 50.732534962983415]]]}}, {"type": "Feature", "properties": {"type": "postcode-cell", "postcode": "EX20 2NH", "postcodes": ["EX20 2NH"]}, "geometry": {"type": "Polygon", "coordinates": [[[-3.937785056778651, 50.72868396892562], [-3.931495111320714, 50.73114930508138], [-3.930749551495227, 50.73109261074961], [-3.9276099807731506, 50.727838684385546], [-3.9274343681611095, 50.7271394182692], [-3.9363997884672113, 50.72063576680024], [-3.938623697430843, 50.72734375507187], [-3.937785056778651, 50.72868396892562]]]}}, {"type": "Feature", "properties": {"type": "postcode-cell", "postcode": "EX20 2JJ", "postcodes": ["EX20 2JJ"]}, "geometry": {"type": "Polygon", "coordinates": [[[-3.9422771279516695, 50.73933404541799], [-3.9357799900024073, 50.74058999475127], [-3.930879989998933, 50.74112999475178], [-3.9273895224004893, 50.74111269617429], [-3.9299474876567406, 50.735863610771865], [-3.9371619554087, 50.73247291357107], [-3.942696341947539, 50.73811740358627], [-3.9422771279516695, 50.73933404541799]]]}}, {"type": "Feature", "properties": {"type": "postcode-cell", "postcode": "EX20 2NF", "postcodes": ["EX20 2NF"]}, "geometry": {"type": "Polygon", "coordinates": [[[-3.9371619554087, 50.73247291357107], [-3.9299474876567406, 50.735863610771865], [-3.929807363013949, 50.73544906046854], [-3.931495111320714, 50.73114930508138], [-3.937785056778651, 50.72868396892562], [-3.9371619554087, 50.73247291357107]]]}}, {"type": "Feature", "properties": {"type": "postcode-cell", "postcode": "EX20 2LS", "postcodes": ["EX20 2LS"]}, "geometry": {"type": "Polygon", "coordinates": [[[-3.903944364819541, 50.74981338985888], [-3.9001007759200688, 50.74865037529467], [-3.9114944619386742, 50.74198365093], [-3.915746777162479, 50.7412850703285], [-3.91583590926457, 50.74128619713706], [-3.9150899899881053, 50.74205999475271], [-3.914679989987285, 50.743259994753686], [-3.9151499899869013, 50.74476999475487], [-3.913029989984914, 50.74605999475593], [-3.9141099899854637, 50.74640999475621], [-3.914519989985513, 50.746889994756586], [-3.914268292510841, 50.747232791401004], [-3.903944364819541, 50.74981338985888]]]}}, {"type": "Feature", "properties": {"type": "postcode-cell", "postcode": "EX20 2NG", "postcodes": ["EX20 2NG"]}, "geometry": {"type": "Polygon", "coordinates": [[[-3.9299474876567406, 50.735863610771865], [-3.9273895224004893, 50.74111269617429], [-3.924839989994967, 50.74109999475181], [-3.919639773654079, 50.74024696176584], [-3.9181822394713812, 50.734119863249084], [-3.9181804585163253, 50.73370111093395], [-3.9228951197460034, 50.73256176868934], [-3.9268908313799558, 50.732324316907615], [-3.9274945047435903, 50.73250076531243], [-3.929807363013949, 50.73544906046854], [-3.9299474876567406, 50.735863610771865]]]}}, {"type": "Feature", "properties": {"type": "postcode-cell", "postcode": "EX20 2NJ", "postcodes": ["EX20 2NJ"]}, "geometry": {"type": "Polygon", "coordinates": [[[-3.929807363013949, 50.73544906046854], [-3.9274945047435903, 50.73250076531243], [-3.9283172689302055, 50.73165403964611], [-3.9302920664796632, 50.731110868946644], [-3.930749551495227, 50.73109261074961], [-3.931495111320714, 50.73114930508138], [-3.929807363013949, 50.73544906046854]]]}}, {"type": "Feature", "properties": {"type": "postcode-cell", "postcode": "EX20 2NS", "postcodes": ["EX20 2NS"]}, "geometry": {"type": "Polygon", "coordinates": [[[-3.9260224161924886, 50.72760819324896], [-3.925826133493937, 50.72764513675941], [-3.921279105505812, 50.72768493437086], [-3.919949575287783, 50.72604477986284], [-3.9214814176297716, 50.72404500328158], [-3.9369387426366114, 50.71761101079634], [-3.9363997884672113, 50.72063576680024], [-3.9274343681611095, 50.7271394182692], [-3.9260224161924886, 50.72760819324896]]]}}, {"type": "Feature", "properties": {"type": "postcode-cell", "postcode": "EX20 2NW", "postcodes": ["EX20 2NW"]}, "geometry": {"type": "Polygon", "coordinates": [[[-3.9274343681611095, 50.7271394182692], [-3.9276099807731506, 50.727838684385546], [-3.9278646847691854, 50.72970658878154], [-3.9277822253922667, 50.73000772414307], [-3.926140991101885, 50.731142894685895], [-3.9253626623687903, 50.730804908063575], [-3.9260224161924886, 50.72760819324896], [-3.9274343681611095, 50.7271394182692]]]}}, {"type": "Feature", "properties": {"type": "postcode-cell", "postcode": "EX20 2NQ", "postcodes": ["EX20 2NQ"]}, "geometry": {"type": "Polygon", "coordinates": [[[-3.9274945047435903, 50.73250076531243], [-3.9268908313799558, 50.732324316907615], [-3.926140991101885, 50.731142894685895], [-3.9277822253922667, 50.73000772414307], [-3.9283172689302055, 50.73165403964611], [-3.9274945047435903, 50.73250076531243]]]}}, {"type": "Feature", "properties": {"type": "postcode-cell", "postcode": "EX20 2NE", "postcodes": ["EX20 2NE"]}, "geometry": {"type": "Polygon", "coordinates": [[[-3.9276099807731506, 50.727838684385546], [-3.930749551495227, 50.73109261074961], [-3.9302920664796632, 50.731110868946644], [-3.9278646847691854, 50.72970658878154], [-3.9276099807731506, 50.727838684385546]]]}}, {"type": "Feature", "properties": {"type": "postcode-cell", "postcode": "EX20 2NL", "postcodes": ["EX20 2NL"]}, "geometry": {"type": "Polygon", "coordinates": [[[-3.9278646847691854, 50.72970658878154], [-3.9302920664796632, 50.731110868946644], [-3.9283172689302055, 50.73165403964611], [-3.9277822253922667, 50.73000772414307], [-3.9278646847691854, 50.72970658878154]]]}}, {"type": "Feature", "properties": {"type": "postcode-cell", "postcode": "EX20 2LP", "postcodes": ["EX20 2LP"]}, "geometry": {"type": "Polygon", "coordinates": [[[-3.919639773654079, 50.74024696176584], [-3.9165499899901324, 50.73973999475085], [-3.9161499899897283, 50.7400499947511], [-3.916159989989318, 50.740949994751816], [-3.91583590926457, 50.74128619713706], [-3.915746777162479, 50.7412850703285], [-3.9118558496787217, 50.73845152484622], [-3.9099042586415544, 50.7346735773122], [-3.910792096138129, 50.73405736328278], [-3.9181822394713812, 50.734119863249084], [-3.919639773654079, 50.74024696176584]]]}}, {"type": "Feature", "properties": {"type": "postcode-cell", "postcode": "EX20 2FG", "postcodes": ["EX20 2FG"]}, "geometry": {"type": "Polygon", "coordinates": [[[-3.9268908313799558, 50.732324316907615], [-3.9228951197460034, 50.73256176868934], [-3.9249758646229793, 50.73088694725479], [-3.9253626623687903, 50.730804908063575], [-3.926140991101885, 50.731142894685895], [-3.9268908313799558, 50.732324316907615]]]}}, {"type": "Feature", "properties": {"type": "postcode-cell", "postcode": "EX20 2NR", "postcodes": ["EX20 2NR"]}, "geometry": {"type": "Polygon", "coordinates": [[[-3.919736217389166, 50.72887498815426], [-3.921279105505812, 50.72768493437086], [-3.925826133493937, 50.72764513675941], [-3.923308420453653, 50.7301927652698], [-3.918415665544343, 50.732251236791996], [-3.9187786923691568, 50.730679857879565], [-3.919736217389166, 50.72887498815426]]]}}, {"type": "Feature", "properties": {"type": "postcode-cell", "postcode": "EX20 2JN", "postcodes": ["EX20 2JN"]}, "geometry": {"type": "Polygon", "coordinates": [[[-3.9187786923691568, 50.730679857879565], [-3.9162463400548018, 50.72856717860705], [-3.9165241673158997, 50.7274468900664], [-3.916721909363241, 50.72735737142548], [-3.919736217389166, 50.72887498815426], [-3.9187786923691568, 50.730679857879565]]]}}, {"type": "Feature", "properties": {"type": "postcode-cell", "postcode": "EX20 2NB", "postcodes": ["EX20 2NB"]}, "geometry": {"type": "Polygon", "coordinates": [[[-3.9228951197460034, 50.73256176868934], [-3.9181804585163253, 50.73370111093395], [-3.91790182817255, 50.73310809057116], [-3.918415665544343, 50.732251236791996], [-3.923308420453653, 50.7301927652698], [-3.9249758646229793, 50.73088694725479], [-3.9228951197460034, 50.73256176868934]]]}}, {"type": "Feature", "properties": {"type": "postcode-cell", "postcode": "EX20 2NP", "postcodes": ["EX20 2NP"]}, "geometry": {"type": "Polygon", "coordinates": [[[-3.925826133493937, 50.72764513675941], [-3.9260224161924886, 50.72760819324896], [-3.9253626623687903, 50.730804908063575], [-3.9249758646229793, 50.73088694725479], [-3.923308420453653, 50.7301927652698], [-3.925826133493937, 50.72764513675941]]]}}, {"type": "Feature", "properties": {"type": "postcode-cell", "postcode": "EX20 2JL", "postcodes": ["EX20 2JL"]}, "geometry": {"type": "Polygon", "coordinates": [[[-3.919736217389166, 50.72887498815426], [-3.916721909363241, 50.72735737142548], [-3.9170787070270134, 50.72584508103805], [-3.919949575287783, 50.72604477986284], [-3.921279105505812, 50.72768493437086], [-3.919736217389166, 50.72887498815426]]]}}, {"type": "Feature", "properties": {"type": "postcode-cell", "postcode": "EX20 2NT", "postcodes": ["EX20 2NT"]}, "geometry": {"type": "Polygon", "coordinates": [[[-3.919949575287783, 50.72604477986284], [-3.9170787070270134, 50.72584508103805], [-3.9165108570174656, 50.72552191915707], [-3.9173634415280536, 50.72354196785731], [-3.9174610102189216, 50.72348285663703], [-3.9214814176297716, 50.72404500328158], [-3.919949575287783, 50.72604477986284]]]}}, {"type": "Feature", "properties": {"type": "postcode-cell", "postcode": "EX20 2PS", "postcodes": ["EX20 2PS"]}, "geometry": {"type": "Polygon", "coordinates": [[[-3.9369387426366114, 50.71761101079634], [-3.9214814176297716, 50.72404500328158], [-3.9174610102189216, 50.72348285663703], [-3.9174930297777624, 50.72278671867741], [-3.9196238613348653, 50.719598847244065], [-3.937287900139613, 50.70895335781619], [-3.9377595294016268, 50.71567556157402], [-3.9369387426366114, 50.71761101079634]]]}}, {"type": "Feature", "properties": {"type": "postcode-cell", "postcode": "EX20 2FH", "postcodes": ["EX20 2FH"]}, "geometry": {"type": "Polygon", "coordinates": [[[-3.918415665544343, 50.732251236791996], [-3.91790182817255, 50.73310809057116], [-3.914315957478422, 50.73156873570901], [-3.9105517009904234, 50.72952722012734], [-3.91221488400461, 50.72862610265877], [-3.9130409350533406, 50.728352245912276], [-3.9162463400548018, 50.72856717860705], [-3.9187786923691568, 50.730679857879565], [-3.918415665544343, 50.732251236791996]]]}}, {"type": "Feature", "properties": {"type": "postcode-cell", "postcode": "EX20 2NU", "postcodes": ["EX20 2NU"]}, "geometry": {"type": "Polygon", "coordinates": [[[-3.9174610102189216, 50.72348285663703], [-3.9173634415280536, 50.72354196785731], [-3.915746121293985, 50.72339664687908], [-3.9144838956449433, 50.72267246985398], [-3.914477264120986, 50.72265780912637], [-3.914583777972901, 50.72256930462119], [-3.915374138785445, 50.72210892992019], [-3.9174930297777624, 50.72278671867741], [-3.9174610102189216, 50.72348285663703]]]}}, {"type": "Feature", "properties": {"type": "postcode-cell", "postcode": "EX20 2JP", "postcodes": ["EX20 2JP"]}, "geometry": {"type": "Polygon", "coordinates": [[[-3.9170787070270134, 50.72584508103805], [-3.916721909363241, 50.72735737142548], [-3.9165241673158997, 50.7274468900664], [-3.9141782842075123, 50.727769105862585], [-3.9148184256377356, 50.72639243090998], [-3.9157629274048578, 50.72552098465045], [-3.9165108570174656, 50.72552191915707], [-3.9170787070270134, 50.72584508103805]]]}}, {"type": "Feature", "properties": {"type": "postcode-cell", "postcode": "EX20 2NY", "postcodes": ["EX20 2NY"]}, "geometry": {"type": "Polygon", "coordinates": [[[-3.9165108570174656, 50.72552191915707], [-3.9157629274048578, 50.72552098465045], [-3.9136145691224757, 50.72489132323491], [-3.9135068413854133, 50.72482939296731], [-3.913575546662982, 50.724432839340395], [-3.915746121293985, 50.72339664687908], [-3.9173634415280536, 50.72354196785731], [-3.9165108570174656, 50.72552191915707]]]}}, {"type": "Feature", "properties": {"type": "postcode-cell", "postcode": "EX20 2PA", "postcodes": ["EX20 2PA"]}, "geometry": {"type": "Polygon", "coordinates": [[[-3.9155048500769154, 50.7207740470441], [-3.9196238613348653, 50.719598847244065], [-3.9174930297777624, 50.72278671867741], [-3.915374138785445, 50.72210892992019], [-3.9155048500769154, 50.7207740470441]]]}}, {"type": "Feature", "properties": {"type": "postcode-cell", "postcode": "EX20 2LE", "postcodes": ["EX20 2LE"]}, "geometry": {"type": "Polygon", "coordinates": [[[-3.915374138785445, 50.72210892992019], [-3.914583777972901, 50.72256930462119], [-3.9138628593472897, 50.720729419615], [-3.9155048500769154, 50.7207740470441], [-3.915374138785445, 50.72210892992019]]]}}, {"type": "Feature", "properties": {"type": "postcode-cell", "postcode": "EX20 2NX", "postcodes": ["EX20 2NX"]}, "geometry": {"type": "Polygon", "coordinates": [[[-3.915746121293985, 50.72339664687908], [-3.913575546662982, 50.724432839340395], [-3.9134349115069447, 50.72405764262015], [-3.9144838956449433, 50.72267246985398], [-3.915746121293985, 50.72339664687908]]]}}, {"type": "Feature", "properties": {"type": "postcode-cell", "postcode": "EX20 2LH", "postcodes": ["EX20 2LH"]}, "geometry": {"type": "Polygon", "coordinates": [[[-3.9181804585163253, 50.73370111093395], [-3.9181822394713812, 50.734119863249084], [-3.910792096138129, 50.73405736328278], [-3.9100307660380187, 50.73355062253396], [-3.909916714772121, 50.733390781474334], [-3.914315957478422, 50.73156873570901], [-3.91790182817255, 50.73310809057116], [-3.9181804585163253, 50.73370111093395]]]}}, {"type": "Feature", "properties": {"type": "postcode-cell", "postcode": "EX20 2JW", "postcodes": ["EX20 2JW"]}, "geometry": {"type": "Polygon", "coordinates": [[[-3.9162463400548018, 50.72856717860705], [-3.9130409350533406, 50.728352245912276], [-3.9141782842075123, 50.727769105862585], [-3.9165241673158997, 50.7274468900664], [-3.9162463400548018, 50.72856717860705]]]}}, {"type": "Feature", "properties": {"type": "postcode-cell", "postcode": "EX20 2JR", "postcodes": ["EX20 2JR"]}, "geometry": {"type": "Polygon", "coordinates": [[[-3.913125542636196, 50.72653645577777], [-3.9148184256377356, 50.72639243090998], [-3.9141782842075123, 50.727769105862585], [-3.9130409350533406, 50.728352245912276], [-3.91221488400461, 50.72862610265877], [-3.913125542636196, 50.72653645577777]]]}}, {"type": "Feature", "properties": {"type": "postcode-cell", "postcode": "EX20 2LG", "postcodes": ["EX20 2LG"]}, "geometry": {"type": "Polygon", "coordinates": [[[-3.91221488400461, 50.72862610265877], [-3.9105517009904234, 50.72952722012734], [-3.9094708614363416, 50.72938917414101], [-3.910212552735333, 50.72702068930551], [-3.9102492431210023, 50.72695660199825], [-3.9120352445854976, 50.72618320189637], [-3.913079704131187, 50.72636157043289], [-3.913125542636196, 50.72653645577777], [-3.91221488400461, 50.72862610265877]]]}}, {"type": "Feature", "properties": {"type": "postcode-cell", "postcode": "EX20 2JS", "postcodes": ["EX20 2JS"]}, "geometry": {"type": "Polygon", "coordinates": [[[-3.9157629274048578, 50.72552098465045], [-3.9148184256377356, 50.72639243090998], [-3.913125542636196, 50.72653645577777], [-3.913079704131187, 50.72636157043289], [-3.9136145691224757, 50.72489132323491], [-3.9157629274048578, 50.72552098465045]]]}}, {"type": "Feature", "properties": {"type": "postcode-cell", "postcode": "EX20 2PJ", "postcodes": ["EX20 2PJ"]}, "geometry": {"type": "Polygon", "coordinates": [[[-3.9095441481886675, 50.718378737931204], [-3.9081307884514795, 50.71906523781013], [-3.903122972100904, 50.71988799416574], [-3.8999865337923, 50.71921488956044], [-3.8981915796223143, 50.71539468143045], [-3.8985055695351805, 50.715188656278734], [-3.903045272132693, 50.71468003530467], [-3.9102670696712423, 50.71704684085392], [-3.9095441481886675, 50.718378737931204]]]}}, {"type": "Feature", "properties": {"type": "postcode-cell", "postcode": "EX20 2QD", "postcodes": ["EX20 2QD"]}, "geometry": {"type": "Polygon", "coordinates": [[[-3.937950751426367, 50.70338324801279], [-3.934437117556497, 50.704698122529116], [-3.9071297276586328, 50.71079566555866], [-3.9004195051991837, 50.70961356740807], [-3.9030499899961257, 50.707419994725306], [-3.9031799899964303, 50.70693999472491], [-3.9039999899972213, 50.70638999472446], [-3.9057499899984833, 50.70613999472423], [-3.905959989998917, 50.705499994723745], [-3.908049990000594, 50.70483999472318], [-3.9102399900020335, 50.70482999472314], [-3.9107099900022435, 50.70504999472332], [-3.9119999900032436, 50.70470999472301], [-3.914569990006056, 50.70226999472105], [-3.9163799900076617, 50.7013599947203], [-3.9168699900084465, 50.7003599947195], [-3.916609990009122, 50.698519994718026], [-3.919139990012702, 50.69434999471468], [-3.9198799900131154, 50.69449999471478], [-3.9223199900149246, 50.69404999471439], [-3.9232799900153945, 50.69439999471466], [-3.9254999900169856, 50.69410999471439], [-3.930189990022363, 50.68911999471036], [-3.9358699900262373, 50.68880999471004], [-3.9449559584301, 50.692097880163445], [-3.937950751426367, 50.70338324801279]]]}}, {"type": "Feature", "properties": {"type": "postcode-cell", "postcode": "EX20 2LF", "postcodes": ["EX20 2LF"]}, "geometry": {"type": "Polygon", "coordinates": [[[-3.9138628593472897, 50.720729419615], [-3.914583777972901, 50.72256930462119], [-3.914477264120986, 50.72265780912637], [-3.9141031822772914, 50.72257206434256], [-3.911949141143176, 50.72095135611433], [-3.911963041924603, 50.720551738466064], [-3.9138628593472897, 50.720729419615]]]}}, {"type": "Feature", "properties": {"type": "postcode-cell", "postcode": "EX20 2LD", "postcodes": ["EX20 2LD"]}, "geometry": {"type": "Polygon", "coordinates": [[[-3.9141031822772914, 50.72257206434256], [-3.912524123821211, 50.72297066082649], [-3.911813489394867, 50.72125011365215], [-3.911949141143176, 50.72095135611433], [-3.9141031822772914, 50.72257206434256]]]}}, {"type": "Feature", "properties": {"type": "postcode-cell", "postcode": "EX20 2NZ", "postcodes": ["EX20 2NZ"]}, "geometry": {"type": "Polygon", "coordinates": [[[-3.9144838956449433, 50.72267246985398], [-3.9134349115069447, 50.72405764262015], [-3.912402169285716, 50.72321435118541], [-3.912524123821211, 50.72297066082649], [-3.9141031822772914, 50.72257206434256], [-3.914477264120986, 50.72265780912637], [-3.9144838956449433, 50.72267246985398]]]}}, {"type": "Feature", "properties": {"type": "postcode-cell", "postcode": "EX20 2JT", "postcodes": ["EX20 2JT"]}, "geometry": {"type": "Polygon", "coordinates": [[[-3.913079704131187, 50.72636157043289], [-3.9120352445854976, 50.72618320189637], [-3.9125304366542206, 50.72543020641431], [-3.9133251017579265, 50.72484805948766], [-3.9135068413854133, 50.72482939296731], [-3.9136145691224757, 50.72489132323491], [-3.913079704131187, 50.72636157043289]]]}}, {"type": "Feature", "properties": {"type": "postcode-cell", "postcode": "EX20 2LB", "postcodes": ["EX20 2LB"]}, "geometry": {"type": "Polygon", "coordinates": [[[-3.9134349115069447, 50.72405764262015], [-3.913575546662982, 50.724432839340395], [-3.9135068413854133, 50.72482939296731], [-3.9133251017579265, 50.72484805948766], [-3.911811363178677, 50.72469469542281], [-3.910454444215656, 50.72420746776059], [-3.910609194565468, 50.72339947765725], [-3.912402169285716, 50.72321435118541], [-3.9134349115069447, 50.72405764262015]]]}}, {"type": "Feature", "properties": {"type": "postcode-cell", "postcode": "EX20 2PB", "postcodes": ["EX20 2PB"]}, "geometry": {"type": "Polygon", "coordinates": [[[-3.912524123821211, 50.72297066082649], [-3.912402169285716, 50.72321435118541], [-3.910609194565468, 50.72339947765725], [-3.9100921266092645, 50.72282415690568], [-3.911813489394867, 50.72125011365215], [-3.912524123821211, 50.72297066082649]]]}}, {"type": "Feature", "properties": {"type": "postcode-cell", "postcode": "EX20 2PD", "postcodes": ["EX20 2PD"]}, "geometry": {"type": "Polygon", "coordinates": [[[-3.911813489394867, 50.72125011365215], [-3.9100921266092645, 50.72282415690568], [-3.907893049497362, 50.722546701846554], [-3.9078236529960857, 50.722524128545416], [-3.9081307884514795, 50.71906523781013], [-3.9095441481886675, 50.718378737931204], [-3.911963041924603, 50.720551738466064], [-3.911949141143176, 50.72095135611433], [-3.911813489394867, 50.72125011365215]]]}}, {"type": "Feature", "properties": {"type": "postcode-cell", "postcode": "EX20 2LQ", "postcodes": ["EX20 2LQ"]}, "geometry": {"type": "Polygon", "coordinates": [[[-3.914315957478422, 50.73156873570901], [-3.909916714772121, 50.733390781474334], [-3.909022752294575, 50.73300149474895], [-3.9064114743502167, 50.73162924271498], [-3.90843765024449, 50.72949501826585], [-3.9094708614363416, 50.72938917414101], [-3.9105517009904234, 50.72952722012734], [-3.914315957478422, 50.73156873570901]]]}}, {"type": "Feature", "properties": {"type": "postcode-cell", "postcode": "EX20 2JU", "postcodes": ["EX20 2JU"]}, "geometry": {"type": "Polygon", "coordinates": [[[-3.9103295549003514, 50.72656417228561], [-3.911197845728704, 50.72586975940305], [-3.9125304366542206, 50.72543020641431], [-3.9120352445854976, 50.72618320189637], [-3.9102492431210023, 50.72695660199825], [-3.9103295549003514, 50.72656417228561]]]}}, {"type": "Feature", "properties": {"type": "postcode-cell", "postcode": "EX20 2LA", "postcodes": ["EX20 2LA"]}, "geometry": {"type": "Polygon", "coordinates": [[[-3.9102492431210023, 50.72695660199825], [-3.910212552735333, 50.72702068930551], [-3.9083619143570005, 50.72534951256295], [-3.9091484588331187, 50.725073738048756], [-3.910156047275084, 50.725858252303304], [-3.9103295549003514, 50.72656417228561], [-3.9102492431210023, 50.72695660199825]]]}}, {"type": "Feature", "properties": {"type": "postcode-cell", "postcode": "EX20 2JX", "postcodes": ["EX20 2JX"]}, "geometry": {"type": "Polygon", "coordinates": [[[-3.9133251017579265, 50.72484805948766], [-3.9125304366542206, 50.72543020641431], [-3.911197845728704, 50.72586975940305], [-3.911327963089503, 50.7251641528822], [-3.911811363178677, 50.72469469542281], [-3.9133251017579265, 50.72484805948766]]]}}, {"type": "Feature", "properties": {"type": "postcode-cell", "postcode": "EX20 2JY", "postcodes": ["EX20 2JY"]}, "geometry": {"type": "Polygon", "coordinates": [[[-3.9103295549003514, 50.72656417228561], [-3.910156047275084, 50.725858252303304], [-3.9104017939537843, 50.72554114497177], [-3.911327963089503, 50.7251641528822], [-3.911197845728704, 50.72586975940305], [-3.9103295549003514, 50.72656417228561]]]}}, {"type": "Feature", "properties": {"type": "postcode-cell", "postcode": "EX20 2JZ", "postcodes": ["EX20 2JZ"]}, "geometry": {"type": "Polygon", "coordinates": [[[-3.911811363178677, 50.72469469542281], [-3.911327963089503, 50.7251641528822], [-3.9104017939537843, 50.72554114497177], [-3.9103966874738645, 50.724230475167595], [-3.910454444215656, 50.72420746776059], [-3.911811363178677, 50.72469469542281]]]}}, {"type": "Feature", "properties": {"type": "postcode-cell", "postcode": "EX20 2PF", "postcodes": ["EX20 2PF"]}, "geometry": {"type": "Polygon", "coordinates": [[[-3.910609194565468, 50.72339947765725], [-3.910454444215656, 50.72420746776059], [-3.9103966874738645, 50.724230475167595], [-3.909582689649596, 50.724422712362845], [-3.9088936378502255, 50.724222986952164], [-3.907893049497362, 50.722546701846554], [-3.9100921266092645, 50.72282415690568], [-3.910609194565468, 50.72339947765725]]]}}, {"type": "Feature", "properties": {"type": "postcode-cell", "postcode": "EX20 2LT", "postcodes": ["EX20 2LT"]}, "geometry": {"type": "Polygon", "coordinates": [[[-3.910719387461901, 50.752414615685765], [-3.903944364819541, 50.74981338985888], [-3.914268292510841, 50.747232791401004], [-3.913469989984165, 50.74831999475773], [-3.9125699899833566, 50.74878999475812], [-3.9128699899832466, 50.74945999475865], [-3.9141299899837083, 50.75025999475927], [-3.9138799899834016, 50.75056999475953], [-3.912739989982666, 50.75053999475953], [-3.911839989981861, 50.7509999947599], [-3.9124899899820713, 50.751479994760274], [-3.9116599899813354, 50.75188999476061], [-3.9114577233160177, 50.75247753907557], [-3.910719387461901, 50.752414615685765]]]}}, {"type": "Feature", "properties": {"type": "postcode-cell", "postcode": "EX20 2JE", "postcodes": ["EX20 2JE"]}, "geometry": {"type": "Polygon", "coordinates": [[[-3.910156047275084, 50.725858252303304], [-3.9091484588331187, 50.725073738048756], [-3.909582689649596, 50.724422712362845], [-3.9103966874738645, 50.724230475167595], [-3.9104017939537843, 50.72554114497177], [-3.910156047275084, 50.725858252303304]]]}}, {"type": "Feature", "properties": {"type": "postcode-cell", "postcode": "EX20 2LW", "postcodes": ["EX20 2LW"]}, "geometry": {"type": "Polygon", "coordinates": [[[-3.910792096138129, 50.73405736328278], [-3.9099042586415544, 50.7346735773122], [-3.9089331766887017, 50.734480163578915], [-3.9091814471004254, 50.73418149005782], [-3.9100307660380187, 50.73355062253396], [-3.910792096138129, 50.73405736328278]]]}}, {"type": "Feature", "properties": {"type": "postcode-cell", "postcode": "EX20 2PT", "postcodes": ["EX20 2PT"]}, "geometry": {"type": "Polygon", "coordinates": [[[-3.9094708614363416, 50.72938917414101], [-3.90843765024449, 50.72949501826585], [-3.9039826532243063, 50.72697507574012], [-3.904500903366244, 50.72565124171561], [-3.9083619143570005, 50.72534951256295], [-3.910212552735333, 50.72702068930551], [-3.9094708614363416, 50.72938917414101]]]}}, {"type": "Feature", "properties": {"type": "postcode-cell", "postcode": "EX20 2LU", "postcodes": ["EX20 2LU"]}, "geometry": {"type": "Polygon", "coordinates": [[[-3.9084088074249954, 50.76358350308628], [-3.90428413201488, 50.76257878401461], [-3.9027693358375997, 50.7592467437], [-3.910719387461901, 50.752414615685765], [-3.9114577233160177, 50.75247753907557], [-3.9112399899804977, 50.75310999476159], [-3.9115199899803517, 50.75382999476217], [-3.9104699899794673, 50.75424999476251], [-3.909409989978132, 50.75563999476365], [-3.910759989978704, 50.75632999476418], [-3.9107799899777977, 50.75832999476578], [-3.9118299899780253, 50.75934999476656], [-3.91138998997736, 50.76015999476721], [-3.911989989977557, 50.76058999476757], [-3.91115998997688, 50.7608799947678], [-3.9120199899765193, 50.7628999947694], [-3.9111899899758398, 50.76318999476965], [-3.910979989975394, 50.763859994770186], [-3.9105465697039032, 50.76403187071647], [-3.9084088074249954, 50.76358350308628]]]}}, {"type": "Feature", "properties": {"type": "postcode-cell", "postcode": "EX20 2PE", "postcodes": ["EX20 2PE"]}, "geometry": {"type": "Polygon", "coordinates": [[[-3.9078236529960857, 50.722524128545416], [-3.9044601410177804, 50.7237830933945], [-3.903122972100904, 50.71988799416574], [-3.9081307884514795, 50.71906523781013], [-3.9078236529960857, 50.722524128545416]]]}}, {"type": "Feature", "properties": {"type": "postcode-cell", "postcode": "EX20 2PU", "postcodes": ["EX20 2PU"]}, "geometry": {"type": "Polygon", "coordinates": [[[-3.905707631420773, 50.73511435806378], [-3.90592418024033, 50.73466806622619], [-3.9089331766887017, 50.734480163578915], [-3.9099042586415544, 50.7346735773122], [-3.9118558496787217, 50.73845152484622], [-3.905707631420773, 50.73511435806378]]]}}, {"type": "Feature", "properties": {"type": "postcode-cell", "postcode": "EX20 2LR", "postcodes": ["EX20 2LR"]}, "geometry": {"type": "Polygon", "coordinates": [[[-3.9118558496787217, 50.73845152484622], [-3.915746777162479, 50.7412850703285], [-3.9114944619386742, 50.74198365093], [-3.9020434417671876, 50.739039633569476], [-3.9034810873890065, 50.7359857283263], [-3.905707631420773, 50.73511435806378], [-3.9118558496787217, 50.73845152484622]]]}}, {"type": "Feature", "properties": {"type": "postcode-cell", "postcode": "EX20 2LJ", "postcodes": ["EX20 2LJ"]}, "geometry": {"type": "Polygon", "coordinates": [[[-3.9100307660380187, 50.73355062253396], [-3.9091814471004254, 50.73418149005782], [-3.909022752294575, 50.73300149474895], [-3.909916714772121, 50.733390781474334], [-3.9100307660380187, 50.73355062253396]]]}}, {"type": "Feature", "properties": {"type": "postcode-cell", "postcode": "EX20 2PQ", "postcodes": ["EX20 2PQ"]}, "geometry": {"type": "Polygon", "coordinates": [[[-3.9088936378502255, 50.724222986952164], [-3.9045134493314193, 50.72478998829283], [-3.9043080535238017, 50.724038554883435], [-3.9044601410177804, 50.7237830933945], [-3.9078236529960857, 50.722524128545416], [-3.907893049497362, 50.722546701846554], [-3.9088936378502255, 50.724222986952164]]]}}, {"type": "Feature", "properties": {"type": "postcode-cell", "postcode": "EX20 2PG", "postcodes": ["EX20 2PG"]}, "geometry": {"type": "Polygon", "coordinates": [[[-3.9091484588331187, 50.725073738048756], [-3.9083619143570005, 50.72534951256295], [-3.904500903366244, 50.72565124171561], [-3.9045134493314193, 50.72478998829283], [-3.9088936378502255, 50.724222986952164], [-3.909582689649596, 50.724422712362845], [-3.9091484588331187, 50.725073738048756]]]}}, {"type": "Feature", "properties": {"type": "postcode-cell", "postcode": "EX20 2LL", "postcodes": ["EX20 2LL"]}, "geometry": {"type": "Polygon", "coordinates": [[[-3.9091814471004254, 50.73418149005782], [-3.9089331766887017, 50.734480163578915], [-3.90592418024033, 50.73466806622619], [-3.905931865834975, 50.73193592284873], [-3.9064114743502167, 50.73162924271498], [-3.909022752294575, 50.73300149474895], [-3.9091814471004254, 50.73418149005782]]]}}, {"type": "Feature", "properties": {"type": "postcode-cell", "postcode": "EX20 2RG", "postcodes": ["EX20 2RG"]}, "geometry": {"type": "Polygon", "coordinates": [[[-3.905931865834975, 50.73193592284873], [-3.8984459216067644, 50.73189202085974], [-3.896326055596425, 50.72826307480396], [-3.9039826532243063, 50.72697507574012], [-3.90843765024449, 50.72949501826585], [-3.9064114743502167, 50.73162924271498], [-3.905931865834975, 50.73193592284873]]]}}, {"type": "Feature", "properties": {"type": "postcode-cell", "postcode": "EX20 2RF", "postcodes": ["EX20 2RF"]}, "geometry": {"type": "Polygon", "coordinates": [[[-3.9045134493314193, 50.72478998829283], [-3.904500903366244, 50.72565124171561], [-3.9039826532243063, 50.72697507574012], [-3.896326055596425, 50.72826307480396], [-3.895380545234701, 50.7278840652506], [-3.895275315397361, 50.722989753391246], [-3.896024503212397, 50.72266794234614], [-3.9043080535238017, 50.724038554883435], [-3.9045134493314193, 50.72478998829283]]]}}, {"type": "Feature", "properties": {"type": "postcode-cell", "postcode": "EX20 2LY", "postcodes": ["EX20 2LY"]}, "geometry": {"type": "Polygon", "coordinates": [[[-3.910719387461901, 50.752414615685765], [-3.9027693358375997, 50.7592467437], [-3.8956589362355007, 50.75241208812459], [-3.899726932176651, 50.748687510562085], [-3.9001007759200688, 50.74865037529467], [-3.903944364819541, 50.74981338985888], [-3.910719387461901, 50.752414615685765]]]}}, {"type": "Feature", "properties": {"type": "postcode-cell", "postcode": "EX20 2RL", "postcodes": ["EX20 2RL"]}, "geometry": {"type": "Polygon", "coordinates": [[[-3.9001007759200688, 50.74865037529467], [-3.899726932176651, 50.748687510562085], [-3.8927033875504518, 50.7414325350701], [-3.8938683777327525, 50.740338993595216], [-3.9020434417671876, 50.739039633569476], [-3.9114944619386742, 50.74198365093], [-3.9001007759200688, 50.74865037529467]]]}}, {"type": "Feature", "properties": {"type": "postcode-cell", "postcode": "EX20 2PZ", "postcodes": ["EX20 2PZ"]}, "geometry": {"type": "Polygon", "coordinates": [[[-3.903045272132693, 50.71468003530467], [-3.9071297276586328, 50.71079566555866], [-3.934437117556497, 50.704698122529116], [-3.9102670696712423, 50.71704684085392], [-3.903045272132693, 50.71468003530467]]]}}, {"type": "Feature", "properties": {"type": "postcode-cell", "postcode": "EX20 2LN", "postcodes": ["EX20 2LN"]}, "geometry": {"type": "Polygon", "coordinates": [[[-3.905707631420773, 50.73511435806378], [-3.9034810873890065, 50.7359857283263], [-3.8979002341931057, 50.73326859059245], [-3.8984459216067644, 50.73189202085974], [-3.905931865834975, 50.73193592284873], [-3.90592418024033, 50.73466806622619], [-3.905707631420773, 50.73511435806378]]]}}, {"type": "Feature", "properties": {"type": "postcode-cell", "postcode": "EX20 2PH", "postcodes": ["EX20 2PH"]}, "geometry": {"type": "Polygon", "coordinates": [[[-3.9044601410177804, 50.7237830933945], [-3.9043080535238017, 50.724038554883435], [-3.896024503212397, 50.72266794234614], [-3.8999865337923, 50.71921488956044], [-3.903122972100904, 50.71988799416574], [-3.9044601410177804, 50.7237830933945]]]}}, {"type": "Feature", "properties": {"type": "postcode-cell", "postcode": "EX20 2JQ", "postcodes": ["EX20 2JQ"]}, "geometry": {"type": "Polygon", "coordinates": [[[-3.8669356600889104, 50.701188693988655], [-3.8658970064611458, 50.701380441761074], [-3.8616396704417295, 50.695468937049014], [-3.864609989977105, 50.69409999471526], [-3.867189989979558, 50.69243999471392], [-3.8687999899798293, 50.694129994715226], [-3.868719989979471, 50.69478999471575], [-3.87059998997931, 50.697799994718125], [-3.8705199899790137, 50.69832999471855], [-3.871045963545309, 50.69883120168853], [-3.8669356600889104, 50.701188693988655]]]}}, {"type": "Feature", "properties": {"type": "postcode-cell", "postcode": "EX20 2QA", "postcodes": ["EX20 2QA"]}, "geometry": {"type": "Polygon", "coordinates": [[[-3.903045272132693, 50.71468003530467], [-3.8985055695351805, 50.715188656278734], [-3.898986514710416, 50.70998680250834], [-3.899529989992737, 50.70975999472721], [-3.900099989993054, 50.70987999472729], [-3.9004195051991837, 50.70961356740807], [-3.9071297276586328, 50.71079566555866], [-3.903045272132693, 50.71468003530467]]]}}, {"type": "Feature", "properties": {"type": "postcode-cell", "postcode": "EX20 2LX", "postcodes": ["EX20 2LX"]}, "geometry": {"type": "Polygon", "coordinates": [[[-3.90428413201488, 50.76257878401461], [-3.893496657794353, 50.76531379413537], [-3.886579675074039, 50.764033728869094], [-3.88531904513662, 50.75984630380876], [-3.8886285235401763, 50.753695334998454], [-3.8956589362355007, 50.75241208812459], [-3.9027693358375997, 50.7592467437], [-3.90428413201488, 50.76257878401461]]]}}, {"type": "Feature", "properties": {"type": "postcode-cell", "postcode": "EX20 2QB", "postcodes": ["EX20 2QB"]}, "geometry": {"type": "Polygon", "coordinates": [[[-3.8985055695351805, 50.715188656278734], [-3.8981915796223143, 50.71539468143045], [-3.8892891868229498, 50.715351535605464], [-3.886615754702132, 50.7145453267926], [-3.885476603173806, 50.71384734199007], [-3.887192701133505, 50.70630683724467], [-3.8893499899868718, 50.707999994725945], [-3.893699989988832, 50.70993999472745], [-3.89354998998847, 50.71050999472788], [-3.895449989989338, 50.71132999472851], [-3.8959599899898403, 50.71095999472819], [-3.8958899899900747, 50.710359994727725], [-3.897489989991129, 50.710349994727714], [-3.897719989991391, 50.710109994727524], [-3.8982599899916623, 50.71028999472765], [-3.898986514710416, 50.70998680250834], [-3.8985055695351805, 50.715188656278734]]]}}, {"type": "Feature", "properties": {"type": "postcode-cell", "postcode": "EX20 2RQ", "postcodes": ["EX20 2RQ"]}, "geometry": {"type": "Polygon", "coordinates": [[[-3.8979002341931057, 50.73326859059245], [-3.8940117968906067, 50.736084524940836], [-3.884163406160713, 50.730547268059645], [-3.8839850436085555, 50.72982830432465], [-3.895380545234701, 50.7278840652506], [-3.896326055596425, 50.72826307480396], [-3.8984459216067644, 50.73189202085974], [-3.8979002341931057, 50.73326859059245]]]}}, {"type": "Feature", "properties": {"type": "postcode-cell", "postcode": "EX20 2PL", "postcodes": ["EX20 2PL"]}, "geometry": {"type": "Polygon", "coordinates": [[[-3.8999865337923, 50.71921488956044], [-3.896024503212397, 50.72266794234614], [-3.895275315397361, 50.722989753391246], [-3.8926203921679856, 50.7220673412381], [-3.8892891868229498, 50.715351535605464], [-3.8981915796223143, 50.71539468143045], [-3.8999865337923, 50.71921488956044]]]}}, {"type": "Feature", "properties": {"type": "postcode-cell", "postcode": "EX20 2RH", "postcodes": ["EX20 2RH"]}, "geometry": {"type": "Polygon", "coordinates": [[[-3.8938683777327525, 50.740338993595216], [-3.8940117968906067, 50.736084524940836], [-3.8979002341931057, 50.73326859059245], [-3.9034810873890065, 50.7359857283263], [-3.9020434417671876, 50.739039633569476], [-3.8938683777327525, 50.740338993595216]]]}}, {"type": "Feature", "properties": {"type": "postcode-cell", "postcode": "EX20 2BE", "postcodes": ["EX20 2BE"]}, "geometry": {"type": "MultiPolygon", "coordinates": [[[[-3.8782291567966096, 50.781662942459334], [-3.8885003881561597, 50.77656105489044], [-3.894431378083789, 50.776066490937055], [-3.8921999899568864, 50.77723999478113], [-3.890649989955746, 50.777499994781344], [-3.8896799899548076, 50.77814999478187], [-3.8877199899532338, 50.7787699947824], [-3.8899799899542047, 50.77989999478328], [-3.8919699899547724, 50.78150999478452], [-3.892759989954495, 50.78324999478594], [-3.8819799899476832, 50.782629994785545], [-3.877621870320427, 50.782501907837414], [-3.8782291567966096, 50.781662942459334]]], [[[-3.906778510228495, 50.77957500154879], [-3.9066599899653256, 50.77959999478284], [-3.9072299899655802, 50.77986999478305], [-3.9075092873469766, 50.77984813779958], [-3.9081749213107093, 50.78009691923474], [-3.908159989966077, 50.78011999478322], [-3.907459989965463, 50.780449994783496], [-3.904739989963578, 50.780649994783694], [-3.904879989963153, 50.781779994784586], [-3.9035899899625104, 50.78132999478426], [-3.8968799899582782, 50.78091999478401], [-3.8947099899572937, 50.77994999478326], [-3.8969999899601113, 50.77709999478095], [-3.8988406692623805, 50.776607638278854], [-3.906778510228495, 50.77957500154879]]]]}}, {"type": "Feature", "properties": {"type": "postcode-cell", "postcode": "EX20 2SB", "postcodes": ["EX20 2SB"]}, "geometry": {"type": "Polygon", "coordinates": [[[-3.9084088074249954, 50.76358350308628], [-3.8965298666728736, 50.774478745158284], [-3.893496657794353, 50.76531379413537], [-3.90428413201488, 50.76257878401461], [-3.9084088074249954, 50.76358350308628]]]}}, {"type": "Feature", "properties": {"type": "postcode-cell", "postcode": "EX20 2RJ", "postcodes": ["EX20 2RJ"]}, "geometry": {"type": "Polygon", "coordinates": [[[-3.8956589362355007, 50.75241208812459], [-3.8886285235401763, 50.753695334998454], [-3.8717016710973233, 50.74498379208963], [-3.879100020624998, 50.742105873265345], [-3.8927033875504518, 50.7414325350701], [-3.899726932176651, 50.748687510562085], [-3.8956589362355007, 50.75241208812459]]]}}, {"type": "Feature", "properties": {"type": "postcode-cell", "postcode": "EX20 2BQ", "postcodes": ["EX20 2BQ"]}, "geometry": {"type": "Polygon", "coordinates": [[[-3.896665837768478, 50.77506178236998], [-3.896249989960529, 50.77510999477936], [-3.894431378083789, 50.776066490937055], [-3.8885003881561597, 50.77656105489044], [-3.880753707313893, 50.76705214168083], [-3.886579675074039, 50.764033728869094], [-3.893496657794353, 50.76531379413537], [-3.8965298666728736, 50.774478745158284], [-3.896665837768478, 50.77506178236998]]]}}, {"type": "Feature", "properties": {"type": "postcode-cell", "postcode": "EX20 2JG", "postcodes": ["EX20 2JG"]}, "geometry": {"type": "Polygon", "coordinates": [[[-3.876747762011686, 50.705630057445994], [-3.8669356600889104, 50.701188693988655], [-3.871045963545309, 50.69883120168853], [-3.87242998997942, 50.70014999471997], [-3.873519989980313, 50.69975999471963], [-3.874659989980435, 50.70110999472065], [-3.8757299899809006, 50.701619994721064], [-3.875949989980689, 50.70238999472169], [-3.876639989980895, 50.70291999472209], [-3.877339989981357, 50.70290999472207], [-3.879129989981962, 50.704139994723015], [-3.880996460703489, 50.70473437227209], [-3.876747762011686, 50.705630057445994]]]}}, {"type": "Feature", "properties": {"type": "postcode-cell", "postcode": "EX20 2RE", "postcodes": ["EX20 2RE"]}, "geometry": {"type": "Polygon", "coordinates": [[[-3.895275315397361, 50.722989753391246], [-3.895380545234701, 50.7278840652506], [-3.8839850436085555, 50.72982830432465], [-3.881466870440934, 50.728338312213396], [-3.8814587943189633, 50.72829194066244], [-3.8854825123206567, 50.723214622881144], [-3.8926203921679856, 50.7220673412381], [-3.895275315397361, 50.722989753391246]]]}}, {"type": "Feature", "properties": {"type": "postcode-cell", "postcode": "EX20 2RD", "postcodes": ["EX20 2RD"]}, "geometry": {"type": "Polygon", "coordinates": [[[-3.8927033875504518, 50.7414325350701], [-3.879100020624998, 50.742105873265345], [-3.884163406160713, 50.730547268059645], [-3.8940117968906067, 50.736084524940836], [-3.8938683777327525, 50.740338993595216], [-3.8927033875504518, 50.7414325350701]]]}}, {"type": "Feature", "properties": {"type": "postcode-cell", "postcode": "EX20 2RA", "postcodes": ["EX20 2RA"]}, "geometry": {"type": "Polygon", "coordinates": [[[-3.884163406160713, 50.730547268059645], [-3.879100020624998, 50.742105873265345], [-3.8717016710973233, 50.74498379208963], [-3.857165702912932, 50.74563667033437], [-3.8568099899485113, 50.744959994755796], [-3.8584499899519344, 50.73986999475175], [-3.8618099899557166, 50.736439994748956], [-3.862331626824657, 50.732735523830634], [-3.881466870440934, 50.728338312213396], [-3.8839850436085555, 50.72982830432465], [-3.884163406160713, 50.730547268059645]]]}}, {"type": "Feature", "properties": {"type": "postcode-cell", "postcode": "EX20 2PN", "postcodes": ["EX20 2PN"]}, "geometry": {"type": "Polygon", "coordinates": [[[-3.8926203921679856, 50.7220673412381], [-3.8854825123206567, 50.723214622881144], [-3.8848375872179197, 50.721838797096], [-3.886615754702132, 50.7145453267926], [-3.8892891868229498, 50.715351535605464], [-3.8926203921679856, 50.7220673412381]]]}}, {"type": "Feature", "properties": {"type": "postcode-cell", "postcode": "EX17 5BB", "postcodes": ["EX17 5BB"]}, "geometry": {"type": "Polygon", "coordinates": [[[-3.873011036740429, 50.76832091434761], [-3.8782291567966096, 50.781662942459334], [-3.877621870320427, 50.782501907837414], [-3.853499989929359, 50.781789994785235], [-3.8538699899313635, 50.7779699947822], [-3.8561799899343026, 50.77487999477971], [-3.85466998993413, 50.773109994778295], [-3.8550099899348385, 50.77204999477743], [-3.8577199899378942, 50.7692799947752], [-3.8600299899403376, 50.767259994773546], [-3.862009989941901, 50.76668999477307], [-3.8635699899429468, 50.76663999477301], [-3.86359090177824, 50.7666270612738], [-3.873011036740429, 50.76832091434761]]]}}, {"type": "Feature", "properties": {"type": "postcode-cell", "postcode": "EX17 5BA", "postcodes": ["EX17 5BA"]}, "geometry": {"type": "Polygon", "coordinates": [[[-3.886579675074039, 50.764033728869094], [-3.880753707313893, 50.76705214168083], [-3.873011036740429, 50.76832091434761], [-3.86359090177824, 50.7666270612738], [-3.868209989947314, 50.76376999477066], [-3.869249989948147, 50.763439994770394], [-3.873899989953006, 50.75951999476721], [-3.8752099899541457, 50.75890999476668], [-3.876279989954894, 50.758809994766594], [-3.877089989955296, 50.759089994766796], [-3.8781061990601895, 50.75841823243369], [-3.88531904513662, 50.75984630380876], [-3.886579675074039, 50.764033728869094]]]}}, {"type": "Feature", "properties": {"type": "postcode-cell", "postcode": "EX20 2PW", "postcodes": ["EX20 2PW"]}, "geometry": {"type": "Polygon", "coordinates": [[[-3.886615754702132, 50.7145453267926], [-3.8848375872179197, 50.721838797096], [-3.8808559396708606, 50.720688837016276], [-3.8812899899760613, 50.71999999473561], [-3.8785028712479224, 50.71955347558727], [-3.8812531640720036, 50.71467033885517], [-3.885476603173806, 50.71384734199007], [-3.886615754702132, 50.7145453267926]]]}}, {"type": "Feature", "properties": {"type": "postcode-cell", "postcode": "EX20 2PP", "postcodes": ["EX20 2PP"]}, "geometry": {"type": "Polygon", "coordinates": [[[-3.8854825123206567, 50.723214622881144], [-3.8814587943189633, 50.72829194066244], [-3.874489994537787, 50.7223284729171], [-3.875208062197773, 50.72187724298556], [-3.876609989972017, 50.72211999473735], [-3.8799099899741467, 50.72218999473736], [-3.8808559396708606, 50.720688837016276], [-3.8848375872179197, 50.721838797096], [-3.8854825123206567, 50.723214622881144]]]}}, {"type": "Feature", "properties": {"type": "postcode-cell", "postcode": "EX17 5AZ", "postcodes": ["EX17 5AZ"]}, "geometry": {"type": "Polygon", "coordinates": [[[-3.8886285235401763, 50.753695334998454], [-3.88531904513662, 50.75984630380876], [-3.8781061990601895, 50.75841823243369], [-3.880069989958159, 50.75711999476519], [-3.872659989957139, 50.74877999475864], [-3.8694799899559453, 50.74683999475714], [-3.865379989953113, 50.74715999475745], [-3.8637499899518524, 50.7475699947578], [-3.8627099899508135, 50.74834999475845], [-3.862639989950453, 50.749029994758985], [-3.8617799899497918, 50.749239994759165], [-3.8609699899488703, 50.75008999475983], [-3.8611299899485956, 50.750909994760484], [-3.8606999899481167, 50.75133999476084], [-3.8611899899484006, 50.75141999476091], [-3.861399989948035, 50.75250999476175], [-3.860269989947281, 50.75253999476181], [-3.859669989947877, 50.7503999947601], [-3.857165702912932, 50.74563667033437], [-3.8717016710973233, 50.74498379208963], [-3.8886285235401763, 50.753695334998454]]]}}, {"type": "Feature", "properties": {"type": "postcode-cell", "postcode": "EX20 2QJ", "postcodes": ["EX20 2QJ"]}, "geometry": {"type": "MultiPolygon", "coordinates": [[[[-3.8785028712479224, 50.71955347558727], [-3.8758599899729025, 50.71912999473499], [-3.8729699899714305, 50.71821999473431], [-3.8691415828391085, 50.717760184247304], [-3.8767505912018034, 50.714189811541374], [-3.8812531640720036, 50.71467033885517], [-3.8785028712479224, 50.71955347558727]]], [[[-3.874489994537787, 50.7223284729171], [-3.874306699994029, 50.72229708701409], [-3.874299989970689, 50.72171999473708], [-3.875208062197773, 50.72187724298556], [-3.874489994537787, 50.7223284729171]]]]}}, {"type": "Feature", "properties": {"type": "postcode-cell", "postcode": "EX20 2BG", "postcodes": ["EX20 2BG"]}, "geometry": {"type": "Polygon", "coordinates": [[[-3.8782291567966096, 50.781662942459334], [-3.873011036740429, 50.76832091434761], [-3.880753707313893, 50.76705214168083], [-3.8885003881561597, 50.77656105489044], [-3.8782291567966096, 50.781662942459334]]]}}, {"type": "Feature", "properties": {"type": "postcode-cell", "postcode": "EX20 2QQ", "postcodes": ["EX20 2QQ"]}, "geometry": {"type": "Polygon", "coordinates": [[[-3.876747762011686, 50.705630057445994], [-3.880996460703489, 50.70473437227209], [-3.8847199899848004, 50.705919994724375], [-3.886839989986139, 50.70602999472442], [-3.887192701133505, 50.70630683724467], [-3.885476603173806, 50.71384734199007], [-3.8812531640720036, 50.71467033885517], [-3.8767505912018034, 50.714189811541374], [-3.8703373904317395, 50.709310945722784], [-3.876747762011686, 50.705630057445994]]]}}, {"type": "Feature", "properties": {"type": "postcode-cell", "postcode": "EX20 2QG", "postcodes": ["EX20 2QG"]}, "geometry": {"type": "Polygon", "coordinates": [[[-3.8703373904317395, 50.709310945722784], [-3.865570372694861, 50.70933671047383], [-3.8583994043308634, 50.70632760033042], [-3.8658970064611458, 50.701380441761074], [-3.8669356600889104, 50.701188693988655], [-3.876747762011686, 50.705630057445994], [-3.8703373904317395, 50.709310945722784]]]}}, {"type": "Feature", "properties": {"type": "postcode-cell", "postcode": "EX20 2RB", "postcodes": ["EX20 2RB"]}, "geometry": {"type": "Polygon", "coordinates": [[[-3.881466870440934, 50.728338312213396], [-3.862331626824657, 50.732735523830634], [-3.862399989958037, 50.732249994745594], [-3.861039989958207, 50.729949994743805], [-3.856109989956888, 50.72581999474059], [-3.856199989957321, 50.725009994739935], [-3.8580599899588393, 50.72435999473938], [-3.862279989961816, 50.723889994738975], [-3.8695499899661487, 50.7248199947396], [-3.8726299899681833, 50.72477999473954], [-3.8743199899699055, 50.72343999473843], [-3.874306699994029, 50.72229708701409], [-3.874489994537787, 50.7223284729171], [-3.8814587943189633, 50.72829194066244], [-3.881466870440934, 50.728338312213396]]]}}, {"type": "Feature", "properties": {"type": "postcode-cell", "postcode": "EX20 2QH", "postcodes": ["EX20 2QH"]}, "geometry": {"type": "Polygon", "coordinates": [[[-3.865570372694861, 50.70933671047383], [-3.8703373904317395, 50.709310945722784], [-3.8767505912018034, 50.714189811541374], [-3.8691415828391085, 50.717760184247304], [-3.8652286555557396, 50.717290082751745], [-3.865570372694861, 50.70933671047383]]]}}, {"type": "Feature", "properties": {"type": "postcode-cell", "postcode": "EX20 2PR", "postcodes": ["EX20 2PR"]}, "geometry": {"type": "Polygon", "coordinates": [[[-3.8583994043308634, 50.70632760033042], [-3.865570372694861, 50.70933671047383], [-3.8652286555557396, 50.717290082751745], [-3.8637299899658974, 50.71710999473355], [-3.8558799899615965, 50.71530999473225], [-3.8563299899622954, 50.71442999473152], [-3.855659989962736, 50.712529994730026], [-3.856349989964446, 50.709809994727856], [-3.8563599899657732, 50.706949994725576], [-3.8570555374119837, 50.70633452030379], [-3.8583994043308634, 50.70632760033042]]]}}, {"type": "Feature", "properties": {"type": "postcode-cell", "postcode": "EX20 2JH", "postcodes": ["EX20 2JH"]}, "geometry": {"type": "Polygon", "coordinates": [[[-3.8658970064611458, 50.701380441761074], [-3.8583994043308634, 50.70632760033042], [-3.8570555374119837, 50.70633452030379], [-3.8577499899672505, 50.70571999472458], [-3.857949989967691, 50.70504999472406], [-3.8578699899683286, 50.703559994722866], [-3.8569599899684612, 50.701989994721636], [-3.8570399899689853, 50.70096999472083], [-3.855989989969071, 50.69929999471953], [-3.8562299899698194, 50.6980199947185], [-3.855649989969827, 50.69717999471784], [-3.8574799899711203, 50.69696999471764], [-3.861159989974115, 50.69568999471659], [-3.8616396704417295, 50.695468937049014], [-3.8658970064611458, 50.701380441761074]]]}}]}