{"type": "FeatureCollection", "features": [{"type": "Feature", "properties": {"type": "ward-outline", "name": "Tale Vale"}, "geometry": {"type": "Polygon", "coordinates": [[[-3.28128, 50.85581], [-3.27711, 50.85413], [-3.27575, 50.85394], [-3.26861, 50.85356], [-3.26244, 50.85258], [-3.25532, 50.85287], [-3.25627, 50.85186], [-3.24714, 50.84785], [-3.24621, 50.84772], [-3.2431, 50.84809], [-3.24281, 50.84789], [-3.24365, 50.84694], [-3.24074, 50.84604], [-3.24185, 50.84545], [-3.24222, 50.84359], [-3.24221, 50.84301], [-3.24093, 50.84303], [-3.24087, 50.842], [-3.2452, 50.84216], [-3.24796, 50.84185], [-3.24954, 50.84123], [-3.25193, 50.83711], [-3.25392, 50.83539], [-3.25522, 50.8335], [-3.25646, 50.83246], [-3.25617, 50.83232], [-3.25896, 50.82996], [-3.26106, 50.82503], [-3.26093, 50.82333], [-3.25953, 50.82141], [-3.26108, 50.81786], [-3.26451, 50.81863], [-3.2653, 50.81796], [-3.26529, 50.81646], [-3.26357, 50.81499], [-3.25739, 50.81275], [-3.2557, 50.81185], [-3.2572, 50.81093], [-3.25937, 50.81085], [-3.26171, 50.80971], [-3.26352, 50.80935], [-3.26436, 50.80999], [-3.26668, 50.8101], [-3.26718, 50.81038], [-3.26778, 50.80898], [-3.26836, 50.80838], [-3.26896, 50.80827], [-3.2696, 50.80693], [-3.26871, 50.80597], [-3.26883, 50.80549], [-3.27009, 50.80452], [-3.26948, 50.80387], [-3.26882, 50.80143], [-3.27129, 50.8015], [-3.27288, 50.80201], [-3.27808, 50.80165], [-3.28052, 50.80205], [-3.28231, 50.80165], [-3.28862, 50.79794], [-3.29038, 50.7974], [-3.29013, 50.79677], [-3.29096, 50.79675], [-3.2909, 50.79616], [-3.29143, 50.79619], [-3.29132, 50.79548], [-3.29389, 50.79518], [-3.2941, 50.79558], [-3.29722, 50.79377], [-3.3016, 50.79073], [-3.30287, 50.78931], [-3.3037, 50.789], [-3.30294, 50.78626], [-3.30319, 50.78572], [-3.30269, 50.78267], [-3.30195, 50.78213], [-3.30017, 50.78048], [-3.29923, 50.77377], [-3.29812, 50.77302], [-3.29736, 50.77166], [-3.29622, 50.77076], [-3.29644, 50.76851], [-3.29445, 50.76661], [-3.29739, 50.76683], [-3.29913, 50.76661], [-3.3114, 50.76435], [-3.32708, 50.75933], [-3.32806, 50.76071], [-3.32806, 50.76226], [-3.32879, 50.76407], [-3.32792, 50.76515], [-3.32788, 50.76673], [-3.33011, 50.76939], [-3.33152, 50.77399], [-3.33139, 50.77486], [-3.32951, 50.7774], [-3.33266, 50.77753], [-3.34304, 50.77663], [-3.34487, 50.77912], [-3.34401, 50.7797], [-3.34593, 50.78128], [-3.34696, 50.78447], [-3.34477, 50.7898], [-3.34268, 50.79209], [-3.34133, 50.79454], [-3.33881, 50.79703], [-3.33805, 50.79871], [-3.33849, 50.80174], [-3.33826, 50.80328], [-3.3393, 50.80354], [-3.33911, 50.80372], [-3.34117, 50.805], [-3.33965, 50.80598], [-3.33892, 50.80896], [-3.33939, 50.81288], [-3.34223, 50.8117], [-3.34563, 50.81074], [-3.34974, 50.81041], [-3.35118, 50.80876], [-3.35404, 50.80762], [-3.35873, 50.8089], [-3.35949, 50.81036], [-3.35932, 50.81111], [-3.35996, 50.81188], [-3.35991, 50.81484], [-3.36175, 50.82099], [-3.36699, 50.82053], [-3.368, 50.82356], [-3.36747, 50.82723], [-3.36762, 50.82953], [-3.36675, 50.82932], [-3.36402, 50.83254], [-3.36236, 50.83178], [-3.3559, 50.8339], [-3.35541, 50.83149], [-3.35701, 50.8269], [-3.35384, 50.82645], [-3.3509, 50.82729], [-3.34357, 50.82583], [-3.34226, 50.82773], [-3.34123, 50.82838], [-3.34281, 50.83043], [-3.34285, 50.831], [-3.34484, 50.83089], [-3.34487, 50.83123], [-3.3436, 50.83244], [-3.34347, 50.83308], [-3.34175, 50.83413], [-3.34071, 50.83541], [-3.34226, 50.83628], [-3.34259, 50.83738], [-3.34165, 50.84051], [-3.34293, 50.84304], [-3.34478, 50.84166], [-3.34648, 50.84324], [-3.34848, 50.84424], [-3.34879, 50.84465], [-3.34837, 50.84577], [-3.34817, 50.84674], [-3.34298, 50.84621], [-3.34339, 50.84757], [-3.33937, 50.84965], [-3.3325, 50.85202], [-3.33136, 50.85208], [-3.33075, 50.85165], [-3.32969, 50.85167], [-3.32943, 50.85192], [-3.33009, 50.8527], [-3.33107, 50.85608], [-3.32827, 50.85679], [-3.3283, 50.85703], [-3.32534, 50.85698], [-3.32156, 50.85752], [-3.31924, 50.85695], [-3.3194, 50.85605], [-3.31855, 50.85478], [-3.31204, 50.8555], [-3.30612, 50.85443], [-3.29761, 50.85471], [-3.29321, 50.85415], [-3.29168, 50.85443], [-3.28938, 50.85393], [-3.28411, 50.85471], [-3.28128, 50.85581]]]}}, {"type": "Feature", "properties": {"type": "postcode-cell", "postcode": "EX15 2JW", "postcodes": ["EX15 2JW"]}, "geometry": {"type": "Polygon", "coordinates": [[[-3.3508307886265127, 50.82481240948074], [-3.3537608803298435, 50.82254288779722], [-3.3612362809783862, 50.81927315119673], [-3.361749989595039, 50.82098999482288], [-3.366989989598556, 50.820529994822444], [-3.367999989597738, 50.82355999482482], [-3.3674699895956484, 50.827229994827725], [-3.367619989594642, 50.82952999482956], [-3.366749989594195, 50.82931999482938], [-3.3640199895909353, 50.832539994831976], [-3.3623599895902543, 50.83177999483139], [-3.355899989585177, 50.833899994833146], [-3.355409989586024, 50.83148999483128], [-3.3570099895892294, 50.82689999482761], [-3.3538399895874536, 50.826449994827286], [-3.3508999895852054, 50.827289994828014], [-3.3500398792691364, 50.82711870549655], [-3.3508307886265127, 50.82481240948074]]]}}, {"type": "Feature", "properties": {"type": "postcode-cell", "postcode": "EX15 2JP", "postcodes": ["EX15 2JP"]}, "geometry": {"type": "Polygon", "coordinates": [[[-3.3492159205091667, 50.81998849487214], [-3.348286934884926, 50.81774239893671], [-3.3602773515375377, 50.81606799843047], [-3.3612362809783862, 50.81927315119673], [-3.3537608803298435, 50.82254288779722], [-3.3492159205091667, 50.81998849487214]]]}}, {"type": "Feature", "properties": {"type": "postcode-cell", "postcode": "EX15 2JY", "postcodes": ["EX15 2JY"]}, "geometry": {"type": "Polygon", "coordinates": [[[-3.3537608803298435, 50.82254288779722], [-3.3508307886265127, 50.82481240948074], [-3.3485143046966925, 50.82389230922374], [-3.3450868053093448, 50.82196017954458], [-3.3465834548029654, 50.819400782231], [-3.3492159205091667, 50.81998849487214], [-3.3537608803298435, 50.82254288779722]]]}}, {"type": "Feature", "properties": {"type": "postcode-cell", "postcode": "EX15 2JX", "postcodes": ["EX15 2JX"]}, "geometry": {"type": "Polygon", "coordinates": [[[-3.3492159205091667, 50.81998849487214], [-3.3465834548029654, 50.819400782231], [-3.3456698086979078, 50.818866771751516], [-3.3480907635312187, 50.81768027263892], [-3.348286934884926, 50.81774239893671], [-3.3492159205091667, 50.81998849487214]]]}}, {"type": "Feature", "properties": {"type": "postcode-cell", "postcode": "EX15 2JN", "postcodes": ["EX15 2JN"]}, "geometry": {"type": "Polygon", "coordinates": [[[-3.348286934884926, 50.81774239893671], [-3.3480907635312187, 50.81768027263892], [-3.347839393211034, 50.817375855025894], [-3.3590733557218115, 50.809559631371684], [-3.3594899895987154, 50.81035999481452], [-3.359319989598248, 50.811109994815105], [-3.3599599895982815, 50.811879994815705], [-3.359909989596833, 50.81483999481804], [-3.3602773515375377, 50.81606799843047], [-3.348286934884926, 50.81774239893671]]]}}, {"type": "Feature", "properties": {"type": "postcode-cell", "postcode": "EX5 2RN", "postcodes": ["EX5 2RN"]}, "geometry": {"type": "Polygon", "coordinates": [[[-3.327127224839022, 50.79764682985672], [-3.3320057689410274, 50.78896299271055], [-3.3339682596237012, 50.78683332048118], [-3.3352609331262095, 50.78641617949783], [-3.3467018722793185, 50.78367062593252], [-3.346959989603288, 50.784469994794286], [-3.344769989599356, 50.78979999479853], [-3.3426799895969457, 50.79208999480038], [-3.3413299895949238, 50.7945399948023], [-3.3388099895921477, 50.797029994804305], [-3.338049989590864, 50.79870999480564], [-3.338411852147762, 50.8012019427172], [-3.327127224839022, 50.79764682985672]]]}}, {"type": "Feature", "properties": {"type": "postcode-cell", "postcode": "EX14 3HJ", "postcodes": ["EX14 3HJ"]}, "geometry": {"type": "Polygon", "coordinates": [[[-3.3215098572699273, 50.80723652082929], [-3.3199968480559523, 50.80386333873586], [-3.3246360141134312, 50.79746893243597], [-3.327127224839022, 50.79764682985672], [-3.338411852147762, 50.8012019427172], [-3.3384899895896853, 50.80173999480802], [-3.3382599895888, 50.80327999480923], [-3.339299989589325, 50.80353999480941], [-3.3391099895891214, 50.80371999480956], [-3.3411699895897957, 50.80499999481056], [-3.339649989588373, 50.80597999481135], [-3.3395209272069883, 50.806506879142106], [-3.3215098572699273, 50.80723652082929]]]}}, {"type": "Feature", "properties": {"type": "postcode-cell", "postcode": "EX15 2JT", "postcodes": ["EX15 2JT"]}, "geometry": {"type": "MultiPolygon", "coordinates": [[[[-3.3460118346556658, 50.814669073570485], [-3.345695725098035, 50.81751848080703], [-3.3443541223843662, 50.81864874215502], [-3.3423866849946644, 50.818730365216425], [-3.341630998584585, 50.818202196105545], [-3.339462556456342, 50.81284984538704], [-3.342229989587243, 50.811699994815825], [-3.344594274322122, 50.81103244668054], [-3.3460118346556658, 50.814669073570485]]], [[[-3.338152134782403, 50.809614710591525], [-3.3389535239028723, 50.808823109415286], [-3.338919989586485, 50.8089599948137], [-3.339354342436313, 50.812582707422536], [-3.338152134782403, 50.809614710591525]]]]}}, {"type": "Feature", "properties": {"type": "postcode-cell", "postcode": "EX15 2JR", "postcodes": ["EX15 2JR"]}, "geometry": {"type": "Polygon", "coordinates": [[[-3.347839393211034, 50.817375855025894], [-3.3476762143967123, 50.81725954324333], [-3.3460118346556658, 50.814669073570485], [-3.344594274322122, 50.81103244668054], [-3.345629989589836, 50.81073999481501], [-3.349739989592572, 50.810409994814684], [-3.3511799895942667, 50.80875999481335], [-3.3540399895966093, 50.807619994812434], [-3.358729989598939, 50.80889999481338], [-3.3590733557218115, 50.809559631371684], [-3.347839393211034, 50.817375855025894]]]}}, {"type": "Feature", "properties": {"type": "postcode-cell", "postcode": "EX15 2JU", "postcodes": ["EX15 2JU"]}, "geometry": {"type": "Polygon", "coordinates": [[[-3.3480907635312187, 50.81768027263892], [-3.3456698086979078, 50.818866771751516], [-3.3443541223843662, 50.81864874215502], [-3.345695725098035, 50.81751848080703], [-3.3476762143967123, 50.81725954324333], [-3.347839393211034, 50.817375855025894], [-3.3480907635312187, 50.81768027263892]]]}}, {"type": "Feature", "properties": {"type": "postcode-cell", "postcode": "EX15 2LT", "postcodes": ["EX15 2LT"]}, "geometry": {"type": "Polygon", "coordinates": [[[-3.3508307886265127, 50.82481240948074], [-3.3500398792691364, 50.82711870549655], [-3.346401789480526, 50.826394102488216], [-3.3418431555374566, 50.82419534994325], [-3.3457929581953536, 50.823822834962684], [-3.3485143046966925, 50.82389230922374], [-3.3508307886265127, 50.82481240948074]]]}}, {"type": "Feature", "properties": {"type": "postcode-cell", "postcode": "EX15 2JG", "postcodes": ["EX15 2JG"]}, "geometry": {"type": "Polygon", "coordinates": [[[-3.3456698086979078, 50.818866771751516], [-3.3465834548029654, 50.819400782231], [-3.3450868053093448, 50.82196017954458], [-3.34343579959432, 50.8213726088858], [-3.342489811259494, 50.819938782020834], [-3.3423866849946644, 50.818730365216425], [-3.3443541223843662, 50.81864874215502], [-3.3456698086979078, 50.818866771751516]]]}}, {"type": "Feature", "properties": {"type": "postcode-cell", "postcode": "EX15 2JS", "postcodes": ["EX15 2JS"]}, "geometry": {"type": "Polygon", "coordinates": [[[-3.345695725098035, 50.81751848080703], [-3.3460118346556658, 50.814669073570485], [-3.3476762143967123, 50.81725954324333], [-3.345695725098035, 50.81751848080703]]]}}, {"type": "Feature", "properties": {"type": "postcode-cell", "postcode": "EX15 2DA", "postcodes": ["EX15 2DA"]}, "geometry": {"type": "Polygon", "coordinates": [[[-3.3381418245224044, 50.84455804697106], [-3.3424803763218733, 50.837014623376994], [-3.342589989575148, 50.837379994836084], [-3.3416499895730567, 50.84050999483858], [-3.3429299895726476, 50.843039994840574], [-3.344779989574472, 50.84165999483945], [-3.346479989574783, 50.84323999484069], [-3.3484799895755604, 50.84423999484144], [-3.3487899895755575, 50.84464999484176], [-3.3483699895747563, 50.84576999484264], [-3.3481699895741674, 50.84673999484341], [-3.342979989571159, 50.84620999484306], [-3.343389989570764, 50.84756999484413], [-3.341025287891287, 50.84879356107488], [-3.3381418245224044, 50.84455804697106]]]}}, {"type": "Feature", "properties": {"type": "postcode-cell", "postcode": "EX15 2JZ", "postcodes": ["EX15 2JZ"]}, "geometry": {"type": "Polygon", "coordinates": [[[-3.3450868053093448, 50.82196017954458], [-3.3485143046966925, 50.82389230922374], [-3.3457929581953536, 50.823822834962684], [-3.340308262433032, 50.823251135941696], [-3.340171900703495, 50.8230842506658], [-3.34343579959432, 50.8213726088858], [-3.3450868053093448, 50.82196017954458]]]}}, {"type": "Feature", "properties": {"type": "postcode-cell", "postcode": "EX14 3HL", "postcodes": ["EX14 3HL"]}, "geometry": {"type": "Polygon", "coordinates": [[[-3.338152134782403, 50.809614710591525], [-3.3323057088699346, 50.81282787942976], [-3.32408874770681, 50.81256576247028], [-3.3197548442840823, 50.80960027910463], [-3.3215098572699273, 50.80723652082929], [-3.3395209272069883, 50.806506879142106], [-3.3389535239028723, 50.808823109415286], [-3.338152134782403, 50.809614710591525]]]}}, {"type": "Feature", "properties": {"type": "postcode-cell", "postcode": "EX15 2LW", "postcodes": ["EX15 2LW"]}, "geometry": {"type": "Polygon", "coordinates": [[[-3.3322385517302813, 50.823911310533596], [-3.3368259915613656, 50.822257078924565], [-3.340171900703495, 50.8230842506658], [-3.340308262433032, 50.823251135941696], [-3.340604737037218, 50.82401477206362], [-3.3396161992617506, 50.830582257959676], [-3.3322385517302813, 50.823911310533596]]]}}, {"type": "Feature", "properties": {"type": "postcode-cell", "postcode": "EX15 2LN", "postcodes": ["EX15 2LN"]}, "geometry": {"type": "Polygon", "coordinates": [[[-3.3396161992617506, 50.830582257959676], [-3.3400035579971377, 50.83112931105692], [-3.325726862695799, 50.82978376230032], [-3.3232452052259176, 50.828757607473115], [-3.3283313850690117, 50.823137305057834], [-3.3322385517302813, 50.823911310533596], [-3.3396161992617506, 50.830582257959676]]]}}, {"type": "Feature", "properties": {"type": "postcode-cell", "postcode": "EX15 2LA", "postcodes": ["EX15 2LA"]}, "geometry": {"type": "Polygon", "coordinates": [[[-3.340308262433032, 50.823251135941696], [-3.3457929581953536, 50.823822834962684], [-3.3418431555374566, 50.82419534994325], [-3.340604737037218, 50.82401477206362], [-3.340308262433032, 50.823251135941696]]]}}, {"type": "Feature", "properties": {"type": "postcode-cell", "postcode": "EX15 2LB", "postcodes": ["EX15 2LB"]}, "geometry": {"type": "Polygon", "coordinates": [[[-3.34343579959432, 50.8213726088858], [-3.340171900703495, 50.8230842506658], [-3.3368259915613656, 50.822257078924565], [-3.3369195778256886, 50.82209210938871], [-3.342489811259494, 50.819938782020834], [-3.34343579959432, 50.8213726088858]]]}}, {"type": "Feature", "properties": {"type": "postcode-cell", "postcode": "EX15 2LP", "postcodes": ["EX15 2LP"]}, "geometry": {"type": "Polygon", "coordinates": [[[-3.346401789480526, 50.826394102488216], [-3.3435699895813022, 50.82582999482696], [-3.342259989579568, 50.82772999482848], [-3.34122998957861, 50.82837999482901], [-3.342809989578618, 50.830429994830595], [-3.3428499895783705, 50.83099999483104], [-3.3448399895796728, 50.83088999483092], [-3.344869989579527, 50.8312299948312], [-3.34359998957815, 50.832439994832164], [-3.34346998957776, 50.83307999483267], [-3.3432423834487484, 50.83321894457382], [-3.3400035579971377, 50.83112931105692], [-3.3396161992617506, 50.830582257959676], [-3.340604737037218, 50.82401477206362], [-3.3418431555374566, 50.82419534994325], [-3.346401789480526, 50.826394102488216]]]}}, {"type": "Feature", "properties": {"type": "postcode-cell", "postcode": "EX15 2LD", "postcodes": ["EX15 2LD"]}, "geometry": {"type": "Polygon", "coordinates": [[[-3.342489811259494, 50.819938782020834], [-3.3369195778256886, 50.82209210938871], [-3.3371931509473978, 50.81984201559441], [-3.341630998584585, 50.818202196105545], [-3.3423866849946644, 50.818730365216425], [-3.342489811259494, 50.819938782020834]]]}}, {"type": "Feature", "properties": {"type": "postcode-cell", "postcode": "EX15 2LF", "postcodes": ["EX15 2LF"]}, "geometry": {"type": "Polygon", "coordinates": [[[-3.3369195778256886, 50.82209210938871], [-3.3368259915613656, 50.822257078924565], [-3.3322385517302813, 50.823911310533596], [-3.3283313850690117, 50.823137305057834], [-3.3269176957898448, 50.82115336366963], [-3.3312570151826586, 50.81595466787307], [-3.3371931509473978, 50.81984201559441], [-3.3369195778256886, 50.82209210938871]]]}}, {"type": "Feature", "properties": {"type": "postcode-cell", "postcode": "EX15 2LL", "postcodes": ["EX15 2LL"]}, "geometry": {"type": "Polygon", "coordinates": [[[-3.3329128900744025, 50.83700427965554], [-3.3291621261316604, 50.836050677751395], [-3.325726862695799, 50.82978376230032], [-3.3400035579971377, 50.83112931105692], [-3.3432423834487484, 50.83321894457382], [-3.341749989576178, 50.83412999483354], [-3.3407099895749117, 50.83540999483456], [-3.340812888735317, 50.83546775279451], [-3.3329128900744025, 50.83700427965554]]]}}, {"type": "Feature", "properties": {"type": "postcode-cell", "postcode": "EX5 2SG", "postcodes": ["EX5 2SG"]}, "geometry": {"type": "Polygon", "coordinates": [[[-3.327127224839022, 50.79764682985672], [-3.3246360141134312, 50.79746893243597], [-3.3235121364127713, 50.797072612787815], [-3.32242682661768, 50.793303725400655], [-3.3240689936845182, 50.790790927505455], [-3.3264228173954433, 50.788919629686994], [-3.3320057689410274, 50.78896299271055], [-3.327127224839022, 50.79764682985672]]]}}, {"type": "Feature", "properties": {"type": "postcode-cell", "postcode": "EX15 2LE", "postcodes": ["EX15 2LE"]}, "geometry": {"type": "Polygon", "coordinates": [[[-3.3371931509473978, 50.81984201559441], [-3.3312570151826586, 50.81595466787307], [-3.3323057088699346, 50.81282787942976], [-3.338152134782403, 50.809614710591525], [-3.339354342436313, 50.812582707422536], [-3.339389989584895, 50.81287999481678], [-3.339462556456342, 50.81284984538704], [-3.341630998584585, 50.818202196105545], [-3.3371931509473978, 50.81984201559441]]]}}, {"type": "Feature", "properties": {"type": "postcode-cell", "postcode": "EX5 2RY", "postcodes": ["EX5 2RY"]}, "geometry": {"type": "Polygon", "coordinates": [[[-3.3204567227843653, 50.77362963921387], [-3.3219558771011464, 50.760970843909625], [-3.327079989602964, 50.75932999477484], [-3.3280599896029104, 50.76070999477592], [-3.328059989602163, 50.76225999477714], [-3.3287899896017468, 50.76406999477853], [-3.3279199896006837, 50.76514999477943], [-3.3278799895998956, 50.76672999478065], [-3.3301099896000084, 50.769389994782706], [-3.3315199895986742, 50.773989994786305], [-3.3313899895981725, 50.77485999478698], [-3.331158290838106, 50.77517305093358], [-3.3204567227843653, 50.77362963921387]]]}}, {"type": "Feature", "properties": {"type": "postcode-cell", "postcode": "EX5 2RB", "postcodes": ["EX5 2RB"]}, "geometry": {"type": "Polygon", "coordinates": [[[-3.3339682596237012, 50.78683332048118], [-3.332020225946219, 50.78652881785062], [-3.3282663921432936, 50.783940540459774], [-3.3293035068262644, 50.782942372840544], [-3.3352609331262095, 50.78641617949783], [-3.3339682596237012, 50.78683332048118]]]}}, {"type": "Feature", "properties": {"type": "postcode-cell", "postcode": "EX15 2BY", "postcodes": ["EX15 2BY"]}, "geometry": {"type": "Polygon", "coordinates": [[[-3.341025287891287, 50.84879356107488], [-3.3393699895672424, 50.84964999484583], [-3.3342134144542763, 50.851428960783785], [-3.328266763527605, 50.844992534912116], [-3.328441114489868, 50.84428381163249], [-3.328550118004164, 50.844005176933344], [-3.3381418245224044, 50.84455804697106], [-3.341025287891287, 50.84879356107488]]]}}, {"type": "Feature", "properties": {"type": "postcode-cell", "postcode": "EX15 2DF", "postcodes": ["EX15 2DF"]}, "geometry": {"type": "Polygon", "coordinates": [[[-3.3381418245224044, 50.84455804697106], [-3.328550118004164, 50.844005176933344], [-3.328172077309497, 50.84340387444051], [-3.3279596753039318, 50.84284002225456], [-3.3329128900744025, 50.83700427965554], [-3.340812888735317, 50.83546775279451], [-3.3422599895754685, 50.83627999483522], [-3.3424803763218733, 50.837014623376994], [-3.3381418245224044, 50.84455804697106]]]}}, {"type": "Feature", "properties": {"type": "postcode-cell", "postcode": "EX15 2DZ", "postcodes": ["EX15 2DZ"]}, "geometry": {"type": "Polygon", "coordinates": [[[-3.3248792156218405, 50.8552933217181], [-3.3202621701638555, 50.851558204270766], [-3.3225308001684866, 50.849701747644424], [-3.3301064376569216, 50.85275672825123], [-3.3310699895589453, 50.85607999485102], [-3.3295232576362954, 50.85647221281068], [-3.3248792156218405, 50.8552933217181]]]}}, {"type": "Feature", "properties": {"type": "postcode-cell", "postcode": "EX15 2DE", "postcodes": ["EX15 2DE"]}, "geometry": {"type": "Polygon", "coordinates": [[[-3.3279596753039318, 50.84284002225456], [-3.318308113404016, 50.8395055726214], [-3.3179532726125585, 50.83927178859865], [-3.317152860200963, 50.83656699981921], [-3.3291621261316604, 50.836050677751395], [-3.3329128900744025, 50.83700427965554], [-3.3279596753039318, 50.84284002225456]]]}}, {"type": "Feature", "properties": {"type": "postcode-cell", "postcode": "EX5 2RA", "postcodes": ["EX5 2RA"]}, "geometry": {"type": "Polygon", "coordinates": [[[-3.3352609331262095, 50.78641617949783], [-3.3293035068262644, 50.782942372840544], [-3.3260112265334505, 50.78017158845552], [-3.3262841854637712, 50.77941891994518], [-3.3298690420926773, 50.77691491530144], [-3.3295099895957754, 50.77739999478898], [-3.3326599895976816, 50.777529994789056], [-3.3430399896046055, 50.7766299947882], [-3.3448699896045535, 50.77911999479012], [-3.344009989603737, 50.77969999479059], [-3.345929989604178, 50.78127999479181], [-3.3467018722793185, 50.78367062593252], [-3.3352609331262095, 50.78641617949783]]]}}, {"type": "Feature", "properties": {"type": "postcode-cell", "postcode": "EX5 2RX", "postcodes": ["EX5 2RX"]}, "geometry": {"type": "Polygon", "coordinates": [[[-3.3262841854637712, 50.77941891994518], [-3.3219563885742796, 50.7793313628086], [-3.3137613291570323, 50.77762423955455], [-3.317539287571837, 50.77402062552457], [-3.3204567227843653, 50.77362963921387], [-3.331158290838106, 50.77517305093358], [-3.3298690420926773, 50.77691491530144], [-3.3262841854637712, 50.77941891994518]]]}}, {"type": "Feature", "properties": {"type": "postcode-cell", "postcode": "EX5 2RE", "postcodes": ["EX5 2RE"]}, "geometry": {"type": "Polygon", "coordinates": [[[-3.332020225946219, 50.78652881785062], [-3.326003749953626, 50.78627975839081], [-3.3251070090902575, 50.785629369165584], [-3.323736571699867, 50.783084369116196], [-3.3247293540014127, 50.78218393084288], [-3.3282663921432936, 50.783940540459774], [-3.332020225946219, 50.78652881785062]]]}}, {"type": "Feature", "properties": {"type": "postcode-cell", "postcode": "EX5 2RD", "postcodes": ["EX5 2RD"]}, "geometry": {"type": "Polygon", "coordinates": [[[-3.3293035068262644, 50.782942372840544], [-3.3282663921432936, 50.783940540459774], [-3.3247293540014127, 50.78218393084288], [-3.3260112265334505, 50.78017158845552], [-3.3293035068262644, 50.782942372840544]]]}}, {"type": "Feature", "properties": {"type": "postcode-cell", "postcode": "EX5 2RJ", "postcodes": ["EX5 2RJ"]}, "geometry": {"type": "Polygon", "coordinates": [[[-3.3339682596237012, 50.78683332048118], [-3.3320057689410274, 50.78896299271055], [-3.3264228173954433, 50.788919629686994], [-3.3254949787065393, 50.78707940940724], [-3.325742246286751, 50.78660446533454], [-3.326003749953626, 50.78627975839081], [-3.332020225946219, 50.78652881785062], [-3.3339682596237012, 50.78683332048118]]]}}, {"type": "Feature", "properties": {"type": "postcode-cell", "postcode": "EX5 2SD", "postcodes": ["EX5 2SD"]}, "geometry": {"type": "Polygon", "coordinates": [[[-3.3247293540014127, 50.78218393084288], [-3.323736571699867, 50.783084369116196], [-3.3189802954370946, 50.78370890353617], [-3.31767628808751, 50.78256537218596], [-3.3219563885742796, 50.7793313628086], [-3.3262841854637712, 50.77941891994518], [-3.3260112265334505, 50.78017158845552], [-3.3247293540014127, 50.78218393084288]]]}}, {"type": "Feature", "properties": {"type": "postcode-cell", "postcode": "EX15 2LJ", "postcodes": ["EX15 2LJ"]}, "geometry": {"type": "Polygon", "coordinates": [[[-3.3291621261316604, 50.836050677751395], [-3.317152860200963, 50.83656699981921], [-3.3155880064707266, 50.83529163765985], [-3.313410970011962, 50.83073604553156], [-3.3232452052259176, 50.828757607473115], [-3.325726862695799, 50.82978376230032], [-3.3291621261316604, 50.836050677751395]]]}}, {"type": "Feature", "properties": {"type": "postcode-cell", "postcode": "EX15 2ED", "postcodes": ["EX15 2ED"]}, "geometry": {"type": "Polygon", "coordinates": [[[-3.328266763527605, 50.844992534912116], [-3.322433878078177, 50.849288621878216], [-3.3181497827045443, 50.847068117944374], [-3.3187324572170316, 50.846252299198206], [-3.3197262008913055, 50.8457118955553], [-3.328441114489868, 50.84428381163249], [-3.328266763527605, 50.844992534912116]]]}}, {"type": "Feature", "properties": {"type": "postcode-cell", "postcode": "EX5 2SH", "postcodes": ["EX5 2SH"]}, "geometry": {"type": "Polygon", "coordinates": [[[-3.3236214093403555, 50.787979228952125], [-3.3220992071945803, 50.788167424974915], [-3.32134647005198, 50.78755782942869], [-3.325742246286751, 50.78660446533454], [-3.3254949787065393, 50.78707940940724], [-3.3254078745677105, 50.78714778087678], [-3.3236214093403555, 50.787979228952125]]]}}, {"type": "Feature", "properties": {"type": "postcode-cell", "postcode": "EX5 2RH", "postcodes": ["EX5 2RH"]}, "geometry": {"type": "Polygon", "coordinates": [[[-3.3254078745677105, 50.78714778087678], [-3.324203114187664, 50.789849088984404], [-3.3236214093403555, 50.787979228952125], [-3.3254078745677105, 50.78714778087678]]]}}, {"type": "Feature", "properties": {"type": "postcode-cell", "postcode": "EX5 2RL", "postcodes": ["EX5 2RL"]}, "geometry": {"type": "Polygon", "coordinates": [[[-3.3254949787065393, 50.78707940940724], [-3.3264228173954433, 50.788919629686994], [-3.3240689936845182, 50.790790927505455], [-3.324203114187664, 50.789849088984404], [-3.3254078745677105, 50.78714778087678], [-3.3254949787065393, 50.78707940940724]]]}}, {"type": "Feature", "properties": {"type": "postcode-cell", "postcode": "EX5 2RQ", "postcodes": ["EX5 2RQ"]}, "geometry": {"type": "Polygon", "coordinates": [[[-3.3240689936845182, 50.790790927505455], [-3.32242682661768, 50.793303725400655], [-3.322282383229314, 50.7931117937379], [-3.3220992071945803, 50.788167424974915], [-3.3236214093403555, 50.787979228952125], [-3.324203114187664, 50.789849088984404], [-3.3240689936845182, 50.790790927505455]]]}}, {"type": "Feature", "properties": {"type": "postcode-cell", "postcode": "EX15 2DX", "postcodes": ["EX15 2DX"]}, "geometry": {"type": "Polygon", "coordinates": [[[-3.3189104100024323, 50.85498488521762], [-3.3248792156218405, 50.8552933217181], [-3.3295232576362954, 50.85647221281068], [-3.328269989556847, 50.85678999485163], [-3.3282999895567515, 50.85702999485184], [-3.325339989554917, 50.85697999485183], [-3.321559989552287, 50.857519994852304], [-3.3192399895511033, 50.856949994851874], [-3.3193999895516355, 50.856049994851176], [-3.318813150795471, 50.85517319689526], [-3.3189104100024323, 50.85498488521762]]]}}, {"type": "Feature", "properties": {"type": "postcode-cell", "postcode": "EX15 2DG", "postcodes": ["EX15 2DG"]}, "geometry": {"type": "Polygon", "coordinates": [[[-3.3342134144542763, 50.851428960783785], [-3.33249998956179, 50.85201999484781], [-3.3313599895610464, 50.85207999484787], [-3.3307499895608688, 50.85164999484752], [-3.329689989560193, 50.85166999484757], [-3.329429989559912, 50.85191999484777], [-3.3300899895599527, 50.852699994848365], [-3.3301064376569216, 50.85275672825123], [-3.3225308001684866, 50.849701747644424], [-3.322433878078177, 50.849288621878216], [-3.328266763527605, 50.844992534912116], [-3.3342134144542763, 50.851428960783785]]]}}, {"type": "Feature", "properties": {"type": "postcode-cell", "postcode": "EX15 2EE", "postcodes": ["EX15 2EE"]}, "geometry": {"type": "Polygon", "coordinates": [[[-3.328550118004164, 50.844005176933344], [-3.328441114489868, 50.84428381163249], [-3.3197262008913055, 50.8457118955553], [-3.3211748371604175, 50.84446240517156], [-3.328172077309497, 50.84340387444051], [-3.328550118004164, 50.844005176933344]]]}}, {"type": "Feature", "properties": {"type": "postcode-cell", "postcode": "EX15 2LG", "postcodes": ["EX15 2LG"]}, "geometry": {"type": "Polygon", "coordinates": [[[-3.3312570151826586, 50.81595466787307], [-3.3269176957898448, 50.82115336366963], [-3.322391952768237, 50.820353929595086], [-3.3177414863426637, 50.81641436275598], [-3.32408874770681, 50.81256576247028], [-3.3323057088699346, 50.81282787942976], [-3.3312570151826586, 50.81595466787307]]]}}, {"type": "Feature", "properties": {"type": "postcode-cell", "postcode": "EX15 2GA", "postcodes": ["EX15 2GA"]}, "geometry": {"type": "Polygon", "coordinates": [[[-3.328172077309497, 50.84340387444051], [-3.3211748371604175, 50.84446240517156], [-3.318420335459008, 50.84000633391556], [-3.318308113404016, 50.8395055726214], [-3.3279596753039318, 50.84284002225456], [-3.328172077309497, 50.84340387444051]]]}}, {"type": "Feature", "properties": {"type": "postcode-cell", "postcode": "EX15 2LH", "postcodes": ["EX15 2LH"]}, "geometry": {"type": "Polygon", "coordinates": [[[-3.3283313850690117, 50.823137305057834], [-3.3232452052259176, 50.828757607473115], [-3.313410970011962, 50.83073604553156], [-3.3133820675008074, 50.83072317591022], [-3.3116299962429108, 50.82806942840588], [-3.3122215565407633, 50.824830958179845], [-3.322391952768237, 50.820353929595086], [-3.3269176957898448, 50.82115336366963], [-3.3283313850690117, 50.823137305057834]]]}}, {"type": "Feature", "properties": {"type": "postcode-cell", "postcode": "EX11 1LR", "postcodes": ["EX11 1LR"]}, "geometry": {"type": "Polygon", "coordinates": [[[-3.29556821809045, 50.76767767358715], [-3.2944499895791197, 50.766609994781064], [-3.2973899895808416, 50.76682999478118], [-3.297402694633472, 50.766828388496606], [-3.29556821809045, 50.76767767358715]]]}}, {"type": "Feature", "properties": {"type": "postcode-cell", "postcode": "EX5 2RZ", "postcodes": ["EX5 2RZ"]}, "geometry": {"type": "Polygon", "coordinates": [[[-3.3204567227843653, 50.77362963921387], [-3.317539287571837, 50.77402062552457], [-3.3087546591095554, 50.76641771159844], [-3.3085328214617777, 50.765484333873935], [-3.3086844955892865, 50.76485028879123], [-3.311399989590766, 50.764349994779025], [-3.3219558771011464, 50.760970843909625], [-3.3204567227843653, 50.77362963921387]]]}}, {"type": "Feature", "properties": {"type": "postcode-cell", "postcode": "EX14 3HN", "postcodes": ["EX14 3HN"]}, "geometry": {"type": "Polygon", "coordinates": [[[-3.32408874770681, 50.81256576247028], [-3.3177414863426637, 50.81641436275598], [-3.3114070590285913, 50.81578575236398], [-3.309122413405157, 50.81350660112765], [-3.309182408485478, 50.81013928341975], [-3.3133773567320475, 50.8096472274703], [-3.3197548442840823, 50.80960027910463], [-3.32408874770681, 50.81256576247028]]]}}, {"type": "Feature", "properties": {"type": "postcode-cell", "postcode": "EX5 2SE", "postcodes": ["EX5 2SE"]}, "geometry": {"type": "Polygon", "coordinates": [[[-3.3220992071945803, 50.788167424974915], [-3.322282383229314, 50.7931117937379], [-3.318647487177283, 50.78989640288703], [-3.3211921842003833, 50.78748581078682], [-3.32134647005198, 50.78755782942869], [-3.3220992071945803, 50.788167424974915]]]}}, {"type": "Feature", "properties": {"type": "postcode-cell", "postcode": "EX5 2RP", "postcodes": ["EX5 2RP"]}, "geometry": {"type": "Polygon", "coordinates": [[[-3.32242682661768, 50.793303725400655], [-3.3235121364127713, 50.797072612787815], [-3.313817867872693, 50.79682787752042], [-3.311238185288615, 50.79528002710439], [-3.3111942088858415, 50.79217742777101], [-3.314350813998957, 50.787509908252375], [-3.318647487177283, 50.78989640288703], [-3.322282383229314, 50.7931117937379], [-3.32242682661768, 50.793303725400655]]]}}, {"type": "Feature", "properties": {"type": "postcode-cell", "postcode": "EX5 2RG", "postcodes": ["EX5 2RG"]}, "geometry": {"type": "Polygon", "coordinates": [[[-3.325742246286751, 50.78660446533454], [-3.32134647005198, 50.78755782942869], [-3.3211921842003833, 50.78748581078682], [-3.320405374154174, 50.78666381871432], [-3.3251070090902575, 50.785629369165584], [-3.326003749953626, 50.78627975839081], [-3.325742246286751, 50.78660446533454]]]}}, {"type": "Feature", "properties": {"type": "postcode-cell", "postcode": "EX5 2RW", "postcodes": ["EX5 2RW"]}, "geometry": {"type": "Polygon", "coordinates": [[[-3.3211921842003833, 50.78748581078682], [-3.318647487177283, 50.78989640288703], [-3.314350813998957, 50.787509908252375], [-3.314326154742832, 50.78739672375], [-3.317842470055082, 50.78575913997955], [-3.320405374154174, 50.78666381871432], [-3.3211921842003833, 50.78748581078682]]]}}, {"type": "Feature", "properties": {"type": "postcode-cell", "postcode": "EX5 2RF", "postcodes": ["EX5 2RF"]}, "geometry": {"type": "Polygon", "coordinates": [[[-3.3251070090902575, 50.785629369165584], [-3.320405374154174, 50.78666381871432], [-3.317842470055082, 50.78575913997955], [-3.3189802954370946, 50.78370890353617], [-3.323736571699867, 50.783084369116196], [-3.3251070090902575, 50.785629369165584]]]}}, {"type": "Feature", "properties": {"type": "postcode-cell", "postcode": "EX14 3HG", "postcodes": ["EX14 3HG"]}, "geometry": {"type": "Polygon", "coordinates": [[[-3.3246360141134312, 50.79746893243597], [-3.3199968480559523, 50.80386333873586], [-3.3193437717130028, 50.804045483098385], [-3.313581730302335, 50.8046527892471], [-3.31093869623568, 50.79966166515098], [-3.313817867872693, 50.79682787752042], [-3.3235121364127713, 50.797072612787815], [-3.3246360141134312, 50.79746893243597]]]}}, {"type": "Feature", "properties": {"type": "postcode-cell", "postcode": "EX15 2EF", "postcodes": ["EX15 2EF"]}, "geometry": {"type": "Polygon", "coordinates": [[[-3.3187324572170316, 50.846252299198206], [-3.318420335459008, 50.84000633391556], [-3.3211748371604175, 50.84446240517156], [-3.3197262008913055, 50.8457118955553], [-3.3187324572170316, 50.846252299198206]]]}}, {"type": "Feature", "properties": {"type": "postcode-cell", "postcode": "EX5 2SB", "postcodes": ["EX5 2SB"]}, "geometry": {"type": "Polygon", "coordinates": [[[-3.31767628808751, 50.78256537218596], [-3.3106137133270863, 50.77898676979701], [-3.3137613291570323, 50.77762423955455], [-3.3219563885742796, 50.7793313628086], [-3.31767628808751, 50.78256537218596]]]}}, {"type": "Feature", "properties": {"type": "postcode-cell", "postcode": "EX15 2EA", "postcodes": ["EX15 2EA"]}, "geometry": {"type": "Polygon", "coordinates": [[[-3.3202621701638555, 50.851558204270766], [-3.3181497065150487, 50.852631365990796], [-3.311527348031669, 50.85190785789501], [-3.313199723160457, 50.84914757100533], [-3.3153842947509133, 50.8470140779716], [-3.3181497827045443, 50.847068117944374], [-3.322433878078177, 50.849288621878216], [-3.3225308001684866, 50.849701747644424], [-3.3202621701638555, 50.851558204270766]]]}}, {"type": "Feature", "properties": {"type": "postcode-cell", "postcode": "EX15 2EG", "postcodes": ["EX15 2EG"]}, "geometry": {"type": "Polygon", "coordinates": [[[-3.318420335459008, 50.84000633391556], [-3.3187324572170316, 50.846252299198206], [-3.3181497827045443, 50.847068117944374], [-3.3153842947509133, 50.8470140779716], [-3.3129388334570984, 50.845035902409336], [-3.3123315089088994, 50.8442056988602], [-3.312122068494891, 50.84372296858419], [-3.3179532726125585, 50.83927178859865], [-3.318308113404016, 50.8395055726214], [-3.318420335459008, 50.84000633391556]]]}}, {"type": "Feature", "properties": {"type": "postcode-cell", "postcode": "EX15 2DY", "postcodes": ["EX15 2DY"]}, "geometry": {"type": "Polygon", "coordinates": [[[-3.3248792156218405, 50.8552933217181], [-3.3189104100024323, 50.85498488521762], [-3.3181497065150487, 50.852631365990796], [-3.3202621701638555, 50.851558204270766], [-3.3248792156218405, 50.8552933217181]]]}}, {"type": "Feature", "properties": {"type": "postcode-cell", "postcode": "EX14 3HH", "postcodes": ["EX14 3HH"]}, "geometry": {"type": "Polygon", "coordinates": [[[-3.3197548442840823, 50.80960027910463], [-3.3133773567320475, 50.8096472274703], [-3.3193437717130028, 50.804045483098385], [-3.3199968480559523, 50.80386333873586], [-3.3215098572699273, 50.80723652082929], [-3.3197548442840823, 50.80960027910463]]]}}, {"type": "Feature", "properties": {"type": "postcode-cell", "postcode": "EX15 2EY", "postcodes": ["EX15 2EY"]}, "geometry": {"type": "Polygon", "coordinates": [[[-3.308009921603037, 50.853105374439274], [-3.311527348031669, 50.85190785789501], [-3.3181497065150487, 50.852631365990796], [-3.3189104100024323, 50.85498488521762], [-3.318813150795471, 50.85517319689526], [-3.3185499895517117, 50.85477999485016], [-3.312039989547286, 50.85549999485083], [-3.3061519161477424, 50.85443576630824], [-3.308009921603037, 50.853105374439274]]]}}, {"type": "Feature", "properties": {"type": "postcode-cell", "postcode": "EX5 2RU", "postcodes": ["EX5 2RU"]}, "geometry": {"type": "Polygon", "coordinates": [[[-3.3189802954370946, 50.78370890353617], [-3.317842470055082, 50.78575913997955], [-3.314326154742832, 50.78739672375], [-3.301942679245979, 50.78212321866038], [-3.30085047524285, 50.781110799217096], [-3.3035492849649084, 50.77989532929312], [-3.3106137133270863, 50.77898676979701], [-3.31767628808751, 50.78256537218596], [-3.3189802954370946, 50.78370890353617]]]}}, {"type": "Feature", "properties": {"type": "postcode-cell", "postcode": "EX5 2SA", "postcodes": ["EX5 2SA"]}, "geometry": {"type": "Polygon", "coordinates": [[[-3.3137613291570323, 50.77762423955455], [-3.3106137133270863, 50.77898676979701], [-3.3035492849649084, 50.77989532929312], [-3.3087546591095554, 50.76641771159844], [-3.317539287571837, 50.77402062552457], [-3.3137613291570323, 50.77762423955455]]]}}, {"type": "Feature", "properties": {"type": "postcode-cell", "postcode": "EX15 2LQ", "postcodes": ["EX15 2LQ"]}, "geometry": {"type": "Polygon", "coordinates": [[[-3.3177414863426637, 50.81641436275598], [-3.322391952768237, 50.820353929595086], [-3.3122215565407633, 50.824830958179845], [-3.3095100629367598, 50.82038033778085], [-3.3114070590285913, 50.81578575236398], [-3.3177414863426637, 50.81641436275598]]]}}, {"type": "Feature", "properties": {"type": "postcode-cell", "postcode": "EX15 2EQ", "postcodes": ["EX15 2EQ"]}, "geometry": {"type": "Polygon", "coordinates": [[[-3.3179532726125585, 50.83927178859865], [-3.312122068494891, 50.84372296858419], [-3.3073496084055076, 50.84285769774447], [-3.308578460496724, 50.83879410939125], [-3.3155880064707266, 50.83529163765985], [-3.317152860200963, 50.83656699981921], [-3.3179532726125585, 50.83927178859865]]]}}, {"type": "Feature", "properties": {"type": "postcode-cell", "postcode": "EX14 3HQ", "postcodes": ["EX14 3HQ"]}, "geometry": {"type": "Polygon", "coordinates": [[[-3.3133773567320475, 50.8096472274703], [-3.309182408485478, 50.81013928341975], [-3.3089280140335644, 50.809892058944115], [-3.3089000767123453, 50.809732462622485], [-3.313581730302335, 50.8046527892471], [-3.3193437717130028, 50.804045483098385], [-3.3133773567320475, 50.8096472274703]]]}}, {"type": "Feature", "properties": {"type": "postcode-cell", "postcode": "EX15 2EN", "postcodes": ["EX15 2EN"]}, "geometry": {"type": "Polygon", "coordinates": [[[-3.3153842947509133, 50.8470140779716], [-3.313199723160457, 50.84914757100533], [-3.309249870898528, 50.84736157891941], [-3.3129388334570984, 50.845035902409336], [-3.3153842947509133, 50.8470140779716]]]}}, {"type": "Feature", "properties": {"type": "postcode-cell", "postcode": "EX14 3LN", "postcodes": ["EX14 3LN"]}, "geometry": {"type": "Polygon", "coordinates": [[[-3.313410970011962, 50.83073604553156], [-3.3155880064707266, 50.83529163765985], [-3.308578460496724, 50.83879410939125], [-3.2971020625480505, 50.83819617925089], [-3.2976525437185087, 50.83492973604338], [-3.2997551460268513, 50.83422148570658], [-3.3133820675008074, 50.83072317591022], [-3.313410970011962, 50.83073604553156]]]}}, {"type": "Feature", "properties": {"type": "postcode-cell", "postcode": "EX14 3HD", "postcodes": ["EX14 3HD"]}, "geometry": {"type": "Polygon", "coordinates": [[[-3.3089280140335644, 50.809892058944115], [-3.3024690155344, 50.80974634822276], [-3.3000900291660384, 50.808193607761396], [-3.2989494726336868, 50.8056712297378], [-3.298922637442192, 50.803779775955306], [-3.299778281141146, 50.802712912110685], [-3.300382118567587, 50.80238441880846], [-3.303745770011906, 50.80299034756859], [-3.3089000767123453, 50.809732462622485], [-3.3089280140335644, 50.809892058944115]]]}}, {"type": "Feature", "properties": {"type": "postcode-cell", "postcode": "EX14 3HF", "postcodes": ["EX14 3HF"]}, "geometry": {"type": "Polygon", "coordinates": [[[-3.313581730302335, 50.8046527892471], [-3.3089000767123453, 50.809732462622485], [-3.303745770011906, 50.80299034756859], [-3.31093869623568, 50.79966166515098], [-3.313581730302335, 50.8046527892471]]]}}, {"type": "Feature", "properties": {"type": "postcode-cell", "postcode": "EX5 2RR", "postcodes": ["EX5 2RR"]}, "geometry": {"type": "Polygon", "coordinates": [[[-3.3111942088858415, 50.79217742777101], [-3.303038488970821, 50.78661513008496], [-3.302939989574921, 50.78625999479637], [-3.3031899895753365, 50.78571999479594], [-3.3026899895764967, 50.782669994793544], [-3.3019499895762965, 50.782129994793145], [-3.301942679245979, 50.78212321866038], [-3.314326154742832, 50.78739672375], [-3.314350813998957, 50.787509908252375], [-3.3111942088858415, 50.79217742777101]]]}}, {"type": "Feature", "properties": {"type": "postcode-cell", "postcode": "EX14 3HZ", "postcodes": ["EX14 3HZ"]}, "geometry": {"type": "Polygon", "coordinates": [[[-3.3095100629367598, 50.82038033778085], [-3.301254644886061, 50.82068634451605], [-3.295486443191174, 50.81837512507732], [-3.294736347752782, 50.81715802121423], [-3.309122413405157, 50.81350660112765], [-3.3114070590285913, 50.81578575236398], [-3.3095100629367598, 50.82038033778085]]]}}, {"type": "Feature", "properties": {"type": "postcode-cell", "postcode": "EX14 3HE", "postcodes": ["EX14 3HE"]}, "geometry": {"type": "Polygon", "coordinates": [[[-3.313817867872693, 50.79682787752042], [-3.31093869623568, 50.79966166515098], [-3.303745770011906, 50.80299034756859], [-3.300382118567587, 50.80238441880846], [-3.297734441743257, 50.79838874758106], [-3.2991155210557372, 50.79406842135781], [-3.311238185288615, 50.79528002710439], [-3.313817867872693, 50.79682787752042]]]}}, {"type": "Feature", "properties": {"type": "postcode-cell", "postcode": "EX14 3LX", "postcodes": ["EX14 3LX"]}, "geometry": {"type": "Polygon", "coordinates": [[[-3.265211780779224, 50.853020292530076], [-3.2624399895176754, 50.85257999484918], [-3.2553199895130973, 50.85286999484951], [-3.2562699895141747, 50.85185999484868], [-3.247139989510425, 50.847849994845674], [-3.246209989509908, 50.84771999484557], [-3.243099989507794, 50.848089994845914], [-3.2428099895077107, 50.84788999484577], [-3.243649989508693, 50.84693999484499], [-3.240739989507318, 50.84603999484433], [-3.2418499895082924, 50.84544999484385], [-3.242219989509421, 50.84358999484239], [-3.242209989509695, 50.843009994841914], [-3.240929989508888, 50.84302999484195], [-3.2408699895093505, 50.84199999484114], [-3.2451999895119648, 50.842159994841204], [-3.247959989513833, 50.84184999484091], [-3.2495399895151182, 50.84122999484043], [-3.2519299895185942, 50.83710999483713], [-3.253919989520664, 50.83538999483576], [-3.254846350201693, 50.83404322586314], [-3.265211780779224, 50.853020292530076]]]}}, {"type": "Feature", "properties": {"type": "postcode-cell", "postcode": "EX15 2GD", "postcodes": ["EX15 2GD"]}, "geometry": {"type": "Polygon", "coordinates": [[[-3.308009921603037, 50.853105374439274], [-3.3069576921514057, 50.84826196931374], [-3.3078553583942765, 50.847767866080105], [-3.3090338908779997, 50.84738638347945], [-3.309249870898528, 50.84736157891941], [-3.313199723160457, 50.84914757100533], [-3.311527348031669, 50.85190785789501], [-3.308009921603037, 50.853105374439274]]]}}, {"type": "Feature", "properties": {"type": "postcode-cell", "postcode": "EX11 1LT", "postcodes": ["EX11 1LT"]}, "geometry": {"type": "Polygon", "coordinates": [[[-3.3087546591095554, 50.76641771159844], [-3.3035492849649084, 50.77989532929312], [-3.30085047524285, 50.781110799217096], [-3.300169989575984, 50.780479994791875], [-3.299229989578637, 50.77376999478662], [-3.2981199895783075, 50.773019994786054], [-3.2973599895784895, 50.77165999478499], [-3.296648982571664, 50.77109867888989], [-3.3085328214617777, 50.765484333873935], [-3.3087546591095554, 50.76641771159844]]]}}, {"type": "Feature", "properties": {"type": "postcode-cell", "postcode": "EX15 2EJ", "postcodes": ["EX15 2EJ"]}, "geometry": {"type": "Polygon", "coordinates": [[[-3.3123315089088994, 50.8442056988602], [-3.308719926899963, 50.84610935154588], [-3.3079597609182088, 50.84617440956746], [-3.3056248364166136, 50.84529112305829], [-3.3051980369392484, 50.84325255464344], [-3.3073496084055076, 50.84285769774447], [-3.312122068494891, 50.84372296858419], [-3.3123315089088994, 50.8442056988602]]]}}, {"type": "Feature", "properties": {"type": "postcode-cell", "postcode": "EX5 2RS", "postcodes": ["EX5 2RS"]}, "geometry": {"type": "Polygon", "coordinates": [[[-3.311238185288615, 50.79528002710439], [-3.2991155210557372, 50.79406842135781], [-3.2981577070456227, 50.79311920568782], [-3.3015999895719292, 50.790729994799904], [-3.3028699895734057, 50.78930999479877], [-3.3036999895740733, 50.788999994798516], [-3.303038488970821, 50.78661513008496], [-3.3111942088858415, 50.79217742777101], [-3.311238185288615, 50.79528002710439]]]}}, {"type": "Feature", "properties": {"type": "postcode-cell", "postcode": "EX15 2EL", "postcodes": ["EX15 2EL"]}, "geometry": {"type": "Polygon", "coordinates": [[[-3.3123315089088994, 50.8442056988602], [-3.3129388334570984, 50.845035902409336], [-3.309249870898528, 50.84736157891941], [-3.3090338908779997, 50.84738638347945], [-3.308719926899963, 50.84610935154588], [-3.3123315089088994, 50.8442056988602]]]}}, {"type": "Feature", "properties": {"type": "postcode-cell", "postcode": "EX14 3JA", "postcodes": ["EX14 3JA"]}, "geometry": {"type": "Polygon", "coordinates": [[[-3.3116299962429108, 50.82806942840588], [-3.302018457201278, 50.82601269139108], [-3.301254644886061, 50.82068634451605], [-3.3095100629367598, 50.82038033778085], [-3.3122215565407633, 50.824830958179845], [-3.3116299962429108, 50.82806942840588]]]}}, {"type": "Feature", "properties": {"type": "postcode-cell", "postcode": "EX15 2ES", "postcodes": ["EX15 2ES"]}, "geometry": {"type": "Polygon", "coordinates": [[[-3.308009921603037, 50.853105374439274], [-3.3061519161477424, 50.85443576630824], [-3.306119989544089, 50.85442999485006], [-3.301576750990998, 50.854579556202935], [-3.301163153355637, 50.8478054122129], [-3.305169020599588, 50.84718293325287], [-3.3069576921514057, 50.84826196931374], [-3.308009921603037, 50.853105374439274]]]}}, {"type": "Feature", "properties": {"type": "postcode-cell", "postcode": "EX15 2EP", "postcodes": ["EX15 2EP"]}, "geometry": {"type": "Polygon", "coordinates": [[[-3.3069576921514057, 50.84826196931374], [-3.305169020599588, 50.84718293325287], [-3.3056248364166136, 50.84529112305829], [-3.3079597609182088, 50.84617440956746], [-3.3078553583942765, 50.847767866080105], [-3.3069576921514057, 50.84826196931374]]]}}, {"type": "Feature", "properties": {"type": "postcode-cell", "postcode": "EX15 2EH", "postcodes": ["EX15 2EH"]}, "geometry": {"type": "Polygon", "coordinates": [[[-3.3073496084055076, 50.84285769774447], [-3.3051980369392484, 50.84325255464344], [-3.2991616355269104, 50.84228861166674], [-3.297062108615333, 50.83826181516313], [-3.2971020625480505, 50.83819617925089], [-3.308578460496724, 50.83879410939125], [-3.3073496084055076, 50.84285769774447]]]}}, {"type": "Feature", "properties": {"type": "postcode-cell", "postcode": "EX15 2EW", "postcodes": ["EX15 2EW"]}, "geometry": {"type": "Polygon", "coordinates": [[[-3.3078553583942765, 50.847767866080105], [-3.3079597609182088, 50.84617440956746], [-3.308719926899963, 50.84610935154588], [-3.3090338908779997, 50.84738638347945], [-3.3078553583942765, 50.847767866080105]]]}}, {"type": "Feature", "properties": {"type": "postcode-cell", "postcode": "EX14 3NL", "postcodes": ["EX14 3NL"]}, "geometry": {"type": "Polygon", "coordinates": [[[-3.298922637442192, 50.803779775955306], [-3.295814337649585, 50.80574615850243], [-3.289036203496305, 50.804171949880114], [-3.2891526282035346, 50.80347754140109], [-3.299778281141146, 50.802712912110685], [-3.298922637442192, 50.803779775955306]]]}}, {"type": "Feature", "properties": {"type": "postcode-cell", "postcode": "EX15 2ER", "postcodes": ["EX15 2ER"]}, "geometry": {"type": "Polygon", "coordinates": [[[-3.305169020599588, 50.84718293325287], [-3.301163153355637, 50.8478054122129], [-3.2973738383717723, 50.84490235792061], [-3.2991616355269104, 50.84228861166674], [-3.3051980369392484, 50.84325255464344], [-3.3056248364166136, 50.84529112305829], [-3.305169020599588, 50.84718293325287]]]}}, {"type": "Feature", "properties": {"type": "postcode-cell", "postcode": "EX14 3LJ", "postcodes": ["EX14 3LJ"]}, "geometry": {"type": "Polygon", "coordinates": [[[-3.2997551460268513, 50.83422148570658], [-3.3000984199686463, 50.83067913204937], [-3.301332215719285, 50.82611546157373], [-3.302018457201278, 50.82601269139108], [-3.3116299962429108, 50.82806942840588], [-3.3133820675008074, 50.83072317591022], [-3.2997551460268513, 50.83422148570658]]]}}, {"type": "Feature", "properties": {"type": "postcode-cell", "postcode": "EX14 3LH", "postcodes": ["EX14 3LH"]}, "geometry": {"type": "Polygon", "coordinates": [[[-3.2997551460268513, 50.83422148570658], [-3.2976525437185087, 50.83492973604338], [-3.295764071361371, 50.833721716910595], [-3.29424087003146, 50.82895023729106], [-3.298961312283024, 50.82684467785274], [-3.3000984199686463, 50.83067913204937], [-3.2997551460268513, 50.83422148570658]]]}}, {"type": "Feature", "properties": {"type": "postcode-cell", "postcode": "EX14 3HY", "postcodes": ["EX14 3HY"]}, "geometry": {"type": "Polygon", "coordinates": [[[-3.309182408485478, 50.81013928341975], [-3.309122413405157, 50.81350660112765], [-3.294736347752782, 50.81715802121423], [-3.293406306923571, 50.81651850981135], [-3.2938086302046954, 50.81278424420869], [-3.2954263732506446, 50.8116205865895], [-3.2975112161615314, 50.81083828060929], [-3.3024690155344, 50.80974634822276], [-3.3089280140335644, 50.809892058944115], [-3.309182408485478, 50.81013928341975]]]}}, {"type": "Feature", "properties": {"type": "postcode-cell", "postcode": "EX14 3JB", "postcodes": ["EX14 3JB"]}, "geometry": {"type": "Polygon", "coordinates": [[[-3.301332215719285, 50.82611546157373], [-3.3002220320550766, 50.82619994198971], [-3.2938479516998806, 50.82274362219382], [-3.295486443191174, 50.81837512507732], [-3.301254644886061, 50.82068634451605], [-3.302018457201278, 50.82601269139108], [-3.301332215719285, 50.82611546157373]]]}}, {"type": "Feature", "properties": {"type": "postcode-cell", "postcode": "EX15 2ET", "postcodes": ["EX15 2ET"]}, "geometry": {"type": "Polygon", "coordinates": [[[-3.2864223589513846, 50.849650483069276], [-3.2973738383717723, 50.84490235792061], [-3.301163153355637, 50.8478054122129], [-3.301576750990998, 50.854579556202935], [-3.2976099895386257, 50.85470999485039], [-3.2932099895361397, 50.85414999485], [-3.2916799895350475, 50.854429994850264], [-3.2893799895338502, 50.85392999484989], [-3.284109989530181, 50.854709994850566], [-3.2815573114263707, 50.85570220718762], [-3.2864223589513846, 50.849650483069276]]]}}, {"type": "Feature", "properties": {"type": "postcode-cell", "postcode": "EX14 3NA", "postcodes": ["EX14 3NA"]}, "geometry": {"type": "Polygon", "coordinates": [[[-3.2989494726336868, 50.8056712297378], [-3.3000900291660384, 50.808193607761396], [-3.2977443848996626, 50.80783199062916], [-3.2976797043226544, 50.80763659355383], [-3.2989494726336868, 50.8056712297378]]]}}, {"type": "Feature", "properties": {"type": "postcode-cell", "postcode": "EX14 3HU", "postcodes": ["EX14 3HU"]}, "geometry": {"type": "Polygon", "coordinates": [[[-3.2976797043226544, 50.80763659355383], [-3.2955687198332573, 50.80671401831138], [-3.295699594926666, 50.80587941972594], [-3.295814337649585, 50.80574615850243], [-3.298922637442192, 50.803779775955306], [-3.2989494726336868, 50.8056712297378], [-3.2976797043226544, 50.80763659355383]]]}}, {"type": "Feature", "properties": {"type": "postcode-cell", "postcode": "EX14 3LP", "postcodes": ["EX14 3LP"]}, "geometry": {"type": "Polygon", "coordinates": [[[-3.2991616355269104, 50.84228861166674], [-3.2973738383717723, 50.84490235792061], [-3.2864223589513846, 50.849650483069276], [-3.2861676253121144, 50.84039497439662], [-3.28890743774361, 50.839760385869376], [-3.297062108615333, 50.83826181516313], [-3.2991616355269104, 50.84228861166674]]]}}, {"type": "Feature", "properties": {"type": "postcode-cell", "postcode": "EX14 3HX", "postcodes": ["EX14 3HX"]}, "geometry": {"type": "Polygon", "coordinates": [[[-3.3024690155344, 50.80974634822276], [-3.2975112161615314, 50.81083828060929], [-3.297436694384218, 50.808052308926015], [-3.2977443848996626, 50.80783199062916], [-3.3000900291660384, 50.808193607761396], [-3.3024690155344, 50.80974634822276]]]}}, {"type": "Feature", "properties": {"type": "postcode-cell", "postcode": "EX14 3LL", "postcodes": ["EX14 3LL"]}, "geometry": {"type": "Polygon", "coordinates": [[[-3.301332215719285, 50.82611546157373], [-3.3000984199686463, 50.83067913204937], [-3.298961312283024, 50.82684467785274], [-3.3002220320550766, 50.82619994198971], [-3.301332215719285, 50.82611546157373]]]}}, {"type": "Feature", "properties": {"type": "postcode-cell", "postcode": "EX14 3LW", "postcodes": ["EX14 3LW"]}, "geometry": {"type": "Polygon", "coordinates": [[[-3.297062108615333, 50.83826181516313], [-3.28890743774361, 50.839760385869376], [-3.28780674892394, 50.833156347518155], [-3.295764071361371, 50.833721716910595], [-3.2976525437185087, 50.83492973604338], [-3.2971020625480505, 50.83819617925089], [-3.297062108615333, 50.83826181516313]]]}}, {"type": "Feature", "properties": {"type": "postcode-cell", "postcode": "EX14 3LQ", "postcodes": ["EX14 3LQ"]}, "geometry": {"type": "Polygon", "coordinates": [[[-3.29424087003146, 50.82895023729106], [-3.2893982864300475, 50.826557859587965], [-3.289659492009132, 50.82554685384293], [-3.2938479516998806, 50.82274362219382], [-3.3002220320550766, 50.82619994198971], [-3.298961312283024, 50.82684467785274], [-3.29424087003146, 50.82895023729106]]]}}, {"type": "Feature", "properties": {"type": "postcode-cell", "postcode": "EX14 3HA", "postcodes": ["EX14 3HA"]}, "geometry": {"type": "Polygon", "coordinates": [[[-3.295494100409403, 50.80681707640815], [-3.293770600893491, 50.807228952858296], [-3.2922425757358518, 50.80666586377425], [-3.292029803360275, 50.806462431554586], [-3.295699594926666, 50.80587941972594], [-3.2955687198332573, 50.80671401831138], [-3.295494100409403, 50.80681707640815]]]}}, {"type": "Feature", "properties": {"type": "postcode-cell", "postcode": "EX14 3HT", "postcodes": ["EX14 3HT"]}, "geometry": {"type": "Polygon", "coordinates": [[[-3.2955687198332573, 50.80671401831138], [-3.2976797043226544, 50.80763659355383], [-3.2977443848996626, 50.80783199062916], [-3.297436694384218, 50.808052308926015], [-3.29572220533625, 50.80810418358203], [-3.2954493328357124, 50.80735296171194], [-3.295494100409403, 50.80681707640815], [-3.2955687198332573, 50.80671401831138]]]}}, {"type": "Feature", "properties": {"type": "postcode-cell", "postcode": "EX14 3JD", "postcodes": ["EX14 3JD"]}, "geometry": {"type": "Polygon", "coordinates": [[[-3.295486443191174, 50.81837512507732], [-3.2938479516998806, 50.82274362219382], [-3.289659492009132, 50.82554685384293], [-3.2835170130225677, 50.8209900543373], [-3.291933381030342, 50.816611939108064], [-3.293406306923571, 50.81651850981135], [-3.294736347752782, 50.81715802121423], [-3.295486443191174, 50.81837512507732]]]}}, {"type": "Feature", "properties": {"type": "postcode-cell", "postcode": "EX14 3JR", "postcodes": ["EX14 3JR"]}, "geometry": {"type": "Polygon", "coordinates": [[[-3.2991155210557372, 50.79406842135781], [-3.297734441743257, 50.79838874758106], [-3.295555091902282, 50.79871763518161], [-3.290206929859835, 50.796963886269396], [-3.290129989561864, 50.796769994804826], [-3.290959989562391, 50.7967499948048], [-3.2908999895626394, 50.79615999480434], [-3.2914299895629537, 50.79618999480435], [-3.2913199895632275, 50.79547999480377], [-3.293889989564975, 50.79517999480352], [-3.294099989564912, 50.79557999480381], [-3.2972199895677323, 50.79376999480235], [-3.2981577070456227, 50.79311920568782], [-3.2991155210557372, 50.79406842135781]]]}}, {"type": "Feature", "properties": {"type": "postcode-cell", "postcode": "EX14 3HS", "postcodes": ["EX14 3HS"]}, "geometry": {"type": "Polygon", "coordinates": [[[-3.2938086302046954, 50.81278424420869], [-3.2900902092403985, 50.80991862093971], [-3.2926992650089937, 50.80813270217143], [-3.293570938623669, 50.808014682166295], [-3.293622598741193, 50.8080268476564], [-3.295174430791003, 50.80890118358284], [-3.2954263732506446, 50.8116205865895], [-3.2938086302046954, 50.81278424420869]]]}}, {"type": "Feature", "properties": {"type": "postcode-cell", "postcode": "EX14 3GD", "postcodes": ["EX14 3GD"]}, "geometry": {"type": "Polygon", "coordinates": [[[-3.2975112161615314, 50.81083828060929], [-3.2954263732506446, 50.8116205865895], [-3.295174430791003, 50.80890118358284], [-3.29572220533625, 50.80810418358203], [-3.297436694384218, 50.808052308926015], [-3.2975112161615314, 50.81083828060929]]]}}, {"type": "Feature", "properties": {"type": "postcode-cell", "postcode": "EX11 1LS", "postcodes": ["EX11 1LS"]}, "geometry": {"type": "Polygon", "coordinates": [[[-3.296648982571664, 50.77109867888989], [-3.2962199895782147, 50.77075999478431], [-3.296439989579439, 50.76850999478254], [-3.29556821809045, 50.76767767358715], [-3.297402694633472, 50.766828388496606], [-3.299129989582032, 50.766609994781], [-3.3086844955892865, 50.76485028879123], [-3.3085328214617777, 50.765484333873935], [-3.296648982571664, 50.77109867888989]]]}}, {"type": "Feature", "properties": {"type": "postcode-cell", "postcode": "EX14 3EZ", "postcodes": ["EX14 3EZ"]}, "geometry": {"type": "Polygon", "coordinates": [[[-3.2954493328357124, 50.80735296171194], [-3.293622598741193, 50.8080268476564], [-3.293570938623669, 50.808014682166295], [-3.293770600893491, 50.807228952858296], [-3.295494100409403, 50.80681707640815], [-3.2954493328357124, 50.80735296171194]]]}}, {"type": "Feature", "properties": {"type": "postcode-cell", "postcode": "EX14 3LY", "postcodes": ["EX14 3LY"]}, "geometry": {"type": "Polygon", "coordinates": [[[-3.2729930851200075, 50.841667290734705], [-3.285827229469922, 50.84025448870877], [-3.2861676253121144, 50.84039497439662], [-3.2864223589513846, 50.849650483069276], [-3.2815573114263707, 50.85570220718762], [-3.2812799895278824, 50.85580999485149], [-3.2771099895260845, 50.85412999485021], [-3.2757499895253273, 50.85393999485009], [-3.2686099895210527, 50.853559994849896], [-3.2663339385193644, 50.853198525588965], [-3.2729930851200075, 50.841667290734705]]]}}, {"type": "Feature", "properties": {"type": "postcode-cell", "postcode": "EX14 3NJ", "postcodes": ["EX14 3NJ"]}, "geometry": {"type": "Polygon", "coordinates": [[[-3.285827229469922, 50.84025448870877], [-3.2729930851200075, 50.841667290734705], [-3.2725448632403897, 50.839306651642715], [-3.273652862751414, 50.83864641015857], [-3.2810594506707838, 50.837522789495196], [-3.2824660173328177, 50.83792847918422], [-3.2853241728834117, 50.83959546031525], [-3.285827229469922, 50.84025448870877]]]}}, {"type": "Feature", "properties": {"type": "postcode-cell", "postcode": "EX14 3LR", "postcodes": ["EX14 3LR"]}, "geometry": {"type": "Polygon", "coordinates": [[[-3.2853241728834117, 50.83959546031525], [-3.2857223858983207, 50.83471894589924], [-3.2864374752204544, 50.83297976629002], [-3.28780674892394, 50.833156347518155], [-3.28890743774361, 50.839760385869376], [-3.2861676253121144, 50.84039497439662], [-3.285827229469922, 50.84025448870877], [-3.2853241728834117, 50.83959546031525]]]}}, {"type": "Feature", "properties": {"type": "postcode-cell", "postcode": "EX14 3HR", "postcodes": ["EX14 3HR"]}, "geometry": {"type": "Polygon", "coordinates": [[[-3.29572220533625, 50.80810418358203], [-3.295174430791003, 50.80890118358284], [-3.293622598741193, 50.8080268476564], [-3.2954493328357124, 50.80735296171194], [-3.29572220533625, 50.80810418358203]]]}}, {"type": "Feature", "properties": {"type": "postcode-cell", "postcode": "EX14 3JT", "postcodes": ["EX14 3JT"]}, "geometry": {"type": "Polygon", "coordinates": [[[-3.299778281141146, 50.802712912110685], [-3.2891526282035346, 50.80347754140109], [-3.2872134117302987, 50.8007938659321], [-3.295555091902282, 50.79871763518161], [-3.297734441743257, 50.79838874758106], [-3.300382118567587, 50.80238441880846], [-3.299778281141146, 50.802712912110685]]]}}, {"type": "Feature", "properties": {"type": "postcode-cell", "postcode": "EX14 3JX", "postcodes": ["EX14 3JX"]}, "geometry": {"type": "Polygon", "coordinates": [[[-3.293406306923571, 50.81651850981135], [-3.291933381030342, 50.816611939108064], [-3.2852166183563214, 50.81458947374886], [-3.2848132186785315, 50.81429008057116], [-3.2831618069646886, 50.81135056254313], [-3.284360370310332, 50.808242622932525], [-3.285586812757351, 50.80803370412351], [-3.2900902092403985, 50.80991862093971], [-3.2938086302046954, 50.81278424420869], [-3.293406306923571, 50.81651850981135]]]}}, {"type": "Feature", "properties": {"type": "postcode-cell", "postcode": "EX14 3HB", "postcodes": ["EX14 3HB"]}, "geometry": {"type": "Polygon", "coordinates": [[[-3.295814337649585, 50.80574615850243], [-3.295699594926666, 50.80587941972594], [-3.292029803360275, 50.806462431554586], [-3.288534843329308, 50.80540777150352], [-3.289036203496305, 50.804171949880114], [-3.295814337649585, 50.80574615850243]]]}}, {"type": "Feature", "properties": {"type": "postcode-cell", "postcode": "EX14 3JU", "postcodes": ["EX14 3JU"]}, "geometry": {"type": "Polygon", "coordinates": [[[-3.2900902092403985, 50.80991862093971], [-3.285586812757351, 50.80803370412351], [-3.288534843329308, 50.80540777150352], [-3.292029803360275, 50.806462431554586], [-3.2922425757358518, 50.80666586377425], [-3.2926992650089937, 50.80813270217143], [-3.2900902092403985, 50.80991862093971]]]}}, {"type": "Feature", "properties": {"type": "postcode-cell", "postcode": "EX14 3JP", "postcodes": ["EX14 3JP"]}, "geometry": {"type": "Polygon", "coordinates": [[[-3.293570938623669, 50.808014682166295], [-3.2926992650089937, 50.80813270217143], [-3.2922425757358518, 50.80666586377425], [-3.293770600893491, 50.807228952858296], [-3.293570938623669, 50.808014682166295]]]}}, {"type": "Feature", "properties": {"type": "postcode-cell", "postcode": "EX14 3JH", "postcodes": ["EX14 3JH"]}, "geometry": {"type": "Polygon", "coordinates": [[[-3.289036203496305, 50.804171949880114], [-3.288534843329308, 50.80540777150352], [-3.285586812757351, 50.80803370412351], [-3.284360370310332, 50.808242622932525], [-3.278660212866009, 50.80639866978452], [-3.2817493975168066, 50.801775270450854], [-3.282309989554635, 50.801649994808784], [-3.2851877473085676, 50.79995811561175], [-3.2872134117302987, 50.8007938659321], [-3.2891526282035346, 50.80347754140109], [-3.289036203496305, 50.804171949880114]]]}}, {"type": "Feature", "properties": {"type": "postcode-cell", "postcode": "EX14 3LG", "postcodes": ["EX14 3LG"]}, "geometry": {"type": "Polygon", "coordinates": [[[-3.295764071361371, 50.833721716910595], [-3.28780674892394, 50.833156347518155], [-3.2864374752204544, 50.83297976629002], [-3.2809555118235867, 50.829777119801776], [-3.2893982864300475, 50.826557859587965], [-3.29424087003146, 50.82895023729106], [-3.295764071361371, 50.833721716910595]]]}}, {"type": "Feature", "properties": {"type": "postcode-cell", "postcode": "EX14 3JJ", "postcodes": ["EX14 3JJ"]}, "geometry": {"type": "Polygon", "coordinates": [[[-3.278660212866009, 50.80639866978452], [-3.2695022592857095, 50.80713462264659], [-3.269599989544173, 50.806929994813125], [-3.268709989544082, 50.80596999481236], [-3.2688299895443893, 50.80548999481199], [-3.2700899895456415, 50.80451999481122], [-3.269479989545576, 50.80386999481071], [-3.268819989546346, 50.8014299948088], [-3.2712899895478484, 50.801499994808815], [-3.272879989548593, 50.80200999480919], [-3.278079989552002, 50.801649994808834], [-3.280519989553331, 50.80204999480913], [-3.2817493975168066, 50.801775270450854], [-3.278660212866009, 50.80639866978452]]]}}, {"type": "Feature", "properties": {"type": "postcode-cell", "postcode": "EX14 3JS", "postcodes": ["EX14 3JS"]}, "geometry": {"type": "Polygon", "coordinates": [[[-3.2872134117302987, 50.8007938659321], [-3.2851877473085676, 50.79995811561175], [-3.288619989560357, 50.797939994805766], [-3.290379989561715, 50.797399994805325], [-3.290206929859835, 50.796963886269396], [-3.295555091902282, 50.79871763518161], [-3.2872134117302987, 50.8007938659321]]]}}, {"type": "Feature", "properties": {"type": "postcode-cell", "postcode": "EX14 3JZ", "postcodes": ["EX14 3JZ"]}, "geometry": {"type": "Polygon", "coordinates": [[[-3.2809555118235867, 50.829777119801776], [-3.280785533529247, 50.82976953717448], [-3.2774700829275814, 50.82789079266673], [-3.277032391413238, 50.82152211359902], [-3.2773469595270615, 50.82124919529757], [-3.2835170130225677, 50.8209900543373], [-3.289659492009132, 50.82554685384293], [-3.2893982864300475, 50.826557859587965], [-3.2809555118235867, 50.829777119801776]]]}}, {"type": "Feature", "properties": {"type": "postcode-cell", "postcode": "EX14 3JE", "postcodes": ["EX14 3JE"]}, "geometry": {"type": "Polygon", "coordinates": [[[-3.2835170130225677, 50.8209900543373], [-3.2773469595270615, 50.82124919529757], [-3.2770289257800282, 50.819273765289246], [-3.2852166183563214, 50.81458947374886], [-3.291933381030342, 50.816611939108064], [-3.2835170130225677, 50.8209900543373]]]}}, {"type": "Feature", "properties": {"type": "postcode-cell", "postcode": "EX14 3LS", "postcodes": ["EX14 3LS"]}, "geometry": {"type": "Polygon", "coordinates": [[[-3.2864374752204544, 50.83297976629002], [-3.2857223858983207, 50.83471894589924], [-3.2823149336518913, 50.835800960376496], [-3.280451476753509, 50.834270361077856], [-3.280206478984146, 50.83343749208776], [-3.280445237960583, 50.830242508512164], [-3.280785533529247, 50.82976953717448], [-3.2809555118235867, 50.829777119801776], [-3.2864374752204544, 50.83297976629002]]]}}, {"type": "Feature", "properties": {"type": "postcode-cell", "postcode": "EX14 3JQ", "postcodes": ["EX14 3JQ"]}, "geometry": {"type": "Polygon", "coordinates": [[[-3.284360370310332, 50.808242622932525], [-3.2831618069646886, 50.81135056254313], [-3.273634260569041, 50.8131023691836], [-3.2691835672023477, 50.80780188805884], [-3.2695022592857095, 50.80713462264659], [-3.278660212866009, 50.80639866978452], [-3.284360370310332, 50.808242622932525]]]}}, {"type": "Feature", "properties": {"type": "postcode-cell", "postcode": "EX14 3JF", "postcodes": ["EX14 3JF"]}, "geometry": {"type": "Polygon", "coordinates": [[[-3.2770289257800282, 50.819273765289246], [-3.274080207163298, 50.814785941646605], [-3.2848132186785315, 50.81429008057116], [-3.2852166183563214, 50.81458947374886], [-3.2770289257800282, 50.819273765289246]]]}}, {"type": "Feature", "properties": {"type": "postcode-cell", "postcode": "EX14 3LZ", "postcodes": ["EX14 3LZ"]}, "geometry": {"type": "Polygon", "coordinates": [[[-3.2853241728834117, 50.83959546031525], [-3.2824660173328177, 50.83792847918422], [-3.2823149336518913, 50.835800960376496], [-3.2857223858983207, 50.83471894589924], [-3.2853241728834117, 50.83959546031525]]]}}, {"type": "Feature", "properties": {"type": "postcode-cell", "postcode": "EX14 3NQ", "postcodes": ["EX14 3NQ"]}, "geometry": {"type": "Polygon", "coordinates": [[[-3.2824660173328177, 50.83792847918422], [-3.2810594506707838, 50.837522789495196], [-3.2798884093904244, 50.8363668854764], [-3.280451476753509, 50.834270361077856], [-3.2823149336518913, 50.835800960376496], [-3.2824660173328177, 50.83792847918422]]]}}, {"type": "Feature", "properties": {"type": "postcode-cell", "postcode": "EX14 3JY", "postcodes": ["EX14 3JY"]}, "geometry": {"type": "Polygon", "coordinates": [[[-3.2773469595270615, 50.82124919529757], [-3.277032391413238, 50.82152211359902], [-3.2692669902035476, 50.821600085316234], [-3.266491806463141, 50.81713334235877], [-3.273952860955535, 50.81467949292534], [-3.274080207163298, 50.814785941646605], [-3.2770289257800282, 50.819273765289246], [-3.2773469595270615, 50.82124919529757]]]}}, {"type": "Feature", "properties": {"type": "postcode-cell", "postcode": "EX14 3NG", "postcodes": ["EX14 3NG"]}, "geometry": {"type": "Polygon", "coordinates": [[[-3.280451476753509, 50.834270361077856], [-3.2798884093904244, 50.8363668854764], [-3.2781714791180323, 50.83633388095478], [-3.278039157611037, 50.83538900023642], [-3.280206478984146, 50.83343749208776], [-3.280451476753509, 50.834270361077856]]]}}, {"type": "Feature", "properties": {"type": "postcode-cell", "postcode": "EX14 3JG", "postcodes": ["EX14 3JG"]}, "geometry": {"type": "Polygon", "coordinates": [[[-3.273952860955535, 50.81467949292534], [-3.273634260569041, 50.8131023691836], [-3.2831618069646886, 50.81135056254313], [-3.2848132186785315, 50.81429008057116], [-3.274080207163298, 50.814785941646605], [-3.273952860955535, 50.81467949292534]]]}}, {"type": "Feature", "properties": {"type": "postcode-cell", "postcode": "EX14 3NF", "postcodes": ["EX14 3NF"]}, "geometry": {"type": "Polygon", "coordinates": [[[-3.280206478984146, 50.83343749208776], [-3.278039157611037, 50.83538900023642], [-3.276473040712678, 50.835430983186626], [-3.27668998051192, 50.833880347057736], [-3.2794743064911844, 50.830878893522], [-3.280445237960583, 50.830242508512164], [-3.280206478984146, 50.83343749208776]]]}}, {"type": "Feature", "properties": {"type": "postcode-cell", "postcode": "EX14 3NE", "postcodes": ["EX14 3NE"]}, "geometry": {"type": "Polygon", "coordinates": [[[-3.274812210628686, 50.83471214735719], [-3.27668998051192, 50.833880347057736], [-3.276473040712678, 50.835430983186626], [-3.275058145014341, 50.836602167304626], [-3.274812210628686, 50.83471214735719]]]}}, {"type": "Feature", "properties": {"type": "postcode-cell", "postcode": "EX14 3LT", "postcodes": ["EX14 3LT"]}, "geometry": {"type": "Polygon", "coordinates": [[[-3.275058145014341, 50.836602167304626], [-3.274332782550404, 50.83798511354216], [-3.273652862751414, 50.83864641015857], [-3.2725448632403897, 50.839306651642715], [-3.2662386264026018, 50.83480292884901], [-3.2722897867729683, 50.833887944536045], [-3.274812210628686, 50.83471214735719], [-3.275058145014341, 50.836602167304626]]]}}, {"type": "Feature", "properties": {"type": "postcode-cell", "postcode": "EX14 3ND", "postcodes": ["EX14 3ND"]}, "geometry": {"type": "Polygon", "coordinates": [[[-3.2781714791180323, 50.83633388095478], [-3.274332782550404, 50.83798511354216], [-3.275058145014341, 50.836602167304626], [-3.276473040712678, 50.835430983186626], [-3.278039157611037, 50.83538900023642], [-3.2781714791180323, 50.83633388095478]]]}}, {"type": "Feature", "properties": {"type": "postcode-cell", "postcode": "EX14 3FF", "postcodes": ["EX14 3FF"]}, "geometry": {"type": "Polygon", "coordinates": [[[-3.27668998051192, 50.833880347057736], [-3.274812210628686, 50.83471214735719], [-3.2722897867729683, 50.833887944536045], [-3.2794743064911844, 50.830878893522], [-3.27668998051192, 50.833880347057736]]]}}, {"type": "Feature", "properties": {"type": "postcode-cell", "postcode": "EX14 3NH", "postcodes": ["EX14 3NH"]}, "geometry": {"type": "Polygon", "coordinates": [[[-3.2810594506707838, 50.837522789495196], [-3.273652862751414, 50.83864641015857], [-3.274332782550404, 50.83798511354216], [-3.2781714791180323, 50.83633388095478], [-3.2798884093904244, 50.8363668854764], [-3.2810594506707838, 50.837522789495196]]]}}, {"type": "Feature", "properties": {"type": "postcode-cell", "postcode": "EX14 3LF", "postcodes": ["EX14 3LF"]}, "geometry": {"type": "Polygon", "coordinates": [[[-3.2794743064911844, 50.830878893522], [-3.2722897867729683, 50.833887944536045], [-3.2662386264026018, 50.83480292884901], [-3.2573958403078453, 50.83128311176168], [-3.2584186886949533, 50.83041789305214], [-3.2774700829275814, 50.82789079266673], [-3.280785533529247, 50.82976953717448], [-3.280445237960583, 50.830242508512164], [-3.2794743064911844, 50.830878893522]]]}}, {"type": "Feature", "properties": {"type": "postcode-cell", "postcode": "EX14 3LB", "postcodes": ["EX14 3LB"]}, "geometry": {"type": "Polygon", "coordinates": [[[-3.273634260569041, 50.8131023691836], [-3.273952860955535, 50.81467949292534], [-3.266491806463141, 50.81713334235877], [-3.265292969440435, 50.81690700405124], [-3.265289989536886, 50.81645999482069], [-3.2635699895365256, 50.81498999481954], [-3.2573899895337637, 50.81274999481786], [-3.2556999895331495, 50.81184999481718], [-3.2571999895345263, 50.81092999481643], [-3.2593699895359145, 50.81084999481635], [-3.261709989537921, 50.80970999481543], [-3.2635199895392195, 50.809349994815115], [-3.2643599895394337, 50.80998999481561], [-3.2666799895408243, 50.81009999481567], [-3.2671799895409994, 50.81037999481586], [-3.267779989542051, 50.80897999481476], [-3.2683599895427005, 50.808379994814274], [-3.268959989543127, 50.808269994814175], [-3.2691835672023477, 50.80780188805884], [-3.273634260569041, 50.8131023691836]]]}}, {"type": "Feature", "properties": {"type": "postcode-cell", "postcode": "EX14 3LU", "postcodes": ["EX14 3LU"]}, "geometry": {"type": "Polygon", "coordinates": [[[-3.2729930851200075, 50.841667290734705], [-3.2663339385193644, 50.853198525588965], [-3.265211780779224, 50.853020292530076], [-3.254846350201693, 50.83404322586314], [-3.2552199895223866, 50.83349999483425], [-3.2564599895236612, 50.83245999483339], [-3.2561699895235474, 50.8323199948333], [-3.2573958403078453, 50.83128311176168], [-3.2662386264026018, 50.83480292884901], [-3.2725448632403897, 50.839306651642715], [-3.2729930851200075, 50.841667290734705]]]}}, {"type": "Feature", "properties": {"type": "postcode-cell", "postcode": "EX14 3LE", "postcodes": ["EX14 3LE"]}, "geometry": {"type": "Polygon", "coordinates": [[[-3.2692669902035476, 50.821600085316234], [-3.277032391413238, 50.82152211359902], [-3.2774700829275814, 50.82789079266673], [-3.2584186886949533, 50.83041789305214], [-3.258959989526425, 50.829959994831405], [-3.261030765383044, 50.82509860924519], [-3.2692669902035476, 50.821600085316234]]]}}, {"type": "Feature", "properties": {"type": "postcode-cell", "postcode": "EX14 3LA", "postcodes": ["EX14 3LA"]}, "geometry": {"type": "Polygon", "coordinates": [[[-3.266491806463141, 50.81713334235877], [-3.2692669902035476, 50.821600085316234], [-3.261030765383044, 50.82509860924519], [-3.2610599895301124, 50.82502999482748], [-3.2609299895308532, 50.82332999482614], [-3.2595299895309084, 50.82140999482468], [-3.2610799895335902, 50.81785999482184], [-3.2645099895353518, 50.81862999482239], [-3.2652999895361674, 50.817959994821855], [-3.265292969440435, 50.81690700405124], [-3.266491806463141, 50.81713334235877]]]}}]}