{"type": "FeatureCollection", "features": [{"type": "Feature", "properties": {"type": "ward-outline", "name": "Tamarside"}, "geometry": {"type": "Polygon", "coordinates": [[[-4.21944, 50.67249], [-4.2169, 50.67204], [-4.21554, 50.67138], [-4.21237, 50.66781], [-4.21118, 50.6679], [-4.2101, 50.66759], [-4.20847, 50.66568], [-4.20884, 50.66554], [-4.20836, 50.66441], [-4.20659, 50.66411], [-4.20674, 50.65908], [-4.20621, 50.65814], [-4.20542, 50.65818], [-4.2048, 50.65731], [-4.21861, 50.65567], [-4.22426, 50.6556], [-4.22622, 50.65523], [-4.23328, 50.65287], [-4.2339, 50.65262], [-4.23378, 50.65223], [-4.23207, 50.65094], [-4.23317, 50.6497], [-4.23527, 50.64807], [-4.23593, 50.64789], [-4.23658, 50.64657], [-4.24195, 50.64431], [-4.24295, 50.64334], [-4.24397, 50.64305], [-4.24396, 50.64254], [-4.24508, 50.6419], [-4.24128, 50.64063], [-4.2414, 50.64011], [-4.24019, 50.63947], [-4.23994, 50.63863], [-4.24018, 50.63715], [-4.24161, 50.636], [-4.24143, 50.63557], [-4.24363, 50.63314], [-4.24353, 50.63136], [-4.24209, 50.62858], [-4.2418, 50.62705], [-4.24364, 50.6234], [-4.24219, 50.62327], [-4.2393, 50.62367], [-4.23507, 50.62381], [-4.22934, 50.62345], [-4.22933, 50.62204], [-4.23033, 50.6201], [-4.23012, 50.61853], [-4.23259, 50.61619], [-4.23325, 50.61447], [-4.23715, 50.6122], [-4.23908, 50.61158], [-4.24188, 50.60974], [-4.24684, 50.6072], [-4.24767, 50.60614], [-4.24594, 50.60455], [-4.24625, 50.60379], [-4.25044, 50.60299], [-4.25191, 50.60136], [-4.25648, 50.59902], [-4.25929, 50.59893], [-4.26424, 50.59819], [-4.26605, 50.59739], [-4.27261, 50.59252], [-4.27887, 50.5868], [-4.28083, 50.58579], [-4.28148, 50.58504], [-4.28117, 50.58402], [-4.28512, 50.58482], [-4.28598, 50.58467], [-4.28655, 50.5841], [-4.28608, 50.58256], [-4.28248, 50.57898], [-4.28193, 50.57782], [-4.28274, 50.57617], [-4.28535, 50.57499], [-4.28661, 50.57507], [-4.28902, 50.57648], [-4.2896, 50.57804], [-4.28971, 50.58198], [-4.29102, 50.58372], [-4.29306, 50.58429], [-4.29475, 50.58438], [-4.29837, 50.5837], [-4.30524, 50.57904], [-4.30661, 50.57857], [-4.30806, 50.57894], [-4.30833, 50.58185], [-4.31122, 50.58487], [-4.31217, 50.5895], [-4.31117, 50.5919], [-4.3075, 50.59349], [-4.30631, 50.59477], [-4.3069, 50.5999], [-4.30845, 50.60269], [-4.30715, 50.60425], [-4.30343, 50.61153], [-4.30373, 50.6122], [-4.30639, 50.6141], [-4.30577, 50.61582], [-4.30746, 50.61835], [-4.30741, 50.62002], [-4.30619, 50.62087], [-4.30215, 50.62523], [-4.30184, 50.6274], [-4.30267, 50.62954], [-4.30181, 50.63138], [-4.30014, 50.63248], [-4.30015, 50.63352], [-4.30144, 50.63499], [-4.30264, 50.63572], [-4.30455, 50.63624], [-4.30894, 50.63573], [-4.31046, 50.63645], [-4.31143, 50.6375], [-4.31207, 50.63747], [-4.31399, 50.63615], [-4.31992, 50.63611], [-4.32594, 50.6379], [-4.32596, 50.63876], [-4.32521, 50.64019], [-4.3257, 50.64054], [-4.3281, 50.64076], [-4.32986, 50.64023], [-4.33111, 50.64042], [-4.33282, 50.64081], [-4.33368, 50.64144], [-4.33332, 50.64357], [-4.33523, 50.64654], [-4.33407, 50.64755], [-4.33311, 50.64759], [-4.33299, 50.64804], [-4.33171, 50.6482], [-4.33175, 50.64869], [-4.33233, 50.64864], [-4.33249, 50.64917], [-4.33147, 50.64924], [-4.33161, 50.6488], [-4.33035, 50.64891], [-4.32968, 50.64849], [-4.32891, 50.6495], [-4.3275, 50.64971], [-4.32681, 50.64941], [-4.32641, 50.64976], [-4.32567, 50.64957], [-4.32324, 50.65126], [-4.32289, 50.65178], [-4.32317, 50.65214], [-4.32173, 50.6533], [-4.31943, 50.65301], [-4.31917, 50.65365], [-4.3183, 50.65344], [-4.31729, 50.65387], [-4.31787, 50.65422], [-4.31684, 50.65487], [-4.31736, 50.65561], [-4.31702, 50.65583], [-4.31636, 50.65542], [-4.31501, 50.65678], [-4.31577, 50.65889], [-4.31432, 50.66021], [-4.31426, 50.66122], [-4.3131, 50.66242], [-4.3113, 50.6626], [-4.30796, 50.66355], [-4.30593, 50.66337], [-4.30398, 50.66471], [-4.29578, 50.66569], [-4.29272, 50.6653], [-4.29076, 50.66651], [-4.28972, 50.66615], [-4.28503, 50.66601], [-4.27732, 50.66906], [-4.27578, 50.6681], [-4.27357, 50.66784], [-4.27272, 50.66804], [-4.2707, 50.66773], [-4.26935, 50.66825], [-4.26651, 50.6686], [-4.26335, 50.66801], [-4.26198, 50.6682], [-4.26009, 50.66742], [-4.25908, 50.66734], [-4.25832, 50.66666], [-4.25657, 50.66642], [-4.25648, 50.66694], [-4.25519, 50.66642], [-4.25485, 50.66713], [-4.25286, 50.66761], [-4.25168, 50.66983], [-4.25001, 50.67079], [-4.24941, 50.67173], [-4.24713, 50.67281], [-4.24544, 50.67293], [-4.24346, 50.67358], [-4.24039, 50.67302], [-4.23793, 50.67202], [-4.23503, 50.67145], [-4.22812, 50.67135], [-4.22369, 50.67158], [-4.22216, 50.67124], [-4.22094, 50.67171], [-4.22076, 50.67245], [-4.21944, 50.67249]]]}}, {"type": "Feature", "properties": {"type": "postcode-cell", "postcode": "PL15 9QU", "postcodes": ["PL15 9QU"]}, "geometry": {"type": "Polygon", "coordinates": [[[-4.318304440833769, 50.65181930215893], [-4.318117190199918, 50.65120979074839], [-4.315285235510249, 50.63614128353906], [-4.319919990306304, 50.63610999466258], [-4.325939990309584, 50.63789999466395], [-4.325959990309218, 50.63875999466465], [-4.325209990308069, 50.640189994665775], [-4.325699990308248, 50.640539994666064], [-4.328099990309773, 50.64075999466619], [-4.329859990311203, 50.640229994665766], [-4.331109990311967, 50.640419994665905], [-4.332819990312952, 50.64080999466619], [-4.333679990313254, 50.64143999466668], [-4.333319990312064, 50.64356999466838], [-4.335229990312038, 50.646539994670746], [-4.334069990310799, 50.64754999467156], [-4.333109990310133, 50.64758999467163], [-4.33298999030985, 50.648039994671976], [-4.331709990308913, 50.648199994672126], [-4.3317499903087215, 50.64868999467251], [-4.332329990309135, 50.64863999467245], [-4.332489990309009, 50.64916999467289], [-4.331469990308284, 50.64923999467293], [-4.331609990308579, 50.6487999946726], [-4.330349990307672, 50.64890999467271], [-4.329679990307406, 50.648489994672374], [-4.3289099903064345, 50.649499994673185], [-4.327499990305383, 50.64970999467338], [-4.326809990305051, 50.64940999467316], [-4.326409990304626, 50.649759994673445], [-4.325669990304206, 50.64956999467331], [-4.323239990301807, 50.65125999467469], [-4.32288999030134, 50.6517799946751], [-4.32316999030137, 50.6521399946754], [-4.321729990299876, 50.65329999467633], [-4.320583643556859, 50.65315546145489], [-4.318304440833769, 50.65181930215893]]]}}, {"type": "Feature", "properties": {"type": "postcode-cell", "postcode": "PL16 0DD", "postcodes": ["PL16 0DD"]}, "geometry": {"type": "Polygon", "coordinates": [[[-4.3029516936591365, 50.64180483016412], [-4.3019006974822, 50.64226990691461], [-4.295744208514833, 50.641696702354984], [-4.295663903073469, 50.64163916511617], [-4.294623746196874, 50.63701275988056], [-4.297000573767434, 50.629692454391915], [-4.301914173719678, 50.62759127129387], [-4.30266999029757, 50.6295399946576], [-4.301809990296167, 50.63137999465908], [-4.3001399902945465, 50.632479994659995], [-4.3001499902940905, 50.63351999466078], [-4.301439990294303, 50.63498999466197], [-4.302639990294791, 50.63571999466254], [-4.304549990295849, 50.636239994662915], [-4.308939990299046, 50.63572999466247], [-4.310459990299753, 50.636449994662996], [-4.310885910435825, 50.636911049153824], [-4.3029516936591365, 50.64180483016412]]]}}, {"type": "Feature", "properties": {"type": "postcode-cell", "postcode": "PL16 0DB", "postcodes": ["PL16 0DB"]}, "geometry": {"type": "Polygon", "coordinates": [[[-4.318304440833769, 50.65181930215893], [-4.314179927934181, 50.65154083728195], [-4.302317899909399, 50.646031598708426], [-4.3019006974822, 50.64226990691461], [-4.3029516936591365, 50.64180483016412], [-4.318117190199918, 50.65120979074839], [-4.318304440833769, 50.65181930215893]]]}}, {"type": "Feature", "properties": {"type": "postcode-cell", "postcode": "PL16 0DA", "postcodes": ["PL16 0DA"]}, "geometry": {"type": "Polygon", "coordinates": [[[-4.318117190199918, 50.65120979074839], [-4.3029516936591365, 50.64180483016412], [-4.310885910435825, 50.636911049153824], [-4.311429990299939, 50.63749999466383], [-4.312069990300388, 50.63746999466381], [-4.313989990302276, 50.63614999466273], [-4.315285235510249, 50.63614128353906], [-4.318117190199918, 50.65120979074839]]]}}, {"type": "Feature", "properties": {"type": "postcode-cell", "postcode": "PL15 9PD", "postcodes": ["PL15 9PD"]}, "geometry": {"type": "MultiPolygon", "coordinates": [[[[-4.305796832191286, 50.61367632914051], [-4.306389990306977, 50.614099994645194], [-4.306316315799606, 50.61430438844067], [-4.305796832191286, 50.61367632914051]]], [[[-4.298197873682265, 50.60448690115886], [-4.300392811160511, 50.59898271543725], [-4.306928224733396, 50.594105013000046], [-4.306309990315559, 50.59476999462978], [-4.306899990313664, 50.59989999463388], [-4.308449990313464, 50.60268999463607], [-4.30714999031189, 50.60424999463733], [-4.303655974639639, 50.611087811209536], [-4.298197873682265, 50.60448690115886]]], [[[-4.311751565315483, 50.59050424424391], [-4.31116999032012, 50.59189999462745], [-4.308100815722852, 50.59322970664223], [-4.311751565315483, 50.59050424424391]]]]}}, {"type": "Feature", "properties": {"type": "postcode-cell", "postcode": "PL19 0QJ", "postcodes": ["PL19 0QJ"]}, "geometry": {"type": "Polygon", "coordinates": [[[-4.29366411446651, 50.59544003376298], [-4.286522920284484, 50.595685971340785], [-4.284538717103819, 50.58470227858429], [-4.285119990305738, 50.58481999462218], [-4.285979990306384, 50.58466999462206], [-4.286549990307022, 50.584099994621596], [-4.286079990307397, 50.58255999462038], [-4.283729820261789, 50.58022295688492], [-4.282978589748365, 50.576062126907], [-4.285349990310297, 50.57498999461437], [-4.286609990311111, 50.5750699946144], [-4.289019990312098, 50.57647999461549], [-4.289599990311789, 50.57803999461672], [-4.289709990310099, 50.58197999461986], [-4.2910199903101995, 50.58371999462122], [-4.293059990311318, 50.58428999462166], [-4.2947499903124156, 50.584379994621685], [-4.29836999031516, 50.58369999462111], [-4.305239990321875, 50.579039994617276], [-4.306609990323006, 50.57856999461686], [-4.308059990323821, 50.57893999461717], [-4.308329990322696, 50.58184999461947], [-4.311219990323296, 50.58486999462184], [-4.312065868140547, 50.58899258451589], [-4.29366411446651, 50.59544003376298]]]}}, {"type": "Feature", "properties": {"type": "postcode-cell", "postcode": "PL16 0EB", "postcodes": ["PL16 0EB"]}, "geometry": {"type": "Polygon", "coordinates": [[[-4.290844740476056, 50.65792257197691], [-4.2938714170084955, 50.65419665216248], [-4.314179927934181, 50.65154083728195], [-4.318304440833769, 50.65181930215893], [-4.320583643556859, 50.65315546145489], [-4.3194299902984445, 50.65300999467614], [-4.319169990297986, 50.653649994676655], [-4.31829999029749, 50.6534399946765], [-4.317289990296613, 50.65386999467685], [-4.317869990296852, 50.65421999467711], [-4.316839990295863, 50.65486999467766], [-4.317359990295887, 50.65560999467827], [-4.317019990295558, 50.65582999467841], [-4.316359990295292, 50.655419994678105], [-4.315009990293772, 50.656779994679205], [-4.315769990293348, 50.6588899946809], [-4.31431999029178, 50.66020999468198], [-4.314259990291288, 50.66121999468278], [-4.3130999902899685, 50.662419994683766], [-4.31129999028867, 50.662599994683944], [-4.3079599902859815, 50.66354999468474], [-4.305929990284686, 50.66336999468462], [-4.303979990282768, 50.66470999468571], [-4.295779990276781, 50.665689994686616], [-4.292719990274883, 50.665299994686336], [-4.29268353994534, 50.66532249804493], [-4.290844740476056, 50.65792257197691]]]}}, {"type": "Feature", "properties": {"type": "postcode-cell", "postcode": "PL16 0BZ", "postcodes": ["PL16 0BZ"]}, "geometry": {"type": "Polygon", "coordinates": [[[-4.314179927934181, 50.65154083728195], [-4.2938714170084955, 50.65419665216248], [-4.293528171676193, 50.6511589601942], [-4.302317899909399, 50.646031598708426], [-4.314179927934181, 50.65154083728195]]]}}, {"type": "Feature", "properties": {"type": "postcode-cell", "postcode": "PL16 0DH", "postcodes": ["PL16 0DH"]}, "geometry": {"type": "Polygon", "coordinates": [[[-4.294803635830861, 50.643064578661715], [-4.295744208514833, 50.641696702354984], [-4.3019006974822, 50.64226990691461], [-4.302317899909399, 50.646031598708426], [-4.293528171676193, 50.6511589601942], [-4.292458445413745, 50.64979631997577], [-4.294803635830861, 50.643064578661715]]]}}, {"type": "Feature", "properties": {"type": "postcode-cell", "postcode": "PL16 0BX", "postcodes": ["PL16 0BX"]}, "geometry": {"type": "Polygon", "coordinates": [[[-4.292458445413745, 50.64979631997577], [-4.288290249036391, 50.64773752509923], [-4.288345398524603, 50.646061871287685], [-4.290084485368265, 50.64412934791154], [-4.294803635830861, 50.643064578661715], [-4.292458445413745, 50.64979631997577]]]}}, {"type": "Feature", "properties": {"type": "postcode-cell", "postcode": "PL16 0EA", "postcodes": ["PL16 0EA"]}, "geometry": {"type": "Polygon", "coordinates": [[[-4.293528171676193, 50.6511589601942], [-4.2938714170084955, 50.65419665216248], [-4.290844740476056, 50.65792257197691], [-4.275538907426223, 50.65321728883946], [-4.276150650936203, 50.64986043790669], [-4.280686228979184, 50.64790474703031], [-4.282394708877107, 50.647527068797515], [-4.285231076129534, 50.647259643410955], [-4.288290249036391, 50.64773752509923], [-4.292458445413745, 50.64979631997577], [-4.293528171676193, 50.6511589601942]]]}}, {"type": "Feature", "properties": {"type": "postcode-cell", "postcode": "PL19 0QR", "postcodes": ["PL19 0QR"]}, "geometry": {"type": "Polygon", "coordinates": [[[-4.29366411446651, 50.59544003376298], [-4.300392811160511, 50.59898271543725], [-4.298197873682265, 50.60448690115886], [-4.284723202067405, 50.598764354025164], [-4.286522920284484, 50.595685971340785], [-4.29366411446651, 50.59544003376298]]]}}, {"type": "Feature", "properties": {"type": "postcode-cell", "postcode": "PL19 0QN", "postcodes": ["PL19 0QN"]}, "geometry": {"type": "Polygon", "coordinates": [[[-4.308100815722852, 50.59322970664223], [-4.307499990316937, 50.59348999462875], [-4.306928224733396, 50.594105013000046], [-4.300392811160511, 50.59898271543725], [-4.29366411446651, 50.59544003376298], [-4.312065868140547, 50.58899258451589], [-4.312169990321869, 50.589499994625506], [-4.311751565315483, 50.59050424424391], [-4.308100815722852, 50.59322970664223]]]}}, {"type": "Feature", "properties": {"type": "postcode-cell", "postcode": "PL16 0BG", "postcodes": ["PL16 0BG"]}, "geometry": {"type": "Polygon", "coordinates": [[[-4.295663903073469, 50.64163916511617], [-4.290923364511555, 50.641316396872895], [-4.29046839899236, 50.6412202205786], [-4.288573617701826, 50.64073398277252], [-4.287354374778072, 50.63995393926742], [-4.286212535690686, 50.63886250323509], [-4.294623746196874, 50.63701275988056], [-4.295663903073469, 50.64163916511617]]]}}, {"type": "Feature", "properties": {"type": "postcode-cell", "postcode": "PL16 0DG", "postcodes": ["PL16 0DG"]}, "geometry": {"type": "Polygon", "coordinates": [[[-4.297000573767434, 50.629692454391915], [-4.2798832170154, 50.632126788211785], [-4.275985914731704, 50.625871098956], [-4.279961135146401, 50.62248814156063], [-4.307407889285852, 50.62002145851164], [-4.306189990303819, 50.620869994650626], [-4.302149990299141, 50.62522999465417], [-4.301839990297963, 50.62739999465588], [-4.301914173719678, 50.62759127129387], [-4.297000573767434, 50.629692454391915]]]}}, {"type": "Feature", "properties": {"type": "postcode-cell", "postcode": "PL19 0QS", "postcodes": ["PL19 0QS"]}, "geometry": {"type": "Polygon", "coordinates": [[[-4.303655974639639, 50.611087811209536], [-4.303429990306125, 50.6115299946432], [-4.303729990306028, 50.612199994643724], [-4.305796832191286, 50.61367632914051], [-4.306316315799606, 50.61430438844067], [-4.30617505844808, 50.61469627117804], [-4.282118114562656, 50.61170562239098], [-4.275768003930402, 50.602306152276654], [-4.284723202067405, 50.598764354025164], [-4.298197873682265, 50.60448690115886], [-4.303655974639639, 50.611087811209536]]]}}, {"type": "Feature", "properties": {"type": "postcode-cell", "postcode": "PL16 0EZ", "postcodes": ["PL16 0EZ"]}, "geometry": {"type": "Polygon", "coordinates": [[[-4.295663903073469, 50.64163916511617], [-4.295744208514833, 50.641696702354984], [-4.294803635830861, 50.643064578661715], [-4.290084485368265, 50.64412934791154], [-4.289098072936071, 50.643593003023106], [-4.289094435061009, 50.643489919831005], [-4.290923364511555, 50.641316396872895], [-4.295663903073469, 50.64163916511617]]]}}, {"type": "Feature", "properties": {"type": "postcode-cell", "postcode": "PL16 0FA", "postcodes": ["PL16 0FA"]}, "geometry": {"type": "Polygon", "coordinates": [[[-4.287888291619258, 50.64492206603977], [-4.287903414216404, 50.64430555325621], [-4.289098072936071, 50.643593003023106], [-4.290084485368265, 50.64412934791154], [-4.288345398524603, 50.646061871287685], [-4.287888291619258, 50.64492206603977]]]}}, {"type": "Feature", "properties": {"type": "postcode-cell", "postcode": "PL16 0DY", "postcodes": ["PL16 0DY"]}, "geometry": {"type": "Polygon", "coordinates": [[[-4.288345398524603, 50.646061871287685], [-4.288290249036391, 50.64773752509923], [-4.285231076129534, 50.647259643410955], [-4.284998806582781, 50.646329361918305], [-4.284975586854424, 50.64526138346041], [-4.285900569831212, 50.644193794039424], [-4.286026430127865, 50.644184525836074], [-4.287888291619258, 50.64492206603977], [-4.288345398524603, 50.646061871287685]]]}}, {"type": "Feature", "properties": {"type": "postcode-cell", "postcode": "PL16 0HH", "postcodes": ["PL16 0HH"]}, "geometry": {"type": "Polygon", "coordinates": [[[-4.278028386736308, 50.6142097922213], [-4.2656186075785145, 50.61613371452252], [-4.262020576697332, 50.60812626590238], [-4.275299559665019, 50.60223455916903], [-4.275768003930402, 50.602306152276654], [-4.282118114562656, 50.61170562239098], [-4.278028386736308, 50.6142097922213]]]}}, {"type": "Feature", "properties": {"type": "postcode-cell", "postcode": "PL16 0DQ", "postcodes": ["PL16 0DQ"]}, "geometry": {"type": "Polygon", "coordinates": [[[-4.282118114562656, 50.61170562239098], [-4.30617505844808, 50.61469627117804], [-4.30576999030579, 50.61581999464658], [-4.3074599903058, 50.618349994648575], [-4.307409990305024, 50.62001999464993], [-4.307407889285852, 50.62002145851164], [-4.279961135146401, 50.62248814156063], [-4.278028386736308, 50.6142097922213], [-4.282118114562656, 50.61170562239098]]]}}, {"type": "Feature", "properties": {"type": "postcode-cell", "postcode": "PL16 0DE", "postcodes": ["PL16 0DE"]}, "geometry": {"type": "Polygon", "coordinates": [[[-4.294623746196874, 50.63701275988056], [-4.286212535690686, 50.63886250323509], [-4.285428101480307, 50.638526438362426], [-4.280642777910922, 50.63589470240661], [-4.278899560925305, 50.6332484866007], [-4.2798832170154, 50.632126788211785], [-4.297000573767434, 50.629692454391915], [-4.294623746196874, 50.63701275988056]]]}}, {"type": "Feature", "properties": {"type": "postcode-cell", "postcode": "PL19 0QP", "postcodes": ["PL19 0QP"]}, "geometry": {"type": "MultiPolygon", "coordinates": [[[[-4.283729820261789, 50.58022295688492], [-4.282479990306578, 50.578979994617576], [-4.28192999030673, 50.57781999461666], [-4.282739990308013, 50.57616999461534], [-4.282978589748365, 50.576062126907], [-4.283729820261789, 50.58022295688492]]], [[[-4.286522920284484, 50.595685971340785], [-4.284723202067405, 50.598764354025164], [-4.275768003930402, 50.602306152276654], [-4.275299559665019, 50.60223455916903], [-4.267297708973715, 50.596463820244786], [-4.27260999029387, 50.59251999462851], [-4.278869990300647, 50.58679999462385], [-4.280829990302414, 50.58578999462302], [-4.281479990303188, 50.58503999462243], [-4.281169990303437, 50.58401999462162], [-4.284538717103819, 50.58470227858429], [-4.286522920284484, 50.595685971340785]]]]}}, {"type": "Feature", "properties": {"type": "postcode-cell", "postcode": "PL16 0EY", "postcodes": ["PL16 0EY"]}, "geometry": {"type": "Polygon", "coordinates": [[[-4.290923364511555, 50.641316396872895], [-4.289094435061009, 50.643489919831005], [-4.288127133885499, 50.64322326066622], [-4.29046839899236, 50.6412202205786], [-4.290923364511555, 50.641316396872895]]]}}, {"type": "Feature", "properties": {"type": "postcode-cell", "postcode": "PL16 0FD", "postcodes": ["PL16 0FD"]}, "geometry": {"type": "Polygon", "coordinates": [[[-4.29046839899236, 50.6412202205786], [-4.288127133885499, 50.64322326066622], [-4.287610521464672, 50.6432287388584], [-4.287434959910009, 50.64281243130112], [-4.28841721650325, 50.64091468008214], [-4.288573617701826, 50.64073398277252], [-4.29046839899236, 50.6412202205786]]]}}, {"type": "Feature", "properties": {"type": "postcode-cell", "postcode": "PL16 0FB", "postcodes": ["PL16 0FB"]}, "geometry": {"type": "Polygon", "coordinates": [[[-4.287365120707037, 50.6437015196446], [-4.287337522931445, 50.643624355851514], [-4.287610521464672, 50.6432287388584], [-4.288127133885499, 50.64322326066622], [-4.289094435061009, 50.643489919831005], [-4.289098072936071, 50.643593003023106], [-4.287903414216404, 50.64430555325621], [-4.287365120707037, 50.6437015196446]]]}}, {"type": "Feature", "properties": {"type": "postcode-cell", "postcode": "PL16 0DZ", "postcodes": ["PL16 0DZ"]}, "geometry": {"type": "Polygon", "coordinates": [[[-4.287903414216404, 50.64430555325621], [-4.287888291619258, 50.64492206603977], [-4.286026430127865, 50.644184525836074], [-4.286149576590177, 50.64409501722979], [-4.287365120707037, 50.6437015196446], [-4.287903414216404, 50.64430555325621]]]}}, {"type": "Feature", "properties": {"type": "postcode-cell", "postcode": "PL16 0BN", "postcodes": ["PL16 0BN"]}, "geometry": {"type": "Polygon", "coordinates": [[[-4.28841721650325, 50.64091468008214], [-4.28637612356603, 50.64227012152533], [-4.285769205882001, 50.64242437405047], [-4.285085481896086, 50.64200714838749], [-4.287354374778072, 50.63995393926742], [-4.288573617701826, 50.64073398277252], [-4.28841721650325, 50.64091468008214]]]}}, {"type": "Feature", "properties": {"type": "postcode-cell", "postcode": "PL16 0LB", "postcodes": ["PL16 0LB"]}, "geometry": {"type": "Polygon", "coordinates": [[[-4.287434959910009, 50.64281243130112], [-4.28654476523316, 50.64287497486125], [-4.28637612356603, 50.64227012152533], [-4.28841721650325, 50.64091468008214], [-4.287434959910009, 50.64281243130112]]]}}, {"type": "Feature", "properties": {"type": "postcode-cell", "postcode": "PL16 0LD", "postcodes": ["PL16 0LD"]}, "geometry": {"type": "Polygon", "coordinates": [[[-4.287610521464672, 50.6432287388584], [-4.287337522931445, 50.643624355851514], [-4.286379639343134, 50.643420212870836], [-4.286039641920486, 50.643251141111634], [-4.285987404952666, 50.643129936626224], [-4.28654476523316, 50.64287497486125], [-4.287434959910009, 50.64281243130112], [-4.287610521464672, 50.6432287388584]]]}}, {"type": "Feature", "properties": {"type": "postcode-cell", "postcode": "PL16 0BU", "postcodes": ["PL16 0BU"]}, "geometry": {"type": "Polygon", "coordinates": [[[-4.287337522931445, 50.643624355851514], [-4.287365120707037, 50.6437015196446], [-4.286149576590177, 50.64409501722979], [-4.286379639343134, 50.643420212870836], [-4.287337522931445, 50.643624355851514]]]}}, {"type": "Feature", "properties": {"type": "postcode-cell", "postcode": "PL16 0BT", "postcodes": ["PL16 0BT"]}, "geometry": {"type": "Polygon", "coordinates": [[[-4.286149576590177, 50.64409501722979], [-4.286026430127865, 50.644184525836074], [-4.285900569831212, 50.644193794039424], [-4.2853922173128565, 50.6438323395168], [-4.286039641920486, 50.643251141111634], [-4.286379639343134, 50.643420212870836], [-4.286149576590177, 50.64409501722979]]]}}, {"type": "Feature", "properties": {"type": "postcode-cell", "postcode": "PL16 0LA", "postcodes": ["PL16 0LA"]}, "geometry": {"type": "Polygon", "coordinates": [[[-4.285987404952666, 50.643129936626224], [-4.285610975453879, 50.64294548606457], [-4.285769205882001, 50.64242437405047], [-4.28637612356603, 50.64227012152533], [-4.28654476523316, 50.64287497486125], [-4.285987404952666, 50.643129936626224]]]}}, {"type": "Feature", "properties": {"type": "postcode-cell", "postcode": "PL16 0BD", "postcodes": ["PL16 0BD"]}, "geometry": {"type": "Polygon", "coordinates": [[[-4.286212535690686, 50.63886250323509], [-4.287354374778072, 50.63995393926742], [-4.285085481896086, 50.64200714838749], [-4.284605098646222, 50.6421088543168], [-4.284040962571175, 50.642140778381304], [-4.283921662123451, 50.64202130853883], [-4.285428101480307, 50.638526438362426], [-4.286212535690686, 50.63886250323509]]]}}, {"type": "Feature", "properties": {"type": "postcode-cell", "postcode": "PL16 0BS", "postcodes": ["PL16 0BS"]}, "geometry": {"type": "Polygon", "coordinates": [[[-4.286039641920486, 50.643251141111634], [-4.2853922173128565, 50.6438323395168], [-4.284360153964695, 50.64378204366588], [-4.284345173767579, 50.64377334010938], [-4.284327518478774, 50.64375178238283], [-4.284802435749727, 50.643218635191666], [-4.285013028713465, 50.64303887716484], [-4.285404514893214, 50.642952179646635], [-4.285610975453879, 50.64294548606457], [-4.285987404952666, 50.643129936626224], [-4.286039641920486, 50.643251141111634]]]}}, {"type": "Feature", "properties": {"type": "postcode-cell", "postcode": "PL16 0DX", "postcodes": ["PL16 0DX"]}, "geometry": {"type": "Polygon", "coordinates": [[[-4.284975586854424, 50.64526138346041], [-4.28464993606671, 50.64474826143659], [-4.284360153964695, 50.64378204366588], [-4.2853922173128565, 50.6438323395168], [-4.285900569831212, 50.644193794039424], [-4.284975586854424, 50.64526138346041]]]}}, {"type": "Feature", "properties": {"type": "postcode-cell", "postcode": "PL16 0FE", "postcodes": ["PL16 0FE"]}, "geometry": {"type": "Polygon", "coordinates": [[[-4.285610975453879, 50.64294548606457], [-4.285404514893214, 50.642952179646635], [-4.284605098646222, 50.6421088543168], [-4.285085481896086, 50.64200714838749], [-4.285769205882001, 50.64242437405047], [-4.285610975453879, 50.64294548606457]]]}}, {"type": "Feature", "properties": {"type": "postcode-cell", "postcode": "PL16 0BW", "postcodes": ["PL16 0BW"]}, "geometry": {"type": "Polygon", "coordinates": [[[-4.285013028713465, 50.64303887716484], [-4.283952001896305, 50.64240373550124], [-4.283937714707383, 50.6423687569938], [-4.284040962571175, 50.642140778381304], [-4.284605098646222, 50.6421088543168], [-4.285404514893214, 50.642952179646635], [-4.285013028713465, 50.64303887716484]]]}}, {"type": "Feature", "properties": {"type": "postcode-cell", "postcode": "PL16 0EF", "postcodes": ["PL16 0EF"]}, "geometry": {"type": "Polygon", "coordinates": [[[-4.280187386961466, 50.64450203529401], [-4.28018021624159, 50.64452519454273], [-4.278105580655604, 50.64507521327193], [-4.278166182483839, 50.644512664376876], [-4.2795934147377475, 50.64427222919484], [-4.280187386961466, 50.64450203529401]]]}}, {"type": "Feature", "properties": {"type": "postcode-cell", "postcode": "PL16 0AQ", "postcodes": ["PL16 0AQ"]}, "geometry": {"type": "Polygon", "coordinates": [[[-4.2795934147377475, 50.64427222919484], [-4.277117844485416, 50.64245588926129], [-4.277452786085118, 50.64226589849612], [-4.279801929195558, 50.64264012616075], [-4.28048226014361, 50.64434414448455], [-4.280187386961466, 50.64450203529401], [-4.2795934147377475, 50.64427222919484]]]}}, {"type": "Feature", "properties": {"type": "postcode-cell", "postcode": "PL16 0DW", "postcodes": ["PL16 0DW"]}, "geometry": {"type": "Polygon", "coordinates": [[[-4.284360153964695, 50.64378204366588], [-4.28464993606671, 50.64474826143659], [-4.283326431946852, 50.64439235143098], [-4.284345173767579, 50.64377334010938], [-4.284360153964695, 50.64378204366588]]]}}, {"type": "Feature", "properties": {"type": "postcode-cell", "postcode": "PL16 0BL", "postcodes": ["PL16 0BL"]}, "geometry": {"type": "Polygon", "coordinates": [[[-4.284040962571175, 50.642140778381304], [-4.283937714707383, 50.6423687569938], [-4.282737964268941, 50.642694008517076], [-4.281792003906109, 50.64179264631195], [-4.281985526348365, 50.64143541741849], [-4.283921662123451, 50.64202130853883], [-4.284040962571175, 50.642140778381304]]]}}, {"type": "Feature", "properties": {"type": "postcode-cell", "postcode": "PL16 0BP", "postcodes": ["PL16 0BP"]}, "geometry": {"type": "Polygon", "coordinates": [[[-4.284802435749727, 50.643218635191666], [-4.283878417168808, 50.64280463736498], [-4.283952001896305, 50.64240373550124], [-4.285013028713465, 50.64303887716484], [-4.284802435749727, 50.643218635191666]]]}}, {"type": "Feature", "properties": {"type": "postcode-cell", "postcode": "PL16 0BE", "postcodes": ["PL16 0BE"]}, "geometry": {"type": "Polygon", "coordinates": [[[-4.285428101480307, 50.638526438362426], [-4.283921662123451, 50.64202130853883], [-4.281985526348365, 50.64143541741849], [-4.280526969741699, 50.63646320160944], [-4.280642777910922, 50.63589470240661], [-4.285428101480307, 50.638526438362426]]]}}, {"type": "Feature", "properties": {"type": "postcode-cell", "postcode": "PL16 0BJ", "postcodes": ["PL16 0BJ"]}, "geometry": {"type": "Polygon", "coordinates": [[[-4.283952001896305, 50.64240373550124], [-4.283878417168808, 50.64280463736498], [-4.28373602942451, 50.64317165630527], [-4.283375371154932, 50.643133265521335], [-4.282635957071325, 50.64289812196286], [-4.282737964268941, 50.642694008517076], [-4.283937714707383, 50.6423687569938], [-4.283952001896305, 50.64240373550124]]]}}, {"type": "Feature", "properties": {"type": "postcode-cell", "postcode": "PL16 0BH", "postcodes": ["PL16 0BH"]}, "geometry": {"type": "Polygon", "coordinates": [[[-4.284327518478774, 50.64375178238283], [-4.284061018926305, 50.643648201772436], [-4.28373602942451, 50.64317165630527], [-4.283878417168808, 50.64280463736498], [-4.284802435749727, 50.643218635191666], [-4.284327518478774, 50.64375178238283]]]}}, {"type": "Feature", "properties": {"type": "postcode-cell", "postcode": "PL16 0DU", "postcodes": ["PL16 0DU"]}, "geometry": {"type": "Polygon", "coordinates": [[[-4.284975586854424, 50.64526138346041], [-4.284998806582781, 50.646329361918305], [-4.283220958088182, 50.644646714134865], [-4.283312726277759, 50.64439606835522], [-4.283326431946852, 50.64439235143098], [-4.28464993606671, 50.64474826143659], [-4.284975586854424, 50.64526138346041]]]}}, {"type": "Feature", "properties": {"type": "postcode-cell", "postcode": "PL16 0DP", "postcodes": ["PL16 0DP"]}, "geometry": {"type": "Polygon", "coordinates": [[[-4.284345173767579, 50.64377334010938], [-4.283326431946852, 50.64439235143098], [-4.283312726277759, 50.64439606835522], [-4.282634675188563, 50.64405988023419], [-4.282755934903104, 50.643736893347416], [-4.284061018926305, 50.643648201772436], [-4.284327518478774, 50.64375178238283], [-4.284345173767579, 50.64377334010938]]]}}, {"type": "Feature", "properties": {"type": "postcode-cell", "postcode": "PL16 0ED", "postcodes": ["PL16 0ED"]}, "geometry": {"type": "Polygon", "coordinates": [[[-4.29268353994534, 50.66532249804493], [-4.29075999027302, 50.66650999468734], [-4.289719990272475, 50.66614999468707], [-4.2850299902693685, 50.666009994687], [-4.277319990262792, 50.66905999468956], [-4.27606057434567, 50.668274908754405], [-4.267471007291215, 50.65576722612691], [-4.275538907426223, 50.65321728883946], [-4.290844740476056, 50.65792257197691], [-4.29268353994534, 50.66532249804493]]]}}, {"type": "Feature", "properties": {"type": "postcode-cell", "postcode": "PL16 0EH", "postcodes": ["PL16 0EH"]}, "geometry": {"type": "Polygon", "coordinates": [[[-4.276150650936203, 50.64986043790669], [-4.275616540211069, 50.64922252266109], [-4.275848562134033, 50.647564923918694], [-4.278105580655604, 50.64507521327193], [-4.28018021624159, 50.64452519454273], [-4.280686228979184, 50.64790474703031], [-4.276150650936203, 50.64986043790669]]]}}, {"type": "Feature", "properties": {"type": "postcode-cell", "postcode": "PL16 0DF", "postcodes": ["PL16 0DF"]}, "geometry": {"type": "Polygon", "coordinates": [[[-4.280526969741699, 50.63646320160944], [-4.277452786085118, 50.64226589849612], [-4.277117844485416, 50.64245588926129], [-4.276689870349228, 50.642601894722226], [-4.272949385966343, 50.641367334875476], [-4.272687846097119, 50.64025626316789], [-4.2734985338084135, 50.63465885204453], [-4.278899560925305, 50.6332484866007], [-4.280642777910922, 50.63589470240661], [-4.280526969741699, 50.63646320160944]]]}}, {"type": "Feature", "properties": {"type": "postcode-cell", "postcode": "PL16 0AA", "postcodes": ["PL16 0AA"]}, "geometry": {"type": "Polygon", "coordinates": [[[-4.283375371154932, 50.643133265521335], [-4.282650551858227, 50.643624752700674], [-4.282291265510934, 50.64312134042959], [-4.282635957071325, 50.64289812196286], [-4.283375371154932, 50.643133265521335]]]}}, {"type": "Feature", "properties": {"type": "postcode-cell", "postcode": "PL16 0AE", "postcodes": ["PL16 0AE"]}, "geometry": {"type": "Polygon", "coordinates": [[[-4.281792003906109, 50.64179264631195], [-4.280698196521334, 50.6425959799829], [-4.279801929195558, 50.64264012616075], [-4.277452786085118, 50.64226589849612], [-4.280526969741699, 50.63646320160944], [-4.281985526348365, 50.64143541741849], [-4.281792003906109, 50.64179264631195]]]}}, {"type": "Feature", "properties": {"type": "postcode-cell", "postcode": "PL16 0EE", "postcodes": ["PL16 0EE"]}, "geometry": {"type": "Polygon", "coordinates": [[[-4.285231076129534, 50.647259643410955], [-4.282394708877107, 50.647527068797515], [-4.282226094224307, 50.64483539841632], [-4.283220958088182, 50.644646714134865], [-4.284998806582781, 50.646329361918305], [-4.285231076129534, 50.647259643410955]]]}}, {"type": "Feature", "properties": {"type": "postcode-cell", "postcode": "PL16 0AB", "postcodes": ["PL16 0AB"]}, "geometry": {"type": "Polygon", "coordinates": [[[-4.28265968358407, 50.64364575789212], [-4.282650551858227, 50.643624752700674], [-4.283375371154932, 50.643133265521335], [-4.28373602942451, 50.64317165630527], [-4.284061018926305, 50.643648201772436], [-4.282755934903104, 50.643736893347416], [-4.28265968358407, 50.64364575789212]]]}}, {"type": "Feature", "properties": {"type": "postcode-cell", "postcode": "PL16 0DS", "postcodes": ["PL16 0DS"]}, "geometry": {"type": "Polygon", "coordinates": [[[-4.282755934903104, 50.643736893347416], [-4.282634675188563, 50.64405988023419], [-4.2818760163382095, 50.644438440636875], [-4.280924727604004, 50.644245784702996], [-4.281243344394846, 50.64378742359082], [-4.28265968358407, 50.64364575789212], [-4.282755934903104, 50.643736893347416]]]}}, {"type": "Feature", "properties": {"type": "postcode-cell", "postcode": "PL16 0DT", "postcodes": ["PL16 0DT"]}, "geometry": {"type": "Polygon", "coordinates": [[[-4.283220958088182, 50.644646714134865], [-4.282226094224307, 50.64483539841632], [-4.2818760163382095, 50.644438440636875], [-4.282634675188563, 50.64405988023419], [-4.283312726277759, 50.64439606835522], [-4.283220958088182, 50.644646714134865]]]}}, {"type": "Feature", "properties": {"type": "postcode-cell", "postcode": "PL16 0AD", "postcodes": ["PL16 0AD"]}, "geometry": {"type": "Polygon", "coordinates": [[[-4.282635957071325, 50.64289812196286], [-4.282291265510934, 50.64312134042959], [-4.2813788962759665, 50.64307164936609], [-4.280698196521334, 50.6425959799829], [-4.281792003906109, 50.64179264631195], [-4.282737964268941, 50.642694008517076], [-4.282635957071325, 50.64289812196286]]]}}, {"type": "Feature", "properties": {"type": "postcode-cell", "postcode": "PL16 0DN", "postcodes": ["PL16 0DN"]}, "geometry": {"type": "Polygon", "coordinates": [[[-4.282226094224307, 50.64483539841632], [-4.282394708877107, 50.647527068797515], [-4.280686228979184, 50.64790474703031], [-4.28018021624159, 50.64452519454273], [-4.280187386961466, 50.64450203529401], [-4.28048226014361, 50.64434414448455], [-4.280924727604004, 50.644245784702996], [-4.2818760163382095, 50.644438440636875], [-4.282226094224307, 50.64483539841632]]]}}, {"type": "Feature", "properties": {"type": "postcode-cell", "postcode": "PL16 0AG", "postcodes": ["PL16 0AG"]}, "geometry": {"type": "Polygon", "coordinates": [[[-4.281243344394846, 50.64378742359082], [-4.280924727604004, 50.644245784702996], [-4.28048226014361, 50.64434414448455], [-4.279801929195558, 50.64264012616075], [-4.280698196521334, 50.6425959799829], [-4.2813788962759665, 50.64307164936609], [-4.281243344394846, 50.64378742359082]]]}}, {"type": "Feature", "properties": {"type": "postcode-cell", "postcode": "PL16 0DR", "postcodes": ["PL16 0DR"]}, "geometry": {"type": "Polygon", "coordinates": [[[-4.2813788962759665, 50.64307164936609], [-4.282291265510934, 50.64312134042959], [-4.282650551858227, 50.643624752700674], [-4.28265968358407, 50.64364575789212], [-4.281243344394846, 50.64378742359082], [-4.2813788962759665, 50.64307164936609]]]}}, {"type": "Feature", "properties": {"type": "postcode-cell", "postcode": "PL16 0EG", "postcodes": ["PL16 0EG"]}, "geometry": {"type": "Polygon", "coordinates": [[[-4.2795934147377475, 50.64427222919484], [-4.278166182483839, 50.644512664376876], [-4.276641391196741, 50.642688988806675], [-4.276689870349228, 50.642601894722226], [-4.277117844485416, 50.64245588926129], [-4.2795934147377475, 50.64427222919484]]]}}, {"type": "Feature", "properties": {"type": "postcode-cell", "postcode": "PL16 0AL", "postcodes": ["PL16 0AL"]}, "geometry": {"type": "Polygon", "coordinates": [[[-4.275616540211069, 50.64922252266109], [-4.270500969614681, 50.646580599993726], [-4.271220288379922, 50.64521762139101], [-4.272246953688305, 50.64430724749552], [-4.275409856602766, 50.644128084991706], [-4.275848562134033, 50.647564923918694], [-4.275616540211069, 50.64922252266109]]]}}, {"type": "Feature", "properties": {"type": "postcode-cell", "postcode": "PL16 0EQ", "postcodes": ["PL16 0EQ"]}, "geometry": {"type": "Polygon", "coordinates": [[[-4.275848562134033, 50.647564923918694], [-4.275409856602766, 50.644128084991706], [-4.275491209402605, 50.643962981455125], [-4.276641391196741, 50.642688988806675], [-4.278166182483839, 50.644512664376876], [-4.278105580655604, 50.64507521327193], [-4.275848562134033, 50.647564923918694]]]}}, {"type": "Feature", "properties": {"type": "postcode-cell", "postcode": "PL16 0HQ", "postcodes": ["PL16 0HQ"]}, "geometry": {"type": "Polygon", "coordinates": [[[-4.275985914731704, 50.625871098956], [-4.260188463802297, 50.621743884724445], [-4.2656186075785145, 50.61613371452252], [-4.278028386736308, 50.6142097922213], [-4.279961135146401, 50.62248814156063], [-4.275985914731704, 50.625871098956]]]}}, {"type": "Feature", "properties": {"type": "postcode-cell", "postcode": "PL16 0HF", "postcodes": ["PL16 0HF"]}, "geometry": {"type": "Polygon", "coordinates": [[[-4.278899560925305, 50.6332484866007], [-4.2734985338084135, 50.63465885204453], [-4.261823257400966, 50.63526499100365], [-4.256808169462573, 50.62501290375236], [-4.258700936164884, 50.62217742529144], [-4.260188463802297, 50.621743884724445], [-4.275985914731704, 50.625871098956], [-4.2798832170154, 50.632126788211785], [-4.278899560925305, 50.6332484866007]]]}}, {"type": "Feature", "properties": {"type": "postcode-cell", "postcode": "PL16 0AH", "postcodes": ["PL16 0AH"]}, "geometry": {"type": "Polygon", "coordinates": [[[-4.276641391196741, 50.642688988806675], [-4.275491209402605, 50.643962981455125], [-4.272616405877998, 50.64320139613031], [-4.2722677305877275, 50.64187251508152], [-4.272949385966343, 50.641367334875476], [-4.276689870349228, 50.642601894722226], [-4.276641391196741, 50.642688988806675]]]}}, {"type": "Feature", "properties": {"type": "postcode-cell", "postcode": "PL16 0EN", "postcodes": ["PL16 0EN"]}, "geometry": {"type": "Polygon", "coordinates": [[[-4.256209363369731, 50.65771609748667], [-4.260462574679771, 50.65519488969737], [-4.267471007291215, 50.65576722612691], [-4.27606057434567, 50.668274908754405], [-4.275779990262181, 50.66809999468882], [-4.273569990260804, 50.667839994688634], [-4.272719990260139, 50.66803999468879], [-4.270699990258915, 50.66772999468858], [-4.269349990257771, 50.66824999468903], [-4.266509990255696, 50.66859999468933], [-4.263349990253826, 50.66800999468891], [-4.261979990252816, 50.668199994689076], [-4.26008999025189, 50.667419994688494], [-4.259079990251243, 50.66733999468843], [-4.258319990251034, 50.66665999468789], [-4.25656999024996, 50.66641999468771], [-4.256479990249669, 50.66693999468812], [-4.255304386761506, 50.66646610906459], [-4.256209363369731, 50.65771609748667]]]}}, {"type": "Feature", "properties": {"type": "postcode-cell", "postcode": "PL16 0EL", "postcodes": ["PL16 0EL"]}, "geometry": {"type": "Polygon", "coordinates": [[[-4.276150650936203, 50.64986043790669], [-4.275538907426223, 50.65321728883946], [-4.267471007291215, 50.65576722612691], [-4.260462574679771, 50.65519488969737], [-4.259862934003798, 50.65348170789605], [-4.265168275867452, 50.646438440241134], [-4.269100111746474, 50.64639086743421], [-4.270500969614681, 50.646580599993726], [-4.275616540211069, 50.64922252266109], [-4.276150650936203, 50.64986043790669]]]}}, {"type": "Feature", "properties": {"type": "postcode-cell", "postcode": "PL16 0HA", "postcodes": ["PL16 0HA"]}, "geometry": {"type": "Polygon", "coordinates": [[[-4.2722677305877275, 50.64187251508152], [-4.2708914234102435, 50.64227217252118], [-4.2677980339456605, 50.64178905868348], [-4.267005659183693, 50.64134659974997], [-4.272687846097119, 50.64025626316789], [-4.272949385966343, 50.641367334875476], [-4.2722677305877275, 50.64187251508152]]]}}, {"type": "Feature", "properties": {"type": "postcode-cell", "postcode": "PL16 0AJ", "postcodes": ["PL16 0AJ"]}, "geometry": {"type": "Polygon", "coordinates": [[[-4.275491209402605, 50.643962981455125], [-4.275409856602766, 50.644128084991706], [-4.272246953688305, 50.64430724749552], [-4.272209764209355, 50.64389949346118], [-4.272616405877998, 50.64320139613031], [-4.275491209402605, 50.643962981455125]]]}}, {"type": "Feature", "properties": {"type": "postcode-cell", "postcode": "PL16 0BQ", "postcodes": ["PL16 0BQ"]}, "geometry": {"type": "Polygon", "coordinates": [[[-4.271220288379922, 50.64521762139101], [-4.270486648037852, 50.64382309997888], [-4.270539042379394, 50.64318946076218], [-4.272209764209355, 50.64389949346118], [-4.272246953688305, 50.64430724749552], [-4.271220288379922, 50.64521762139101]]]}}, {"type": "Feature", "properties": {"type": "postcode-cell", "postcode": "PL16 0AP", "postcodes": ["PL16 0AP"]}, "geometry": {"type": "Polygon", "coordinates": [[[-4.2722677305877275, 50.64187251508152], [-4.272616405877998, 50.64320139613031], [-4.272209764209355, 50.64389949346118], [-4.270539042379394, 50.64318946076218], [-4.270531806899012, 50.64317632129707], [-4.2708914234102435, 50.64227217252118], [-4.2722677305877275, 50.64187251508152]]]}}, {"type": "Feature", "properties": {"type": "postcode-cell", "postcode": "PL16 0HG", "postcodes": ["PL16 0HG"]}, "geometry": {"type": "Polygon", "coordinates": [[[-4.2656186075785145, 50.61613371452252], [-4.260188463802297, 50.621743884724445], [-4.258700936164884, 50.62217742529144], [-4.254537280168726, 50.62006901588119], [-4.255281147127784, 50.6066749693513], [-4.262020576697332, 50.60812626590238], [-4.2656186075785145, 50.61613371452252]]]}}, {"type": "Feature", "properties": {"type": "postcode-cell", "postcode": "PL16 0HB", "postcodes": ["PL16 0HB"]}, "geometry": {"type": "Polygon", "coordinates": [[[-4.272687846097119, 50.64025626316789], [-4.267005659183693, 50.64134659974997], [-4.264497940164086, 50.64049320902184], [-4.2605160264028745, 50.63655491046608], [-4.261823257400966, 50.63526499100365], [-4.2734985338084135, 50.63465885204453], [-4.272687846097119, 50.64025626316789]]]}}, {"type": "Feature", "properties": {"type": "postcode-cell", "postcode": "PL16 0AF", "postcodes": ["PL16 0AF"]}, "geometry": {"type": "Polygon", "coordinates": [[[-4.271220288379922, 50.64521762139101], [-4.270500969614681, 50.646580599993726], [-4.269100111746474, 50.64639086743421], [-4.269047895297332, 50.64398292905196], [-4.270486648037852, 50.64382309997888], [-4.271220288379922, 50.64521762139101]]]}}, {"type": "Feature", "properties": {"type": "postcode-cell", "postcode": "PL16 0AN", "postcodes": ["PL16 0AN"]}, "geometry": {"type": "Polygon", "coordinates": [[[-4.270486648037852, 50.64382309997888], [-4.269047895297332, 50.64398292905196], [-4.2688169192442595, 50.643520262410455], [-4.270531806899012, 50.64317632129707], [-4.270539042379394, 50.64318946076218], [-4.270486648037852, 50.64382309997888]]]}}, {"type": "Feature", "properties": {"type": "postcode-cell", "postcode": "PL16 0AW", "postcodes": ["PL16 0AW"]}, "geometry": {"type": "Polygon", "coordinates": [[[-4.2688169192442595, 50.643520262410455], [-4.269047895297332, 50.64398292905196], [-4.269100111746474, 50.64639086743421], [-4.265168275867452, 50.646438440241134], [-4.264671670032804, 50.6457393354411], [-4.264788991452705, 50.64526921110278], [-4.268392973915247, 50.64332312373751], [-4.2688169192442595, 50.643520262410455]]]}}, {"type": "Feature", "properties": {"type": "postcode-cell", "postcode": "PL16 0BB", "postcodes": ["PL16 0BB"]}, "geometry": {"type": "Polygon", "coordinates": [[[-4.268392973915247, 50.64332312373751], [-4.2677980339456605, 50.64178905868348], [-4.2708914234102435, 50.64227217252118], [-4.270531806899012, 50.64317632129707], [-4.2688169192442595, 50.643520262410455], [-4.268392973915247, 50.64332312373751]]]}}, {"type": "Feature", "properties": {"type": "postcode-cell", "postcode": "PL16 0BA", "postcodes": ["PL16 0BA"]}, "geometry": {"type": "Polygon", "coordinates": [[[-4.267005659183693, 50.64134659974997], [-4.2677980339456605, 50.64178905868348], [-4.268392973915247, 50.64332312373751], [-4.264788991452705, 50.64526921110278], [-4.264497940164086, 50.64049320902184], [-4.267005659183693, 50.64134659974997]]]}}, {"type": "Feature", "properties": {"type": "postcode-cell", "postcode": "PL16 0HD", "postcodes": ["PL16 0HD"]}, "geometry": {"type": "Polygon", "coordinates": [[[-4.2605160264028745, 50.63655491046608], [-4.252257849746382, 50.63996010560596], [-4.239995778837408, 50.63828597259613], [-4.240179990252038, 50.637149994664554], [-4.241609990253513, 50.635999994663614], [-4.241429990253586, 50.635569994663285], [-4.243629990256156, 50.63313999466129], [-4.243529990256887, 50.631359994659896], [-4.242481928171086, 50.62933668807453], [-4.256808169462573, 50.62501290375236], [-4.261823257400966, 50.63526499100365], [-4.2605160264028745, 50.63655491046608]]]}}, {"type": "Feature", "properties": {"type": "postcode-cell", "postcode": "PL16 0AZ", "postcodes": ["PL16 0AZ"]}, "geometry": {"type": "Polygon", "coordinates": [[[-4.264671670032804, 50.6457393354411], [-4.253599838962734, 50.64296466704977], [-4.252257849746382, 50.63996010560596], [-4.2605160264028745, 50.63655491046608], [-4.264497940164086, 50.64049320902184], [-4.264788991452705, 50.64526921110278], [-4.264671670032804, 50.6457393354411]]]}}, {"type": "Feature", "properties": {"type": "postcode-cell", "postcode": "PL16 0AR", "postcodes": ["PL16 0AR"]}, "geometry": {"type": "Polygon", "coordinates": [[[-4.265168275867452, 50.646438440241134], [-4.259862934003798, 50.65348170789605], [-4.253530606314297, 50.647854085432805], [-4.253599838962734, 50.64296466704977], [-4.264671670032804, 50.6457393354411], [-4.265168275867452, 50.646438440241134]]]}}, {"type": "Feature", "properties": {"type": "postcode-cell", "postcode": "PL16 0AT", "postcodes": ["PL16 0AT"]}, "geometry": {"type": "Polygon", "coordinates": [[[-4.255304386761506, 50.66646610906459], [-4.255189990249031, 50.66641999468773], [-4.254849990248485, 50.66712999468832], [-4.252859990246928, 50.667609994688725], [-4.2516799902451385, 50.669829994690495], [-4.25000999024358, 50.67078999469131], [-4.249409990242757, 50.67172999469207], [-4.247129990240735, 50.67280999469296], [-4.245439990239543, 50.67292999469309], [-4.244671724500228, 50.67318220922621], [-4.237529648091593, 50.66471140379336], [-4.246856300826731, 50.65695432406062], [-4.247475653089085, 50.65667742304845], [-4.256209363369731, 50.65771609748667], [-4.255304386761506, 50.66646610906459]]]}}, {"type": "Feature", "properties": {"type": "postcode-cell", "postcode": "PL19 0QT", "postcodes": ["PL19 0QT"]}, "geometry": {"type": "Polygon", "coordinates": [[[-4.275299559665019, 50.60223455916903], [-4.262020576697332, 50.60812626590238], [-4.255281147127784, 50.6066749693513], [-4.246335736475766, 50.60377362482172], [-4.250439990274269, 50.602989994637156], [-4.251909990275985, 50.60135999463584], [-4.256479990280108, 50.59901999463393], [-4.259289990282038, 50.5989299946338], [-4.264239990285695, 50.59818999463313], [-4.266049990287272, 50.59738999463248], [-4.267297708973715, 50.596463820244786], [-4.275299559665019, 50.60223455916903]]]}}, {"type": "Feature", "properties": {"type": "postcode-cell", "postcode": "PL16 0HL", "postcodes": ["PL16 0HL"]}, "geometry": {"type": "Polygon", "coordinates": [[[-4.254537280168726, 50.62006901588119], [-4.258700936164884, 50.62217742529144], [-4.256808169462573, 50.62501290375236], [-4.242481928171086, 50.62933668807453], [-4.242089990257168, 50.62857999465768], [-4.241799990257657, 50.62704999465647], [-4.243639990260532, 50.623399994653525], [-4.242189990259619, 50.623269994653455], [-4.239299990257496, 50.62366999465378], [-4.235069990254592, 50.62380999465398], [-4.229339990250905, 50.62344999465378], [-4.229329990251532, 50.62203999465265], [-4.230329990253078, 50.6200999946511], [-4.230119990253641, 50.61852999464985], [-4.232589990256352, 50.61618999464796], [-4.233249990257567, 50.61446999464656], [-4.236044096016566, 50.61284371691302], [-4.254537280168726, 50.62006901588119]]]}}, {"type": "Feature", "properties": {"type": "postcode-cell", "postcode": "PL16 0AU", "postcodes": ["PL16 0AU"]}, "geometry": {"type": "Polygon", "coordinates": [[[-4.259862934003798, 50.65348170789605], [-4.260462574679771, 50.65519488969737], [-4.256209363369731, 50.65771609748667], [-4.247475653089085, 50.65667742304845], [-4.244076849831913, 50.65359122857301], [-4.248276736983152, 50.64878204423868], [-4.253530606314297, 50.647854085432805], [-4.259862934003798, 50.65348170789605]]]}}, {"type": "Feature", "properties": {"type": "postcode-cell", "postcode": "PL16 0HJ", "postcodes": ["PL16 0HJ"]}, "geometry": {"type": "Polygon", "coordinates": [[[-4.255281147127784, 50.6066749693513], [-4.254537280168726, 50.62006901588119], [-4.236044096016566, 50.61284371691302], [-4.237149990261205, 50.6121999946447], [-4.239079990262779, 50.611579994644174], [-4.241879990265485, 50.60973999464267], [-4.246839990269958, 50.607199994640574], [-4.247669990270995, 50.60613999463972], [-4.2459399902705455, 50.604549994638475], [-4.246249990271097, 50.603789994637886], [-4.246335736475766, 50.60377362482172], [-4.255281147127784, 50.6066749693513]]]}}, {"type": "Feature", "properties": {"type": "postcode-cell", "postcode": "PL16 0AY", "postcodes": ["PL16 0AY"]}, "geometry": {"type": "Polygon", "coordinates": [[[-4.253599838962734, 50.64296466704977], [-4.253530606314297, 50.647854085432805], [-4.248276736983152, 50.64878204423868], [-4.243097007480179, 50.647344429909154], [-4.24040723599891, 50.6449593201474], [-4.241949990250015, 50.64430999467022], [-4.242949990251123, 50.64333999466946], [-4.243969990251939, 50.643049994669205], [-4.2439599902521605, 50.6425399946688], [-4.245079990253201, 50.641899994668265], [-4.241279990251215, 50.640629994667314], [-4.241399990251527, 50.640109994666894], [-4.240189990251002, 50.6394699946664], [-4.2399399902512105, 50.63862999466571], [-4.239995778837408, 50.63828597259613], [-4.252257849746382, 50.63996010560596], [-4.253599838962734, 50.64296466704977]]]}}, {"type": "Feature", "properties": {"type": "postcode-cell", "postcode": "PL16 0AS", "postcodes": ["PL16 0AS"]}, "geometry": {"type": "Polygon", "coordinates": [[[-4.244076849831913, 50.65359122857301], [-4.2423217657409475, 50.65299697137393], [-4.2415380551072435, 50.65145580033144], [-4.243097007480179, 50.647344429909154], [-4.248276736983152, 50.64878204423868], [-4.244076849831913, 50.65359122857301]]]}}, {"type": "Feature", "properties": {"type": "postcode-cell", "postcode": "EX20 4DE", "postcodes": ["EX20 4DE"]}, "geometry": {"type": "Polygon", "coordinates": [[[-4.228999303326505, 50.660628191091305], [-4.237529648091593, 50.66471140379336], [-4.244671724500228, 50.67318220922621], [-4.243459990237916, 50.67357999469363], [-4.240389990236097, 50.673019994693234], [-4.237929990234887, 50.67201999469247], [-4.23502999023319, 50.67144999469203], [-4.2281199902285795, 50.67134999469205], [-4.223689990225494, 50.67157999469228], [-4.22215999022462, 50.671239994692044], [-4.220939990223585, 50.67170999469242], [-4.220759990223133, 50.67244999469303], [-4.219439990222227, 50.67248999469308], [-4.216899990220723, 50.672039994692774], [-4.2155399902201, 50.671379994692245], [-4.214786501210677, 50.670531486443245], [-4.228999303326505, 50.660628191091305]]]}}, {"type": "Feature", "properties": {"type": "postcode-cell", "postcode": "EX20 4DB", "postcodes": ["EX20 4DB"]}, "geometry": {"type": "Polygon", "coordinates": [[[-4.244076849831913, 50.65359122857301], [-4.247475653089085, 50.65667742304845], [-4.246856300826731, 50.65695432406062], [-4.228688482173853, 50.65782644258318], [-4.237860235931635, 50.65356202663515], [-4.2423217657409475, 50.65299697137393], [-4.244076849831913, 50.65359122857301]]]}}, {"type": "Feature", "properties": {"type": "postcode-cell", "postcode": "EX20 4BU", "postcodes": ["EX20 4BU"]}, "geometry": {"type": "Polygon", "coordinates": [[[-4.210442088667321, 50.65951691854629], [-4.207563481989753, 50.66427499711462], [-4.206589990217353, 50.66410999468655], [-4.206739990219712, 50.65907999468252], [-4.20620999021978, 50.65813999468181], [-4.205419990219235, 50.658179994681824], [-4.204799990219206, 50.65730999468113], [-4.211736131378629, 50.65648651473815], [-4.210442088667321, 50.65951691854629]]]}}, {"type": "Feature", "properties": {"type": "postcode-cell", "postcode": "EX20 4PY", "postcodes": ["EX20 4PY"]}, "geometry": {"type": "Polygon", "coordinates": [[[-4.2366300067130025, 50.65077233962969], [-4.2360361636466095, 50.65120061023983], [-4.232506196275545, 50.650448280411624], [-4.233169990241693, 50.649699994674656], [-4.235269990243834, 50.64806999467334], [-4.235929990244358, 50.64788999467317], [-4.2362719412007825, 50.647195580577495], [-4.2366300067130025, 50.65077233962969]]]}}, {"type": "Feature", "properties": {"type": "postcode-cell", "postcode": "PL16 0AX", "postcodes": ["PL16 0AX"]}, "geometry": {"type": "Polygon", "coordinates": [[[-4.243097007480179, 50.647344429909154], [-4.2415380551072435, 50.65145580033144], [-4.239167902841156, 50.65023272299864], [-4.236619759575745, 50.64655325917929], [-4.24040723599891, 50.6449593201474], [-4.243097007480179, 50.647344429909154]]]}}, {"type": "Feature", "properties": {"type": "postcode-cell", "postcode": "EX20 4QZ", "postcodes": ["EX20 4QZ"]}, "geometry": {"type": "Polygon", "coordinates": [[[-4.2415380551072435, 50.65145580033144], [-4.2423217657409475, 50.65299697137393], [-4.237860235931635, 50.65356202663515], [-4.2360361636466095, 50.65120061023983], [-4.2366300067130025, 50.65077233962969], [-4.239167902841156, 50.65023272299864], [-4.2415380551072435, 50.65145580033144]]]}}, {"type": "Feature", "properties": {"type": "postcode-cell", "postcode": "EX20 4DD", "postcodes": ["EX20 4DD"]}, "geometry": {"type": "Polygon", "coordinates": [[[-4.237529648091593, 50.66471140379336], [-4.228999303326505, 50.660628191091305], [-4.228270606633811, 50.65794395614154], [-4.228688482173853, 50.65782644258318], [-4.246856300826731, 50.65695432406062], [-4.237529648091593, 50.66471140379336]]]}}, {"type": "Feature", "properties": {"type": "postcode-cell", "postcode": "EX20 4PZ", "postcodes": ["EX20 4PZ"]}, "geometry": {"type": "Polygon", "coordinates": [[[-4.237860235931635, 50.65356202663515], [-4.228688482173853, 50.65782644258318], [-4.228270606633811, 50.65794395614154], [-4.22602057447271, 50.656266019215536], [-4.225292288747945, 50.655405126812575], [-4.226219990234533, 50.655229994679175], [-4.233279990240343, 50.65286999467719], [-4.233899990240872, 50.652619994676996], [-4.233779990240965, 50.65222999467669], [-4.232069990240395, 50.65093999467569], [-4.232506196275545, 50.650448280411624], [-4.2360361636466095, 50.65120061023983], [-4.237860235931635, 50.65356202663515]]]}}, {"type": "Feature", "properties": {"type": "postcode-cell", "postcode": "EX20 4PX", "postcodes": ["EX20 4PX"]}, "geometry": {"type": "Polygon", "coordinates": [[[-4.239167902841156, 50.65023272299864], [-4.2366300067130025, 50.65077233962969], [-4.2362719412007825, 50.647195580577495], [-4.236579990245388, 50.64656999467211], [-4.236619759575745, 50.64655325917929], [-4.239167902841156, 50.65023272299864]]]}}, {"type": "Feature", "properties": {"type": "postcode-cell", "postcode": "EX20 4BZ", "postcodes": ["EX20 4BZ"]}, "geometry": {"type": "Polygon", "coordinates": [[[-4.22602057447271, 50.656266019215536], [-4.228270606633811, 50.65794395614154], [-4.228999303326505, 50.660628191091305], [-4.214786501210677, 50.670531486443245], [-4.212369990219574, 50.66780999468944], [-4.211179990218735, 50.66789999468952], [-4.210099990218149, 50.667589994689294], [-4.208469990217911, 50.665679994687785], [-4.208839990218224, 50.66553999468767], [-4.208403412676806, 50.66451222080267], [-4.220375728044, 50.65849580467522], [-4.22602057447271, 50.656266019215536]]]}}, {"type": "Feature", "properties": {"type": "postcode-cell", "postcode": "EX20 4BY", "postcodes": ["EX20 4BY"]}, "geometry": {"type": "Polygon", "coordinates": [[[-4.220375728044, 50.65849580467522], [-4.210442088667321, 50.65951691854629], [-4.211736131378629, 50.65648651473815], [-4.218609990229219, 50.65566999467964], [-4.22425999023305, 50.655599994679505], [-4.225292288747945, 50.655405126812575], [-4.22602057447271, 50.656266019215536], [-4.220375728044, 50.65849580467522]]]}}, {"type": "Feature", "properties": {"type": "postcode-cell", "postcode": "EX20 4DA", "postcodes": ["EX20 4DA"]}, "geometry": {"type": "Polygon", "coordinates": [[[-4.208403412676806, 50.66451222080267], [-4.208359990218406, 50.664409994686764], [-4.207563481989753, 50.66427499711462], [-4.210442088667321, 50.65951691854629], [-4.220375728044, 50.65849580467522], [-4.208403412676806, 50.66451222080267]]]}}]}