{"type": "FeatureCollection", "features": [{"type": "Feature", "properties": {"type": "ward-outline", "name": "Tavistock South West"}, "geometry": {"type": "Polygon", "coordinates": [[[-4.13165, 50.5313], [-4.13332, 50.5309], [-4.13327, 50.53023], [-4.13363, 50.53004], [-4.13697, 50.52962], [-4.13742, 50.53043], [-4.1408, 50.53248], [-4.14185, 50.53272], [-4.14144, 50.53309], [-4.14319, 50.53379], [-4.14426, 50.53395], [-4.15054, 50.5334], [-4.15488, 50.53269], [-4.15443, 50.53105], [-4.15554, 50.52909], [-4.15848, 50.52849], [-4.15985, 50.52862], [-4.16092, 50.52924], [-4.16137, 50.52882], [-4.16181, 50.52897], [-4.16306, 50.52845], [-4.1642, 50.52837], [-4.1657, 50.52907], [-4.16446, 50.52974], [-4.1641, 50.53051], [-4.16308, 50.54013], [-4.16336, 50.54043], [-4.16461, 50.54005], [-4.16608, 50.54157], [-4.16666, 50.54288], [-4.16622, 50.54296], [-4.16357, 50.54297], [-4.16175, 50.54363], [-4.15974, 50.54261], [-4.15347, 50.54596], [-4.15128, 50.54364], [-4.1495, 50.54525], [-4.1465, 50.54673], [-4.14357, 50.54899], [-4.14333, 50.54858], [-4.14478, 50.54552], [-4.14256, 50.54147], [-4.14553, 50.5405], [-4.134, 50.53496], [-4.13272, 50.53366], [-4.13165, 50.5313]]]}}, {"type": "Feature", "properties": {"type": "postcode-cell", "postcode": "PL19 8HA", "postcodes": ["PL19 8HA"]}, "geometry": {"type": "Polygon", "coordinates": [[[-4.1625798301268, 50.542520014785836], [-4.16586038391971, 50.54134292621354], [-4.166079990245637, 50.541569994589814], [-4.16665999024543, 50.54287999459084], [-4.166219990245101, 50.542959994590916], [-4.163569990243335, 50.542969994590976], [-4.162571297455573, 50.54333216367189], [-4.1625798301268, 50.542520014785836]]]}}, {"type": "Feature", "properties": {"type": "postcode-cell", "postcode": "PL19 8EZ", "postcodes": ["PL19 8EZ"]}, "geometry": {"type": "Polygon", "coordinates": [[[-4.162571297455573, 50.54333216367189], [-4.1617499902418285, 50.543629994591534], [-4.160890385837197, 50.54319378719719], [-4.161598773817739, 50.542337976805534], [-4.1625798301268, 50.542520014785836], [-4.162571297455573, 50.54333216367189]]]}}, {"type": "Feature", "properties": {"type": "postcode-cell", "postcode": "PL19 8GG", "postcodes": ["PL19 8GG"]}, "geometry": {"type": "MultiPolygon", "coordinates": [[[[-4.164487654720158, 50.540087185444875], [-4.164609990245351, 50.54004999458866], [-4.164661226118178, 50.540102975177696], [-4.164487654720158, 50.540087185444875]]], [[[-4.1623097625780625, 50.53988904035014], [-4.161653638461474, 50.539500264117144], [-4.163170879482933, 50.5392729207974], [-4.163097937795512, 50.539960753612476], [-4.1623097625780625, 50.53988904035014]]]]}}, {"type": "Feature", "properties": {"type": "postcode-cell", "postcode": "PL19 8GF", "postcodes": ["PL19 8GF"]}, "geometry": {"type": "Polygon", "coordinates": [[[-4.163097937795512, 50.539960753612476], [-4.163079990244299, 50.54012999458873], [-4.1633599902443486, 50.54042999458897], [-4.164487654720158, 50.540087185444875], [-4.164661226118178, 50.540102975177696], [-4.165782212970973, 50.54126209843718], [-4.163156024389192, 50.54117147206929], [-4.161968215498565, 50.54071444689916], [-4.1623097625780625, 50.53988904035014], [-4.163097937795512, 50.539960753612476]]]}}, {"type": "Feature", "properties": {"type": "postcode-cell", "postcode": "PL19 8FZ", "postcodes": ["PL19 8FZ"]}, "geometry": {"type": "Polygon", "coordinates": [[[-4.161653638461474, 50.539500264117144], [-4.161573690658617, 50.53947614704625], [-4.160895050770094, 50.53855387488223], [-4.162815701317791, 50.53716300133121], [-4.163417685421025, 50.5369454379595], [-4.163170879482933, 50.5392729207974], [-4.161653638461474, 50.539500264117144]]]}}, {"type": "Feature", "properties": {"type": "postcode-cell", "postcode": "PL19 8GR", "postcodes": ["PL19 8GR"]}, "geometry": {"type": "Polygon", "coordinates": [[[-4.160895050770094, 50.53855387488223], [-4.1592264944858535, 50.53880951747946], [-4.15839240838512, 50.538570110440446], [-4.159200906588175, 50.5375611481457], [-4.159795367513264, 50.537168634843816], [-4.16058613398659, 50.53698819230024], [-4.162815701317791, 50.53716300133121], [-4.160895050770094, 50.53855387488223]]]}}, {"type": "Feature", "properties": {"type": "postcode-cell", "postcode": "PL19 8GA", "postcodes": ["PL19 8GA"]}, "geometry": {"type": "Polygon", "coordinates": [[[-4.163156024389192, 50.54117147206929], [-4.161325855031055, 50.541893638154015], [-4.161114008332757, 50.54182503107266], [-4.1614268320868355, 50.54067841825883], [-4.161968215498565, 50.54071444689916], [-4.163156024389192, 50.54117147206929]]]}}, {"type": "Feature", "properties": {"type": "postcode-cell", "postcode": "PL19 8FY", "postcodes": ["PL19 8FY"]}, "geometry": {"type": "Polygon", "coordinates": [[[-4.1623097625780625, 50.53988904035014], [-4.161968215498565, 50.54071444689916], [-4.1614268320868355, 50.54067841825883], [-4.16133794845547, 50.54064688429682], [-4.161387342141008, 50.53970726740194], [-4.161573690658617, 50.53947614704625], [-4.161653638461474, 50.539500264117144], [-4.1623097625780625, 50.53988904035014]]]}}, {"type": "Feature", "properties": {"type": "postcode-cell", "postcode": "PL19 8EY", "postcodes": ["PL19 8EY"]}, "geometry": {"type": "Polygon", "coordinates": [[[-4.1625798301268, 50.542520014785836], [-4.161598773817739, 50.542337976805534], [-4.161325855031055, 50.541893638154015], [-4.163156024389192, 50.54117147206929], [-4.165782212970973, 50.54126209843718], [-4.16586038391971, 50.54134292621354], [-4.1625798301268, 50.542520014785836]]]}}, {"type": "Feature", "properties": {"type": "postcode-cell", "postcode": "PL19 8HB", "postcodes": ["PL19 8HB"]}, "geometry": {"type": "Polygon", "coordinates": [[[-4.155648320383468, 50.54356130308703], [-4.1562874121197675, 50.543301480052115], [-4.156879332667193, 50.54340709006679], [-4.157321525751024, 50.54390225200845], [-4.15616938996392, 50.5445178302633], [-4.155648320383468, 50.54356130308703]]]}}, {"type": "Feature", "properties": {"type": "postcode-cell", "postcode": "PL19 8EX", "postcodes": ["PL19 8EX"]}, "geometry": {"type": "Polygon", "coordinates": [[[-4.160890385837197, 50.54319378719719], [-4.159739990240952, 50.54260999459075], [-4.159401563580703, 50.54279083321605], [-4.15938283546664, 50.54181967383923], [-4.159655810918512, 50.54170216215059], [-4.161114008332757, 50.54182503107266], [-4.161325855031055, 50.541893638154015], [-4.161598773817739, 50.542337976805534], [-4.160890385837197, 50.54319378719719]]]}}, {"type": "Feature", "properties": {"type": "postcode-cell", "postcode": "PL19 8GE", "postcodes": ["PL19 8GE"]}, "geometry": {"type": "Polygon", "coordinates": [[[-4.161387342141008, 50.53970726740194], [-4.1597843348881005, 50.540303039797884], [-4.1593736769930345, 50.54005404691263], [-4.1592264944858535, 50.53880951747946], [-4.160895050770094, 50.53855387488223], [-4.161573690658617, 50.53947614704625], [-4.161387342141008, 50.53970726740194]]]}}, {"type": "Feature", "properties": {"type": "postcode-cell", "postcode": "PL19 8GB", "postcodes": ["PL19 8GB"]}, "geometry": {"type": "Polygon", "coordinates": [[[-4.161114008332757, 50.54182503107266], [-4.159655810918512, 50.54170216215059], [-4.160088276390099, 50.54065637250465], [-4.16133794845547, 50.54064688429682], [-4.1614268320868355, 50.54067841825883], [-4.161114008332757, 50.54182503107266]]]}}, {"type": "Feature", "properties": {"type": "postcode-cell", "postcode": "PL19 8GD", "postcodes": ["PL19 8GD"]}, "geometry": {"type": "Polygon", "coordinates": [[[-4.1597843348881005, 50.540303039797884], [-4.161387342141008, 50.53970726740194], [-4.16133794845547, 50.54064688429682], [-4.160088276390099, 50.54065637250465], [-4.1597843348881005, 50.540303039797884]]]}}, {"type": "Feature", "properties": {"type": "postcode-cell", "postcode": "PL19 8BN", "postcodes": ["PL19 8BN"]}, "geometry": {"type": "Polygon", "coordinates": [[[-4.160088276390099, 50.54065637250465], [-4.159655810918512, 50.54170216215059], [-4.15938283546664, 50.54181967383923], [-4.159246423586621, 50.54179109618938], [-4.158056888479068, 50.5409361826616], [-4.158084971697607, 50.540757375896725], [-4.159214249533181, 50.54011053067878], [-4.1593736769930345, 50.54005404691263], [-4.1597843348881005, 50.540303039797884], [-4.160088276390099, 50.54065637250465]]]}}, {"type": "Feature", "properties": {"type": "postcode-cell", "postcode": "PL19 8EQ", "postcodes": ["PL19 8EQ"]}, "geometry": {"type": "Polygon", "coordinates": [[[-4.156879332667193, 50.54340709006679], [-4.157725848825992, 50.54292296863287], [-4.158678931530808, 50.5431769645256], [-4.157321525751024, 50.54390225200845], [-4.156879332667193, 50.54340709006679]]]}}, {"type": "Feature", "properties": {"type": "postcode-cell", "postcode": "PL19 8ER", "postcodes": ["PL19 8ER"]}, "geometry": {"type": "Polygon", "coordinates": [[[-4.15938283546664, 50.54181967383923], [-4.159401563580703, 50.54279083321605], [-4.158678931530808, 50.5431769645256], [-4.157725848825992, 50.54292296863287], [-4.1569783659177295, 50.54227324399291], [-4.157147783986801, 50.542092245276685], [-4.159246423586621, 50.54179109618938], [-4.15938283546664, 50.54181967383923]]]}}, {"type": "Feature", "properties": {"type": "postcode-cell", "postcode": "PL19 8GU", "postcodes": ["PL19 8GU"]}, "geometry": {"type": "Polygon", "coordinates": [[[-4.162815701317791, 50.53716300133121], [-4.16058613398659, 50.53698819230024], [-4.159806804394951, 50.53663774274821], [-4.1583681382184485, 50.53468631564627], [-4.1609459413566, 50.53271605449098], [-4.164018833984184, 50.53127553269209], [-4.163417685421025, 50.5369454379595], [-4.162815701317791, 50.53716300133121]]]}}, {"type": "Feature", "properties": {"type": "postcode-cell", "postcode": "PL19 8JP", "postcodes": ["PL19 8JP"]}, "geometry": {"type": "Polygon", "coordinates": [[[-4.1609459413566, 50.53271605449098], [-4.150931643836271, 50.533403966292745], [-4.150849274856465, 50.533349403365925], [-4.154879990242236, 50.532689994583016], [-4.154429990242683, 50.531049994581714], [-4.15553999024431, 50.52908999458014], [-4.158479990246534, 50.52848999457962], [-4.159849990247383, 50.52861999457972], [-4.160919990247812, 50.52923999458017], [-4.161369990248302, 50.528819994579855], [-4.161809990248527, 50.52896999457996], [-4.163059990249589, 50.52844999457953], [-4.164199990250385, 50.52836999457946], [-4.165699990251063, 50.52906999457998], [-4.164459990249936, 50.529739994580524], [-4.164099990249346, 50.53050999458112], [-4.164018833984184, 50.53127553269209], [-4.1609459413566, 50.53271605449098]]]}}, {"type": "Feature", "properties": {"type": "postcode-cell", "postcode": "PL19 8GP", "postcodes": ["PL19 8GP"]}, "geometry": {"type": "Polygon", "coordinates": [[[-4.159200906588175, 50.5375611481457], [-4.158799429320716, 50.536940658010394], [-4.159795367513264, 50.537168634843816], [-4.159200906588175, 50.5375611481457]]]}}, {"type": "Feature", "properties": {"type": "postcode-cell", "postcode": "PL19 8GQ", "postcodes": ["PL19 8GQ"]}, "geometry": {"type": "Polygon", "coordinates": [[[-4.15839240838512, 50.538570110440446], [-4.15712378925791, 50.53842434914829], [-4.154126711973969, 50.53765632383314], [-4.154020490269958, 50.53736518246846], [-4.154056582792304, 50.53687624795977], [-4.155736999813991, 50.536213564757894], [-4.158434881710061, 50.53676983673074], [-4.158799429320716, 50.536940658010394], [-4.159200906588175, 50.5375611481457], [-4.15839240838512, 50.538570110440446]]]}}, {"type": "Feature", "properties": {"type": "postcode-cell", "postcode": "PL19 8GS", "postcodes": ["PL19 8GS"]}, "geometry": {"type": "Polygon", "coordinates": [[[-4.158434881710061, 50.53676983673074], [-4.159806804394951, 50.53663774274821], [-4.16058613398659, 50.53698819230024], [-4.159795367513264, 50.537168634843816], [-4.158799429320716, 50.536940658010394], [-4.158434881710061, 50.53676983673074]]]}}, {"type": "Feature", "properties": {"type": "postcode-cell", "postcode": "PL19 9BA", "postcodes": ["PL19 9BA"]}, "geometry": {"type": "Polygon", "coordinates": [[[-4.153509055965487, 50.5390577559817], [-4.14964848814897, 50.53971293887225], [-4.149414941431456, 50.53970516669363], [-4.149299333802918, 50.53866911100073], [-4.149968031703116, 50.53777675256386], [-4.154020490269958, 50.53736518246846], [-4.154126711973969, 50.53765632383314], [-4.153509055965487, 50.5390577559817]]]}}, {"type": "Feature", "properties": {"type": "postcode-cell", "postcode": "PL19 8BP", "postcodes": ["PL19 8BP"]}, "geometry": {"type": "Polygon", "coordinates": [[[-4.154126711973969, 50.53765632383314], [-4.15712378925791, 50.53842434914829], [-4.157657695768194, 50.5400016136301], [-4.157482213911091, 50.540348935763994], [-4.155170978346534, 50.54042834959028], [-4.1535753194958, 50.53934489724238], [-4.153509055965487, 50.5390577559817], [-4.154126711973969, 50.53765632383314]]]}}, {"type": "Feature", "properties": {"type": "postcode-cell", "postcode": "PL19 8GT", "postcodes": ["PL19 8GT"]}, "geometry": {"type": "Polygon", "coordinates": [[[-4.158434881710061, 50.53676983673074], [-4.155736999813991, 50.536213564757894], [-4.1583681382184485, 50.53468631564627], [-4.159806804394951, 50.53663774274821], [-4.158434881710061, 50.53676983673074]]]}}, {"type": "Feature", "properties": {"type": "postcode-cell", "postcode": "PL19 8BJ", "postcodes": ["PL19 8BJ"]}, "geometry": {"type": "Polygon", "coordinates": [[[-4.1592264944858535, 50.53880951747946], [-4.1593736769930345, 50.54005404691263], [-4.159214249533181, 50.54011053067878], [-4.157657695768194, 50.5400016136301], [-4.15712378925791, 50.53842434914829], [-4.15839240838512, 50.538570110440446], [-4.1592264944858535, 50.53880951747946]]]}}, {"type": "Feature", "properties": {"type": "postcode-cell", "postcode": "PL19 8JR", "postcodes": ["PL19 8JR"]}, "geometry": {"type": "Polygon", "coordinates": [[[-4.154056582792304, 50.53687624795977], [-4.153054440615302, 50.53602294717371], [-4.150931643836271, 50.533403966292745], [-4.1609459413566, 50.53271605449098], [-4.1583681382184485, 50.53468631564627], [-4.155736999813991, 50.536213564757894], [-4.154056582792304, 50.53687624795977]]]}}, {"type": "Feature", "properties": {"type": "postcode-cell", "postcode": "PL19 8BW", "postcodes": ["PL19 8BW"]}, "geometry": {"type": "Polygon", "coordinates": [[[-4.158084971697607, 50.540757375896725], [-4.157482213911091, 50.540348935763994], [-4.157657695768194, 50.5400016136301], [-4.159214249533181, 50.54011053067878], [-4.158084971697607, 50.540757375896725]]]}}, {"type": "Feature", "properties": {"type": "postcode-cell", "postcode": "PL19 8FD", "postcodes": ["PL19 8FD"]}, "geometry": {"type": "Polygon", "coordinates": [[[-4.158084971697607, 50.540757375896725], [-4.158056888479068, 50.5409361826616], [-4.156866040960513, 50.54129036450114], [-4.155372948228165, 50.5406738033451], [-4.155170978346534, 50.54042834959028], [-4.157482213911091, 50.540348935763994], [-4.158084971697607, 50.540757375896725]]]}}, {"type": "Feature", "properties": {"type": "postcode-cell", "postcode": "PL19 8PR", "postcodes": ["PL19 8PR"]}, "geometry": {"type": "Polygon", "coordinates": [[[-4.159246423586621, 50.54179109618938], [-4.157147783986801, 50.542092245276685], [-4.156866040960513, 50.54129036450114], [-4.158056888479068, 50.5409361826616], [-4.159246423586621, 50.54179109618938]]]}}, {"type": "Feature", "properties": {"type": "postcode-cell", "postcode": "PL19 8HF", "postcodes": ["PL19 8HF"]}, "geometry": {"type": "Polygon", "coordinates": [[[-4.157725848825992, 50.54292296863287], [-4.156879332667193, 50.54340709006679], [-4.1562874121197675, 50.543301480052115], [-4.15645926866795, 50.5423926766436], [-4.1569783659177295, 50.54227324399291], [-4.157725848825992, 50.54292296863287]]]}}, {"type": "Feature", "properties": {"type": "postcode-cell", "postcode": "PL19 8PS", "postcodes": ["PL19 8PS"]}, "geometry": {"type": "Polygon", "coordinates": [[[-4.1569783659177295, 50.54227324399291], [-4.15645926866795, 50.5423926766436], [-4.155232171175984, 50.54222945637982], [-4.155372948228165, 50.5406738033451], [-4.156866040960513, 50.54129036450114], [-4.157147783986801, 50.542092245276685], [-4.1569783659177295, 50.54227324399291]]]}}, {"type": "Feature", "properties": {"type": "postcode-cell", "postcode": "PL19 8EH", "postcodes": ["PL19 8EH"]}, "geometry": {"type": "Polygon", "coordinates": [[[-4.153601179247314, 50.54483110547766], [-4.154353894883129, 50.54453651161629], [-4.155446045295637, 50.544904294472545], [-4.153945168529238, 50.54570613964558], [-4.153601179247314, 50.54483110547766]]]}}, {"type": "Feature", "properties": {"type": "postcode-cell", "postcode": "PL19 8DD", "postcodes": ["PL19 8DD"]}, "geometry": {"type": "Polygon", "coordinates": [[[-4.155170978346534, 50.54042834959028], [-4.155372948228165, 50.5406738033451], [-4.155232171175984, 50.54222945637982], [-4.154162919043728, 50.5427047524971], [-4.153070218288006, 50.54263255451909], [-4.152594359924785, 50.54087156251219], [-4.1535753194958, 50.53934489724238], [-4.155170978346534, 50.54042834959028]]]}}, {"type": "Feature", "properties": {"type": "postcode-cell", "postcode": "PL19 8HD", "postcodes": ["PL19 8HD"]}, "geometry": {"type": "Polygon", "coordinates": [[[-4.15616938996392, 50.5445178302633], [-4.155446045295637, 50.544904294472545], [-4.154353894883129, 50.54453651161629], [-4.1542672900378035, 50.544309600184235], [-4.154965062293567, 50.54339295263864], [-4.155648320383468, 50.54356130308703], [-4.15616938996392, 50.5445178302633]]]}}, {"type": "Feature", "properties": {"type": "postcode-cell", "postcode": "PL19 8HE", "postcodes": ["PL19 8HE"]}, "geometry": {"type": "Polygon", "coordinates": [[[-4.1562874121197675, 50.543301480052115], [-4.155648320383468, 50.54356130308703], [-4.154965062293567, 50.54339295263864], [-4.154162919043728, 50.5427047524971], [-4.155232171175984, 50.54222945637982], [-4.15645926866795, 50.5423926766436], [-4.1562874121197675, 50.543301480052115]]]}}, {"type": "Feature", "properties": {"type": "postcode-cell", "postcode": "PL19 9DU", "postcodes": ["PL19 9DU"]}, "geometry": {"type": "Polygon", "coordinates": [[[-4.139697046841012, 50.53250515788866], [-4.137845873277791, 50.532077260311844], [-4.1358627194066315, 50.52975924363855], [-4.13696999023176, 50.52961999458089], [-4.137419990231689, 50.53042999458152], [-4.140640351935564, 50.53238317884074], [-4.139697046841012, 50.53250515788866]]]}}, {"type": "Feature", "properties": {"type": "postcode-cell", "postcode": "PL19 8BY", "postcodes": ["PL19 8BY"]}, "geometry": {"type": "Polygon", "coordinates": [[[-4.152594359924785, 50.54087156251219], [-4.151192822091105, 50.54123372677037], [-4.15071944846258, 50.54124017315682], [-4.150089301372619, 50.541116880381374], [-4.14964848814897, 50.53971293887225], [-4.153509055965487, 50.5390577559817], [-4.1535753194958, 50.53934489724238], [-4.152594359924785, 50.54087156251219]]]}}, {"type": "Feature", "properties": {"type": "postcode-cell", "postcode": "PL19 8DF", "postcodes": ["PL19 8DF"]}, "geometry": {"type": "Polygon", "coordinates": [[[-4.1542672900378035, 50.544309600184235], [-4.152983302956817, 50.5437199730857], [-4.1527066686576415, 50.542859927240094], [-4.153070218288006, 50.54263255451909], [-4.154162919043728, 50.5427047524971], [-4.154965062293567, 50.54339295263864], [-4.1542672900378035, 50.544309600184235]]]}}, {"type": "Feature", "properties": {"type": "postcode-cell", "postcode": "PL19 8BX", "postcodes": ["PL19 8BX"]}, "geometry": {"type": "Polygon", "coordinates": [[[-4.152983302956817, 50.5437199730857], [-4.152351533209735, 50.54477517949277], [-4.151279990234868, 50.54363999459169], [-4.150632450734615, 50.544225706059805], [-4.1503573795915205, 50.543684708660535], [-4.150598523677785, 50.543333894392816], [-4.151274650235778, 50.543064655714446], [-4.1527066686576415, 50.542859927240094], [-4.152983302956817, 50.5437199730857]]]}}, {"type": "Feature", "properties": {"type": "postcode-cell", "postcode": "PL19 8DQ", "postcodes": ["PL19 8DQ"]}, "geometry": {"type": "Polygon", "coordinates": [[[-4.153070218288006, 50.54263255451909], [-4.1527066686576415, 50.542859927240094], [-4.151274650235778, 50.543064655714446], [-4.150814945163277, 50.54215108714694], [-4.151192822091105, 50.54123372677037], [-4.152594359924785, 50.54087156251219], [-4.153070218288006, 50.54263255451909]]]}}, {"type": "Feature", "properties": {"type": "postcode-cell", "postcode": "PL19 8DA", "postcodes": ["PL19 8DA"]}, "geometry": {"type": "Polygon", "coordinates": [[[-4.153601179247314, 50.54483110547766], [-4.153945168529238, 50.54570613964558], [-4.153469990235271, 50.54595999459352], [-4.152391807122623, 50.54481784410221], [-4.153601179247314, 50.54483110547766]]]}}, {"type": "Feature", "properties": {"type": "postcode-cell", "postcode": "PL19 8DB", "postcodes": ["PL19 8DB"]}, "geometry": {"type": "Polygon", "coordinates": [[[-4.154353894883129, 50.54453651161629], [-4.153601179247314, 50.54483110547766], [-4.152391807122623, 50.54481784410221], [-4.152351533209735, 50.54477517949277], [-4.152983302956817, 50.5437199730857], [-4.1542672900378035, 50.544309600184235], [-4.154353894883129, 50.54453651161629]]]}}, {"type": "Feature", "properties": {"type": "postcode-cell", "postcode": "PL19 9AS", "postcodes": ["PL19 9AS"]}, "geometry": {"type": "Polygon", "coordinates": [[[-4.145803135539217, 50.547267526222335], [-4.143569990227321, 50.548989994596056], [-4.143329990227347, 50.54857999459573], [-4.144265798686014, 50.546605162040294], [-4.145803135539217, 50.547267526222335]]]}}, {"type": "Feature", "properties": {"type": "postcode-cell", "postcode": "PL19 8DH", "postcodes": ["PL19 8DH"]}, "geometry": {"type": "Polygon", "coordinates": [[[-4.150632450734615, 50.544225706059805], [-4.149499990232956, 50.54524999459302], [-4.148451635429791, 50.54576720211577], [-4.148070920617571, 50.54483303081188], [-4.14833470641035, 50.54395303063921], [-4.1503573795915205, 50.543684708660535], [-4.150632450734615, 50.544225706059805]]]}}, {"type": "Feature", "properties": {"type": "postcode-cell", "postcode": "PL19 8HJ", "postcodes": ["PL19 8HJ"]}, "geometry": {"type": "Polygon", "coordinates": [[[-4.150598523677785, 50.543333894392816], [-4.149798330471269, 50.54282826235225], [-4.1498005636072754, 50.54199576913509], [-4.150047882290196, 50.54194313738898], [-4.150814945163277, 50.54215108714694], [-4.151274650235778, 50.543064655714446], [-4.150598523677785, 50.543333894392816]]]}}, {"type": "Feature", "properties": {"type": "postcode-cell", "postcode": "PL19 8BZ", "postcodes": ["PL19 8BZ"]}, "geometry": {"type": "Polygon", "coordinates": [[[-4.150814945163277, 50.54215108714694], [-4.150047882290196, 50.54194313738898], [-4.15071944846258, 50.54124017315682], [-4.151192822091105, 50.54123372677037], [-4.150814945163277, 50.54215108714694]]]}}, {"type": "Feature", "properties": {"type": "postcode-cell", "postcode": "PL19 8FE", "postcodes": ["PL19 8FE"]}, "geometry": {"type": "Polygon", "coordinates": [[[-4.150089301372619, 50.541116880381374], [-4.149143626381254, 50.54133521585375], [-4.148774861147018, 50.54108556170189], [-4.1487146861193684, 50.539772516629405], [-4.149414941431456, 50.53970516669363], [-4.14964848814897, 50.53971293887225], [-4.150089301372619, 50.541116880381374]]]}}, {"type": "Feature", "properties": {"type": "postcode-cell", "postcode": "PL19 9DP", "postcodes": ["PL19 9DP"]}, "geometry": {"type": "Polygon", "coordinates": [[[-4.154020490269958, 50.53736518246846], [-4.149968031703116, 50.53777675256386], [-4.14754013026081, 50.53770089058756], [-4.147468843056872, 50.53736506610529], [-4.14772203382055, 50.53676793007452], [-4.153054440615302, 50.53602294717371], [-4.154056582792304, 50.53687624795977], [-4.154020490269958, 50.53736518246846]]]}}, {"type": "Feature", "properties": {"type": "postcode-cell", "postcode": "PL19 8SG", "postcodes": ["PL19 8SG"]}, "geometry": {"type": "Polygon", "coordinates": [[[-4.150047882290196, 50.54194313738898], [-4.1498005636072754, 50.54199576913509], [-4.149074228850799, 50.541667108717064], [-4.149143626381254, 50.54133521585375], [-4.150089301372619, 50.541116880381374], [-4.15071944846258, 50.54124017315682], [-4.150047882290196, 50.54194313738898]]]}}, {"type": "Feature", "properties": {"type": "postcode-cell", "postcode": "PL19 8DE", "postcodes": ["PL19 8DE"]}, "geometry": {"type": "Polygon", "coordinates": [[[-4.1503573795915205, 50.543684708660535], [-4.14833470641035, 50.54395303063921], [-4.147932333976665, 50.54370920067774], [-4.14779197766594, 50.54330968777786], [-4.148964355264681, 50.542640495551886], [-4.149798330471269, 50.54282826235225], [-4.150598523677785, 50.543333894392816], [-4.1503573795915205, 50.543684708660535]]]}}, {"type": "Feature", "properties": {"type": "postcode-cell", "postcode": "PL19 8DT", "postcodes": ["PL19 8DT"]}, "geometry": {"type": "Polygon", "coordinates": [[[-4.149043057497643, 50.541687115123274], [-4.147685857229681, 50.541864300890175], [-4.147318424464813, 50.54121772761274], [-4.148774861147018, 50.54108556170189], [-4.149143626381254, 50.54133521585375], [-4.149074228850799, 50.541667108717064], [-4.149043057497643, 50.541687115123274]]]}}, {"type": "Feature", "properties": {"type": "postcode-cell", "postcode": "PL19 8DN", "postcodes": ["PL19 8DN"]}, "geometry": {"type": "Polygon", "coordinates": [[[-4.149074228850799, 50.541667108717064], [-4.1498005636072754, 50.54199576913509], [-4.149798330471269, 50.54282826235225], [-4.148964355264681, 50.542640495551886], [-4.148759103621793, 50.542433032259375], [-4.149043057497643, 50.541687115123274], [-4.149074228850799, 50.541667108717064]]]}}, {"type": "Feature", "properties": {"type": "postcode-cell", "postcode": "PL19 9ET", "postcodes": ["PL19 9ET"]}, "geometry": {"type": "Polygon", "coordinates": [[[-4.149299333802918, 50.53866911100073], [-4.147254982476474, 50.538090935060744], [-4.147342041111761, 50.53793621500566], [-4.14754013026081, 50.53770089058756], [-4.149968031703116, 50.53777675256386], [-4.149299333802918, 50.53866911100073]]]}}, {"type": "Feature", "properties": {"type": "postcode-cell", "postcode": "PL19 9BS", "postcodes": ["PL19 9BS"]}, "geometry": {"type": "Polygon", "coordinates": [[[-4.149414941431456, 50.53970516669363], [-4.1487146861193684, 50.539772516629405], [-4.147237089834793, 50.539512714145914], [-4.147026407976365, 50.53929939272103], [-4.146951307608303, 50.53851483924959], [-4.147254982476474, 50.538090935060744], [-4.149299333802918, 50.53866911100073], [-4.149414941431456, 50.53970516669363]]]}}, {"type": "Feature", "properties": {"type": "postcode-cell", "postcode": "PL19 9FJ", "postcodes": ["PL19 9FJ"]}, "geometry": {"type": "Polygon", "coordinates": [[[-4.147468843056872, 50.53736506610529], [-4.145245487030349, 50.5366930139575], [-4.145498407406839, 50.536042890674544], [-4.147636903233458, 50.53649284902705], [-4.14772203382055, 50.53676793007452], [-4.147468843056872, 50.53736506610529]]]}}, {"type": "Feature", "properties": {"type": "postcode-cell", "postcode": "PL19 9FB", "postcodes": ["PL19 9FB"]}, "geometry": {"type": "Polygon", "coordinates": [[[-4.153054440615302, 50.53602294717371], [-4.14772203382055, 50.53676793007452], [-4.147636903233458, 50.53649284902705], [-4.1481978363761085, 50.533605160541526], [-4.150539990239038, 50.53339999458365], [-4.150849274856465, 50.533349403365925], [-4.150931643836271, 50.533403966292745], [-4.153054440615302, 50.53602294717371]]]}}, {"type": "Feature", "properties": {"type": "postcode-cell", "postcode": "PL19 8PT", "postcodes": ["PL19 8PT"]}, "geometry": {"type": "Polygon", "coordinates": [[[-4.148759103621793, 50.542433032259375], [-4.147517581102623, 50.54225695281508], [-4.147685857229681, 50.541864300890175], [-4.149043057497643, 50.541687115123274], [-4.148759103621793, 50.542433032259375]]]}}, {"type": "Feature", "properties": {"type": "postcode-cell", "postcode": "PL19 9FN", "postcodes": ["PL19 9FN"]}, "geometry": {"type": "Polygon", "coordinates": [[[-4.147636903233458, 50.53649284902705], [-4.145498407406839, 50.536042890674544], [-4.144833327539449, 50.53389979647289], [-4.1481978363761085, 50.533605160541526], [-4.147636903233458, 50.53649284902705]]]}}, {"type": "Feature", "properties": {"type": "postcode-cell", "postcode": "PL19 0XJ", "postcodes": ["PL19 0XJ", "PL19 1EE", "PL19 1EH", "PL19 1EL", "PL19 1EU", "PL19 1FF", "PL19 1FH", "PL19 1FJ", "PL19 1FQ", "PL19 1FU", "PL19 1FY", "PL19 1FZ", "PL19 1GA", "PL19 8WZ", "PL19 8YG", "PL19 9RL"]}, "geometry": {"type": "Polygon", "coordinates": [[[-4.147893655149979, 50.54480530953127], [-4.146422150360902, 50.5439422773343], [-4.147932333976665, 50.54370920067774], [-4.14833470641035, 50.54395303063921], [-4.148070920617571, 50.54483303081188], [-4.147893655149979, 50.54480530953127]]]}}, {"type": "Feature", "properties": {"type": "postcode-cell", "postcode": "PL19 9AZ", "postcodes": ["PL19 9AZ"]}, "geometry": {"type": "Polygon", "coordinates": [[[-4.148070920617571, 50.54483303081188], [-4.148451635429791, 50.54576720211577], [-4.147995253135973, 50.54599235262327], [-4.145484684331874, 50.54507092224264], [-4.145580549965111, 50.544916141664245], [-4.146038988111923, 50.54452582650393], [-4.147893655149979, 50.54480530953127], [-4.148070920617571, 50.54483303081188]]]}}, {"type": "Feature", "properties": {"type": "postcode-cell", "postcode": "PL19 8DG", "postcodes": ["PL19 8DG"]}, "geometry": {"type": "Polygon", "coordinates": [[[-4.14779197766594, 50.54330968777786], [-4.146920573035792, 50.54262540261283], [-4.146920729241668, 50.542615325184045], [-4.147517581102623, 50.54225695281508], [-4.148759103621793, 50.542433032259375], [-4.148964355264681, 50.542640495551886], [-4.14779197766594, 50.54330968777786]]]}}, {"type": "Feature", "properties": {"type": "postcode-cell", "postcode": "PL19 8DW", "postcodes": ["PL19 8DW"]}, "geometry": {"type": "Polygon", "coordinates": [[[-4.147517581102623, 50.54225695281508], [-4.146920729241668, 50.542615325184045], [-4.146299451658748, 50.54224179499815], [-4.146492858871095, 50.54083837892842], [-4.147318424464813, 50.54121772761274], [-4.147685857229681, 50.541864300890175], [-4.147517581102623, 50.54225695281508]]]}}, {"type": "Feature", "properties": {"type": "postcode-cell", "postcode": "PL19 8DP", "postcodes": ["PL19 8DP"]}, "geometry": {"type": "Polygon", "coordinates": [[[-4.148774861147018, 50.54108556170189], [-4.147318424464813, 50.54121772761274], [-4.146492858871095, 50.54083837892842], [-4.146486081628195, 50.54083193501973], [-4.147237089834793, 50.539512714145914], [-4.1487146861193684, 50.539772516629405], [-4.148774861147018, 50.54108556170189]]]}}, {"type": "Feature", "properties": {"type": "postcode-cell", "postcode": "PL19 9RQ", "postcodes": ["PL19 9RQ"]}, "geometry": {"type": "Polygon", "coordinates": [[[-4.14779197766594, 50.54330968777786], [-4.147932333976665, 50.54370920067774], [-4.146422150360902, 50.5439422773343], [-4.14612535844157, 50.54398586466363], [-4.145553552243238, 50.54349637814957], [-4.1455930151625715, 50.543379540685706], [-4.146920573035792, 50.54262540261283], [-4.14779197766594, 50.54330968777786]]]}}, {"type": "Feature", "properties": {"type": "postcode-cell", "postcode": "PL19 9DS", "postcodes": ["PL19 9DS"]}, "geometry": {"type": "Polygon", "coordinates": [[[-4.147342041111761, 50.53793621500566], [-4.144622322129545, 50.53726064385587], [-4.144463130283891, 50.53701890535505], [-4.145245487030349, 50.5366930139575], [-4.147468843056872, 50.53736506610529], [-4.14754013026081, 50.53770089058756], [-4.147342041111761, 50.53793621500566]]]}}, {"type": "Feature", "properties": {"type": "postcode-cell", "postcode": "PL19 9FD", "postcodes": ["PL19 9FD"]}, "geometry": {"type": "Polygon", "coordinates": [[[-4.145096771268746, 50.54523524203369], [-4.145484684331874, 50.54507092224264], [-4.147995253135973, 50.54599235262327], [-4.146650052309179, 50.54665596797208], [-4.145096771268746, 50.54523524203369]]]}}, {"type": "Feature", "properties": {"type": "postcode-cell", "postcode": "PL19 1ZZ", "postcodes": ["PL19 1ZZ"]}, "geometry": {"type": "Polygon", "coordinates": [[[-4.147893655149979, 50.54480530953127], [-4.146038988111923, 50.54452582650393], [-4.14612535844157, 50.54398586466363], [-4.146422150360902, 50.5439422773343], [-4.147893655149979, 50.54480530953127]]]}}, {"type": "Feature", "properties": {"type": "postcode-cell", "postcode": "PL19 9BH", "postcodes": ["PL19 9BH"]}, "geometry": {"type": "Polygon", "coordinates": [[[-4.146038988111923, 50.54452582650393], [-4.145580549965111, 50.544916141664245], [-4.144216913607521, 50.5437933887087], [-4.145553552243238, 50.54349637814957], [-4.14612535844157, 50.54398586466363], [-4.146038988111923, 50.54452582650393]]]}}, {"type": "Feature", "properties": {"type": "postcode-cell", "postcode": "PL19 9DT", "postcodes": ["PL19 9DT"]}, "geometry": {"type": "Polygon", "coordinates": [[[-4.146951307608303, 50.53851483924959], [-4.144778272334442, 50.53818770284385], [-4.144622322129545, 50.53726064385587], [-4.147342041111761, 50.53793621500566], [-4.147254982476474, 50.538090935060744], [-4.146951307608303, 50.53851483924959]]]}}, {"type": "Feature", "properties": {"type": "postcode-cell", "postcode": "PL19 9NL", "postcodes": ["PL19 9NL"]}, "geometry": {"type": "Polygon", "coordinates": [[[-4.14023276082329, 50.53535424794372], [-4.138371416036462, 50.535203459055516], [-4.138754533094993, 50.53465941658539], [-4.142139722109275, 50.53336989304219], [-4.143156713603064, 50.53377668437541], [-4.14023276082329, 50.53535424794372]]]}}, {"type": "Feature", "properties": {"type": "postcode-cell", "postcode": "PL19 9FH", "postcodes": ["PL19 9FH"]}, "geometry": {"type": "Polygon", "coordinates": [[[-4.145498407406839, 50.536042890674544], [-4.145245487030349, 50.5366930139575], [-4.144463130283891, 50.53701890535505], [-4.144292012663065, 50.536994654428284], [-4.143062750141568, 50.5361943434656], [-4.142808149780805, 50.53578905809299], [-4.143818468469989, 50.53388397396774], [-4.144259990234619, 50.533949994584184], [-4.144833327539449, 50.53389979647289], [-4.145498407406839, 50.536042890674544]]]}}, {"type": "Feature", "properties": {"type": "postcode-cell", "postcode": "PL19 9AU", "postcodes": ["PL19 9AU"]}, "geometry": {"type": "Polygon", "coordinates": [[[-4.146920573035792, 50.54262540261283], [-4.1455930151625715, 50.543379540685706], [-4.144648658530081, 50.54246411538577], [-4.144695650677494, 50.54241605888145], [-4.145238418054021, 50.5421614818137], [-4.146299451658748, 50.54224179499815], [-4.146920729241668, 50.542615325184045], [-4.146920573035792, 50.54262540261283]]]}}, {"type": "Feature", "properties": {"type": "postcode-cell", "postcode": "PL19 9AT", "postcodes": ["PL19 9AT"]}, "geometry": {"type": "Polygon", "coordinates": [[[-4.146492858871095, 50.54083837892842], [-4.146299451658748, 50.54224179499815], [-4.145238418054021, 50.5421614818137], [-4.145185723446622, 50.54099623404278], [-4.146486081628195, 50.54083193501973], [-4.146492858871095, 50.54083837892842]]]}}, {"type": "Feature", "properties": {"type": "postcode-cell", "postcode": "PL19 9JH", "postcodes": ["PL19 9JH"]}, "geometry": {"type": "Polygon", "coordinates": [[[-4.144622322129545, 50.53726064385587], [-4.144778272334442, 50.53818770284385], [-4.144188734549372, 50.538409753261085], [-4.14294456739655, 50.53776768168204], [-4.144292012663065, 50.536994654428284], [-4.144463130283891, 50.53701890535505], [-4.144622322129545, 50.53726064385587]]]}}, {"type": "Feature", "properties": {"type": "postcode-cell", "postcode": "PL19 8DR", "postcodes": ["PL19 8DR"]}, "geometry": {"type": "Polygon", "coordinates": [[[-4.146486081628195, 50.54083193501973], [-4.145185723446622, 50.54099623404278], [-4.1444236197742885, 50.540861347852335], [-4.145529990232482, 50.54049999458932], [-4.143754574366629, 50.53964709369643], [-4.147026407976365, 50.53929939272103], [-4.147237089834793, 50.539512714145914], [-4.146486081628195, 50.54083193501973]]]}}, {"type": "Feature", "properties": {"type": "postcode-cell", "postcode": "PL19 9AX", "postcodes": ["PL19 9AX"]}, "geometry": {"type": "Polygon", "coordinates": [[[-4.145238418054021, 50.5421614818137], [-4.144695650677494, 50.54241605888145], [-4.143692962123309, 50.54109998027553], [-4.1444236197742885, 50.540861347852335], [-4.145185723446622, 50.54099623404278], [-4.145238418054021, 50.5421614818137]]]}}, {"type": "Feature", "properties": {"type": "postcode-cell", "postcode": "PL19 9BB", "postcodes": ["PL19 9BB"]}, "geometry": {"type": "Polygon", "coordinates": [[[-4.145484684331874, 50.54507092224264], [-4.145096771268746, 50.54523524203369], [-4.144685110662013, 50.54534691905614], [-4.143838224077514, 50.5438020006299], [-4.144216913607521, 50.5437933887087], [-4.145580549965111, 50.544916141664245], [-4.145484684331874, 50.54507092224264]]]}}, {"type": "Feature", "properties": {"type": "postcode-cell", "postcode": "PL19 9FE", "postcodes": ["PL19 9FE"]}, "geometry": {"type": "Polygon", "coordinates": [[[-4.146650052309179, 50.54665596797208], [-4.146499990230293, 50.546729994594244], [-4.145803135539217, 50.547267526222335], [-4.144265798686014, 50.546605162040294], [-4.1447799902297, 50.545519994593306], [-4.144685110662013, 50.54534691905614], [-4.145096771268746, 50.54523524203369], [-4.146650052309179, 50.54665596797208]]]}}, {"type": "Feature", "properties": {"type": "postcode-cell", "postcode": "PL19 9AY", "postcodes": ["PL19 9AY"]}, "geometry": {"type": "Polygon", "coordinates": [[[-4.145553552243238, 50.54349637814957], [-4.144216913607521, 50.5437933887087], [-4.143838224077514, 50.5438020006299], [-4.143262736024642, 50.54275211315748], [-4.144648658530081, 50.54246411538577], [-4.1455930151625715, 50.543379540685706], [-4.145553552243238, 50.54349637814957]]]}}, {"type": "Feature", "properties": {"type": "postcode-cell", "postcode": "PL19 9QN", "postcodes": ["PL19 9QN"]}, "geometry": {"type": "Polygon", "coordinates": [[[-4.147026407976365, 50.53929939272103], [-4.143754574366629, 50.53964709369643], [-4.14369089887321, 50.53961650321947], [-4.143888592002979, 50.538926557907104], [-4.144188734549372, 50.538409753261085], [-4.144778272334442, 50.53818770284385], [-4.146951307608303, 50.53851483924959], [-4.147026407976365, 50.53929939272103]]]}}, {"type": "Feature", "properties": {"type": "postcode-cell", "postcode": "PL19 9BJ", "postcodes": ["PL19 9BJ"]}, "geometry": {"type": "Polygon", "coordinates": [[[-4.144695650677494, 50.54241605888145], [-4.144648658530081, 50.54246411538577], [-4.143262736024642, 50.54275211315748], [-4.14255999023007, 50.54146999459014], [-4.143692962123309, 50.54109998027553], [-4.144695650677494, 50.54241605888145]]]}}, {"type": "Feature", "properties": {"type": "postcode-cell", "postcode": "PL19 9LG", "postcodes": ["PL19 9LG"]}, "geometry": {"type": "Polygon", "coordinates": [[[-4.142331861882142, 50.5359288149652], [-4.141107063323043, 50.53613548106444], [-4.140903835136285, 50.536103320198144], [-4.14023276082329, 50.53535424794372], [-4.143156713603064, 50.53377668437541], [-4.143189990233982, 50.53378999458408], [-4.143818468469989, 50.53388397396774], [-4.142808149780805, 50.53578905809299], [-4.142331861882142, 50.5359288149652]]]}}, {"type": "Feature", "properties": {"type": "postcode-cell", "postcode": "PL19 9DW", "postcodes": ["PL19 9DW"]}, "geometry": {"type": "Polygon", "coordinates": [[[-4.142808149780805, 50.53578905809299], [-4.143062750141568, 50.5361943434656], [-4.142236478311021, 50.537476876710635], [-4.141513365769048, 50.53726713791785], [-4.142331861882142, 50.5359288149652], [-4.142808149780805, 50.53578905809299]]]}}, {"type": "Feature", "properties": {"type": "postcode-cell", "postcode": "PL19 9LN", "postcodes": ["PL19 9LN"]}, "geometry": {"type": "Polygon", "coordinates": [[[-4.14369089887321, 50.53961650321947], [-4.14160474826318, 50.53861424954522], [-4.142236127821439, 50.53812329099942], [-4.143888592002979, 50.538926557907104], [-4.14369089887321, 50.53961650321947]]]}}, {"type": "Feature", "properties": {"type": "postcode-cell", "postcode": "PL19 9AP", "postcodes": ["PL19 9AP"]}, "geometry": {"type": "Polygon", "coordinates": [[[-4.14294456739655, 50.53776768168204], [-4.142530910178993, 50.537777158372585], [-4.142236478311021, 50.537476876710635], [-4.143062750141568, 50.5361943434656], [-4.144292012663065, 50.536994654428284], [-4.14294456739655, 50.53776768168204]]]}}, {"type": "Feature", "properties": {"type": "postcode-cell", "postcode": "PL19 9LW", "postcodes": ["PL19 9LW"]}, "geometry": {"type": "Polygon", "coordinates": [[[-4.143888592002979, 50.538926557907104], [-4.142236127821439, 50.53812329099942], [-4.142530910178993, 50.537777158372585], [-4.14294456739655, 50.53776768168204], [-4.144188734549372, 50.538409753261085], [-4.143888592002979, 50.538926557907104]]]}}, {"type": "Feature", "properties": {"type": "postcode-cell", "postcode": "PL19 9SR", "postcodes": ["PL19 9SR"]}, "geometry": {"type": "Polygon", "coordinates": [[[-4.1352138334367305, 50.53495900807784], [-4.135218591847908, 50.534958959755414], [-4.138107594216949, 50.53531784886559], [-4.137725664954134, 50.536750398338356], [-4.134306894906323, 50.535107489920016], [-4.1352138334367305, 50.53495900807784]]]}}, {"type": "Feature", "properties": {"type": "postcode-cell", "postcode": "PL19 9LL", "postcodes": ["PL19 9LL"]}, "geometry": {"type": "Polygon", "coordinates": [[[-4.142530910178993, 50.537777158372585], [-4.142236127821439, 50.53812329099942], [-4.14160474826318, 50.53861424954522], [-4.140278562618648, 50.53797706534376], [-4.1406653120795, 50.53733897738666], [-4.141034554900668, 50.537229520596284], [-4.141513365769048, 50.53726713791785], [-4.142236478311021, 50.537476876710635], [-4.142530910178993, 50.537777158372585]]]}}, {"type": "Feature", "properties": {"type": "postcode-cell", "postcode": "PL19 9DL", "postcodes": ["PL19 9DL"]}, "geometry": {"type": "Polygon", "coordinates": [[[-4.141107063323043, 50.53613548106444], [-4.142331861882142, 50.5359288149652], [-4.141513365769048, 50.53726713791785], [-4.141034554900668, 50.537229520596284], [-4.141107063323043, 50.53613548106444]]]}}, {"type": "Feature", "properties": {"type": "postcode-cell", "postcode": "PL19 9EZ", "postcodes": ["PL19 9EZ"]}, "geometry": {"type": "Polygon", "coordinates": [[[-4.141034554900668, 50.537229520596284], [-4.1406653120795, 50.53733897738666], [-4.139890090779387, 50.53691806787221], [-4.140015947557156, 50.53635529903599], [-4.140903835136285, 50.536103320198144], [-4.141107063323043, 50.53613548106444], [-4.141034554900668, 50.537229520596284]]]}}, {"type": "Feature", "properties": {"type": "postcode-cell", "postcode": "PL19 9NH", "postcodes": ["PL19 9NH"]}, "geometry": {"type": "Polygon", "coordinates": [[[-4.140278562618648, 50.53797706534376], [-4.138658155555138, 50.53719847400441], [-4.138892935216012, 50.53708913938945], [-4.139890090779387, 50.53691806787221], [-4.1406653120795, 50.53733897738666], [-4.140278562618648, 50.53797706534376]]]}}, {"type": "Feature", "properties": {"type": "postcode-cell", "postcode": "PL19 9DN", "postcodes": ["PL19 9DN"]}, "geometry": {"type": "Polygon", "coordinates": [[[-4.140903835136285, 50.536103320198144], [-4.140015947557156, 50.53635529903599], [-4.139135771547949, 50.53604033905216], [-4.138186490926342, 50.535303640566035], [-4.138371416036462, 50.535203459055516], [-4.14023276082329, 50.53535424794372], [-4.140903835136285, 50.536103320198144]]]}}, {"type": "Feature", "properties": {"type": "postcode-cell", "postcode": "PL19 9JJ", "postcodes": ["PL19 9JJ"]}, "geometry": {"type": "Polygon", "coordinates": [[[-4.139135771547949, 50.53604033905216], [-4.138892935216012, 50.53708913938945], [-4.138658155555138, 50.53719847400441], [-4.137725664954134, 50.536750398338356], [-4.138107594216949, 50.53531784886559], [-4.138186490926342, 50.535303640566035], [-4.139135771547949, 50.53604033905216]]]}}, {"type": "Feature", "properties": {"type": "postcode-cell", "postcode": "PL19 9FW", "postcodes": ["PL19 9FW"]}, "geometry": {"type": "Polygon", "coordinates": [[[-4.138754533094993, 50.53465941658539], [-4.138219393025224, 50.53353439656889], [-4.1384114388432645, 50.5333187037482], [-4.139697046841012, 50.53250515788866], [-4.140640351935564, 50.53238317884074], [-4.140799990232994, 50.53247999458309], [-4.141849990233583, 50.53271999458327], [-4.141439990233139, 50.533089994583555], [-4.142139722109275, 50.53336989304219], [-4.138754533094993, 50.53465941658539]]]}}, {"type": "Feature", "properties": {"type": "postcode-cell", "postcode": "PL19 9LJ", "postcodes": ["PL19 9LJ"]}, "geometry": {"type": "Polygon", "coordinates": [[[-4.140015947557156, 50.53635529903599], [-4.139890090779387, 50.53691806787221], [-4.138892935216012, 50.53708913938945], [-4.139135771547949, 50.53604033905216], [-4.140015947557156, 50.53635529903599]]]}}, {"type": "Feature", "properties": {"type": "postcode-cell", "postcode": "PL19 9FQ", "postcodes": ["PL19 9FQ"]}, "geometry": {"type": "Polygon", "coordinates": [[[-4.138371416036462, 50.535203459055516], [-4.138186490926342, 50.535303640566035], [-4.138107594216949, 50.53531784886559], [-4.135218591847908, 50.534958959755414], [-4.137627737132027, 50.53359106737559], [-4.138219393025224, 50.53353439656889], [-4.138754533094993, 50.53465941658539], [-4.138371416036462, 50.535203459055516]]]}}, {"type": "Feature", "properties": {"type": "postcode-cell", "postcode": "PL19 9FX", "postcodes": ["PL19 9FX"]}, "geometry": {"type": "Polygon", "coordinates": [[[-4.1384114388432645, 50.5333187037482], [-4.137653949270586, 50.53301099153885], [-4.137341127180739, 50.53235743426853], [-4.137845873277791, 50.532077260311844], [-4.139697046841012, 50.53250515788866], [-4.1384114388432645, 50.5333187037482]]]}}, {"type": "Feature", "properties": {"type": "postcode-cell", "postcode": "PL19 9FT", "postcodes": ["PL19 9FT"]}, "geometry": {"type": "Polygon", "coordinates": [[[-4.137845873277791, 50.532077260311844], [-4.137341127180739, 50.53235743426853], [-4.136395431164249, 50.532726461412516], [-4.1321206985384755, 50.531187253169286], [-4.13331999022876, 50.53089999458197], [-4.133269990229032, 50.53022999458146], [-4.133629990229359, 50.530039994581294], [-4.1358627194066315, 50.52975924363855], [-4.137845873277791, 50.532077260311844]]]}}, {"type": "Feature", "properties": {"type": "postcode-cell", "postcode": "PL19 9FZ", "postcodes": ["PL19 9FZ"]}, "geometry": {"type": "Polygon", "coordinates": [[[-4.138219393025224, 50.53353439656889], [-4.137627737132027, 50.53359106737559], [-4.136502630451684, 50.533018676317745], [-4.136485547142051, 50.53290410238897], [-4.137653949270586, 50.53301099153885], [-4.1384114388432645, 50.5333187037482], [-4.138219393025224, 50.53353439656889]]]}}, {"type": "Feature", "properties": {"type": "postcode-cell", "postcode": "PL19 9FY", "postcodes": ["PL19 9FY"]}, "geometry": {"type": "Polygon", "coordinates": [[[-4.137341127180739, 50.53235743426853], [-4.137653949270586, 50.53301099153885], [-4.136485547142051, 50.53290410238897], [-4.136395431164249, 50.532726461412516], [-4.137341127180739, 50.53235743426853]]]}}, {"type": "Feature", "properties": {"type": "postcode-cell", "postcode": "PL19 9FS", "postcodes": ["PL19 9FS"]}, "geometry": {"type": "Polygon", "coordinates": [[[-4.136395431164249, 50.532726461412516], [-4.136485547142051, 50.53290410238897], [-4.136502630451684, 50.533018676317745], [-4.1352138334367305, 50.53495900807784], [-4.134306894906323, 50.535107489920016], [-4.133999990227361, 50.534959994585165], [-4.132719990227104, 50.53365999458414], [-4.13164999022747, 50.53129999458233], [-4.1321206985384755, 50.531187253169286], [-4.136395431164249, 50.532726461412516]]]}}, {"type": "Feature", "properties": {"type": "postcode-cell", "postcode": "PL19 9FR", "postcodes": ["PL19 9FR"]}, "geometry": {"type": "Polygon", "coordinates": [[[-4.136502630451684, 50.533018676317745], [-4.137627737132027, 50.53359106737559], [-4.135218591847908, 50.534958959755414], [-4.1352138334367305, 50.53495900807784], [-4.136502630451684, 50.533018676317745]]]}}]}