{"type": "FeatureCollection", "features": [{"type": "Feature", "properties": {"type": "ward-outline", "name": "Teignmouth Central"}, "geometry": {"type": "Polygon", "coordinates": [[[-3.50531, 50.56647], [-3.50167, 50.56504], [-3.49897, 50.56458], [-3.49864, 50.56275], [-3.49919, 50.56272], [-3.49915, 50.56196], [-3.49859, 50.55963], [-3.49763, 50.55801], [-3.49644, 50.55827], [-3.49639, 50.55762], [-3.49993, 50.55369], [-3.49559, 50.55079], [-3.49366, 50.54822], [-3.49403, 50.54674], [-3.49609, 50.54623], [-3.49732, 50.54629], [-3.49763, 50.54573], [-3.49909, 50.54559], [-3.50032, 50.54641], [-3.49916, 50.54711], [-3.49963, 50.54761], [-3.5003, 50.54783], [-3.50275, 50.54761], [-3.50619, 50.54975], [-3.50836, 50.5522], [-3.50888, 50.55485], [-3.50687, 50.55506], [-3.50652, 50.55622], [-3.5081, 50.55806], [-3.50842, 50.55945], [-3.50964, 50.55996], [-3.51062, 50.56095], [-3.51137, 50.56055], [-3.51233, 50.56166], [-3.51613, 50.56329], [-3.51742, 50.56438], [-3.5185, 50.56411], [-3.51922, 50.56472], [-3.51999, 50.56511], [-3.51934, 50.56535], [-3.51929, 50.56573], [-3.52082, 50.56773], [-3.52265, 50.56791], [-3.52138, 50.56835], [-3.5173, 50.56863], [-3.51361, 50.5681], [-3.50997, 50.56795], [-3.50531, 50.56647]]]}}, {"type": "Feature", "properties": {"type": "postcode-cell", "postcode": "TQ14 9PB", "postcodes": ["TQ14 9PB"]}, "geometry": {"type": "Polygon", "coordinates": [[[-3.514641534401875, 50.56724193155226], [-3.5131012432929376, 50.56318456045899], [-3.5142529455642038, 50.56248487124964], [-3.5161299898155223, 50.56328999461864], [-3.51741998981581, 50.564379994619465], [-3.5184999898166183, 50.56410999461924], [-3.5192199898167744, 50.564719994619686], [-3.5199899898170717, 50.565109994619974], [-3.519339989816552, 50.565349994620185], [-3.5192899898163366, 50.5657299946205], [-3.520819989816339, 50.56772999462199], [-3.5226499898174013, 50.56790999462209], [-3.5213799898163933, 50.568349994622466], [-3.517299989813697, 50.56862999462277], [-3.515723194021954, 50.56840353299443], [-3.514641534401875, 50.56724193155226]]]}}, {"type": "Feature", "properties": {"type": "postcode-cell", "postcode": "TQ14 9PD", "postcodes": ["TQ14 9PD"]}, "geometry": {"type": "Polygon", "coordinates": [[[-3.5131012432929376, 50.56318456045899], [-3.514641534401875, 50.56724193155226], [-3.507001817000584, 50.56700734564328], [-3.506942179840326, 50.56698840457009], [-3.507722118585127, 50.5660898522875], [-3.5112902295306356, 50.56341095255543], [-3.511835164071453, 50.563293101778235], [-3.5131012432929376, 50.56318456045899]]]}}, {"type": "Feature", "properties": {"type": "postcode-cell", "postcode": "TQ14 9NN", "postcodes": ["TQ14 9NN"]}, "geometry": {"type": "Polygon", "coordinates": [[[-3.511835164071453, 50.563293101778235], [-3.510399052838439, 50.56203056530448], [-3.5087998159821203, 50.55986514614979], [-3.5089193001007986, 50.55965872558874], [-3.5096399898130497, 50.55995999461619], [-3.5106199898131885, 50.56094999461696], [-3.5113699898138515, 50.560549994616615], [-3.5123299898139204, 50.561659994617465], [-3.5142529455642038, 50.56248487124964], [-3.5131012432929376, 50.56318456045899], [-3.511835164071453, 50.563293101778235]]]}}, {"type": "Feature", "properties": {"type": "postcode-cell", "postcode": "TQ14 9NU", "postcodes": ["TQ14 9NU"]}, "geometry": {"type": "Polygon", "coordinates": [[[-3.514641534401875, 50.56724193155226], [-3.515723194021954, 50.56840353299443], [-3.513609989811635, 50.568099994622436], [-3.509969989809424, 50.56794999462239], [-3.507001817000584, 50.56700734564328], [-3.514641534401875, 50.56724193155226]]]}}, {"type": "Feature", "properties": {"type": "postcode-cell", "postcode": "TQ14 9NG", "postcodes": ["TQ14 9NG"]}, "geometry": {"type": "Polygon", "coordinates": [[[-3.511835164071453, 50.563293101778235], [-3.5112902295306356, 50.56341095255543], [-3.50917151897444, 50.562966704383705], [-3.5075887369865977, 50.560579807612484], [-3.507872519637672, 50.56051457978822], [-3.510399052838439, 50.56203056530448], [-3.511835164071453, 50.563293101778235]]]}}, {"type": "Feature", "properties": {"type": "postcode-cell", "postcode": "TQ14 9HL", "postcodes": ["TQ14 9HL"]}, "geometry": {"type": "Polygon", "coordinates": [[[-3.506942179840326, 50.56698840457009], [-3.505309989807211, 50.56646999462132], [-3.5039130986636753, 50.56592123984805], [-3.505305109602824, 50.56423436061917], [-3.505608326395463, 50.564100047236565], [-3.505667704203318, 50.56409929045217], [-3.5065483039184455, 50.56476326850784], [-3.507722118585127, 50.5660898522875], [-3.506942179840326, 50.56698840457009]]]}}, {"type": "Feature", "properties": {"type": "postcode-cell", "postcode": "TQ14 9ND", "postcodes": ["TQ14 9ND"]}, "geometry": {"type": "Polygon", "coordinates": [[[-3.5087998159821203, 50.55986514614979], [-3.507872519637672, 50.56051457978822], [-3.5075887369865977, 50.560579807612484], [-3.506899320803661, 50.56063827261827], [-3.5064419771673925, 50.56037569044259], [-3.507431853090254, 50.55946791705101], [-3.5083893878193355, 50.55931707096606], [-3.50841998981253, 50.559449994615825], [-3.5089193001007986, 50.55965872558874], [-3.5087998159821203, 50.55986514614979]]]}}, {"type": "Feature", "properties": {"type": "postcode-cell", "postcode": "TQ14 9HB", "postcodes": ["TQ14 9HB"]}, "geometry": {"type": "Polygon", "coordinates": [[[-3.5073508385509458, 50.554418856383265], [-3.5080469797035674, 50.55277428446377], [-3.5084531315394387, 50.55267468249569], [-3.5088799898150254, 50.55484999461226], [-3.508145202047527, 50.55492676771534], [-3.5073508385509458, 50.554418856383265]]]}}, {"type": "Feature", "properties": {"type": "postcode-cell", "postcode": "TQ14 9NQ", "postcodes": ["TQ14 9NQ"]}, "geometry": {"type": "Polygon", "coordinates": [[[-3.510399052838439, 50.56203056530448], [-3.507872519637672, 50.56051457978822], [-3.5087998159821203, 50.55986514614979], [-3.510399052838439, 50.56203056530448]]]}}, {"type": "Feature", "properties": {"type": "postcode-cell", "postcode": "TQ14 9FP", "postcodes": ["TQ14 9FP"]}, "geometry": {"type": "Polygon", "coordinates": [[[-3.5112902295306356, 50.56341095255543], [-3.507722118585127, 50.5660898522875], [-3.5065483039184455, 50.56476326850784], [-3.5064448562443964, 50.56361894048402], [-3.5068867501550987, 50.5631346381539], [-3.50853046443995, 50.562925627124415], [-3.508852492873536, 50.56291640452785], [-3.50917151897444, 50.562966704383705], [-3.5112902295306356, 50.56341095255543]]]}}, {"type": "Feature", "properties": {"type": "postcode-cell", "postcode": "TQ14 9HQ", "postcodes": ["TQ14 9HQ"]}, "geometry": {"type": "Polygon", "coordinates": [[[-3.5080469797035674, 50.55277428446377], [-3.507976873611589, 50.55278100866108], [-3.506690543736062, 50.552757232413015], [-3.505626103294564, 50.552362119550814], [-3.5053945437838574, 50.55197791304731], [-3.5066125081503885, 50.55130300199377], [-3.5075359080515134, 50.5512696149929], [-3.5083599898159727, 50.5521999946102], [-3.5084531315394387, 50.55267468249569], [-3.5080469797035674, 50.55277428446377]]]}}, {"type": "Feature", "properties": {"type": "postcode-cell", "postcode": "TQ14 9EW", "postcodes": ["TQ14 9EW"]}, "geometry": {"type": "Polygon", "coordinates": [[[-3.5066125081503885, 50.55130300199377], [-3.506228500122966, 50.5508832065082], [-3.506662017829554, 50.55028295495643], [-3.5075359080515134, 50.5512696149929], [-3.5066125081503885, 50.55130300199377]]]}}, {"type": "Feature", "properties": {"type": "postcode-cell", "postcode": "TQ14 9NF", "postcodes": ["TQ14 9NF"]}, "geometry": {"type": "Polygon", "coordinates": [[[-3.508852492873536, 50.56291640452785], [-3.506779119540882, 50.56126565249383], [-3.506899320803661, 50.56063827261827], [-3.5075887369865977, 50.560579807612484], [-3.50917151897444, 50.562966704383705], [-3.508852492873536, 50.56291640452785]]]}}, {"type": "Feature", "properties": {"type": "postcode-cell", "postcode": "TQ14 9LU", "postcodes": ["TQ14 9LU"]}, "geometry": {"type": "Polygon", "coordinates": [[[-3.5064419771673925, 50.56037569044259], [-3.5055946624091097, 50.56015716857815], [-3.505492664751736, 50.56002234030265], [-3.5056391078217892, 50.5594107962573], [-3.5062945922367006, 50.55909891653189], [-3.507431853090254, 50.55946791705101], [-3.5064419771673925, 50.56037569044259]]]}}, {"type": "Feature", "properties": {"type": "postcode-cell", "postcode": "TQ14 9LS", "postcodes": ["TQ14 9LS"]}, "geometry": {"type": "Polygon", "coordinates": [[[-3.506744670831137, 50.55842061913742], [-3.506660818047332, 50.558360702286706], [-3.5073353724138996, 50.557169575034074], [-3.5080999898129948, 50.558059994614744], [-3.50819067296224, 50.558453908370566], [-3.506744670831137, 50.55842061913742]]]}}, {"type": "Feature", "properties": {"type": "postcode-cell", "postcode": "TQ14 9LJ", "postcodes": ["TQ14 9LJ"]}, "geometry": {"type": "Polygon", "coordinates": [[[-3.505839054533113, 50.55577615346984], [-3.5063985708625793, 50.555232659526744], [-3.506823944837265, 50.55521260402519], [-3.506588118245175, 50.55599420192202], [-3.505839054533113, 50.55577615346984]]]}}, {"type": "Feature", "properties": {"type": "postcode-cell", "postcode": "TQ14 9HD", "postcodes": ["TQ14 9HD"]}, "geometry": {"type": "Polygon", "coordinates": [[[-3.5073508385509458, 50.554418856383265], [-3.506723985792079, 50.554214959555765], [-3.506506003587669, 50.55408303126961], [-3.507976873611589, 50.55278100866108], [-3.5080469797035674, 50.55277428446377], [-3.5073508385509458, 50.554418856383265]]]}}, {"type": "Feature", "properties": {"type": "postcode-cell", "postcode": "TQ14 9HG", "postcodes": ["TQ14 9HG"]}, "geometry": {"type": "Polygon", "coordinates": [[[-3.506506003587669, 50.55408303126961], [-3.5060729508290365, 50.553942168987085], [-3.5060164028039473, 50.55385278782106], [-3.506690543736062, 50.552757232413015], [-3.507976873611589, 50.55278100866108], [-3.506506003587669, 50.55408303126961]]]}}, {"type": "Feature", "properties": {"type": "postcode-cell", "postcode": "TQ14 9NJ", "postcodes": ["TQ14 9NJ"]}, "geometry": {"type": "Polygon", "coordinates": [[[-3.507431853090254, 50.55946791705101], [-3.5062945922367006, 50.55909891653189], [-3.506744670831137, 50.55842061913742], [-3.50819067296224, 50.558453908370566], [-3.5083893878193355, 50.55931707096606], [-3.507431853090254, 50.55946791705101]]]}}, {"type": "Feature", "properties": {"type": "postcode-cell", "postcode": "TQ14 9JJ", "postcodes": ["TQ14 9JJ"]}, "geometry": {"type": "Polygon", "coordinates": [[[-3.5054052160133957, 50.55046983252225], [-3.505200908476593, 50.55048095034739], [-3.504654429719875, 50.54992121005864], [-3.5056851947148573, 50.54943598380738], [-3.5061899898157884, 50.54974999460835], [-3.506261348143764, 50.54983056522598], [-3.5054052160133957, 50.55046983252225]]]}}, {"type": "Feature", "properties": {"type": "postcode-cell", "postcode": "TQ14 9HE", "postcodes": ["TQ14 9HE"]}, "geometry": {"type": "Polygon", "coordinates": [[[-3.5073508385509458, 50.554418856383265], [-3.508145202047527, 50.55492676771534], [-3.506869989813665, 50.55505999461245], [-3.506823944837265, 50.55521260402519], [-3.5063985708625793, 50.555232659526744], [-3.505865930965516, 50.55497447660943], [-3.506723985792079, 50.554214959555765], [-3.5073508385509458, 50.554418856383265]]]}}, {"type": "Feature", "properties": {"type": "postcode-cell", "postcode": "TQ14 9LT", "postcodes": ["TQ14 9LT"]}, "geometry": {"type": "Polygon", "coordinates": [[[-3.506660818047332, 50.558360702286706], [-3.504806774197797, 50.55755408858146], [-3.5063735369381206, 50.556942624228554], [-3.5070398398211458, 50.556825408066516], [-3.5073353724138996, 50.557169575034074], [-3.506660818047332, 50.558360702286706]]]}}, {"type": "Feature", "properties": {"type": "postcode-cell", "postcode": "TQ14 9JH", "postcodes": ["TQ14 9JH"]}, "geometry": {"type": "Polygon", "coordinates": [[[-3.5066125081503885, 50.55130300199377], [-3.5053945437838574, 50.55197791304731], [-3.5048677779387574, 50.5518248711275], [-3.5046327362266605, 50.55087253492193], [-3.505200908476593, 50.55048095034739], [-3.5054052160133957, 50.55046983252225], [-3.506228500122966, 50.5508832065082], [-3.5066125081503885, 50.55130300199377]]]}}, {"type": "Feature", "properties": {"type": "postcode-cell", "postcode": "TQ14 9LH", "postcodes": ["TQ14 9LH"]}, "geometry": {"type": "Polygon", "coordinates": [[[-3.5063735369381206, 50.556942624228554], [-3.5054583354897146, 50.555853745888335], [-3.505503272063938, 50.55583380687314], [-3.505839054533113, 50.55577615346984], [-3.506588118245175, 50.55599420192202], [-3.5065199898128907, 50.556219994613365], [-3.5070398398211458, 50.556825408066516], [-3.5063735369381206, 50.556942624228554]]]}}, {"type": "Feature", "properties": {"type": "postcode-cell", "postcode": "TQ14 9LY", "postcodes": ["TQ14 9LY"]}, "geometry": {"type": "Polygon", "coordinates": [[[-3.506744670831137, 50.55842061913742], [-3.5062945922367006, 50.55909891653189], [-3.5056391078217892, 50.5594107962573], [-3.504009573121036, 50.558211621268725], [-3.50436506374742, 50.55756973284929], [-3.504806774197797, 50.55755408858146], [-3.506660818047332, 50.558360702286706], [-3.506744670831137, 50.55842061913742]]]}}, {"type": "Feature", "properties": {"type": "postcode-cell", "postcode": "TQ14 9LX", "postcodes": ["TQ14 9LX"]}, "geometry": {"type": "Polygon", "coordinates": [[[-3.506899320803661, 50.56063827261827], [-3.506779119540882, 50.56126565249383], [-3.505443011322548, 50.56176664300596], [-3.505367468091639, 50.56177506588462], [-3.504493692797591, 50.56168315684818], [-3.5041751781944317, 50.561493293965505], [-3.5055946624091097, 50.56015716857815], [-3.5064419771673925, 50.56037569044259], [-3.506899320803661, 50.56063827261827]]]}}, {"type": "Feature", "properties": {"type": "postcode-cell", "postcode": "TQ14 9GW", "postcodes": ["TQ14 9GW"]}, "geometry": {"type": "Polygon", "coordinates": [[[-3.5060164028039473, 50.55385278782106], [-3.5050954219347807, 50.55344679626668], [-3.505231835184922, 50.55277831513122], [-3.505626103294564, 50.552362119550814], [-3.506690543736062, 50.552757232413015], [-3.5060164028039473, 50.55385278782106]]]}}, {"type": "Feature", "properties": {"type": "postcode-cell", "postcode": "TQ14 9JL", "postcodes": ["TQ14 9JL"]}, "geometry": {"type": "Polygon", "coordinates": [[[-3.504654429719875, 50.54992121005864], [-3.5040556700501715, 50.54976460142067], [-3.504131123634532, 50.549228224401276], [-3.5049122127734536, 50.548955133312276], [-3.5056851947148573, 50.54943598380738], [-3.504654429719875, 50.54992121005864]]]}}, {"type": "Feature", "properties": {"type": "postcode-cell", "postcode": "TQ14 9GZ", "postcodes": ["TQ14 9GZ"]}, "geometry": {"type": "Polygon", "coordinates": [[[-3.506723985792079, 50.554214959555765], [-3.505865930965516, 50.55497447660943], [-3.5057405975257736, 50.55496244720822], [-3.505326693466821, 50.554493286325226], [-3.5053500905566044, 50.554350846333655], [-3.5060729508290365, 50.553942168987085], [-3.506506003587669, 50.55408303126961], [-3.506723985792079, 50.554214959555765]]]}}, {"type": "Feature", "properties": {"type": "postcode-cell", "postcode": "TQ14 9FB", "postcodes": ["TQ14 9FB"]}, "geometry": {"type": "Polygon", "coordinates": [[[-3.506228500122966, 50.5508832065082], [-3.5054052160133957, 50.55046983252225], [-3.506261348143764, 50.54983056522598], [-3.506662017829554, 50.55028295495643], [-3.506228500122966, 50.5508832065082]]]}}, {"type": "Feature", "properties": {"type": "postcode-cell", "postcode": "TQ14 9FG", "postcodes": ["TQ14 9FG"]}, "geometry": {"type": "Polygon", "coordinates": [[[-3.5068867501550987, 50.5631346381539], [-3.5062225320803666, 50.56305011373871], [-3.506201200283947, 50.56302790119599], [-3.505367468091639, 50.56177506588462], [-3.505443011322548, 50.56176664300596], [-3.50853046443995, 50.562925627124415], [-3.5068867501550987, 50.5631346381539]]]}}, {"type": "Feature", "properties": {"type": "postcode-cell", "postcode": "TQ14 9NE", "postcodes": ["TQ14 9NE"]}, "geometry": {"type": "Polygon", "coordinates": [[[-3.508852492873536, 50.56291640452785], [-3.50853046443995, 50.562925627124415], [-3.505443011322548, 50.56176664300596], [-3.506779119540882, 50.56126565249383], [-3.508852492873536, 50.56291640452785]]]}}, {"type": "Feature", "properties": {"type": "postcode-cell", "postcode": "TQ14 9NB", "postcodes": ["TQ14 9NB"]}, "geometry": {"type": "Polygon", "coordinates": [[[-3.5063985708625793, 50.555232659526744], [-3.505839054533113, 50.55577615346984], [-3.505503272063938, 50.55583380687314], [-3.5054803175605946, 50.555101840003594], [-3.5057405975257736, 50.55496244720822], [-3.505865930965516, 50.55497447660943], [-3.5063985708625793, 50.555232659526744]]]}}, {"type": "Feature", "properties": {"type": "postcode-cell", "postcode": "TQ14 9FQ", "postcodes": ["TQ14 9FQ"]}, "geometry": {"type": "Polygon", "coordinates": [[[-3.505674946738761, 50.56409322231775], [-3.5064448562443964, 50.56361894048402], [-3.5065483039184455, 50.56476326850784], [-3.505667704203318, 50.56409929045217], [-3.505674946738761, 50.56409322231775]]]}}, {"type": "Feature", "properties": {"type": "postcode-cell", "postcode": "TQ14 9FL", "postcodes": ["TQ14 9FL"]}, "geometry": {"type": "Polygon", "coordinates": [[[-3.505667704203318, 50.56409929045217], [-3.505608326395463, 50.564100047236565], [-3.5047036187155487, 50.56345740357764], [-3.5048641639913973, 50.56325158350984], [-3.50552702064409, 50.563178007541566], [-3.505674946738761, 50.56409322231775], [-3.505667704203318, 50.56409929045217]]]}}, {"type": "Feature", "properties": {"type": "postcode-cell", "postcode": "TQ14 9PA", "postcodes": ["TQ14 9PA"]}, "geometry": {"type": "Polygon", "coordinates": [[[-3.5068867501550987, 50.5631346381539], [-3.5064448562443964, 50.56361894048402], [-3.505674946738761, 50.56409322231775], [-3.50552702064409, 50.563178007541566], [-3.5062225320803666, 50.56305011373871], [-3.5068867501550987, 50.5631346381539]]]}}, {"type": "Feature", "properties": {"type": "postcode-cell", "postcode": "TQ14 9LE", "postcodes": ["TQ14 9LE"]}, "geometry": {"type": "Polygon", "coordinates": [[[-3.505503272063938, 50.55583380687314], [-3.5054583354897146, 50.555853745888335], [-3.505179451086978, 50.555886821225016], [-3.5040328652759842, 50.55538353881109], [-3.504156908440376, 50.55516739267315], [-3.5054803175605946, 50.555101840003594], [-3.505503272063938, 50.55583380687314]]]}}, {"type": "Feature", "properties": {"type": "postcode-cell", "postcode": "TQ14 9GY", "postcodes": ["TQ14 9GY"]}, "geometry": {"type": "Polygon", "coordinates": [[[-3.5060729508290365, 50.553942168987085], [-3.5053500905566044, 50.554350846333655], [-3.5039657193775318, 50.55402218435341], [-3.5040298665410567, 50.553725379168334], [-3.5050954219347807, 50.55344679626668], [-3.5060164028039473, 50.55385278782106], [-3.5060729508290365, 50.553942168987085]]]}}, {"type": "Feature", "properties": {"type": "postcode-cell", "postcode": "TQ14 9LQ", "postcodes": ["TQ14 9LQ"]}, "geometry": {"type": "Polygon", "coordinates": [[[-3.5063735369381206, 50.556942624228554], [-3.504806774197797, 50.55755408858146], [-3.50436506374742, 50.55756973284929], [-3.5042110943158513, 50.55743366471321], [-3.505179451086978, 50.555886821225016], [-3.5054583354897146, 50.555853745888335], [-3.5063735369381206, 50.556942624228554]]]}}, {"type": "Feature", "properties": {"type": "postcode-cell", "postcode": "TQ14 9HF", "postcodes": ["TQ14 9HF"]}, "geometry": {"type": "Polygon", "coordinates": [[[-3.5054803175605946, 50.555101840003594], [-3.504156908440376, 50.55516739267315], [-3.5041577623008267, 50.55509839600867], [-3.505326693466821, 50.554493286325226], [-3.5057405975257736, 50.55496244720822], [-3.5054803175605946, 50.555101840003594]]]}}, {"type": "Feature", "properties": {"type": "postcode-cell", "postcode": "TQ14 9JQ", "postcodes": ["TQ14 9JQ"]}, "geometry": {"type": "Polygon", "coordinates": [[[-3.505231835184922, 50.55277831513122], [-3.503897415208823, 50.552963204819896], [-3.5037149265498044, 50.552378614810095], [-3.504538487149283, 50.551867467250595], [-3.5048677779387574, 50.5518248711275], [-3.5053945437838574, 50.55197791304731], [-3.505626103294564, 50.552362119550814], [-3.505231835184922, 50.55277831513122]]]}}, {"type": "Feature", "properties": {"type": "postcode-cell", "postcode": "TQ14 9NA", "postcodes": ["TQ14 9NA"]}, "geometry": {"type": "Polygon", "coordinates": [[[-3.505367468091639, 50.56177506588462], [-3.506201200283947, 50.56302790119599], [-3.5045278085629454, 50.56217509912806], [-3.504493692797591, 50.56168315684818], [-3.505367468091639, 50.56177506588462]]]}}, {"type": "Feature", "properties": {"type": "postcode-cell", "postcode": "TQ14 9LG", "postcodes": ["TQ14 9LG"]}, "geometry": {"type": "Polygon", "coordinates": [[[-3.505492664751736, 50.56002234030265], [-3.5037880335539424, 50.559798051462074], [-3.503193961691854, 50.558720058326564], [-3.504009573121036, 50.558211621268725], [-3.5056391078217892, 50.5594107962573], [-3.505492664751736, 50.56002234030265]]]}}, {"type": "Feature", "properties": {"type": "postcode-cell", "postcode": "TQ14 8UX", "postcodes": ["TQ14 8UX"]}, "geometry": {"type": "Polygon", "coordinates": [[[-3.505179451086978, 50.555886821225016], [-3.5042110943158513, 50.55743366471321], [-3.503618515983447, 50.55714160368319], [-3.503670302377826, 50.55662308082703], [-3.5040188131460273, 50.55538930701594], [-3.5040328652759842, 50.55538353881109], [-3.505179451086978, 50.555886821225016]]]}}, {"type": "Feature", "properties": {"type": "postcode-cell", "postcode": "TQ14 9FE", "postcodes": ["TQ14 9FE"]}, "geometry": {"type": "Polygon", "coordinates": [[[-3.5062225320803666, 50.56305011373871], [-3.50552702064409, 50.563178007541566], [-3.5048641639913973, 50.56325158350984], [-3.5044179352929605, 50.56278941665311], [-3.5045278085629454, 50.56217509912806], [-3.506201200283947, 50.56302790119599], [-3.5062225320803666, 50.56305011373871]]]}}, {"type": "Feature", "properties": {"type": "postcode-cell", "postcode": "TQ14 9NZ", "postcodes": ["TQ14 9NZ"]}, "geometry": {"type": "Polygon", "coordinates": [[[-3.5037977286706097, 50.56393601481307], [-3.504009821084588, 50.56385686026497], [-3.505305109602824, 50.56423436061917], [-3.5039130986636753, 50.56592123984805], [-3.502316667576444, 50.5652940613608], [-3.5037977286706097, 50.56393601481307]]]}}, {"type": "Feature", "properties": {"type": "postcode-cell", "postcode": "TQ14 8SE", "postcodes": ["TQ14 8SE"]}, "geometry": {"type": "Polygon", "coordinates": [[[-3.504493692797591, 50.56168315684818], [-3.5045278085629454, 50.56217509912806], [-3.5044179352929605, 50.56278941665311], [-3.5032161297659874, 50.56295447156615], [-3.5021842292934937, 50.56261827645596], [-3.502122066657932, 50.56226118283057], [-3.502347420052677, 50.56149182228712], [-3.5026955771938146, 50.56136046313164], [-3.5041751781944317, 50.561493293965505], [-3.504493692797591, 50.56168315684818]]]}}, {"type": "Feature", "properties": {"type": "postcode-cell", "postcode": "TQ14 8LT", "postcodes": ["TQ14 8LT"]}, "geometry": {"type": "Polygon", "coordinates": [[[-3.504156908440376, 50.55516739267315], [-3.5040328652759842, 50.55538353881109], [-3.5040188131460273, 50.55538930701594], [-3.50276252549854, 50.55543819943053], [-3.5022583315189513, 50.55514883643698], [-3.5022184437006167, 50.55504361115968], [-3.5030913740859857, 50.55431950091345], [-3.5036905775009166, 50.55427764496251], [-3.5041577623008267, 50.55509839600867], [-3.504156908440376, 50.55516739267315]]]}}, {"type": "Feature", "properties": {"type": "postcode-cell", "postcode": "TQ14 9LZ", "postcodes": ["TQ14 9LZ"]}, "geometry": {"type": "Polygon", "coordinates": [[[-3.5055946624091097, 50.56015716857815], [-3.5041751781944317, 50.561493293965505], [-3.5026955771938146, 50.56136046313164], [-3.502790671502416, 50.560619753352704], [-3.5037880335539424, 50.559798051462074], [-3.505492664751736, 50.56002234030265], [-3.5055946624091097, 50.56015716857815]]]}}, {"type": "Feature", "properties": {"type": "postcode-cell", "postcode": "TQ14 8QP", "postcodes": ["TQ14 8QP"]}, "geometry": {"type": "Polygon", "coordinates": [[[-3.50436506374742, 50.55756973284929], [-3.504009573121036, 50.558211621268725], [-3.503193961691854, 50.558720058326564], [-3.502908875427843, 50.55875664792858], [-3.50123786103117, 50.55789909964633], [-3.5010852053942463, 50.55736378442489], [-3.501947027805341, 50.55702741992862], [-3.503365391054461, 50.557096118298745], [-3.503618515983447, 50.55714160368319], [-3.5042110943158513, 50.55743366471321], [-3.50436506374742, 50.55756973284929]]]}}, {"type": "Feature", "properties": {"type": "postcode-cell", "postcode": "TQ14 9JE", "postcodes": ["TQ14 9JE"]}, "geometry": {"type": "Polygon", "coordinates": [[[-3.5050954219347807, 50.55344679626668], [-3.5040298665410567, 50.553725379168334], [-3.503634043511862, 50.5533496082879], [-3.503897415208823, 50.552963204819896], [-3.505231835184922, 50.55277831513122], [-3.5050954219347807, 50.55344679626668]]]}}, {"type": "Feature", "properties": {"type": "postcode-cell", "postcode": "TQ14 9JG", "postcodes": ["TQ14 9JG"]}, "geometry": {"type": "Polygon", "coordinates": [[[-3.5053500905566044, 50.554350846333655], [-3.505326693466821, 50.554493286325226], [-3.5041577623008267, 50.55509839600867], [-3.5036905775009166, 50.55427764496251], [-3.5039657193775318, 50.55402218435341], [-3.5053500905566044, 50.554350846333655]]]}}, {"type": "Feature", "properties": {"type": "postcode-cell", "postcode": "TQ14 9JN", "postcodes": ["TQ14 9JN"]}, "geometry": {"type": "Polygon", "coordinates": [[[-3.505200908476593, 50.55048095034739], [-3.5046327362266605, 50.55087253492193], [-3.5038882124880457, 50.5507084228523], [-3.5038410288281243, 50.549859285669896], [-3.5040556700501715, 50.54976460142067], [-3.504654429719875, 50.54992121005864], [-3.505200908476593, 50.55048095034739]]]}}, {"type": "Feature", "properties": {"type": "postcode-cell", "postcode": "TQ14 9LF", "postcodes": ["TQ14 9LF"]}, "geometry": {"type": "Polygon", "coordinates": [[[-3.5038410288281243, 50.549859285669896], [-3.502962769660425, 50.54988647827353], [-3.5028254309088616, 50.549823124335894], [-3.5027435792300894, 50.54920675462579], [-3.50361569877235, 50.548977843275225], [-3.504131123634532, 50.549228224401276], [-3.5040556700501715, 50.54976460142067], [-3.5038410288281243, 50.549859285669896]]]}}, {"type": "Feature", "properties": {"type": "postcode-cell", "postcode": "TQ14 9EG", "postcodes": ["TQ14 9EG"]}, "geometry": {"type": "Polygon", "coordinates": [[[-3.504131123634532, 50.549228224401276], [-3.50361569877235, 50.548977843275225], [-3.5035920541141174, 50.54887451088452], [-3.5039750503201192, 50.548372130464685], [-3.5049122127734536, 50.548955133312276], [-3.504131123634532, 50.549228224401276]]]}}, {"type": "Feature", "properties": {"type": "postcode-cell", "postcode": "TQ14 9HH", "postcodes": ["TQ14 9HH"]}, "geometry": {"type": "Polygon", "coordinates": [[[-3.505608326395463, 50.564100047236565], [-3.505305109602824, 50.56423436061917], [-3.504009821084588, 50.56385686026497], [-3.5047036187155487, 50.56345740357764], [-3.505608326395463, 50.564100047236565]]]}}, {"type": "Feature", "properties": {"type": "postcode-cell", "postcode": "TQ14 9JB", "postcodes": ["TQ14 9JB"]}, "geometry": {"type": "Polygon", "coordinates": [[[-3.503634043511862, 50.5533496082879], [-3.5032810057133763, 50.55330027937136], [-3.5020314222821036, 50.552868532114125], [-3.5024618790686675, 50.552394778618606], [-3.5037149265498044, 50.552378614810095], [-3.503897415208823, 50.552963204819896], [-3.503634043511862, 50.5533496082879]]]}}, {"type": "Feature", "properties": {"type": "postcode-cell", "postcode": "TQ14 8SD", "postcodes": ["TQ14 8SD"]}, "geometry": {"type": "Polygon", "coordinates": [[[-3.5047036187155487, 50.56345740357764], [-3.504009821084588, 50.56385686026497], [-3.5037977286706097, 50.56393601481307], [-3.5032161297659874, 50.56295447156615], [-3.5044179352929605, 50.56278941665311], [-3.5048641639913973, 50.56325158350984], [-3.5047036187155487, 50.56345740357764]]]}}, {"type": "Feature", "properties": {"type": "postcode-cell", "postcode": "TQ14 9JF", "postcodes": ["TQ14 9JF"]}, "geometry": {"type": "Polygon", "coordinates": [[[-3.5036905775009166, 50.55427764496251], [-3.5030913740859857, 50.55431950091345], [-3.5024024003172665, 50.55399930609554], [-3.5032810057133763, 50.55330027937136], [-3.503634043511862, 50.5533496082879], [-3.5040298665410567, 50.553725379168334], [-3.5039657193775318, 50.55402218435341], [-3.5036905775009166, 50.55427764496251]]]}}, {"type": "Feature", "properties": {"type": "postcode-cell", "postcode": "TQ14 8SB", "postcodes": ["TQ14 8SB"]}, "geometry": {"type": "Polygon", "coordinates": [[[-3.498657607105721, 50.5627490337157], [-3.499189989805175, 50.56271999461853], [-3.4991875906202767, 50.56267441093856], [-3.502122066657932, 50.56226118283057], [-3.5021842292934937, 50.56261827645596], [-3.500581060725681, 50.5648544820147], [-3.4989699898041438, 50.56457999461999], [-3.4986402570357242, 50.56275147659686], [-3.498657607105721, 50.5627490337157]]]}}, {"type": "Feature", "properties": {"type": "postcode-cell", "postcode": "TQ14 8SG", "postcodes": ["TQ14 8SG"]}, "geometry": {"type": "Polygon", "coordinates": [[[-3.502316667576444, 50.5652940613608], [-3.5016699898056145, 50.56503999462027], [-3.500581060725681, 50.5648544820147], [-3.5021842292934937, 50.56261827645596], [-3.5032161297659874, 50.56295447156615], [-3.5037977286706097, 50.56393601481307], [-3.502316667576444, 50.5652940613608]]]}}, {"type": "Feature", "properties": {"type": "postcode-cell", "postcode": "TQ14 9JP", "postcodes": ["TQ14 9JP"]}, "geometry": {"type": "Polygon", "coordinates": [[[-3.5046327362266605, 50.55087253492193], [-3.5048677779387574, 50.5518248711275], [-3.504538487149283, 50.551867467250595], [-3.502999186239851, 50.55140795116123], [-3.5031493913717977, 50.550874282096075], [-3.5038882124880457, 50.5507084228523], [-3.5046327362266605, 50.55087253492193]]]}}, {"type": "Feature", "properties": {"type": "postcode-cell", "postcode": "TQ14 9BX", "postcodes": ["TQ14 9BX"]}, "geometry": {"type": "Polygon", "coordinates": [[[-3.5026638650481705, 50.548294523972324], [-3.5017541665989786, 50.54828250382078], [-3.5011853848939345, 50.5477504959173], [-3.50274998981466, 50.54760999460676], [-3.50318114865821, 50.54787823189714], [-3.5026638650481705, 50.548294523972324]]]}}, {"type": "Feature", "properties": {"type": "postcode-cell", "postcode": "TQ14 8TZ", "postcodes": ["TQ14 8TZ"]}, "geometry": {"type": "Polygon", "coordinates": [[[-3.503618515983447, 50.55714160368319], [-3.503365391054461, 50.557096118298745], [-3.5025386834383423, 50.55581246564281], [-3.502738595438993, 50.555498808767005], [-3.503670302377826, 50.55662308082703], [-3.503618515983447, 50.55714160368319]]]}}, {"type": "Feature", "properties": {"type": "postcode-cell", "postcode": "TQ14 9UE", "postcodes": ["TQ14 9UE"]}, "geometry": {"type": "Polygon", "coordinates": [[[-3.5037149265498044, 50.552378614810095], [-3.5024618790686675, 50.552394778618606], [-3.502316685200565, 50.55168756169834], [-3.502999186239851, 50.55140795116123], [-3.504538487149283, 50.551867467250595], [-3.5037149265498044, 50.552378614810095]]]}}, {"type": "Feature", "properties": {"type": "postcode-cell", "postcode": "TQ14 9JW", "postcodes": ["TQ14 9JW"]}, "geometry": {"type": "Polygon", "coordinates": [[[-3.5031493913717977, 50.550874282096075], [-3.5028091451557266, 50.550645693107484], [-3.502962769660425, 50.54988647827353], [-3.5038410288281243, 50.549859285669896], [-3.5038882124880457, 50.5507084228523], [-3.5031493913717977, 50.550874282096075]]]}}, {"type": "Feature", "properties": {"type": "postcode-cell", "postcode": "TQ14 8DT", "postcodes": ["TQ14 8DT"]}, "geometry": {"type": "Polygon", "coordinates": [[[-3.4993739414170664, 50.54581010457383], [-3.498933166844967, 50.54592098000929], [-3.4981981521498446, 50.545945936734036], [-3.49806058599383, 50.545891866015516], [-3.497946149336028, 50.54569967955918], [-3.4990899898133416, 50.54558999460527], [-3.4994051478465433, 50.54580010395793], [-3.4993739414170664, 50.54581010457383]]]}}, {"type": "Feature", "properties": {"type": "postcode-cell", "postcode": "TQ14 9LA", "postcodes": ["TQ14 9LA"]}, "geometry": {"type": "Polygon", "coordinates": [[[-3.5035920541141174, 50.54887451088452], [-3.5026744192642236, 50.54831462534827], [-3.5026638650481705, 50.548294523972324], [-3.50318114865821, 50.54787823189714], [-3.5039750503201192, 50.548372130464685], [-3.5035920541141174, 50.54887451088452]]]}}, {"type": "Feature", "properties": {"type": "postcode-cell", "postcode": "TQ14 9JD", "postcodes": ["TQ14 9JD"]}, "geometry": {"type": "Polygon", "coordinates": [[[-3.5032810057133763, 50.55330027937136], [-3.5024024003172665, 50.55399930609554], [-3.5017150273578674, 50.55386489009796], [-3.5015100942886783, 50.553738341104534], [-3.501475851640983, 50.553615226664796], [-3.501993709652305, 50.55288033809314], [-3.5020314222821036, 50.552868532114125], [-3.5032810057133763, 50.55330027937136]]]}}, {"type": "Feature", "properties": {"type": "postcode-cell", "postcode": "TQ14 9JZ", "postcodes": ["TQ14 9JZ"]}, "geometry": {"type": "Polygon", "coordinates": [[[-3.50361569877235, 50.548977843275225], [-3.5027435792300894, 50.54920675462579], [-3.50249288502002, 50.5490941413255], [-3.5026744192642236, 50.54831462534827], [-3.5035920541141174, 50.54887451088452], [-3.50361569877235, 50.548977843275225]]]}}, {"type": "Feature", "properties": {"type": "postcode-cell", "postcode": "TQ14 8QS", "postcodes": ["TQ14 8QS"]}, "geometry": {"type": "Polygon", "coordinates": [[[-3.502790671502416, 50.560619753352704], [-3.502132006049241, 50.55995365903704], [-3.501859831219579, 50.559243399103885], [-3.502908875427843, 50.55875664792858], [-3.503193961691854, 50.558720058326564], [-3.5037880335539424, 50.559798051462074], [-3.502790671502416, 50.560619753352704]]]}}, {"type": "Feature", "properties": {"type": "postcode-cell", "postcode": "TQ14 9GX", "postcodes": ["TQ14 9GX"]}, "geometry": {"type": "Polygon", "coordinates": [[[-3.5031493913717977, 50.550874282096075], [-3.502999186239851, 50.55140795116123], [-3.502316685200565, 50.55168756169834], [-3.5013643486186665, 50.5514068947974], [-3.501673514055592, 50.550931395392084], [-3.502362315380349, 50.55063428190854], [-3.5028091451557266, 50.550645693107484], [-3.5031493913717977, 50.550874282096075]]]}}, {"type": "Feature", "properties": {"type": "postcode-cell", "postcode": "TQ14 9JT", "postcodes": ["TQ14 9JT"]}, "geometry": {"type": "Polygon", "coordinates": [[[-3.5028091451557266, 50.550645693107484], [-3.502362315380349, 50.55063428190854], [-3.501586728049908, 50.54998111165751], [-3.5015901503918236, 50.549944458272286], [-3.501637472972198, 50.54990651890912], [-3.5028254309088616, 50.549823124335894], [-3.502962769660425, 50.54988647827353], [-3.5028091451557266, 50.550645693107484]]]}}, {"type": "Feature", "properties": {"type": "postcode-cell", "postcode": "TQ14 8UB", "postcodes": ["TQ14 8UB"]}, "geometry": {"type": "Polygon", "coordinates": [[[-3.503670302377826, 50.55662308082703], [-3.502738595438993, 50.555498808767005], [-3.50276252549854, 50.55543819943053], [-3.5040188131460273, 50.55538930701594], [-3.503670302377826, 50.55662308082703]]]}}, {"type": "Feature", "properties": {"type": "postcode-cell", "postcode": "TQ14 8PA", "postcodes": ["TQ14 8PA"]}, "geometry": {"type": "Polygon", "coordinates": [[[-3.502738595438993, 50.555498808767005], [-3.5025386834383423, 50.55581246564281], [-3.5019337533264667, 50.55608892781408], [-3.501421257261416, 50.55553676210613], [-3.5022583315189513, 50.55514883643698], [-3.50276252549854, 50.55543819943053], [-3.502738595438993, 50.555498808767005]]]}}, {"type": "Feature", "properties": {"type": "postcode-cell", "postcode": "TQ14 9JX", "postcodes": ["TQ14 9JX"]}, "geometry": {"type": "Polygon", "coordinates": [[[-3.5027435792300894, 50.54920675462579], [-3.5028254309088616, 50.549823124335894], [-3.501637472972198, 50.54990651890912], [-3.5015783229670983, 50.549516862608236], [-3.5020601806792953, 50.54909993252722], [-3.50249288502002, 50.5490941413255], [-3.5027435792300894, 50.54920675462579]]]}}, {"type": "Feature", "properties": {"type": "postcode-cell", "postcode": "TQ14 9FN", "postcodes": ["TQ14 9FN"]}, "geometry": {"type": "Polygon", "coordinates": [[[-3.5020314222821036, 50.552868532114125], [-3.501993709652305, 50.55288033809314], [-3.5003539594938076, 50.552333240376974], [-3.5000849542637944, 50.55153662808209], [-3.5013643486186665, 50.5514068947974], [-3.502316685200565, 50.55168756169834], [-3.5024618790686675, 50.552394778618606], [-3.5020314222821036, 50.552868532114125]]]}}, {"type": "Feature", "properties": {"type": "postcode-cell", "postcode": "TQ14 8QR", "postcodes": ["TQ14 8QR"]}, "geometry": {"type": "Polygon", "coordinates": [[[-3.5026955771938146, 50.56136046313164], [-3.502347420052677, 50.56149182228712], [-3.499981481806724, 50.56099722211357], [-3.5001100480354905, 50.56053740718425], [-3.5003710353381106, 50.560319402723074], [-3.502132006049241, 50.55995365903704], [-3.502790671502416, 50.560619753352704], [-3.5026955771938146, 50.56136046313164]]]}}, {"type": "Feature", "properties": {"type": "postcode-cell", "postcode": "TQ14 8LU", "postcodes": ["TQ14 8LU"]}, "geometry": {"type": "Polygon", "coordinates": [[[-3.5030913740859857, 50.55431950091345], [-3.5022184437006167, 50.55504361115968], [-3.5018163316489264, 50.55483058348486], [-3.5017150273578674, 50.55386489009796], [-3.5024024003172665, 50.55399930609554], [-3.5030913740859857, 50.55431950091345]]]}}, {"type": "Feature", "properties": {"type": "postcode-cell", "postcode": "TQ14 8QX", "postcodes": ["TQ14 8QX"]}, "geometry": {"type": "Polygon", "coordinates": [[[-3.5001100480354905, 50.56053740718425], [-3.499340282881667, 50.55946038839451], [-3.5005953836742285, 50.55921033987867], [-3.501099262213664, 50.55932912826957], [-3.5003710353381106, 50.560319402723074], [-3.5001100480354905, 50.56053740718425]]]}}, {"type": "Feature", "properties": {"type": "postcode-cell", "postcode": "TQ14 8PB", "postcodes": ["TQ14 8PB"]}, "geometry": {"type": "Polygon", "coordinates": [[[-3.503365391054461, 50.557096118298745], [-3.501947027805341, 50.55702741992862], [-3.501687833385236, 50.556424528996224], [-3.5019337533264667, 50.55608892781408], [-3.5025386834383423, 50.55581246564281], [-3.503365391054461, 50.557096118298745]]]}}, {"type": "Feature", "properties": {"type": "postcode-cell", "postcode": "TQ14 8EG", "postcodes": ["TQ14 8EG"]}, "geometry": {"type": "Polygon", "coordinates": [[[-3.499341979998563, 50.54697273956349], [-3.4993158346578945, 50.546966747125], [-3.498421102902696, 50.5465275627214], [-3.498414109624803, 50.546520439996485], [-3.4993739414170664, 50.54581010457383], [-3.4994051478465433, 50.54580010395793], [-3.5003199898137183, 50.5464099946059], [-3.499406172320052, 50.54696143887914], [-3.499341979998563, 50.54697273956349]]]}}, {"type": "Feature", "properties": {"type": "postcode-cell", "postcode": "TQ14 9JY", "postcodes": ["TQ14 9JY"]}, "geometry": {"type": "Polygon", "coordinates": [[[-3.5026744192642236, 50.54831462534827], [-3.50249288502002, 50.5490941413255], [-3.5020601806792953, 50.54909993252722], [-3.5015478422445163, 50.54870266437876], [-3.5015158872300294, 50.54864402643779], [-3.5017541665989786, 50.54828250382078], [-3.5026638650481705, 50.548294523972324], [-3.5026744192642236, 50.54831462534827]]]}}, {"type": "Feature", "properties": {"type": "postcode-cell", "postcode": "TQ14 9JU", "postcodes": ["TQ14 9JU"]}, "geometry": {"type": "Polygon", "coordinates": [[[-3.5015901503918236, 50.549944458272286], [-3.500474789912844, 50.549832469684716], [-3.500392675613043, 50.54938772448877], [-3.5014411246041797, 50.54944727616205], [-3.5015783229670983, 50.549516862608236], [-3.501637472972198, 50.54990651890912], [-3.5015901503918236, 50.549944458272286]]]}}, {"type": "Feature", "properties": {"type": "postcode-cell", "postcode": "TQ14 9JS", "postcodes": ["TQ14 9JS"]}, "geometry": {"type": "Polygon", "coordinates": [[[-3.502362315380349, 50.55063428190854], [-3.501673514055592, 50.550931395392084], [-3.5012991462915224, 50.55034663591662], [-3.501586728049908, 50.54998111165751], [-3.502362315380349, 50.55063428190854]]]}}, {"type": "Feature", "properties": {"type": "postcode-cell", "postcode": "TQ14 9HW", "postcodes": ["TQ14 9HW"]}, "geometry": {"type": "Polygon", "coordinates": [[[-3.5020601806792953, 50.54909993252722], [-3.5015783229670983, 50.549516862608236], [-3.5014411246041797, 50.54944727616205], [-3.5011799179399214, 50.54916109008167], [-3.5015478422445163, 50.54870266437876], [-3.5020601806792953, 50.54909993252722]]]}}, {"type": "Feature", "properties": {"type": "postcode-cell", "postcode": "TQ14 8LX", "postcodes": ["TQ14 8LX"]}, "geometry": {"type": "Polygon", "coordinates": [[[-3.5022583315189513, 50.55514883643698], [-3.501421257261416, 50.55553676210613], [-3.5007997739773393, 50.555611121733726], [-3.50100421816363, 50.55488709420337], [-3.5012359399948676, 50.554809712701044], [-3.5018163316489264, 50.55483058348486], [-3.5022184437006167, 50.55504361115968], [-3.5022583315189513, 50.55514883643698]]]}}, {"type": "Feature", "properties": {"type": "postcode-cell", "postcode": "TQ14 8LY", "postcodes": ["TQ14 8LY"]}, "geometry": {"type": "Polygon", "coordinates": [[[-3.501947027805341, 50.55702741992862], [-3.5010852053942463, 50.55736378442489], [-3.500239068627758, 50.557244286954706], [-3.499519367459166, 50.557030486886006], [-3.498954692426586, 50.556083593328715], [-3.4994347135778634, 50.5558830676059], [-3.5003108669683742, 50.55581746494083], [-3.501687833385236, 50.556424528996224], [-3.501947027805341, 50.55702741992862]]]}}, {"type": "Feature", "properties": {"type": "postcode-cell", "postcode": "TQ14 9JR", "postcodes": ["TQ14 9JR"]}, "geometry": {"type": "Polygon", "coordinates": [[[-3.5013643486186665, 50.5514068947974], [-3.5000849542637944, 50.55153662808209], [-3.4996922421604104, 50.55135700806485], [-3.4998102495165777, 50.55079356212877], [-3.5012991462915224, 50.55034663591662], [-3.501673514055592, 50.550931395392084], [-3.5013643486186665, 50.5514068947974]]]}}, {"type": "Feature", "properties": {"type": "postcode-cell", "postcode": "TQ14 8NB", "postcodes": ["TQ14 8NB"]}, "geometry": {"type": "Polygon", "coordinates": [[[-3.5018163316489264, 50.55483058348486], [-3.5012359399948676, 50.554809712701044], [-3.50081838364458, 50.55417029386112], [-3.5015100942886783, 50.553738341104534], [-3.5017150273578674, 50.55386489009796], [-3.5018163316489264, 50.55483058348486]]]}}, {"type": "Feature", "properties": {"type": "postcode-cell", "postcode": "TQ14 8PD", "postcodes": ["TQ14 8PD"]}, "geometry": {"type": "Polygon", "coordinates": [[[-3.501687833385236, 50.556424528996224], [-3.5003108669683742, 50.55581746494083], [-3.5007997739773393, 50.555611121733726], [-3.501421257261416, 50.55553676210613], [-3.5019337533264667, 50.55608892781408], [-3.501687833385236, 50.556424528996224]]]}}, {"type": "Feature", "properties": {"type": "postcode-cell", "postcode": "TQ14 9HN", "postcodes": ["TQ14 9HN"]}, "geometry": {"type": "Polygon", "coordinates": [[[-3.5015158872300294, 50.54864402643779], [-3.500346805218222, 50.54875066878683], [-3.50025822794962, 50.548585915421285], [-3.5002144461681564, 50.54812642485369], [-3.500401253129607, 50.54782090263462], [-3.5011853848939345, 50.5477504959173], [-3.5017541665989786, 50.54828250382078], [-3.5015158872300294, 50.54864402643779]]]}}, {"type": "Feature", "properties": {"type": "postcode-cell", "postcode": "TQ14 9HP", "postcodes": ["TQ14 9HP"]}, "geometry": {"type": "Polygon", "coordinates": [[[-3.5015478422445163, 50.54870266437876], [-3.5011799179399214, 50.54916109008167], [-3.50022062665062, 50.54903415334466], [-3.500346805218222, 50.54875066878683], [-3.5015158872300294, 50.54864402643779], [-3.5015478422445163, 50.54870266437876]]]}}, {"type": "Feature", "properties": {"type": "postcode-cell", "postcode": "TQ14 8NZ", "postcodes": ["TQ14 8NZ"]}, "geometry": {"type": "Polygon", "coordinates": [[[-3.501475851640983, 50.553615226664796], [-3.4994792990555617, 50.55325382096984], [-3.499491852391389, 50.55322844164116], [-3.5003539594938076, 50.552333240376974], [-3.501993709652305, 50.55288033809314], [-3.501475851640983, 50.553615226664796]]]}}, {"type": "Feature", "properties": {"type": "postcode-cell", "postcode": "TQ14 8QT", "postcodes": ["TQ14 8QT"]}, "geometry": {"type": "Polygon", "coordinates": [[[-3.501859831219579, 50.559243399103885], [-3.5014992923373294, 50.559236447954206], [-3.500841751259576, 50.55834389506192], [-3.50123786103117, 50.55789909964633], [-3.502908875427843, 50.55875664792858], [-3.501859831219579, 50.559243399103885]]]}}, {"type": "Feature", "properties": {"type": "postcode-cell", "postcode": "TQ14 8SA", "postcodes": ["TQ14 8SA"]}, "geometry": {"type": "MultiPolygon", "coordinates": [[[[-3.502347420052677, 50.56149182228712], [-3.502122066657932, 50.56226118283057], [-3.4991875906202767, 50.56267441093856], [-3.4991499898055145, 50.56195999461794], [-3.4989868087116767, 50.561281069893724], [-3.499981481806724, 50.56099722211357], [-3.502347420052677, 50.56149182228712]]], [[[-3.4986402570357242, 50.56275147659686], [-3.4986399898048144, 50.562749994618564], [-3.498657607105721, 50.5627490337157], [-3.4986402570357242, 50.56275147659686]]]]}}, {"type": "Feature", "properties": {"type": "postcode-cell", "postcode": "TQ14 8RA", "postcodes": ["TQ14 8RA"]}, "geometry": {"type": "Polygon", "coordinates": [[[-3.50123786103117, 50.55789909964633], [-3.500841751259576, 50.55834389506192], [-3.499965978365766, 50.558552975861836], [-3.4998874809049756, 50.55853950974354], [-3.500239068627758, 50.557244286954706], [-3.5010852053942463, 50.55736378442489], [-3.50123786103117, 50.55789909964633]]]}}, {"type": "Feature", "properties": {"type": "postcode-cell", "postcode": "TQ14 8QU", "postcodes": ["TQ14 8QU"]}, "geometry": {"type": "Polygon", "coordinates": [[[-3.502132006049241, 50.55995365903704], [-3.5003710353381106, 50.560319402723074], [-3.501099262213664, 50.55932912826957], [-3.5014992923373294, 50.559236447954206], [-3.501859831219579, 50.559243399103885], [-3.502132006049241, 50.55995365903704]]]}}, {"type": "Feature", "properties": {"type": "postcode-cell", "postcode": "TQ14 9HR", "postcodes": ["TQ14 9HR"]}, "geometry": {"type": "Polygon", "coordinates": [[[-3.5011799179399214, 50.54916109008167], [-3.5014411246041797, 50.54944727616205], [-3.500392675613043, 50.54938772448877], [-3.5001669575367242, 50.54908669259663], [-3.50022062665062, 50.54903415334466], [-3.5011799179399214, 50.54916109008167]]]}}, {"type": "Feature", "properties": {"type": "postcode-cell", "postcode": "TQ14 8NF", "postcodes": ["TQ14 8NF"]}, "geometry": {"type": "Polygon", "coordinates": [[[-3.5003539594938076, 50.552333240376974], [-3.499491852391389, 50.55322844164116], [-3.498372962841869, 50.5519072744748], [-3.498578265521231, 50.551565760423266], [-3.498782160152859, 50.55147224147645], [-3.4996922421604104, 50.55135700806485], [-3.5000849542637944, 50.55153662808209], [-3.5003539594938076, 50.552333240376974]]]}}, {"type": "Feature", "properties": {"type": "postcode-cell", "postcode": "TQ14 9LB", "postcodes": ["TQ14 9LB"]}, "geometry": {"type": "Polygon", "coordinates": [[[-3.501586728049908, 50.54998111165751], [-3.5012991462915224, 50.55034663591662], [-3.4998102495165777, 50.55079356212877], [-3.499660643914702, 50.55031488507408], [-3.500474789912844, 50.549832469684716], [-3.5015901503918236, 50.549944458272286], [-3.501586728049908, 50.54998111165751]]]}}, {"type": "Feature", "properties": {"type": "postcode-cell", "postcode": "TQ14 8ND", "postcodes": ["TQ14 8ND"]}, "geometry": {"type": "Polygon", "coordinates": [[[-3.5015100942886783, 50.553738341104534], [-3.50081838364458, 50.55417029386112], [-3.5005392247025897, 50.55423147675794], [-3.4997298786693802, 50.55391217198956], [-3.4999299898099756, 50.55368999461153], [-3.499371290553169, 50.55331669960722], [-3.4994792990555617, 50.55325382096984], [-3.501475851640983, 50.553615226664796], [-3.5015100942886783, 50.553738341104534]]]}}, {"type": "Feature", "properties": {"type": "postcode-cell", "postcode": "TQ14 9BU", "postcodes": ["TQ14 9BU"]}, "geometry": {"type": "Polygon", "coordinates": [[[-3.5002144461681564, 50.54812642485369], [-3.4990307448708355, 50.548296095758765], [-3.4988583928121204, 50.54824240808475], [-3.4987599914808527, 50.54808920787194], [-3.4989548216123323, 50.54787971743299], [-3.5001989990496467, 50.5477968338414], [-3.500299989813023, 50.54782999460701], [-3.500401253129607, 50.54782090263462], [-3.5002144461681564, 50.54812642485369]]]}}, {"type": "Feature", "properties": {"type": "postcode-cell", "postcode": "TQ14 9LD", "postcodes": ["TQ14 9LD"]}, "geometry": {"type": "Polygon", "coordinates": [[[-3.500392675613043, 50.54938772448877], [-3.500474789912844, 50.549832469684716], [-3.499660643914702, 50.55031488507408], [-3.4990606566080196, 50.5499321935104], [-3.499583844703077, 50.54925064580408], [-3.499620363701086, 50.54921842179745], [-3.4997910725286645, 50.549150608100064], [-3.5001669575367242, 50.54908669259663], [-3.500392675613043, 50.54938772448877]]]}}, {"type": "Feature", "properties": {"type": "postcode-cell", "postcode": "TQ14 9HT", "postcodes": ["TQ14 9HT"]}, "geometry": {"type": "Polygon", "coordinates": [[[-3.5001669575367242, 50.54908669259663], [-3.4997910725286645, 50.549150608100064], [-3.499352963923158, 50.54877775985195], [-3.49935969357279, 50.54857723242643], [-3.50025822794962, 50.548585915421285], [-3.500346805218222, 50.54875066878683], [-3.50022062665062, 50.54903415334466], [-3.5001669575367242, 50.54908669259663]]]}}, {"type": "Feature", "properties": {"type": "postcode-cell", "postcode": "TQ14 8NA", "postcodes": ["TQ14 8NA"]}, "geometry": {"type": "Polygon", "coordinates": [[[-3.50100421816363, 50.55488709420337], [-3.50010329819257, 50.55476349528875], [-3.5005392247025897, 50.55423147675794], [-3.50081838364458, 50.55417029386112], [-3.5012359399948676, 50.554809712701044], [-3.50100421816363, 50.55488709420337]]]}}, {"type": "Feature", "properties": {"type": "postcode-cell", "postcode": "TQ14 8LZ", "postcodes": ["TQ14 8LZ"]}, "geometry": {"type": "Polygon", "coordinates": [[[-3.5003108669683742, 50.55581746494083], [-3.4994347135778634, 50.5558830676059], [-3.499949250005442, 50.55481858096621], [-3.50010329819257, 50.55476349528875], [-3.50100421816363, 50.55488709420337], [-3.5007997739773393, 50.555611121733726], [-3.5003108669683742, 50.55581746494083]]]}}, {"type": "Feature", "properties": {"type": "postcode-cell", "postcode": "TQ14 8QZ", "postcodes": ["TQ14 8QZ"]}, "geometry": {"type": "Polygon", "coordinates": [[[-3.5014992923373294, 50.559236447954206], [-3.501099262213664, 50.55932912826957], [-3.5005953836742285, 50.55921033987867], [-3.499965978365766, 50.558552975861836], [-3.500841751259576, 50.55834389506192], [-3.5014992923373294, 50.559236447954206]]]}}, {"type": "Feature", "properties": {"type": "postcode-cell", "postcode": "TQ14 9HZ", "postcodes": ["TQ14 9HZ"]}, "geometry": {"type": "Polygon", "coordinates": [[[-3.4996922421604104, 50.55135700806485], [-3.498782160152859, 50.55147224147645], [-3.4975963955563176, 50.55028402680902], [-3.498437252222048, 50.54985502368352], [-3.4990606566080196, 50.5499321935104], [-3.499660643914702, 50.55031488507408], [-3.4998102495165777, 50.55079356212877], [-3.4996922421604104, 50.55135700806485]]]}}, {"type": "Feature", "properties": {"type": "postcode-cell", "postcode": "TQ14 8NH", "postcodes": ["TQ14 8NH"]}, "geometry": {"type": "Polygon", "coordinates": [[[-3.498954692426586, 50.556083593328715], [-3.4979607871388456, 50.555876236338435], [-3.4992901931536715, 50.55440033312912], [-3.499949250005442, 50.55481858096621], [-3.4994347135778634, 50.5558830676059], [-3.498954692426586, 50.556083593328715]]]}}, {"type": "Feature", "properties": {"type": "postcode-cell", "postcode": "TQ14 8NQ", "postcodes": ["TQ14 8NQ"]}, "geometry": {"type": "Polygon", "coordinates": [[[-3.497312134984099, 50.5574681077019], [-3.496411137013749, 50.55789491081787], [-3.4963899898058712, 50.55761999461465], [-3.497485967861964, 50.55640335374684], [-3.497312134984099, 50.5574681077019]]]}}, {"type": "Feature", "properties": {"type": "postcode-cell", "postcode": "TQ14 8NE", "postcodes": ["TQ14 8NE"]}, "geometry": {"type": "Polygon", "coordinates": [[[-3.5005392247025897, 50.55423147675794], [-3.50010329819257, 50.55476349528875], [-3.499949250005442, 50.55481858096621], [-3.4992901931536715, 50.55440033312912], [-3.4997298786693802, 50.55391217198956], [-3.5005392247025897, 50.55423147675794]]]}}, {"type": "Feature", "properties": {"type": "postcode-cell", "postcode": "TQ14 8RY", "postcodes": ["TQ14 8RY"]}, "geometry": {"type": "Polygon", "coordinates": [[[-3.4984615931894267, 50.55940304804595], [-3.499167814245384, 50.559386717109106], [-3.499340282881667, 50.55946038839451], [-3.5001100480354905, 50.56053740718425], [-3.499981481806724, 50.56099722211357], [-3.4989868087116767, 50.561281069893724], [-3.4985899898062827, 50.55962999461615], [-3.4984562666718886, 50.55940434412484], [-3.4984615931894267, 50.55940304804595]]]}}, {"type": "Feature", "properties": {"type": "postcode-cell", "postcode": "TQ14 8UD", "postcodes": ["TQ14 8UD"]}, "geometry": {"type": "Polygon", "coordinates": [[[-3.500239068627758, 50.557244286954706], [-3.4998874809049756, 50.55853950974354], [-3.499588863981233, 50.55856226047774], [-3.4988199724564817, 50.5582295537849], [-3.4987438852722645, 50.55779469404735], [-3.4987695736143083, 50.5576652516708], [-3.499519367459166, 50.557030486886006], [-3.500239068627758, 50.557244286954706]]]}}, {"type": "Feature", "properties": {"type": "postcode-cell", "postcode": "TQ14 8NX", "postcodes": ["TQ14 8NX"]}, "geometry": {"type": "Polygon", "coordinates": [[[-3.4994792990555617, 50.55325382096984], [-3.499371290553169, 50.55331669960722], [-3.4978887098462264, 50.5523260709613], [-3.498372962841869, 50.5519072744748], [-3.499491852391389, 50.55322844164116], [-3.4994792990555617, 50.55325382096984]]]}}, {"type": "Feature", "properties": {"type": "postcode-cell", "postcode": "TQ14 8QY", "postcodes": ["TQ14 8QY"]}, "geometry": {"type": "Polygon", "coordinates": [[[-3.5005953836742285, 50.55921033987867], [-3.499340282881667, 50.55946038839451], [-3.499167814245384, 50.559386717109106], [-3.499588863981233, 50.55856226047774], [-3.4998874809049756, 50.55853950974354], [-3.499965978365766, 50.558552975861836], [-3.5005953836742285, 50.55921033987867]]]}}, {"type": "Feature", "properties": {"type": "postcode-cell", "postcode": "TQ14 9HY", "postcodes": ["TQ14 9HY"]}, "geometry": {"type": "Polygon", "coordinates": [[[-3.499620363701086, 50.54921842179745], [-3.499139898882279, 50.54904482485994], [-3.4989314913747216, 50.548836567427266], [-3.498932293330936, 50.548821118051116], [-3.4989824889722687, 50.54879447070454], [-3.499352963923158, 50.54877775985195], [-3.4997910725286645, 50.549150608100064], [-3.499620363701086, 50.54921842179745]]]}}, {"type": "Feature", "properties": {"type": "postcode-cell", "postcode": "TQ14 8RX", "postcodes": ["TQ14 8RX"]}, "geometry": {"type": "Polygon", "coordinates": [[[-3.499167814245384, 50.559386717109106], [-3.4984615931894267, 50.55940304804595], [-3.4986516449274814, 50.55833509999776], [-3.4988199724564817, 50.5582295537849], [-3.499588863981233, 50.55856226047774], [-3.499167814245384, 50.559386717109106]]]}}, {"type": "Feature", "properties": {"type": "postcode-cell", "postcode": "TQ14 9HX", "postcodes": ["TQ14 9HX"]}, "geometry": {"type": "Polygon", "coordinates": [[[-3.499352963923158, 50.54877775985195], [-3.4989824889722687, 50.54879447070454], [-3.4991423624461326, 50.548443995997246], [-3.49935969357279, 50.54857723242643], [-3.499352963923158, 50.54877775985195]]]}}, {"type": "Feature", "properties": {"type": "postcode-cell", "postcode": "TQ14 9HS", "postcodes": ["TQ14 9HS"]}, "geometry": {"type": "Polygon", "coordinates": [[[-3.50025822794962, 50.548585915421285], [-3.49935969357279, 50.54857723242643], [-3.4991423624461326, 50.548443995997246], [-3.4990307448708355, 50.548296095758765], [-3.5002144461681564, 50.54812642485369], [-3.50025822794962, 50.548585915421285]]]}}, {"type": "Feature", "properties": {"type": "postcode-cell", "postcode": "TQ14 9HU", "postcodes": ["TQ14 9HU"]}, "geometry": {"type": "MultiPolygon", "coordinates": [[[[-3.4989548216123323, 50.54787971743299], [-3.498937508331148, 50.54733427753704], [-3.4991729735282853, 50.547123807240226], [-3.4996299898127092, 50.547609994606844], [-3.5001989990496467, 50.5477968338414], [-3.4989548216123323, 50.54787971743299]]], [[[-3.499341979998563, 50.54697273956349], [-3.499406172320052, 50.54696143887914], [-3.4992475120495428, 50.54705718058268], [-3.499341979998563, 50.54697273956349]]]]}}, {"type": "Feature", "properties": {"type": "postcode-cell", "postcode": "TQ14 8HE", "postcodes": ["TQ14 8HE"]}, "geometry": {"type": "Polygon", "coordinates": [[[-3.4992475120495428, 50.54705718058268], [-3.499159989812654, 50.54710999460646], [-3.4991729735282853, 50.547123807240226], [-3.498937508331148, 50.54733427753704], [-3.4985113687252967, 50.547433994959555], [-3.4977855416477284, 50.547357287999816], [-3.4977308523418924, 50.547338204995754], [-3.497832968397185, 50.54700586212714], [-3.4993158346578945, 50.546966747125], [-3.499341979998563, 50.54697273956349], [-3.4992475120495428, 50.54705718058268]]]}}, {"type": "Feature", "properties": {"type": "postcode-cell", "postcode": "TQ14 8JR", "postcodes": ["TQ14 8JR"]}, "geometry": {"type": "Polygon", "coordinates": [[[-3.499583844703077, 50.54925064580408], [-3.498220452914137, 50.549216053495805], [-3.49836971833149, 50.54916328451944], [-3.499139898882279, 50.54904482485994], [-3.499620363701086, 50.54921842179745], [-3.499583844703077, 50.54925064580408]]]}}, {"type": "Feature", "properties": {"type": "postcode-cell", "postcode": "TQ14 8JP", "postcodes": ["TQ14 8JP"]}, "geometry": {"type": "Polygon", "coordinates": [[[-3.4991423624461326, 50.548443995997246], [-3.4989824889722687, 50.54879447070454], [-3.498932293330936, 50.548821118051116], [-3.498429638459075, 50.54859470979899], [-3.4988583928121204, 50.54824240808475], [-3.4990307448708355, 50.548296095758765], [-3.4991423624461326, 50.548443995997246]]]}}, {"type": "Feature", "properties": {"type": "postcode-cell", "postcode": "TQ14 8JW", "postcodes": ["TQ14 8JW"]}, "geometry": {"type": "Polygon", "coordinates": [[[-3.4990606566080196, 50.5499321935104], [-3.498437252222048, 50.54985502368352], [-3.498084984143417, 50.5492473721355], [-3.498220452914137, 50.549216053495805], [-3.499583844703077, 50.54925064580408], [-3.4990606566080196, 50.5499321935104]]]}}, {"type": "Feature", "properties": {"type": "postcode-cell", "postcode": "TQ14 8TF", "postcodes": ["TQ14 8TF"]}, "geometry": {"type": "Polygon", "coordinates": [[[-3.4986516449274814, 50.55833509999776], [-3.4979291182267627, 50.55851478688228], [-3.497660958625346, 50.558062256397236], [-3.4987438852722645, 50.55779469404735], [-3.4988199724564817, 50.5582295537849], [-3.4986516449274814, 50.55833509999776]]]}}, {"type": "Feature", "properties": {"type": "postcode-cell", "postcode": "TQ14 8QN", "postcodes": ["TQ14 8QN"]}, "geometry": {"type": "Polygon", "coordinates": [[[-3.499519367459166, 50.557030486886006], [-3.4987695736143083, 50.5576652516708], [-3.497312134984099, 50.5574681077019], [-3.497485967861964, 50.55640335374684], [-3.4979607871388456, 50.555876236338435], [-3.498954692426586, 50.556083593328715], [-3.499519367459166, 50.557030486886006]]]}}, {"type": "Feature", "properties": {"type": "postcode-cell", "postcode": "TQ14 8JN", "postcodes": ["TQ14 8JN"]}, "geometry": {"type": "Polygon", "coordinates": [[[-3.49836971833149, 50.54916328451944], [-3.4989314913747216, 50.548836567427266], [-3.499139898882279, 50.54904482485994], [-3.49836971833149, 50.54916328451944]]]}}, {"type": "Feature", "properties": {"type": "postcode-cell", "postcode": "TQ14 8JB", "postcodes": ["TQ14 8JB"]}, "geometry": {"type": "Polygon", "coordinates": [[[-3.498084984143417, 50.5492473721355], [-3.497998475915558, 50.54919503284655], [-3.4982750744344178, 50.54864567017002], [-3.498429638459075, 50.54859470979899], [-3.498932293330936, 50.548821118051116], [-3.4989314913747216, 50.548836567427266], [-3.49836971833149, 50.54916328451944], [-3.498220452914137, 50.549216053495805], [-3.498084984143417, 50.5492473721355]]]}}, {"type": "Feature", "properties": {"type": "postcode-cell", "postcode": "TQ14 8JL", "postcodes": ["TQ14 8JL"]}, "geometry": {"type": "Polygon", "coordinates": [[[-3.4988583928121204, 50.54824240808475], [-3.498429638459075, 50.54859470979899], [-3.4982750744344178, 50.54864567017002], [-3.49778175873873, 50.54838257204291], [-3.4978995165502944, 50.548213101168656], [-3.4985129691109202, 50.54803499623879], [-3.4987599914808527, 50.54808920787194], [-3.4988583928121204, 50.54824240808475]]]}}, {"type": "Feature", "properties": {"type": "postcode-cell", "postcode": "TQ14 9BT", "postcodes": ["TQ14 9BT"]}, "geometry": {"type": "Polygon", "coordinates": [[[-3.4987599914808527, 50.54808920787194], [-3.4985129691109202, 50.54803499623879], [-3.498253012564425, 50.54782503179928], [-3.4985113687252967, 50.547433994959555], [-3.498937508331148, 50.54733427753704], [-3.4989548216123323, 50.54787971743299], [-3.4987599914808527, 50.54808920787194]]]}}, {"type": "Feature", "properties": {"type": "postcode-cell", "postcode": "TQ14 8FG", "postcodes": ["TQ14 8FG"]}, "geometry": {"type": "Polygon", "coordinates": [[[-3.4993739414170664, 50.54581010457383], [-3.498414109624803, 50.546520439996485], [-3.498306040379676, 50.54645116823494], [-3.4982566911503095, 50.546308893290146], [-3.498933166844967, 50.54592098000929], [-3.4993739414170664, 50.54581010457383]]]}}, {"type": "Feature", "properties": {"type": "postcode-cell", "postcode": "TQ14 8ED", "postcodes": ["TQ14 8ED"]}, "geometry": {"type": "Polygon", "coordinates": [[[-3.4993158346578945, 50.546966747125], [-3.497832968397185, 50.54700586212714], [-3.4977871820637723, 50.546948711923065], [-3.498421102902696, 50.5465275627214], [-3.4993158346578945, 50.546966747125]]]}}, {"type": "Feature", "properties": {"type": "postcode-cell", "postcode": "TQ14 8RU", "postcodes": ["TQ14 8RU"]}, "geometry": {"type": "Polygon", "coordinates": [[[-3.4986516449274814, 50.55833509999776], [-3.4984615931894267, 50.55940304804595], [-3.4984562666718886, 50.55940434412484], [-3.4979291182267627, 50.55851478688228], [-3.4986516449274814, 50.55833509999776]]]}}, {"type": "Feature", "properties": {"type": "postcode-cell", "postcode": "TQ14 8JT", "postcodes": ["TQ14 8JT"]}, "geometry": {"type": "Polygon", "coordinates": [[[-3.498084984143417, 50.5492473721355], [-3.498437252222048, 50.54985502368352], [-3.4975963955563176, 50.55028402680902], [-3.497129498940036, 50.550277546679894], [-3.496786075173621, 50.5499474771474], [-3.4966859010984273, 50.54927473228124], [-3.4967285731465183, 50.549199126672235], [-3.496757551129875, 50.549183756859705], [-3.4970854825795366, 50.54909862908484], [-3.497998475915558, 50.54919503284655], [-3.498084984143417, 50.5492473721355]]]}}, {"type": "Feature", "properties": {"type": "postcode-cell", "postcode": "TQ14 8EB", "postcodes": ["TQ14 8EB"]}, "geometry": {"type": "Polygon", "coordinates": [[[-3.498421102902696, 50.5465275627214], [-3.4977871820637723, 50.546948711923065], [-3.497684925304442, 50.546879613651555], [-3.4977073523905924, 50.54656140701715], [-3.498306040379676, 50.54645116823494], [-3.498414109624803, 50.546520439996485], [-3.498421102902696, 50.5465275627214]]]}}, {"type": "Feature", "properties": {"type": "postcode-cell", "postcode": "TQ14 8JS", "postcodes": ["TQ14 8JS"]}, "geometry": {"type": "Polygon", "coordinates": [[[-3.4982750744344178, 50.54864567017002], [-3.497998475915558, 50.54919503284655], [-3.4970854825795366, 50.54909862908484], [-3.497280142846671, 50.54859076742469], [-3.497644771299768, 50.548403044794355], [-3.49778175873873, 50.54838257204291], [-3.4982750744344178, 50.54864567017002]]]}}, {"type": "Feature", "properties": {"type": "postcode-cell", "postcode": "TQ14 8JU", "postcodes": ["TQ14 8JU"]}, "geometry": {"type": "Polygon", "coordinates": [[[-3.498578265521231, 50.551565760423266], [-3.49761391749089, 50.55147139803457], [-3.4966727706793765, 50.55066345418079], [-3.497129498940036, 50.550277546679894], [-3.4975963955563176, 50.55028402680902], [-3.498782160152859, 50.55147224147645], [-3.498578265521231, 50.551565760423266]]]}}, {"type": "Feature", "properties": {"type": "postcode-cell", "postcode": "TQ14 8EF", "postcodes": ["TQ14 8EF"]}, "geometry": {"type": "Polygon", "coordinates": [[[-3.4982566911503095, 50.546308893290146], [-3.498184872458601, 50.546266200332504], [-3.4981981521498446, 50.545945936734036], [-3.498933166844967, 50.54592098000929], [-3.4982566911503095, 50.546308893290146]]]}}, {"type": "Feature", "properties": {"type": "postcode-cell", "postcode": "TQ14 8DY", "postcodes": ["TQ14 8DY"]}, "geometry": {"type": "Polygon", "coordinates": [[[-3.4985113687252967, 50.547433994959555], [-3.498253012564425, 50.54782503179928], [-3.498137620154042, 50.5478027526483], [-3.4977855416477284, 50.547357287999816], [-3.4985113687252967, 50.547433994959555]]]}}, {"type": "Feature", "properties": {"type": "postcode-cell", "postcode": "TQ14 8EA", "postcodes": ["TQ14 8EA"]}, "geometry": {"type": "Polygon", "coordinates": [[[-3.4982566911503095, 50.546308893290146], [-3.498306040379676, 50.54645116823494], [-3.4977073523905924, 50.54656140701715], [-3.4975541022135017, 50.546426515025104], [-3.49781006626476, 50.546198794927335], [-3.498184872458601, 50.546266200332504], [-3.4982566911503095, 50.546308893290146]]]}}, {"type": "Feature", "properties": {"type": "postcode-cell", "postcode": "TQ14 8EE", "postcodes": ["TQ14 8EE"]}, "geometry": {"type": "Polygon", "coordinates": [[[-3.498184872458601, 50.546266200332504], [-3.49781006626476, 50.546198794927335], [-3.497763585619898, 50.546111330063226], [-3.49806058599383, 50.545891866015516], [-3.4981981521498446, 50.545945936734036], [-3.498184872458601, 50.546266200332504]]]}}, {"type": "Feature", "properties": {"type": "postcode-cell", "postcode": "TQ14 8JJ", "postcodes": ["TQ14 8JJ"]}, "geometry": {"type": "Polygon", "coordinates": [[[-3.498253012564425, 50.54782503179928], [-3.4985129691109202, 50.54803499623879], [-3.4978995165502944, 50.548213101168656], [-3.4976651841411526, 50.54792028187985], [-3.4977006260171346, 50.54788711510731], [-3.498137620154042, 50.5478027526483], [-3.498253012564425, 50.54782503179928]]]}}, {"type": "Feature", "properties": {"type": "postcode-cell", "postcode": "TQ14 8JH", "postcodes": ["TQ14 8JH"]}, "geometry": {"type": "Polygon", "coordinates": [[[-3.49778175873873, 50.54838257204291], [-3.497644771299768, 50.548403044794355], [-3.497195472164878, 50.54802459172995], [-3.497221403335761, 50.547972849332275], [-3.4976651841411526, 50.54792028187985], [-3.4978995165502944, 50.548213101168656], [-3.49778175873873, 50.54838257204291]]]}}, {"type": "Feature", "properties": {"type": "postcode-cell", "postcode": "TQ14 8DU", "postcodes": ["TQ14 8DU"]}, "geometry": {"type": "Polygon", "coordinates": [[[-3.4977855416477284, 50.547357287999816], [-3.498137620154042, 50.5478027526483], [-3.4977006260171346, 50.54788711510731], [-3.4975545311591594, 50.54740313255493], [-3.4977308523418924, 50.547338204995754], [-3.4977855416477284, 50.547357287999816]]]}}, {"type": "Feature", "properties": {"type": "postcode-cell", "postcode": "TQ14 8HY", "postcodes": ["TQ14 8HY"]}, "geometry": {"type": "Polygon", "coordinates": [[[-3.497832968397185, 50.54700586212714], [-3.4977308523418924, 50.547338204995754], [-3.4975545311591594, 50.54740313255493], [-3.4970352196370635, 50.54745019575796], [-3.4968893684594593, 50.54714259312807], [-3.4974815613828247, 50.54686704994043], [-3.497684925304442, 50.546879613651555], [-3.4977871820637723, 50.546948711923065], [-3.497832968397185, 50.54700586212714]]]}}, {"type": "Feature", "properties": {"type": "postcode-cell", "postcode": "TQ14 8EN", "postcodes": ["TQ14 8EN", "TQ14 8ZZ"]}, "geometry": {"type": "Polygon", "coordinates": [[[-3.49806058599383, 50.545891866015516], [-3.497763585619898, 50.546111330063226], [-3.497481170679881, 50.54599883089645], [-3.4976299898123613, 50.545729994605416], [-3.497946149336028, 50.54569967955918], [-3.49806058599383, 50.545891866015516]]]}}, {"type": "Feature", "properties": {"type": "postcode-cell", "postcode": "TQ14 8EW", "postcodes": ["TQ14 8EW"]}, "geometry": {"type": "Polygon", "coordinates": [[[-3.4975541022135017, 50.546426515025104], [-3.4974010927946697, 50.54640628596851], [-3.4972532242252803, 50.54628673808579], [-3.4973199898118987, 50.54628999460584], [-3.497481170679881, 50.54599883089645], [-3.497763585619898, 50.546111330063226], [-3.49781006626476, 50.546198794927335], [-3.4975541022135017, 50.546426515025104]]]}}, {"type": "Feature", "properties": {"type": "postcode-cell", "postcode": "TQ14 8DZ", "postcodes": ["TQ14 8DZ"]}, "geometry": {"type": "Polygon", "coordinates": [[[-3.4977073523905924, 50.54656140701715], [-3.497684925304442, 50.546879613651555], [-3.4974815613828247, 50.54686704994043], [-3.4971679077345534, 50.54674332107832], [-3.4971568473519614, 50.54661668962989], [-3.497167702329262, 50.54655425569186], [-3.4974010927946697, 50.54640628596851], [-3.4975541022135017, 50.546426515025104], [-3.4977073523905924, 50.54656140701715]]]}}, {"type": "Feature", "properties": {"type": "postcode-cell", "postcode": "TQ14 8LD", "postcodes": ["TQ14 8LD"]}, "geometry": {"type": "Polygon", "coordinates": [[[-3.49761391749089, 50.55147139803457], [-3.498578265521231, 50.551565760423266], [-3.498372962841869, 50.5519072744748], [-3.4978887098462264, 50.5523260709613], [-3.4968462843660157, 50.55162950799184], [-3.49761391749089, 50.55147139803457]]]}}, {"type": "Feature", "properties": {"type": "postcode-cell", "postcode": "TQ14 8AW", "postcodes": ["TQ14 8AW"]}, "geometry": {"type": "Polygon", "coordinates": [[[-3.49677415755235, 50.54632794231718], [-3.4964686407088243, 50.54639299885187], [-3.4959617585694125, 50.5462617425552], [-3.4960899898111575, 50.54622999460584], [-3.4968026189248205, 50.54626475860532], [-3.49677415755235, 50.54632794231718]]]}}, {"type": "Feature", "properties": {"type": "postcode-cell", "postcode": "TQ14 8FN", "postcodes": ["TQ14 8FN"]}, "geometry": {"type": "Polygon", "coordinates": [[[-3.4968026189248205, 50.54626475860532], [-3.4972532242252803, 50.54628673808579], [-3.4974010927946697, 50.54640628596851], [-3.497167702329262, 50.54655425569186], [-3.4967953654175847, 50.54645988446085], [-3.49677415755235, 50.54632794231718], [-3.4968026189248205, 50.54626475860532]]]}}, {"type": "Feature", "properties": {"type": "postcode-cell", "postcode": "TQ14 8FS", "postcodes": ["TQ14 8FS"]}, "geometry": {"type": "Polygon", "coordinates": [[[-3.4976651841411526, 50.54792028187985], [-3.497221403335761, 50.547972849332275], [-3.496875810178995, 50.54757073031802], [-3.4970352196370635, 50.54745019575796], [-3.4975545311591594, 50.54740313255493], [-3.4977006260171346, 50.54788711510731], [-3.4976651841411526, 50.54792028187985]]]}}, {"type": "Feature", "properties": {"type": "postcode-cell", "postcode": "TQ14 8QW", "postcodes": ["TQ14 8QW"]}, "geometry": {"type": "Polygon", "coordinates": [[[-3.4987438852722645, 50.55779469404735], [-3.497660958625346, 50.558062256397236], [-3.497629989806459, 50.55800999461492], [-3.49643998980559, 50.55826999461516], [-3.496411137013749, 50.55789491081787], [-3.497312134984099, 50.5574681077019], [-3.4987695736143083, 50.5576652516708], [-3.4987438852722645, 50.55779469404735]]]}}, {"type": "Feature", "properties": {"type": "postcode-cell", "postcode": "TQ14 8JQ", "postcodes": ["TQ14 8JQ"]}, "geometry": {"type": "Polygon", "coordinates": [[[-3.497280142846671, 50.54859076742469], [-3.4968233611346426, 50.54824968065059], [-3.497195472164878, 50.54802459172995], [-3.497644771299768, 50.548403044794355], [-3.497280142846671, 50.54859076742469]]]}}, {"type": "Feature", "properties": {"type": "postcode-cell", "postcode": "TQ14 8JG", "postcodes": ["TQ14 8JG"]}, "geometry": {"type": "Polygon", "coordinates": [[[-3.497195472164878, 50.54802459172995], [-3.4968233611346426, 50.54824968065059], [-3.496348254560235, 50.548245815172464], [-3.4960458371752434, 50.54813071512876], [-3.4956280815847203, 50.547782192520295], [-3.496875810178995, 50.54757073031802], [-3.497221403335761, 50.547972849332275], [-3.497195472164878, 50.54802459172995]]]}}, {"type": "Feature", "properties": {"type": "postcode-cell", "postcode": "TQ14 8JA", "postcodes": ["TQ14 8JA"]}, "geometry": {"type": "Polygon", "coordinates": [[[-3.497280142846671, 50.54859076742469], [-3.4970854825795366, 50.54909862908484], [-3.496757551129875, 50.549183756859705], [-3.496348254560235, 50.548245815172464], [-3.4968233611346426, 50.54824968065059], [-3.497280142846671, 50.54859076742469]]]}}, {"type": "Feature", "properties": {"type": "postcode-cell", "postcode": "TQ14 8HU", "postcodes": ["TQ14 8HU"]}, "geometry": {"type": "Polygon", "coordinates": [[[-3.496875810178995, 50.54757073031802], [-3.4956280815847203, 50.547782192520295], [-3.4956174334951893, 50.5477792667254], [-3.495982089798754, 50.547208680675986], [-3.4967942373396057, 50.547073259321564], [-3.4968893684594593, 50.54714259312807], [-3.4970352196370635, 50.54745019575796], [-3.496875810178995, 50.54757073031802]]]}}, {"type": "Feature", "properties": {"type": "postcode-cell", "postcode": "TQ14 8DR", "postcodes": ["TQ14 8DR"]}, "geometry": {"type": "Polygon", "coordinates": [[[-3.4968893684594593, 50.54714259312807], [-3.4967942373396057, 50.547073259321564], [-3.496707039486924, 50.54684773795418], [-3.4971679077345534, 50.54674332107832], [-3.4974815613828247, 50.54686704994043], [-3.4968893684594593, 50.54714259312807]]]}}, {"type": "Feature", "properties": {"type": "postcode-cell", "postcode": "TQ14 8GB", "postcodes": ["TQ14 8GB"]}, "geometry": {"type": "Polygon", "coordinates": [[[-3.4967953654175847, 50.54645988446085], [-3.4967842787865653, 50.546473258461745], [-3.4964332228550616, 50.546533200557], [-3.4964686407088243, 50.54639299885187], [-3.49677415755235, 50.54632794231718], [-3.4967953654175847, 50.54645988446085]]]}}, {"type": "Feature", "properties": {"type": "postcode-cell", "postcode": "TQ14 8GJ", "postcodes": ["TQ14 8GJ"]}, "geometry": {"type": "Polygon", "coordinates": [[[-3.4971679077345534, 50.54674332107832], [-3.496707039486924, 50.54684773795418], [-3.496653362337782, 50.5468164147256], [-3.4967519941586613, 50.54662399496782], [-3.4971568473519614, 50.54661668962989], [-3.4971679077345534, 50.54674332107832]]]}}, {"type": "Feature", "properties": {"type": "postcode-cell", "postcode": "TQ14 8LE", "postcodes": ["TQ14 8LE"]}, "geometry": {"type": "Polygon", "coordinates": [[[-3.49761391749089, 50.55147139803457], [-3.4968462843660157, 50.55162950799184], [-3.4958174491922045, 50.55094199660989], [-3.4966727706793765, 50.55066345418079], [-3.49761391749089, 50.55147139803457]]]}}, {"type": "Feature", "properties": {"type": "postcode-cell", "postcode": "TQ14 8DJ", "postcodes": ["TQ14 8DJ"]}, "geometry": {"type": "Polygon", "coordinates": [[[-3.496653362337782, 50.5468164147256], [-3.496266820401028, 50.546757737966516], [-3.4962177889637496, 50.546676132061556], [-3.4964332228550616, 50.546533200557], [-3.4967842787865653, 50.546473258461745], [-3.4967519941586613, 50.54662399496782], [-3.496653362337782, 50.5468164147256]]]}}, {"type": "Feature", "properties": {"type": "postcode-cell", "postcode": "TQ14 8GH", "postcodes": ["TQ14 8GH"]}, "geometry": {"type": "Polygon", "coordinates": [[[-3.4971568473519614, 50.54661668962989], [-3.4967519941586613, 50.54662399496782], [-3.4967842787865653, 50.546473258461745], [-3.4967953654175847, 50.54645988446085], [-3.497167702329262, 50.54655425569186], [-3.4971568473519614, 50.54661668962989]]]}}, {"type": "Feature", "properties": {"type": "postcode-cell", "postcode": "TQ14 8DP", "postcodes": ["TQ14 8DP"]}, "geometry": {"type": "Polygon", "coordinates": [[[-3.4967942373396057, 50.547073259321564], [-3.495982089798754, 50.547208680675986], [-3.495992274119695, 50.54699341633418], [-3.496266820401028, 50.546757737966516], [-3.496653362337782, 50.5468164147256], [-3.496707039486924, 50.54684773795418], [-3.4967942373396057, 50.547073259321564]]]}}, {"type": "Feature", "properties": {"type": "postcode-cell", "postcode": "TQ14 8LG", "postcodes": ["TQ14 8LG"]}, "geometry": {"type": "Polygon", "coordinates": [[[-3.4966727706793765, 50.55066345418079], [-3.4958174491922045, 50.55094199660989], [-3.4955899898086518, 50.55078999460938], [-3.495271643385169, 50.550366104397725], [-3.4956453901823696, 50.55001248400427], [-3.496786075173621, 50.5499474771474], [-3.497129498940036, 50.550277546679894], [-3.4966727706793765, 50.55066345418079]]]}}, {"type": "Feature", "properties": {"type": "postcode-cell", "postcode": "TQ14 8JD", "postcodes": ["TQ14 8JD"]}, "geometry": {"type": "Polygon", "coordinates": [[[-3.496757551129875, 50.549183756859705], [-3.4967285731465183, 50.549199126672235], [-3.496162957108427, 50.549003704300354], [-3.4958462785775706, 50.548766784463346], [-3.4960458371752434, 50.54813071512876], [-3.496348254560235, 50.548245815172464], [-3.496757551129875, 50.549183756859705]]]}}, {"type": "Feature", "properties": {"type": "postcode-cell", "postcode": "TQ14 8DN", "postcodes": ["TQ14 8DN"]}, "geometry": {"type": "Polygon", "coordinates": [[[-3.4962177889637496, 50.546676132061556], [-3.495872701170106, 50.54642679984762], [-3.495846770049382, 50.54629021166839], [-3.4959617585694125, 50.5462617425552], [-3.4964686407088243, 50.54639299885187], [-3.4964332228550616, 50.546533200557], [-3.4962177889637496, 50.546676132061556]]]}}, {"type": "Feature", "properties": {"type": "postcode-cell", "postcode": "TQ14 8JE", "postcodes": ["TQ14 8JE"]}, "geometry": {"type": "Polygon", "coordinates": [[[-3.4956280815847203, 50.547782192520295], [-3.4960458371752434, 50.54813071512876], [-3.4958462785775706, 50.548766784463346], [-3.4950940297888864, 50.5487449166916], [-3.49502054477012, 50.54859535104687], [-3.495589210062499, 50.54777952462697], [-3.4956174334951893, 50.5477792667254], [-3.4956280815847203, 50.547782192520295]]]}}, {"type": "Feature", "properties": {"type": "postcode-cell", "postcode": "TQ14 8HW", "postcodes": ["TQ14 8HW"]}, "geometry": {"type": "Polygon", "coordinates": [[[-3.495872701170106, 50.54642679984762], [-3.495690103540868, 50.54657149261181], [-3.4952708731357047, 50.546741698788985], [-3.495107486454321, 50.54665515010398], [-3.4949437637859586, 50.54651377484428], [-3.495846770049382, 50.54629021166839], [-3.495872701170106, 50.54642679984762]]]}}, {"type": "Feature", "properties": {"type": "postcode-cell", "postcode": "TQ14 8LH", "postcodes": ["TQ14 8LH"]}, "geometry": {"type": "Polygon", "coordinates": [[[-3.495271643385169, 50.550366104397725], [-3.4947158808922882, 50.54962606507549], [-3.495579089367329, 50.549833833215736], [-3.4956453901823696, 50.55001248400427], [-3.495271643385169, 50.550366104397725]]]}}, {"type": "Feature", "properties": {"type": "postcode-cell", "postcode": "TQ14 8HT", "postcodes": ["TQ14 8HT"]}, "geometry": {"type": "Polygon", "coordinates": [[[-3.495992274119695, 50.54699341633418], [-3.495982089798754, 50.547208680675986], [-3.4956174334951893, 50.5477792667254], [-3.495589210062499, 50.54777952462697], [-3.4951764598972583, 50.54766187714655], [-3.4950414076557648, 50.54731611995221], [-3.495306303931669, 50.54685182175198], [-3.4957729016183583, 50.54690260685387], [-3.495992274119695, 50.54699341633418]]]}}, {"type": "Feature", "properties": {"type": "postcode-cell", "postcode": "TQ14 8DS", "postcodes": ["TQ14 8DS"]}, "geometry": {"type": "Polygon", "coordinates": [[[-3.4957729016183583, 50.54690260685387], [-3.495690103540868, 50.54657149261181], [-3.495872701170106, 50.54642679984762], [-3.4962177889637496, 50.546676132061556], [-3.496266820401028, 50.546757737966516], [-3.495992274119695, 50.54699341633418], [-3.4957729016183583, 50.54690260685387]]]}}, {"type": "Feature", "properties": {"type": "postcode-cell", "postcode": "TQ14 8LR", "postcodes": ["TQ14 8LR"]}, "geometry": {"type": "Polygon", "coordinates": [[[-3.4956899859391872, 50.549511432390425], [-3.4966859010984273, 50.54927473228124], [-3.496786075173621, 50.5499474771474], [-3.4956453901823696, 50.55001248400427], [-3.495579089367329, 50.549833833215736], [-3.4956899859391872, 50.549511432390425]]]}}, {"type": "Feature", "properties": {"type": "postcode-cell", "postcode": "TQ14 8LJ", "postcodes": ["TQ14 8LJ"]}, "geometry": {"type": "Polygon", "coordinates": [[[-3.495579089367329, 50.549833833215736], [-3.4947158808922882, 50.54962606507549], [-3.494505814369618, 50.54934633893455], [-3.494902832204639, 50.54920007866067], [-3.4949431117284755, 50.549207498065414], [-3.4956899859391872, 50.549511432390425], [-3.495579089367329, 50.549833833215736]]]}}, {"type": "Feature", "properties": {"type": "postcode-cell", "postcode": "TQ14 8LN", "postcodes": ["TQ14 8LN"]}, "geometry": {"type": "Polygon", "coordinates": [[[-3.4949431117284755, 50.549207498065414], [-3.496162957108427, 50.549003704300354], [-3.4967285731465183, 50.549199126672235], [-3.4966859010984273, 50.54927473228124], [-3.4956899859391872, 50.549511432390425], [-3.4949431117284755, 50.549207498065414]]]}}, {"type": "Feature", "properties": {"type": "postcode-cell", "postcode": "TQ14 8DL", "postcodes": ["TQ14 8DL"]}, "geometry": {"type": "Polygon", "coordinates": [[[-3.4952708731357047, 50.546741698788985], [-3.495690103540868, 50.54657149261181], [-3.4957729016183583, 50.54690260685387], [-3.495306303931669, 50.54685182175198], [-3.4952708731357047, 50.546741698788985]]]}}, {"type": "Feature", "properties": {"type": "postcode-cell", "postcode": "TQ14 8HR", "postcodes": ["TQ14 8HR"]}, "geometry": {"type": "Polygon", "coordinates": [[[-3.495306303931669, 50.54685182175198], [-3.4950414076557648, 50.54731611995221], [-3.494826852347652, 50.547160299210525], [-3.494784597171799, 50.54689673302577], [-3.495107486454321, 50.54665515010398], [-3.4952708731357047, 50.546741698788985], [-3.495306303931669, 50.54685182175198]]]}}, {"type": "Feature", "properties": {"type": "postcode-cell", "postcode": "TQ14 8QJ", "postcodes": ["TQ14 8QJ"]}, "geometry": {"type": "Polygon", "coordinates": [[[-3.49502054477012, 50.54859535104687], [-3.4950940297888864, 50.5487449166916], [-3.494902832204639, 50.54920007866067], [-3.494505814369618, 50.54934633893455], [-3.493815083450801, 50.54842652999772], [-3.49502054477012, 50.54859535104687]]]}}, {"type": "Feature", "properties": {"type": "postcode-cell", "postcode": "TQ14 8LL", "postcodes": ["TQ14 8LL"]}, "geometry": {"type": "Polygon", "coordinates": [[[-3.496162957108427, 50.549003704300354], [-3.4949431117284755, 50.549207498065414], [-3.494902832204639, 50.54920007866067], [-3.4950940297888864, 50.5487449166916], [-3.4958462785775706, 50.548766784463346], [-3.496162957108427, 50.549003704300354]]]}}, {"type": "Feature", "properties": {"type": "postcode-cell", "postcode": "TQ14 8PE", "postcodes": ["TQ14 8PE"]}, "geometry": {"type": "Polygon", "coordinates": [[[-3.4950414076557648, 50.54731611995221], [-3.4951764598972583, 50.54766187714655], [-3.4937558575066094, 50.547836532468956], [-3.4939387143165344, 50.54710510495417], [-3.4944041001858945, 50.5470139543728], [-3.494826852347652, 50.547160299210525], [-3.4950414076557648, 50.54731611995221]]]}}, {"type": "Feature", "properties": {"type": "postcode-cell", "postcode": "TQ14 8PG", "postcodes": ["TQ14 8PG"]}, "geometry": {"type": "Polygon", "coordinates": [[[-3.495589210062499, 50.54777952462697], [-3.49502054477012, 50.54859535104687], [-3.493815083450801, 50.54842652999772], [-3.4936599898086795, 50.54821999460742], [-3.4937558575066094, 50.547836532468956], [-3.4951764598972583, 50.54766187714655], [-3.495589210062499, 50.54777952462697]]]}}, {"type": "Feature", "properties": {"type": "postcode-cell", "postcode": "TQ14 8SW", "postcodes": ["TQ14 8SW"]}, "geometry": {"type": "Polygon", "coordinates": [[[-3.495107486454321, 50.54665515010398], [-3.494784597171799, 50.54689673302577], [-3.4944909328442164, 50.54662588174697], [-3.4949437637859586, 50.54651377484428], [-3.495107486454321, 50.54665515010398]]]}}, {"type": "Feature", "properties": {"type": "postcode-cell", "postcode": "TQ14 8SN", "postcodes": ["TQ14 8SN"]}, "geometry": {"type": "Polygon", "coordinates": [[[-3.4944041001858945, 50.5470139543728], [-3.4939387143165344, 50.54710510495417], [-3.4940299898096234, 50.546739994606284], [-3.494391402791136, 50.546650521996305], [-3.4944041001858945, 50.5470139543728]]]}}, {"type": "Feature", "properties": {"type": "postcode-cell", "postcode": "TQ14 8SL", "postcodes": ["TQ14 8SL"]}, "geometry": {"type": "Polygon", "coordinates": [[[-3.494826852347652, 50.547160299210525], [-3.4944041001858945, 50.5470139543728], [-3.494391402791136, 50.546650521996305], [-3.4944909328442164, 50.54662588174697], [-3.494784597171799, 50.54689673302577], [-3.494826852347652, 50.547160299210525]]]}}]}