{"type": "FeatureCollection", "features": [{"type": "Feature", "properties": {"type": "ward-outline", "name": "Teignmouth East"}, "geometry": {"type": "Polygon", "coordinates": [[[-3.47735, 50.56044], [-3.47736, 50.56044], [-3.48177, 50.55638], [-3.48282, 50.55513], [-3.48276, 50.55487], [-3.48315, 50.55446], [-3.48437, 50.55367], [-3.48537, 50.55323], [-3.48642, 50.55237], [-3.48645, 50.55231], [-3.48656, 50.55224], [-3.49644, 50.5425], [-3.49943, 50.54122], [-3.49982, 50.54054], [-3.50067, 50.54071], [-3.49888, 50.54223], [-3.49834, 50.54347], [-3.49858, 50.54433], [-3.49905, 50.54457], [-3.49878, 50.54485], [-3.49953, 50.54484], [-3.49933, 50.54524], [-3.49986, 50.54502], [-3.50106, 50.54592], [-3.50128, 50.54593], [-3.50075, 50.54649], [-3.50032, 50.54641], [-3.49909, 50.54559], [-3.49763, 50.54573], [-3.49732, 50.54629], [-3.49609, 50.54623], [-3.49403, 50.54674], [-3.49366, 50.54822], [-3.49559, 50.55079], [-3.49993, 50.55369], [-3.49639, 50.55762], [-3.49644, 50.55827], [-3.49763, 50.55801], [-3.49859, 50.55963], [-3.49915, 50.56196], [-3.49919, 50.56272], [-3.49864, 50.56275], [-3.49897, 50.56458], [-3.50167, 50.56504], [-3.50531, 50.56647], [-3.50216, 50.56688], [-3.49886, 50.56877], [-3.4934, 50.57116], [-3.48719, 50.57222], [-3.48309, 50.57333], [-3.48415, 50.56957], [-3.483, 50.56943], [-3.48076, 50.56836], [-3.48424, 50.56721], [-3.48519, 50.56641], [-3.48396, 50.56631], [-3.48368, 50.56557], [-3.48378, 50.56489], [-3.48517, 50.5643], [-3.48491, 50.5637], [-3.48407, 50.56365], [-3.48545, 50.56073], [-3.48427, 50.56011], [-3.48333, 50.5606], [-3.48273, 50.56029], [-3.48205, 50.56093], [-3.48103, 50.56048], [-3.47894, 50.56119], [-3.47735, 50.56044]]]}}, {"type": "Feature", "properties": {"type": "postcode-cell", "postcode": "TQ14 9NT", "postcodes": ["TQ14 9NT"]}, "geometry": {"type": "Polygon", "coordinates": [[[-3.498704612318617, 50.5660097805791], [-3.5004695510917228, 50.56483548430272], [-3.5016699898056145, 50.56503999462027], [-3.505309989807211, 50.56646999462132], [-3.5021599898050395, 50.56687999462171], [-3.5008826124071293, 50.56761161235525], [-3.498704612318617, 50.5660097805791]]]}}, {"type": "Feature", "properties": {"type": "postcode-cell", "postcode": "TQ14 9NR", "postcodes": ["TQ14 9NR"]}, "geometry": {"type": "Polygon", "coordinates": [[[-3.498704612318617, 50.5660097805791], [-3.495404873711332, 50.565881413863686], [-3.4953957624482572, 50.56562060424623], [-3.4972436071938406, 50.56312539880594], [-3.4991744708720827, 50.5624251383974], [-3.499189989805175, 50.56271999461853], [-3.4986399898048144, 50.562749994618564], [-3.4989699898041438, 50.56457999461999], [-3.5004695510917228, 50.56483548430272], [-3.498704612318617, 50.5660097805791]]]}}, {"type": "Feature", "properties": {"type": "postcode-cell", "postcode": "TQ14 8NG", "postcodes": ["TQ14 8NG"]}, "geometry": {"type": "Polygon", "coordinates": [[[-3.4983429581933883, 50.55381685923957], [-3.4978920675919287, 50.55363687682], [-3.4978770035183286, 50.55340861448252], [-3.4988072669152026, 50.55293983830937], [-3.4999299898099756, 50.55368999461153], [-3.4995958377583407, 50.55406099223306], [-3.4983429581933883, 50.55381685923957]]]}}, {"type": "Feature", "properties": {"type": "postcode-cell", "postcode": "TQ14 8NU", "postcodes": ["TQ14 8NU"]}, "geometry": {"type": "Polygon", "coordinates": [[[-3.4978770035183286, 50.55340861448252], [-3.4973574691013622, 50.55283063942601], [-3.4979939033692458, 50.55239636103361], [-3.4988072669152026, 50.55293983830937], [-3.4978770035183286, 50.55340861448252]]]}}, {"type": "Feature", "properties": {"type": "postcode-cell", "postcode": "TQ14 8XP", "postcodes": ["TQ14 8XP", "TQ14 8XZ"]}, "geometry": {"type": "Polygon", "coordinates": [[[-3.498200690816749, 50.54301524743284], [-3.498353357633563, 50.54168091074348], [-3.4994299898156562, 50.54121999460191], [-3.4998199898162268, 50.54053999460139], [-3.5006699898166764, 50.54070999460148], [-3.4988799898148253, 50.5422299946027], [-3.4984775874664673, 50.54315403589762], [-3.498200690816749, 50.54301524743284]]]}}, {"type": "Feature", "properties": {"type": "postcode-cell", "postcode": "TQ14 8AQ", "postcodes": ["TQ14 8AQ"]}, "geometry": {"type": "Polygon", "coordinates": [[[-3.498200690816749, 50.54301524743284], [-3.497764993486724, 50.54310210990661], [-3.497471893625689, 50.54205825956334], [-3.498353357633563, 50.54168091074348], [-3.498200690816749, 50.54301524743284]]]}}, {"type": "Feature", "properties": {"type": "postcode-cell", "postcode": "TQ14 8ER", "postcodes": ["TQ14 8ER"]}, "geometry": {"type": "Polygon", "coordinates": [[[-3.4979928834450247, 50.545659204724316], [-3.4986722086770676, 50.545228493344055], [-3.4993874934940488, 50.54512498795917], [-3.499329989813661, 50.545239994605005], [-3.499724560543164, 50.545076210950725], [-3.4999009160932557, 50.5450506900925], [-3.5010599898144155, 50.5459199946055], [-3.5012799898145475, 50.5459299946055], [-3.500749989813948, 50.54648999460595], [-3.5003199898137183, 50.5464099946059], [-3.4990899898133416, 50.54558999460527], [-3.4979807153908373, 50.54569636512882], [-3.4979928834450247, 50.545659204724316]]]}}, {"type": "Feature", "properties": {"type": "postcode-cell", "postcode": "TQ14 8DB", "postcodes": ["TQ14 8DB"]}, "geometry": {"type": "MultiPolygon", "coordinates": [[[[-3.499724560543164, 50.545076210950725], [-3.499850323740955, 50.5450240069768], [-3.499867151037606, 50.5450253656626], [-3.4999009160932557, 50.5450506900925], [-3.499724560543164, 50.545076210950725]]], [[[-3.4986722086770676, 50.545228493344055], [-3.497776304045187, 50.54511160725534], [-3.4976758756504114, 50.545051305261865], [-3.497930472395753, 50.544868975977785], [-3.499453985177689, 50.54499200469932], [-3.4993874934940488, 50.54512498795917], [-3.4986722086770676, 50.545228493344055]]]]}}, {"type": "Feature", "properties": {"type": "postcode-cell", "postcode": "TQ14 8DA", "postcodes": ["TQ14 8DA"]}, "geometry": {"type": "MultiPolygon", "coordinates": [[[[-3.499850323740955, 50.5450240069768], [-3.499859989814098, 50.54501999460482], [-3.499867151037606, 50.5450253656626], [-3.499850323740955, 50.5450240069768]]], [[[-3.497930472395753, 50.544868975977785], [-3.4979801917193183, 50.54478391015882], [-3.4983322378466473, 50.54457610407369], [-3.498981716136431, 50.54453513172188], [-3.499049989813807, 50.544569994604494], [-3.4987799898135035, 50.54484999460471], [-3.499529989813979, 50.54483999460471], [-3.499453985177689, 50.54499200469932], [-3.497930472395753, 50.544868975977785]]]]}}, {"type": "Feature", "properties": {"type": "postcode-cell", "postcode": "TQ14 8BX", "postcodes": ["TQ14 8BX"]}, "geometry": {"type": "Polygon", "coordinates": [[[-3.4977585857558497, 50.544203561256595], [-3.49791360396883, 50.54394184732829], [-3.498455560539158, 50.54388412717518], [-3.4985462552448308, 50.54420911440177], [-3.4977585857558497, 50.544203561256595]]]}}, {"type": "Feature", "properties": {"type": "postcode-cell", "postcode": "TQ14 8BU", "postcodes": ["TQ14 8BU"]}, "geometry": {"type": "Polygon", "coordinates": [[[-3.4983322378466473, 50.54457610407369], [-3.4979801917193183, 50.54478391015882], [-3.4975668633233643, 50.54430569829904], [-3.4976107968507395, 50.54426756756425], [-3.4976880122308445, 50.54424763711037], [-3.4983322378466473, 50.54457610407369]]]}}, {"type": "Feature", "properties": {"type": "postcode-cell", "postcode": "TQ14 8BY", "postcodes": ["TQ14 8BY"]}, "geometry": {"type": "Polygon", "coordinates": [[[-3.4976880122308445, 50.54424763711037], [-3.4977585857558497, 50.544203561256595], [-3.4985462552448308, 50.54420911440177], [-3.498579989813627, 50.54432999460431], [-3.498981716136431, 50.54453513172188], [-3.4983322378466473, 50.54457610407369], [-3.4976880122308445, 50.54424763711037]]]}}, {"type": "Feature", "properties": {"type": "postcode-cell", "postcode": "TQ14 8DE", "postcodes": ["TQ14 8DE"]}, "geometry": {"type": "Polygon", "coordinates": [[[-3.4979928834450247, 50.545659204724316], [-3.497776304045187, 50.54511160725534], [-3.4986722086770676, 50.545228493344055], [-3.4979928834450247, 50.545659204724316]]]}}, {"type": "Feature", "properties": {"type": "postcode-cell", "postcode": "TQ14 8BA", "postcodes": ["TQ14 8BA"]}, "geometry": {"type": "Polygon", "coordinates": [[[-3.4976880122308445, 50.54424763711037], [-3.4976107968507395, 50.54426756756425], [-3.4967813529017073, 50.54361021612197], [-3.4977949227542457, 50.543714922631075], [-3.49791360396883, 50.54394184732829], [-3.4977585857558497, 50.544203561256595], [-3.4976880122308445, 50.54424763711037]]]}}, {"type": "Feature", "properties": {"type": "postcode-cell", "postcode": "TQ14 8BZ", "postcodes": ["TQ14 8BZ"]}, "geometry": {"type": "Polygon", "coordinates": [[[-3.497930472395753, 50.544868975977785], [-3.4976758756504114, 50.545051305261865], [-3.497362563014598, 50.5450366959392], [-3.4973235426582594, 50.54499544679686], [-3.497469306744648, 50.54435517498435], [-3.4975668633233643, 50.54430569829904], [-3.4979801917193183, 50.54478391015882], [-3.497930472395753, 50.544868975977785]]]}}, {"type": "Feature", "properties": {"type": "postcode-cell", "postcode": "TQ14 8BT", "postcodes": ["TQ14 8BT"]}, "geometry": {"type": "Polygon", "coordinates": [[[-3.4983590857862654, 50.54353842305215], [-3.498455560539158, 50.54388412717518], [-3.49791360396883, 50.54394184732829], [-3.4977949227542457, 50.543714922631075], [-3.497992515948926, 50.5435532372002], [-3.4983590857862654, 50.54353842305215]]]}}, {"type": "Feature", "properties": {"type": "postcode-cell", "postcode": "TQ14 8BS", "postcodes": ["TQ14 8BS"]}, "geometry": {"type": "Polygon", "coordinates": [[[-3.497992515948926, 50.5435532372002], [-3.4977611669341586, 50.54326491813571], [-3.49776198982709, 50.54326333697454], [-3.4984330903805345, 50.543256212831714], [-3.498339989813891, 50.54346999460366], [-3.4983590857862654, 50.54353842305215], [-3.497992515948926, 50.5435532372002]]]}}, {"type": "Feature", "properties": {"type": "postcode-cell", "postcode": "TQ14 8BP", "postcodes": ["TQ14 8BP"]}, "geometry": {"type": "Polygon", "coordinates": [[[-3.4984775874664673, 50.54315403589762], [-3.4984330903805345, 50.543256212831714], [-3.49776198982709, 50.54326333697454], [-3.4977619898270134, 50.54310589876245], [-3.497764993486724, 50.54310210990661], [-3.498200690816749, 50.54301524743284], [-3.4984775874664673, 50.54315403589762]]]}}, {"type": "Feature", "properties": {"type": "postcode-cell", "postcode": "TQ14 8BL", "postcodes": ["TQ14 8BL"]}, "geometry": {"type": "Polygon", "coordinates": [[[-3.4977611669341586, 50.54326491813571], [-3.4967157457454476, 50.543586009044475], [-3.4955191608687084, 50.54340797856189], [-3.495990973697269, 50.54294275244476], [-3.4977619898270134, 50.54310589876245], [-3.49776198982709, 50.54326333697454], [-3.4977611669341586, 50.54326491813571]]]}}, {"type": "Feature", "properties": {"type": "postcode-cell", "postcode": "TQ14 8DD", "postcodes": ["TQ14 8DD"]}, "geometry": {"type": "Polygon", "coordinates": [[[-3.4979807153908373, 50.54569636512882], [-3.4976299898123613, 50.545729994605416], [-3.4976016751868335, 50.54578114418134], [-3.4972741242788095, 50.54567182412312], [-3.4971521177701685, 50.54524341232962], [-3.497362563014598, 50.5450366959392], [-3.4976758756504114, 50.545051305261865], [-3.497776304045187, 50.54511160725534], [-3.4979928834450247, 50.545659204724316], [-3.4979807153908373, 50.54569636512882]]]}}, {"type": "Feature", "properties": {"type": "postcode-cell", "postcode": "TQ14 8RT", "postcodes": ["TQ14 8RT"]}, "geometry": {"type": "Polygon", "coordinates": [[[-3.4965117737506684, 50.55937020560457], [-3.4964275859124943, 50.559257949634784], [-3.4970699251104347, 50.558685872105684], [-3.497868324428886, 50.558412195651535], [-3.4985899898062827, 50.55962999461615], [-3.498618345021925, 50.559747978430664], [-3.4965117737506684, 50.55937020560457]]]}}, {"type": "Feature", "properties": {"type": "postcode-cell", "postcode": "TQ14 8NT", "postcodes": ["TQ14 8NT"]}, "geometry": {"type": "Polygon", "coordinates": [[[-3.4977246927080428, 50.55497065035621], [-3.4983429581933883, 50.55381685923957], [-3.4995958377583407, 50.55406099223306], [-3.4984964272334933, 50.555281582837864], [-3.4977246927080428, 50.55497065035621]]]}}, {"type": "Feature", "properties": {"type": "postcode-cell", "postcode": "TQ14 8RZ", "postcodes": ["TQ14 8RZ"]}, "geometry": {"type": "Polygon", "coordinates": [[[-3.498798897758329, 50.56179746586822], [-3.498409434259265, 50.561546692275826], [-3.4978486750361024, 50.5604327556407], [-3.497914718710915, 50.56032264892599], [-3.4986491225494807, 50.55987604058599], [-3.4991250259429627, 50.561856132313096], [-3.498798897758329, 50.56179746586822]]]}}, {"type": "Feature", "properties": {"type": "postcode-cell", "postcode": "TQ14 8BW", "postcodes": ["TQ14 8BW"]}, "geometry": {"type": "Polygon", "coordinates": [[[-3.497992515948926, 50.5435532372002], [-3.4977949227542457, 50.543714922631075], [-3.4967813529017073, 50.54361021612197], [-3.4967157457454476, 50.543586009044475], [-3.4977611669341586, 50.54326491813571], [-3.497992515948926, 50.5435532372002]]]}}, {"type": "Feature", "properties": {"type": "postcode-cell", "postcode": "TQ14 8JZ", "postcodes": ["TQ14 8JZ"]}, "geometry": {"type": "Polygon", "coordinates": [[[-3.4978920675919287, 50.55363687682], [-3.496632303853937, 50.55410321751187], [-3.49620414506495, 50.55406895686267], [-3.4956073886319885, 50.5536322194014], [-3.4966166107981165, 50.552735171629735], [-3.4973574691013622, 50.55283063942601], [-3.4978770035183286, 50.55340861448252], [-3.4978920675919287, 50.55363687682]]]}}, {"type": "Feature", "properties": {"type": "postcode-cell", "postcode": "TQ14 8NR", "postcodes": ["TQ14 8NR"]}, "geometry": {"type": "Polygon", "coordinates": [[[-3.4983429581933883, 50.55381685923957], [-3.4977246927080428, 50.55497065035621], [-3.497612784066647, 50.554947073646936], [-3.496632303853937, 50.55410321751187], [-3.4978920675919287, 50.55363687682], [-3.4983429581933883, 50.55381685923957]]]}}, {"type": "Feature", "properties": {"type": "postcode-cell", "postcode": "TQ14 9NS", "postcodes": ["TQ14 9NS"]}, "geometry": {"type": "Polygon", "coordinates": [[[-3.4912435939443593, 50.56761618185033], [-3.495404873711332, 50.565881413863686], [-3.498704612318617, 50.5660097805791], [-3.5008826124071293, 50.56761161235525], [-3.4988599898020634, 50.56876999462324], [-3.4933999897974943, 50.5711599946252], [-3.4915914214760795, 50.5714687425268], [-3.4912435939443593, 50.56761618185033]]]}}, {"type": "Feature", "properties": {"type": "postcode-cell", "postcode": "TQ14 8BJ", "postcodes": ["TQ14 8BJ"]}, "geometry": {"type": "Polygon", "coordinates": [[[-3.4975668633233643, 50.54430569829904], [-3.497469306744648, 50.54435517498435], [-3.496784434728884, 50.54438911688155], [-3.495322454699598, 50.543601935388324], [-3.4955191608687084, 50.54340797856189], [-3.4967157457454476, 50.543586009044475], [-3.4967813529017073, 50.54361021612197], [-3.4976107968507395, 50.54426756756425], [-3.4975668633233643, 50.54430569829904]]]}}, {"type": "Feature", "properties": {"type": "postcode-cell", "postcode": "TQ14 8EP", "postcodes": ["TQ14 8EP"]}, "geometry": {"type": "Polygon", "coordinates": [[[-3.497083955868205, 50.546218934423074], [-3.4970644320304243, 50.54573539655489], [-3.4972741242788095, 50.54567182412312], [-3.4976016751868335, 50.54578114418134], [-3.4973199898118987, 50.54628999460584], [-3.4971418213254704, 50.546281304275325], [-3.497083955868205, 50.546218934423074]]]}}, {"type": "Feature", "properties": {"type": "postcode-cell", "postcode": "TQ14 8BN", "postcodes": ["TQ14 8BN"]}, "geometry": {"type": "Polygon", "coordinates": [[[-3.497764993486724, 50.54310210990661], [-3.4977619898270134, 50.54310589876245], [-3.495990973697269, 50.54294275244476], [-3.496439989813169, 50.54249999460294], [-3.497471893625689, 50.54205825956334], [-3.497764993486724, 50.54310210990661]]]}}, {"type": "Feature", "properties": {"type": "postcode-cell", "postcode": "TQ14 8AE", "postcodes": ["TQ14 8AE"]}, "geometry": {"type": "Polygon", "coordinates": [[[-3.4973235426582594, 50.54499544679686], [-3.4967698320849365, 50.54478221967471], [-3.496784434728884, 50.54438911688155], [-3.497469306744648, 50.54435517498435], [-3.4973235426582594, 50.54499544679686]]]}}, {"type": "Feature", "properties": {"type": "postcode-cell", "postcode": "TQ14 8AD", "postcodes": ["TQ14 8AD"]}, "geometry": {"type": "Polygon", "coordinates": [[[-3.497362563014598, 50.5450366959392], [-3.4971521177701685, 50.54524341232962], [-3.4968593486790382, 50.54527894896471], [-3.4964165710051107, 50.54511963410288], [-3.496497920651489, 50.5448403271608], [-3.4967698320849365, 50.54478221967471], [-3.4973235426582594, 50.54499544679686], [-3.497362563014598, 50.5450366959392]]]}}, {"type": "Feature", "properties": {"type": "postcode-cell", "postcode": "TQ14 8LW", "postcodes": ["TQ14 8LW"]}, "geometry": {"type": "Polygon", "coordinates": [[[-3.4973574691013622, 50.55283063942601], [-3.4966166107981165, 50.552735171629735], [-3.4961913912410805, 50.55216331981966], [-3.4961882163398648, 50.55201783166676], [-3.4968188895850463, 50.55161120201671], [-3.4979939033692458, 50.55239636103361], [-3.4973574691013622, 50.55283063942601]]]}}, {"type": "Feature", "properties": {"type": "postcode-cell", "postcode": "TQ14 8RN", "postcodes": ["TQ14 8RN"]}, "geometry": {"type": "Polygon", "coordinates": [[[-3.4991250259429627, 50.561856132313096], [-3.4991499898055145, 50.56195999461794], [-3.4991744708720827, 50.5624251383974], [-3.4972436071938406, 50.56312539880594], [-3.4972423429199404, 50.56235041144139], [-3.497498413860824, 50.56213235072075], [-3.498798897758329, 50.56179746586822], [-3.4991250259429627, 50.561856132313096]]]}}, {"type": "Feature", "properties": {"type": "postcode-cell", "postcode": "TQ14 8BB", "postcodes": ["TQ14 8BB"]}, "geometry": {"type": "Polygon", "coordinates": [[[-3.4952670525186, 50.5443920216035], [-3.4938877347701234, 50.54501654472261], [-3.495270913313577, 50.5436527560703], [-3.4952670525186, 50.5443920216035]]]}}, {"type": "Feature", "properties": {"type": "postcode-cell", "postcode": "TQ14 8RW", "postcodes": ["TQ14 8RW"]}, "geometry": {"type": "Polygon", "coordinates": [[[-3.498798897758329, 50.56179746586822], [-3.497498413860824, 50.56213235072075], [-3.4967778909734815, 50.56131274799601], [-3.498409434259265, 50.561546692275826], [-3.498798897758329, 50.56179746586822]]]}}, {"type": "Feature", "properties": {"type": "postcode-cell", "postcode": "TQ14 8RP", "postcodes": ["TQ14 8RP"]}, "geometry": {"type": "Polygon", "coordinates": [[[-3.498409434259265, 50.561546692275826], [-3.4967778909734815, 50.56131274799601], [-3.4965750835456637, 50.56122255311653], [-3.4978486750361024, 50.5604327556407], [-3.498409434259265, 50.561546692275826]]]}}, {"type": "Feature", "properties": {"type": "postcode-cell", "postcode": "TQ14 8RL", "postcodes": ["TQ14 8RL"]}, "geometry": {"type": "Polygon", "coordinates": [[[-3.4972436071938406, 50.56312539880594], [-3.4953957624482572, 50.56562060424623], [-3.494324285319743, 50.5629228548048], [-3.4960702057681305, 50.56198313071014], [-3.4972423429199404, 50.56235041144139], [-3.4972436071938406, 50.56312539880594]]]}}, {"type": "Feature", "properties": {"type": "postcode-cell", "postcode": "TQ14 9NP", "postcodes": ["TQ14 9NP"]}, "geometry": {"type": "Polygon", "coordinates": [[[-3.4912435939443593, 50.56761618185033], [-3.4888693836036615, 50.566494055069725], [-3.488985068717458, 50.56193709911404], [-3.4904756992869923, 50.561654744458295], [-3.4937903340793173, 50.56243919720578], [-3.494324285319743, 50.5629228548048], [-3.4953957624482572, 50.56562060424623], [-3.495404873711332, 50.565881413863686], [-3.4912435939443593, 50.56761618185033]]]}}, {"type": "Feature", "properties": {"type": "postcode-cell", "postcode": "TQ14 8NJ", "postcodes": ["TQ14 8NJ"]}, "geometry": {"type": "Polygon", "coordinates": [[[-3.4977246927080428, 50.55497065035621], [-3.4984964272334933, 50.555281582837864], [-3.497563823802498, 50.55631692343028], [-3.4963809698356383, 50.555393107147864], [-3.497612784066647, 50.554947073646936], [-3.4977246927080428, 50.55497065035621]]]}}, {"type": "Feature", "properties": {"type": "postcode-cell", "postcode": "TQ14 8LF", "postcodes": ["TQ14 8LF"]}, "geometry": {"type": "Polygon", "coordinates": [[[-3.4961882163398648, 50.55201783166676], [-3.4949335417033915, 50.551641999078164], [-3.4947502447332615, 50.551311004528884], [-3.4948712145384615, 50.55103367896696], [-3.495577818963115, 50.55077378883052], [-3.4955899898086518, 50.55078999460938], [-3.4968188895850463, 50.55161120201671], [-3.4961882163398648, 50.55201783166676]]]}}, {"type": "Feature", "properties": {"type": "postcode-cell", "postcode": "TQ14 8AF", "postcodes": ["TQ14 8AF"]}, "geometry": {"type": "Polygon", "coordinates": [[[-3.4972741242788095, 50.54567182412312], [-3.4970644320304243, 50.54573539655489], [-3.4968241750586704, 50.54576869508415], [-3.4967355222410195, 50.54576446934172], [-3.49660420256161, 50.54544180479633], [-3.4968593486790382, 50.54527894896471], [-3.4971521177701685, 50.54524341232962], [-3.4972741242788095, 50.54567182412312]]]}}, {"type": "Feature", "properties": {"type": "postcode-cell", "postcode": "TQ14 8BR", "postcodes": ["TQ14 8BR"]}, "geometry": {"type": "Polygon", "coordinates": [[[-3.496784434728884, 50.54438911688155], [-3.4967698320849365, 50.54478221967471], [-3.496497920651489, 50.5448403271608], [-3.495365036241487, 50.544561334284424], [-3.4952670525186, 50.5443920216035], [-3.495270913313577, 50.5436527560703], [-3.495322454699598, 50.543601935388324], [-3.496784434728884, 50.54438911688155]]]}}, {"type": "Feature", "properties": {"type": "postcode-cell", "postcode": "TQ14 8FU", "postcodes": ["TQ14 8FU"]}, "geometry": {"type": "Polygon", "coordinates": [[[-3.497083955868205, 50.546218934423074], [-3.4969013304636483, 50.54610074891854], [-3.4968241750586704, 50.54576869508415], [-3.4970644320304243, 50.54573539655489], [-3.497083955868205, 50.546218934423074]]]}}, {"type": "Feature", "properties": {"type": "postcode-cell", "postcode": "TQ14 8RH", "postcodes": ["TQ14 8RH"]}, "geometry": {"type": "Polygon", "coordinates": [[[-3.4967778909734815, 50.56131274799601], [-3.497498413860824, 50.56213235072075], [-3.4972423429199404, 50.56235041144139], [-3.4960702057681305, 50.56198313071014], [-3.4964102750821118, 50.56123270899307], [-3.4965750835456637, 50.56122255311653], [-3.4967778909734815, 50.56131274799601]]]}}, {"type": "Feature", "properties": {"type": "postcode-cell", "postcode": "TQ14 8AL", "postcodes": ["TQ14 8AL"]}, "geometry": {"type": "Polygon", "coordinates": [[[-3.4971418213254704, 50.546281304275325], [-3.4963166255277156, 50.54624105099575], [-3.4964825153751233, 50.546040940875386], [-3.4969013304636483, 50.54610074891854], [-3.497083955868205, 50.546218934423074], [-3.4971418213254704, 50.546281304275325]]]}}, {"type": "Feature", "properties": {"type": "postcode-cell", "postcode": "TQ14 8RS", "postcodes": ["TQ14 8RS"]}, "geometry": {"type": "Polygon", "coordinates": [[[-3.497914718710915, 50.56032264892599], [-3.4963697071627458, 50.560106893660716], [-3.4961714311599597, 50.55998015333049], [-3.4965117737506684, 50.55937020560457], [-3.498618345021925, 50.559747978430664], [-3.4986491225494807, 50.55987604058599], [-3.497914718710915, 50.56032264892599]]]}}, {"type": "Feature", "properties": {"type": "postcode-cell", "postcode": "TQ14 8AH", "postcodes": ["TQ14 8AH"]}, "geometry": {"type": "Polygon", "coordinates": [[[-3.4969013304636483, 50.54610074891854], [-3.4964825153751233, 50.546040940875386], [-3.4965083345694916, 50.54582941221544], [-3.4967355222410195, 50.54576446934172], [-3.4968241750586704, 50.54576869508415], [-3.4969013304636483, 50.54610074891854]]]}}, {"type": "Feature", "properties": {"type": "postcode-cell", "postcode": "TQ14 8NL", "postcodes": ["TQ14 8NL"]}, "geometry": {"type": "Polygon", "coordinates": [[[-3.4963809698356383, 50.555393107147864], [-3.4961032548425592, 50.55537212969475], [-3.496145798221003, 50.55415237564666], [-3.49620414506495, 50.55406895686267], [-3.496632303853937, 50.55410321751187], [-3.497612784066647, 50.554947073646936], [-3.4963809698356383, 50.555393107147864]]]}}, {"type": "Feature", "properties": {"type": "postcode-cell", "postcode": "TQ14 8RR", "postcodes": ["TQ14 8RR"]}, "geometry": {"type": "Polygon", "coordinates": [[[-3.4978486750361024, 50.5604327556407], [-3.4965750835456637, 50.56122255311653], [-3.4964102750821118, 50.56123270899307], [-3.496382035352381, 50.561220155396455], [-3.4962010981188354, 50.56107501789773], [-3.4963697071627458, 50.560106893660716], [-3.497914718710915, 50.56032264892599], [-3.4978486750361024, 50.5604327556407]]]}}, {"type": "Feature", "properties": {"type": "postcode-cell", "postcode": "TQ14 8FQ", "postcodes": ["TQ14 8FQ"]}, "geometry": {"type": "Polygon", "coordinates": [[[-3.49660420256161, 50.54544180479633], [-3.496044302923344, 50.54544893288266], [-3.4958561477647123, 50.54531788941991], [-3.4964165710051107, 50.54511963410288], [-3.4968593486790382, 50.54527894896471], [-3.49660420256161, 50.54544180479633]]]}}, {"type": "Feature", "properties": {"type": "postcode-cell", "postcode": "TQ14 8AB", "postcodes": ["TQ14 8AB"]}, "geometry": {"type": "Polygon", "coordinates": [[[-3.4965083345694916, 50.54582941221544], [-3.496160449553233, 50.54573187690067], [-3.496044302923344, 50.54544893288266], [-3.49660420256161, 50.54544180479633], [-3.4967355222410195, 50.54576446934172], [-3.4965083345694916, 50.54582941221544]]]}}, {"type": "Feature", "properties": {"type": "postcode-cell", "postcode": "TQ14 8UE", "postcodes": ["TQ14 8UE"]}, "geometry": {"type": "Polygon", "coordinates": [[[-3.4970699251104347, 50.558685872105684], [-3.4958492974302295, 50.558393058245905], [-3.4956792168398896, 50.55825113975199], [-3.496370570795717, 50.55757119417123], [-3.4964563636956334, 50.557546315278906], [-3.4963899898058712, 50.55761999461465], [-3.49643998980559, 50.55826999461516], [-3.497629989806459, 50.55800999461492], [-3.497868324428886, 50.558412195651535], [-3.4970699251104347, 50.558685872105684]]]}}, {"type": "Feature", "properties": {"type": "postcode-cell", "postcode": "TQ14 8AP", "postcodes": ["TQ14 8AP"]}, "geometry": {"type": "Polygon", "coordinates": [[[-3.495492169179793, 50.54629534374515], [-3.4953700899294384, 50.54598342674756], [-3.49567224597988, 50.54587018522453], [-3.495891373235927, 50.546279168729875], [-3.4955828105427726, 50.54635556279212], [-3.495492169179793, 50.54629534374515]]]}}, {"type": "Feature", "properties": {"type": "postcode-cell", "postcode": "TQ14 8AG", "postcodes": ["TQ14 8AG"]}, "geometry": {"type": "Polygon", "coordinates": [[[-3.496101111481634, 50.54576986145419], [-3.496160449553233, 50.54573187690067], [-3.4965083345694916, 50.54582941221544], [-3.4964825153751233, 50.546040940875386], [-3.4963166255277156, 50.54624105099575], [-3.4960899898111575, 50.54622999460584], [-3.495947663204722, 50.54626523232482], [-3.496101111481634, 50.54576986145419]]]}}, {"type": "Feature", "properties": {"type": "postcode-cell", "postcode": "TQ14 8BG", "postcodes": ["TQ14 8BG"]}, "geometry": {"type": "Polygon", "coordinates": [[[-3.4952147290938465, 50.545910306499906], [-3.4948865752571083, 50.545940013652945], [-3.494487713506497, 50.54581647736408], [-3.4942971950024733, 50.54557659544843], [-3.4953408603490175, 50.54525152926452], [-3.4954326141122127, 50.54563187761983], [-3.4952147290938465, 50.545910306499906]]]}}, {"type": "Feature", "properties": {"type": "postcode-cell", "postcode": "TQ14 8AR", "postcodes": ["TQ14 8AR"]}, "geometry": {"type": "Polygon", "coordinates": [[[-3.4954326141122127, 50.54563187761983], [-3.4956819917376474, 50.54584727695279], [-3.49567224597988, 50.54587018522453], [-3.4953700899294384, 50.54598342674756], [-3.4952147290938465, 50.545910306499906], [-3.4954326141122127, 50.54563187761983]]]}}, {"type": "Feature", "properties": {"type": "postcode-cell", "postcode": "TQ14 8BQ", "postcodes": ["TQ14 8BQ"]}, "geometry": {"type": "Polygon", "coordinates": [[[-3.4958561477647123, 50.54531788941991], [-3.4954032303470286, 50.545206303079496], [-3.495365036241487, 50.544561334284424], [-3.496497920651489, 50.5448403271608], [-3.4964165710051107, 50.54511963410288], [-3.4958561477647123, 50.54531788941991]]]}}, {"type": "Feature", "properties": {"type": "postcode-cell", "postcode": "TQ14 4AR", "postcodes": ["TQ14 4AR", "TQ14 4AS", "TQ14 4BH", "TQ14 4BJ", "TQ14 4BL", "TQ14 4BN", "TQ14 4BP", "TQ14 4BX", "TQ14 4BY", "TQ14 8AA", "TQ14 8HZ", "TQ14 8XL"]}, "geometry": {"type": "Polygon", "coordinates": [[[-3.496160449553233, 50.54573187690067], [-3.496101111481634, 50.54576986145419], [-3.4956819917376474, 50.54584727695279], [-3.4954326141122127, 50.54563187761983], [-3.4953408603490175, 50.54525152926452], [-3.4954032303470286, 50.545206303079496], [-3.4958561477647123, 50.54531788941991], [-3.496044302923344, 50.54544893288266], [-3.496160449553233, 50.54573187690067]]]}}, {"type": "Feature", "properties": {"type": "postcode-cell", "postcode": "TQ14 8RG", "postcodes": ["TQ14 8RG"]}, "geometry": {"type": "Polygon", "coordinates": [[[-3.4962010981188354, 50.56107501789773], [-3.49534545221616, 50.560763831643165], [-3.495013268351527, 50.56013169747929], [-3.4951914913266737, 50.560062095189544], [-3.4961714311599597, 50.55998015333049], [-3.4963697071627458, 50.560106893660716], [-3.4962010981188354, 50.56107501789773]]]}}, {"type": "Feature", "properties": {"type": "postcode-cell", "postcode": "TQ14 8LQ", "postcodes": ["TQ14 8LQ"]}, "geometry": {"type": "Polygon", "coordinates": [[[-3.4948712145384615, 50.55103367896696], [-3.4942573238663104, 50.55058537374254], [-3.494296097230596, 50.55049196463383], [-3.4949312011061835, 50.54992270352944], [-3.4949377272762505, 50.54992147328362], [-3.495577818963115, 50.55077378883052], [-3.4948712145384615, 50.55103367896696]]]}}, {"type": "Feature", "properties": {"type": "postcode-cell", "postcode": "TQ14 8RJ", "postcodes": ["TQ14 8RJ"]}, "geometry": {"type": "Polygon", "coordinates": [[[-3.4964102750821118, 50.56123270899307], [-3.4960702057681305, 50.56198313071014], [-3.494324285319743, 50.5629228548048], [-3.4937903340793173, 50.56243919720578], [-3.4941800894418127, 50.561686866172074], [-3.496382035352381, 50.561220155396455], [-3.4964102750821118, 50.56123270899307]]]}}, {"type": "Feature", "properties": {"type": "postcode-cell", "postcode": "TQ14 8WL", "postcodes": ["TQ14 8WL"]}, "geometry": {"type": "Polygon", "coordinates": [[[-3.4964275859124943, 50.559257949634784], [-3.496141368084426, 50.55916945490501], [-3.4958492974302295, 50.558393058245905], [-3.4970699251104347, 50.558685872105684], [-3.4964275859124943, 50.559257949634784]]]}}, {"type": "Feature", "properties": {"type": "postcode-cell", "postcode": "TQ14 8NN", "postcodes": ["TQ14 8NN"]}, "geometry": {"type": "Polygon", "coordinates": [[[-3.497563823802498, 50.55631692343028], [-3.4971216658747113, 50.55680777194313], [-3.4958280945175364, 50.556373057851175], [-3.495871195810605, 50.555463469356845], [-3.495909024579848, 50.55543183155813], [-3.4961032548425592, 50.55537212969475], [-3.4963809698356383, 50.555393107147864], [-3.497563823802498, 50.55631692343028]]]}}, {"type": "Feature", "properties": {"type": "postcode-cell", "postcode": "TQ14 8WE", "postcodes": ["TQ14 8WE"]}, "geometry": {"type": "Polygon", "coordinates": [[[-3.4965117737506684, 50.55937020560457], [-3.4961714311599597, 50.55998015333049], [-3.4951914913266737, 50.560062095189544], [-3.495456333828852, 50.55922210790494], [-3.496141368084426, 50.55916945490501], [-3.4964275859124943, 50.559257949634784], [-3.4965117737506684, 50.55937020560457]]]}}, {"type": "Feature", "properties": {"type": "postcode-cell", "postcode": "TQ14 8LB", "postcodes": ["TQ14 8LB"]}, "geometry": {"type": "Polygon", "coordinates": [[[-3.4966166107981165, 50.552735171629735], [-3.4956073886319885, 50.5536322194014], [-3.49524378030653, 50.553575818057716], [-3.4948655942045717, 50.55321242664487], [-3.4948302371349205, 50.55273426418205], [-3.4961913912410805, 50.55216331981966], [-3.4966166107981165, 50.552735171629735]]]}}, {"type": "Feature", "properties": {"type": "postcode-cell", "postcode": "TQ14 8HH", "postcodes": ["TQ14 8HH"]}, "geometry": {"type": "Polygon", "coordinates": [[[-3.494814489288026, 50.54647995463949], [-3.494852926814267, 50.54629469984802], [-3.4950662944512847, 50.546184099055154], [-3.495492169179793, 50.54629534374515], [-3.4955828105427726, 50.54635556279212], [-3.4948393602013135, 50.54653962213778], [-3.494814489288026, 50.54647995463949]]]}}, {"type": "Feature", "properties": {"type": "postcode-cell", "postcode": "TQ14 8XQ", "postcodes": ["TQ14 8XQ"]}, "geometry": {"type": "Polygon", "coordinates": [[[-3.4958492974302295, 50.558393058245905], [-3.496141368084426, 50.55916945490501], [-3.495456333828852, 50.55922210790494], [-3.494429671927079, 50.55879878328792], [-3.494262748566907, 50.55850187700142], [-3.4956792168398896, 50.55825113975199], [-3.4958492974302295, 50.558393058245905]]]}}, {"type": "Feature", "properties": {"type": "postcode-cell", "postcode": "TQ14 8QQ", "postcodes": ["TQ14 8QQ"]}, "geometry": {"type": "Polygon", "coordinates": [[[-3.496370570795717, 50.55757119417123], [-3.4953589529214333, 50.55735198641887], [-3.494878010665269, 50.55649040959369], [-3.4948823188767983, 50.556484144225244], [-3.4958280945175364, 50.556373057851175], [-3.4971216658747113, 50.55680777194313], [-3.4964563636956334, 50.557546315278906], [-3.496370570795717, 50.55757119417123]]]}}, {"type": "Feature", "properties": {"type": "postcode-cell", "postcode": "TQ14 8LA", "postcodes": ["TQ14 8LA"]}, "geometry": {"type": "Polygon", "coordinates": [[[-3.496145798221003, 50.55415237564666], [-3.494978431865901, 50.55483417192876], [-3.4948596617261605, 50.55483731935028], [-3.4937315488189613, 50.554320477337065], [-3.4938553853969854, 50.554214820883466], [-3.49524378030653, 50.553575818057716], [-3.4956073886319885, 50.5536322194014], [-3.49620414506495, 50.55406895686267], [-3.496145798221003, 50.55415237564666]]]}}, {"type": "Feature", "properties": {"type": "postcode-cell", "postcode": "TQ14 8AJ", "postcodes": ["TQ14 8AJ"]}, "geometry": {"type": "Polygon", "coordinates": [[[-3.495947663204722, 50.54626523232482], [-3.495891373235927, 50.546279168729875], [-3.49567224597988, 50.54587018522453], [-3.4956819917376474, 50.54584727695279], [-3.496101111481634, 50.54576986145419], [-3.495947663204722, 50.54626523232482]]]}}, {"type": "Feature", "properties": {"type": "postcode-cell", "postcode": "TQ14 8AS", "postcodes": ["TQ14 8AS"]}, "geometry": {"type": "Polygon", "coordinates": [[[-3.495492169179793, 50.54629534374515], [-3.4950662944512847, 50.546184099055154], [-3.4948865752571083, 50.545940013652945], [-3.4952147290938465, 50.545910306499906], [-3.4953700899294384, 50.54598342674756], [-3.495492169179793, 50.54629534374515]]]}}, {"type": "Feature", "properties": {"type": "postcode-cell", "postcode": "TQ14 8PR", "postcodes": ["TQ14 8PR"]}, "geometry": {"type": "Polygon", "coordinates": [[[-3.4961913912410805, 50.55216331981966], [-3.4948302371349205, 50.55273426418205], [-3.494260591183104, 50.552263478157045], [-3.4949335417033915, 50.551641999078164], [-3.4961882163398648, 50.55201783166676], [-3.4961913912410805, 50.55216331981966]]]}}, {"type": "Feature", "properties": {"type": "postcode-cell", "postcode": "TQ14 8RQ", "postcodes": ["TQ14 8RQ"]}, "geometry": {"type": "Polygon", "coordinates": [[[-3.4962010981188354, 50.56107501789773], [-3.496382035352381, 50.561220155396455], [-3.4941800894418127, 50.561686866172074], [-3.4942067388355027, 50.5613477854815], [-3.49534545221616, 50.560763831643165], [-3.4962010981188354, 50.56107501789773]]]}}, {"type": "Feature", "properties": {"type": "postcode-cell", "postcode": "TQ14 8NP", "postcodes": ["TQ14 8NP"]}, "geometry": {"type": "Polygon", "coordinates": [[[-3.4961032548425592, 50.55537212969475], [-3.495909024579848, 50.55543183155813], [-3.494978431865901, 50.55483417192876], [-3.496145798221003, 50.55415237564666], [-3.4961032548425592, 50.55537212969475]]]}}, {"type": "Feature", "properties": {"type": "postcode-cell", "postcode": "TQ14 8BD", "postcodes": ["TQ14 8BD"]}, "geometry": {"type": "Polygon", "coordinates": [[[-3.4954032303470286, 50.545206303079496], [-3.4953408603490175, 50.54525152926452], [-3.4942971950024733, 50.54557659544843], [-3.493486858019819, 50.545411784222864], [-3.4938877347701234, 50.54501654472261], [-3.4952670525186, 50.5443920216035], [-3.495365036241487, 50.544561334284424], [-3.4954032303470286, 50.545206303079496]]]}}, {"type": "Feature", "properties": {"type": "postcode-cell", "postcode": "TQ14 8PL", "postcodes": ["TQ14 8PL"]}, "geometry": {"type": "Polygon", "coordinates": [[[-3.4949312011061835, 50.54992270352944], [-3.4937609346890675, 50.549664917732564], [-3.4936369241334777, 50.54960786347438], [-3.4935719257220472, 50.54936100486951], [-3.4941730659723174, 50.548903241000815], [-3.4949377272762505, 50.54992147328362], [-3.4949312011061835, 50.54992270352944]]]}}, {"type": "Feature", "properties": {"type": "postcode-cell", "postcode": "TQ14 8RB", "postcodes": ["TQ14 8RB"]}, "geometry": {"type": "Polygon", "coordinates": [[[-3.4951914913266737, 50.560062095189544], [-3.495013268351527, 50.56013169747929], [-3.494557425208904, 50.560074014033106], [-3.4941778757044473, 50.559745056864166], [-3.494429671927079, 50.55879878328792], [-3.495456333828852, 50.55922210790494], [-3.4951914913266737, 50.560062095189544]]]}}, {"type": "Feature", "properties": {"type": "postcode-cell", "postcode": "TQ14 8NW", "postcodes": ["TQ14 8NW"]}, "geometry": {"type": "Polygon", "coordinates": [[[-3.4958280945175364, 50.556373057851175], [-3.4948823188767983, 50.556484144225244], [-3.494159412697872, 50.55576285511883], [-3.4942738548838994, 50.55570867860644], [-3.495871195810605, 50.555463469356845], [-3.4958280945175364, 50.556373057851175]]]}}, {"type": "Feature", "properties": {"type": "postcode-cell", "postcode": "TQ14 8NY", "postcodes": ["TQ14 8NY"]}, "geometry": {"type": "Polygon", "coordinates": [[[-3.495871195810605, 50.555463469356845], [-3.4942738548838994, 50.55570867860644], [-3.4948596617261605, 50.55483731935028], [-3.494978431865901, 50.55483417192876], [-3.495909024579848, 50.55543183155813], [-3.495871195810605, 50.555463469356845]]]}}, {"type": "Feature", "properties": {"type": "postcode-cell", "postcode": "TQ14 8QH", "postcodes": ["TQ14 8QH"]}, "geometry": {"type": "Polygon", "coordinates": [[[-3.494262748566907, 50.55850187700142], [-3.4936606594275115, 50.55825344976401], [-3.4940380744670647, 50.557651256991335], [-3.4953589529214333, 50.55735198641887], [-3.496370570795717, 50.55757119417123], [-3.4956792168398896, 50.55825113975199], [-3.494262748566907, 50.55850187700142]]]}}, {"type": "Feature", "properties": {"type": "postcode-cell", "postcode": "TQ14 8AX", "postcodes": ["TQ14 8AX"]}, "geometry": {"type": "Polygon", "coordinates": [[[-3.4950662944512847, 50.546184099055154], [-3.494852926814267, 50.54629469984802], [-3.494444153681644, 50.546080761539834], [-3.494487713506497, 50.54581647736408], [-3.4948865752571083, 50.545940013652945], [-3.4950662944512847, 50.546184099055154]]]}}, {"type": "Feature", "properties": {"type": "postcode-cell", "postcode": "TQ14 8RF", "postcodes": ["TQ14 8RF"]}, "geometry": {"type": "Polygon", "coordinates": [[[-3.4941800894418127, 50.561686866172074], [-3.4937903340793173, 50.56243919720578], [-3.4904756992869923, 50.561654744458295], [-3.4918974314969797, 50.56048716517774], [-3.493697444301722, 50.56070436722505], [-3.4942067388355027, 50.5613477854815], [-3.4941800894418127, 50.561686866172074]]]}}, {"type": "Feature", "properties": {"type": "postcode-cell", "postcode": "TQ14 8PP", "postcodes": ["TQ14 8PP"]}, "geometry": {"type": "Polygon", "coordinates": [[[-3.4949335417033915, 50.551641999078164], [-3.494260591183104, 50.552263478157045], [-3.493537075801134, 50.55229250680053], [-3.4932469082903403, 50.55140914896879], [-3.4947502447332615, 50.551311004528884], [-3.4949335417033915, 50.551641999078164]]]}}, {"type": "Feature", "properties": {"type": "postcode-cell", "postcode": "TQ14 8AY", "postcodes": ["TQ14 8AY"]}, "geometry": {"type": "Polygon", "coordinates": [[[-3.494444153681644, 50.546080761539834], [-3.494402766890344, 50.54613896969679], [-3.493397798079634, 50.54643353900038], [-3.4933038906671303, 50.5464133873854], [-3.4928016467975387, 50.546087341467334], [-3.493486858019819, 50.545411784222864], [-3.4942971950024733, 50.54557659544843], [-3.494487713506497, 50.54581647736408], [-3.494444153681644, 50.546080761539834]]]}}, {"type": "Feature", "properties": {"type": "postcode-cell", "postcode": "TQ14 8AT", "postcodes": ["TQ14 8AT"]}, "geometry": {"type": "Polygon", "coordinates": [[[-3.4948393602013135, 50.54653962213778], [-3.4941204317720427, 50.546717604627204], [-3.4941089240562855, 50.54670928536305], [-3.4944195732892442, 50.54627515501355], [-3.494814489288026, 50.54647995463949], [-3.4948393602013135, 50.54653962213778]]]}}, {"type": "Feature", "properties": {"type": "postcode-cell", "postcode": "TQ14 8QB", "postcodes": ["TQ14 8QB"]}, "geometry": {"type": "Polygon", "coordinates": [[[-3.4953589529214333, 50.55735198641887], [-3.4940380744670647, 50.557651256991335], [-3.493918121316258, 50.55702409780272], [-3.494878010665269, 50.55649040959369], [-3.4953589529214333, 50.55735198641887]]]}}, {"type": "Feature", "properties": {"type": "postcode-cell", "postcode": "TQ14 8FP", "postcodes": ["TQ14 8FP"]}, "geometry": {"type": "Polygon", "coordinates": [[[-3.494814489288026, 50.54647995463949], [-3.4944195732892442, 50.54627515501355], [-3.494402766890344, 50.54613896969679], [-3.494444153681644, 50.546080761539834], [-3.494852926814267, 50.54629469984802], [-3.494814489288026, 50.54647995463949]]]}}, {"type": "Feature", "properties": {"type": "postcode-cell", "postcode": "TQ14 8RD", "postcodes": ["TQ14 8RD"]}, "geometry": {"type": "Polygon", "coordinates": [[[-3.493697444301722, 50.56070436722505], [-3.494557425208904, 50.560074014033106], [-3.495013268351527, 50.56013169747929], [-3.49534545221616, 50.560763831643165], [-3.4942067388355027, 50.5613477854815], [-3.493697444301722, 50.56070436722505]]]}}, {"type": "Feature", "properties": {"type": "postcode-cell", "postcode": "TQ14 8UG", "postcodes": ["TQ14 8UG"]}, "geometry": {"type": "Polygon", "coordinates": [[[-3.494429671927079, 50.55879878328792], [-3.4941778757044473, 50.559745056864166], [-3.492754641570031, 50.559714697163564], [-3.4931197896103763, 50.558300899964024], [-3.4936606594275115, 50.55825344976401], [-3.494262748566907, 50.55850187700142], [-3.494429671927079, 50.55879878328792]]]}}, {"type": "Feature", "properties": {"type": "postcode-cell", "postcode": "TQ14 8PZ", "postcodes": ["TQ14 8PZ"]}, "geometry": {"type": "Polygon", "coordinates": [[[-3.494878010665269, 50.55649040959369], [-3.493918121316258, 50.55702409780272], [-3.4931738039624576, 50.556728597273974], [-3.4940542488301993, 50.55575112272949], [-3.494159412697872, 50.55576285511883], [-3.4948823188767983, 50.556484144225244], [-3.494878010665269, 50.55649040959369]]]}}, {"type": "Feature", "properties": {"type": "postcode-cell", "postcode": "TQ14 8PS", "postcodes": ["TQ14 8PS"]}, "geometry": {"type": "Polygon", "coordinates": [[[-3.4948655942045717, 50.55321242664487], [-3.493374219344008, 50.55308009721391], [-3.493260321970416, 50.55303217691376], [-3.493275248597125, 50.5524388138283], [-3.493537075801134, 50.55229250680053], [-3.494260591183104, 50.552263478157045], [-3.4948302371349205, 50.55273426418205], [-3.4948655942045717, 50.55321242664487]]]}}, {"type": "Feature", "properties": {"type": "postcode-cell", "postcode": "TQ14 8PJ", "postcodes": ["TQ14 8PJ"]}, "geometry": {"type": "Polygon", "coordinates": [[[-3.494296097230596, 50.55049196463383], [-3.4937609346890675, 50.549664917732564], [-3.4949312011061835, 50.54992270352944], [-3.494296097230596, 50.55049196463383]]]}}, {"type": "Feature", "properties": {"type": "postcode-cell", "postcode": "TQ14 8SR", "postcodes": ["TQ14 8SR"]}, "geometry": {"type": "Polygon", "coordinates": [[[-3.4937032981580454, 50.54708516063729], [-3.4939765002509993, 50.5469539584145], [-3.4938765573348385, 50.54735373544455], [-3.4937032981580454, 50.54708516063729]]]}}, {"type": "Feature", "properties": {"type": "postcode-cell", "postcode": "TQ14 8QL", "postcodes": ["TQ14 8QL"]}, "geometry": {"type": "Polygon", "coordinates": [[[-3.494159412697872, 50.55576285511883], [-3.4940542488301993, 50.55575112272949], [-3.493709664307207, 50.55561835912644], [-3.493436315513415, 50.5544069022564], [-3.4937315488189613, 50.554320477337065], [-3.4948596617261605, 50.55483731935028], [-3.4942738548838994, 50.55570867860644], [-3.494159412697872, 50.55576285511883]]]}}, {"type": "Feature", "properties": {"type": "postcode-cell", "postcode": "TQ14 8PW", "postcodes": ["TQ14 8PW"]}, "geometry": {"type": "Polygon", "coordinates": [[[-3.4947502447332615, 50.551311004528884], [-3.4932469082903403, 50.55140914896879], [-3.493173390153705, 50.55137671463229], [-3.493800079705293, 50.55058120353359], [-3.4942573238663104, 50.55058537374254], [-3.4948712145384615, 50.55103367896696], [-3.4947502447332615, 50.551311004528884]]]}}, {"type": "Feature", "properties": {"type": "postcode-cell", "postcode": "TQ14 8AU", "postcodes": ["TQ14 8AU"]}, "geometry": {"type": "Polygon", "coordinates": [[[-3.4944195732892442, 50.54627515501355], [-3.4941089240562855, 50.54670928536305], [-3.493397798079634, 50.54643353900038], [-3.494402766890344, 50.54613896969679], [-3.4944195732892442, 50.54627515501355]]]}}, {"type": "Feature", "properties": {"type": "postcode-cell", "postcode": "TQ14 8QG", "postcodes": ["TQ14 8QG"]}, "geometry": {"type": "Polygon", "coordinates": [[[-3.4936606594275115, 50.55825344976401], [-3.4931197896103763, 50.558300899964024], [-3.4930704766560003, 50.55829122314013], [-3.492242217301419, 50.557349086872364], [-3.4929745812174775, 50.55672457018742], [-3.4931738039624576, 50.556728597273974], [-3.493918121316258, 50.55702409780272], [-3.4940380744670647, 50.557651256991335], [-3.4936606594275115, 50.55825344976401]]]}}, {"type": "Feature", "properties": {"type": "postcode-cell", "postcode": "TQ14 8QA", "postcodes": ["TQ14 8QA"]}, "geometry": {"type": "Polygon", "coordinates": [[[-3.49524378030653, 50.553575818057716], [-3.4938553853969854, 50.554214820883466], [-3.493374219344008, 50.55308009721391], [-3.4948655942045717, 50.55321242664487], [-3.49524378030653, 50.553575818057716]]]}}, {"type": "Feature", "properties": {"type": "postcode-cell", "postcode": "TQ14 8PQ", "postcodes": ["TQ14 8PQ"]}, "geometry": {"type": "Polygon", "coordinates": [[[-3.4937368788917573, 50.5485334049326], [-3.4931264906156176, 50.5477937885815], [-3.4934001005192856, 50.54770573584067], [-3.4936457083568992, 50.547660851964025], [-3.493798659819656, 50.54766532512608], [-3.4936599898086795, 50.54821999460742], [-3.4939387034243485, 50.54859115100596], [-3.4937368788917573, 50.5485334049326]]]}}, {"type": "Feature", "properties": {"type": "postcode-cell", "postcode": "TQ14 8RE", "postcodes": ["TQ14 8RE"]}, "geometry": {"type": "Polygon", "coordinates": [[[-3.493697444301722, 50.56070436722505], [-3.4918974314969797, 50.56048716517774], [-3.4919841465651937, 50.560138560912335], [-3.492754641570031, 50.559714697163564], [-3.4941778757044473, 50.559745056864166], [-3.494557425208904, 50.560074014033106], [-3.493697444301722, 50.56070436722505]]]}}, {"type": "Feature", "properties": {"type": "postcode-cell", "postcode": "TQ14 8SJ", "postcodes": ["TQ14 8SJ"]}, "geometry": {"type": "Polygon", "coordinates": [[[-3.4941089240562855, 50.54670928536305], [-3.4941204317720427, 50.546717604627204], [-3.4940299898096234, 50.546739994606284], [-3.4939765002509993, 50.5469539584145], [-3.4937032981580454, 50.54708516063729], [-3.4936596827604998, 50.54708801138035], [-3.4932276189772433, 50.54686794604665], [-3.4933038906671303, 50.5464133873854], [-3.493397798079634, 50.54643353900038], [-3.4941089240562855, 50.54670928536305]]]}}, {"type": "Feature", "properties": {"type": "postcode-cell", "postcode": "TQ14 8PY", "postcodes": ["TQ14 8PY"]}, "geometry": {"type": "Polygon", "coordinates": [[[-3.4937315488189613, 50.554320477337065], [-3.493436315513415, 50.5544069022564], [-3.4931394490542367, 50.55438269849299], [-3.492529467064133, 50.55330535227711], [-3.493260321970416, 50.55303217691376], [-3.493374219344008, 50.55308009721391], [-3.4938553853969854, 50.554214820883466], [-3.4937315488189613, 50.554320477337065]]]}}, {"type": "Feature", "properties": {"type": "postcode-cell", "postcode": "TQ14 8PN", "postcodes": ["TQ14 8PN"]}, "geometry": {"type": "Polygon", "coordinates": [[[-3.4937609346890675, 50.549664917732564], [-3.494296097230596, 50.55049196463383], [-3.4942573238663104, 50.55058537374254], [-3.493800079705293, 50.55058120353359], [-3.4929773953880847, 50.55028394105878], [-3.4936369241334777, 50.54960786347438], [-3.4937609346890675, 50.549664917732564]]]}}, {"type": "Feature", "properties": {"type": "postcode-cell", "postcode": "TQ14 8SP", "postcodes": ["TQ14 8SP"]}, "geometry": {"type": "Polygon", "coordinates": [[[-3.4936457083568992, 50.547660851964025], [-3.493439856982999, 50.54723430820013], [-3.4936596827604998, 50.54708801138035], [-3.4937032981580454, 50.54708516063729], [-3.4938765573348385, 50.54735373544455], [-3.493798659819656, 50.54766532512608], [-3.4936457083568992, 50.547660851964025]]]}}, {"type": "Feature", "properties": {"type": "postcode-cell", "postcode": "TQ14 8TD", "postcodes": ["TQ14 8TD"]}, "geometry": {"type": "Polygon", "coordinates": [[[-3.4937368788917573, 50.5485334049326], [-3.4925444679750837, 50.54844279752336], [-3.4930213556329845, 50.54780173917012], [-3.4931264906156176, 50.5477937885815], [-3.4937368788917573, 50.5485334049326]]]}}, {"type": "Feature", "properties": {"type": "postcode-cell", "postcode": "TQ14 8PT", "postcodes": ["TQ14 8PT"]}, "geometry": {"type": "Polygon", "coordinates": [[[-3.493275248597125, 50.5524388138283], [-3.492063194934597, 50.55224842802917], [-3.491685242007904, 50.55112271206616], [-3.493173390153705, 50.55137671463229], [-3.4932469082903403, 50.55140914896879], [-3.493537075801134, 50.55229250680053], [-3.493275248597125, 50.5524388138283]]]}}, {"type": "Feature", "properties": {"type": "postcode-cell", "postcode": "TQ14 8PH", "postcodes": ["TQ14 8PH"]}, "geometry": {"type": "Polygon", "coordinates": [[[-3.4939387034243485, 50.54859115100596], [-3.4941730659723174, 50.548903241000815], [-3.4935719257220472, 50.54936100486951], [-3.4917946326244618, 50.54908866792183], [-3.4919536744871005, 50.54874586992961], [-3.4921875458158906, 50.5485650207347], [-3.4925444679750837, 50.54844279752336], [-3.4937368788917573, 50.5485334049326], [-3.4939387034243485, 50.54859115100596]]]}}, {"type": "Feature", "properties": {"type": "postcode-cell", "postcode": "TQ14 8ST", "postcodes": ["TQ14 8ST"]}, "geometry": {"type": "Polygon", "coordinates": [[[-3.4934001005192856, 50.54770573584067], [-3.493017769090537, 50.547136594685426], [-3.493439856982999, 50.54723430820013], [-3.4936457083568992, 50.547660851964025], [-3.4934001005192856, 50.54770573584067]]]}}, {"type": "Feature", "properties": {"type": "postcode-cell", "postcode": "TQ14 8SX", "postcodes": ["TQ14 8SX"]}, "geometry": {"type": "Polygon", "coordinates": [[[-3.492988232918243, 50.54712250888972], [-3.4926587496791033, 50.54718230998477], [-3.492696306527555, 50.54619119554142], [-3.4928016467975387, 50.546087341467334], [-3.4933038906671303, 50.5464133873854], [-3.4932276189772433, 50.54686794604665], [-3.492988232918243, 50.54712250888972]]]}}, {"type": "Feature", "properties": {"type": "postcode-cell", "postcode": "TQ14 8SU", "postcodes": ["TQ14 8SU"]}, "geometry": {"type": "Polygon", "coordinates": [[[-3.4932276189772433, 50.54686794604665], [-3.4936596827604998, 50.54708801138035], [-3.493439856982999, 50.54723430820013], [-3.493017769090537, 50.547136594685426], [-3.492988232918243, 50.54712250888972], [-3.4932276189772433, 50.54686794604665]]]}}, {"type": "Feature", "properties": {"type": "postcode-cell", "postcode": "TQ14 8PU", "postcodes": ["TQ14 8PU"]}, "geometry": {"type": "Polygon", "coordinates": [[[-3.493800079705293, 50.55058120353359], [-3.493173390153705, 50.55137671463229], [-3.491685242007904, 50.55112271206616], [-3.491021930954479, 50.55068827607901], [-3.4929773953880847, 50.55028394105878], [-3.493800079705293, 50.55058120353359]]]}}, {"type": "Feature", "properties": {"type": "postcode-cell", "postcode": "TQ14 8NS", "postcodes": ["TQ14 8NS"]}, "geometry": {"type": "Polygon", "coordinates": [[[-3.493017769090537, 50.547136594685426], [-3.4934001005192856, 50.54770573584067], [-3.4931264906156176, 50.5477937885815], [-3.4930213556329845, 50.54780173917012], [-3.4923493369721785, 50.547495224744665], [-3.492241379509884, 50.54736425825119], [-3.4926587496791033, 50.54718230998477], [-3.492988232918243, 50.54712250888972], [-3.493017769090537, 50.547136594685426]]]}}, {"type": "Feature", "properties": {"type": "postcode-cell", "postcode": "TQ14 8QE", "postcodes": ["TQ14 8QE"]}, "geometry": {"type": "Polygon", "coordinates": [[[-3.4931738039624576, 50.556728597273974], [-3.4929745812174775, 50.55672457018742], [-3.492379314111378, 50.556296815737156], [-3.4932029589900657, 50.55566957370023], [-3.493709664307207, 50.55561835912644], [-3.4940542488301993, 50.55575112272949], [-3.4931738039624576, 50.556728597273974]]]}}, {"type": "Feature", "properties": {"type": "postcode-cell", "postcode": "TQ14 8TE", "postcodes": ["TQ14 8TE"]}, "geometry": {"type": "Polygon", "coordinates": [[[-3.4929773953880847, 50.55028394105878], [-3.491021930954479, 50.55068827607901], [-3.4895272297965976, 50.55028367301415], [-3.4917946326244618, 50.54908866792183], [-3.4935719257220472, 50.54936100486951], [-3.4936369241334777, 50.54960786347438], [-3.4929773953880847, 50.55028394105878]]]}}, {"type": "Feature", "properties": {"type": "postcode-cell", "postcode": "TQ14 8UQ", "postcodes": ["TQ14 8UQ"]}, "geometry": {"type": "Polygon", "coordinates": [[[-3.4931197896103763, 50.558300899964024], [-3.492754641570031, 50.559714697163564], [-3.4919841465651937, 50.560138560912335], [-3.4913902750659966, 50.55954430111525], [-3.4914476005643773, 50.5593053125762], [-3.492739895636925, 50.55834292486023], [-3.4930704766560003, 50.55829122314013], [-3.4931197896103763, 50.558300899964024]]]}}, {"type": "Feature", "properties": {"type": "postcode-cell", "postcode": "TQ14 8PX", "postcodes": ["TQ14 8PX"]}, "geometry": {"type": "Polygon", "coordinates": [[[-3.493260321970416, 50.55303217691376], [-3.492529467064133, 50.55330535227711], [-3.4920413543985647, 50.553265266101974], [-3.49123588895081, 50.552939716258415], [-3.492063194934597, 50.55224842802917], [-3.493275248597125, 50.5524388138283], [-3.493260321970416, 50.55303217691376]]]}}, {"type": "Feature", "properties": {"type": "postcode-cell", "postcode": "TQ14 8TB", "postcodes": ["TQ14 8TB"]}, "geometry": {"type": "Polygon", "coordinates": [[[-3.4930213556329845, 50.54780173917012], [-3.4925444679750837, 50.54844279752336], [-3.4921875458158906, 50.5485650207347], [-3.492046524714953, 50.54798377257123], [-3.4923493369721785, 50.547495224744665], [-3.4930213556329845, 50.54780173917012]]]}}, {"type": "Feature", "properties": {"type": "postcode-cell", "postcode": "TQ14 8SY", "postcodes": ["TQ14 8SY"]}, "geometry": {"type": "Polygon", "coordinates": [[[-3.492241379509884, 50.54736425825119], [-3.491680420290441, 50.547192721066985], [-3.492696306527555, 50.54619119554142], [-3.4926587496791033, 50.54718230998477], [-3.492241379509884, 50.54736425825119]]]}}, {"type": "Feature", "properties": {"type": "postcode-cell", "postcode": "TQ14 8QD", "postcodes": ["TQ14 8QD"]}, "geometry": {"type": "Polygon", "coordinates": [[[-3.493436315513415, 50.5544069022564], [-3.493709664307207, 50.55561835912644], [-3.4932029589900657, 50.55566957370023], [-3.4921866563759156, 50.55531575111264], [-3.492547674111213, 50.55449510147167], [-3.4931394490542367, 50.55438269849299], [-3.493436315513415, 50.5544069022564]]]}}, {"type": "Feature", "properties": {"type": "postcode-cell", "postcode": "TQ14 8QF", "postcodes": ["TQ14 8QF"]}, "geometry": {"type": "Polygon", "coordinates": [[[-3.492379314111378, 50.556296815737156], [-3.491416167937118, 50.55620426801142], [-3.491194431749438, 50.556117003820425], [-3.4910946056320333, 50.556036018995094], [-3.4913563623202792, 50.55559353850631], [-3.4921866563759156, 50.55531575111264], [-3.4932029589900657, 50.55566957370023], [-3.492379314111378, 50.556296815737156]]]}}, {"type": "Feature", "properties": {"type": "postcode-cell", "postcode": "TQ14 8GL", "postcodes": ["TQ14 8GL"]}, "geometry": {"type": "Polygon", "coordinates": [[[-3.4913902750659966, 50.55954430111525], [-3.490285870155871, 50.55938720569195], [-3.4905944907619855, 50.558230549310466], [-3.4906909970909523, 50.55825691654775], [-3.4914476005643773, 50.5593053125762], [-3.4913902750659966, 50.55954430111525]]]}}, {"type": "Feature", "properties": {"type": "postcode-cell", "postcode": "TQ14 8TA", "postcodes": ["TQ14 8TA"]}, "geometry": {"type": "Polygon", "coordinates": [[[-3.4921875458158906, 50.5485650207347], [-3.4919536744871005, 50.54874586992961], [-3.490965981524291, 50.54789702997865], [-3.491086226266015, 50.547778491917725], [-3.492046524714953, 50.54798377257123], [-3.4921875458158906, 50.5485650207347]]]}}, {"type": "Feature", "properties": {"type": "postcode-cell", "postcode": "TQ14 8TU", "postcodes": ["TQ14 8TU"]}, "geometry": {"type": "Polygon", "coordinates": [[[-3.492063194934597, 50.55224842802917], [-3.49123588895081, 50.552939716258415], [-3.490339957642419, 50.553028573169776], [-3.4896027271001504, 50.552937070524], [-3.488404031887738, 50.55042244762762], [-3.488524056933498, 50.550304141290596], [-3.4895272297965976, 50.55028367301415], [-3.491021930954479, 50.55068827607901], [-3.491685242007904, 50.55112271206616], [-3.492063194934597, 50.55224842802917]]]}}, {"type": "Feature", "properties": {"type": "postcode-cell", "postcode": "TQ14 8TY", "postcodes": ["TQ14 8TY"]}, "geometry": {"type": "Polygon", "coordinates": [[[-3.4931394490542367, 50.55438269849299], [-3.492547674111213, 50.55449510147167], [-3.491756107971838, 50.55433038631658], [-3.4920413543985647, 50.553265266101974], [-3.492529467064133, 50.55330535227711], [-3.4931394490542367, 50.55438269849299]]]}}, {"type": "Feature", "properties": {"type": "postcode-cell", "postcode": "TQ14 8SH", "postcodes": ["TQ14 8SH"]}, "geometry": {"type": "Polygon", "coordinates": [[[-3.4919536744871005, 50.54874586992961], [-3.4917946326244618, 50.54908866792183], [-3.4895272297965976, 50.55028367301415], [-3.488524056933498, 50.550304141290596], [-3.490965981524291, 50.54789702997865], [-3.4919536744871005, 50.54874586992961]]]}}, {"type": "Feature", "properties": {"type": "postcode-cell", "postcode": "TQ14 8SZ", "postcodes": ["TQ14 8SZ"]}, "geometry": {"type": "Polygon", "coordinates": [[[-3.492241379509884, 50.54736425825119], [-3.4923493369721785, 50.547495224744665], [-3.492046524714953, 50.54798377257123], [-3.491086226266015, 50.547778491917725], [-3.491680420290441, 50.547192721066985], [-3.492241379509884, 50.54736425825119]]]}}, {"type": "Feature", "properties": {"type": "postcode-cell", "postcode": "TQ14 8FB", "postcodes": ["TQ14 8FB"]}, "geometry": {"type": "Polygon", "coordinates": [[[-3.4929745812174775, 50.55672457018742], [-3.492242217301419, 50.557349086872364], [-3.4918791277454533, 50.55727578745442], [-3.491416167937118, 50.55620426801142], [-3.492379314111378, 50.556296815737156], [-3.4929745812174775, 50.55672457018742]]]}}, {"type": "Feature", "properties": {"type": "postcode-cell", "postcode": "TQ14 8TQ", "postcodes": ["TQ14 8TQ"]}, "geometry": {"type": "Polygon", "coordinates": [[[-3.4913563623202792, 50.55559353850631], [-3.490818573042871, 50.55480256948239], [-3.4910785619365665, 50.55452504602992], [-3.4914260246761915, 50.55434695407073], [-3.491756107971838, 50.55433038631658], [-3.492547674111213, 50.55449510147167], [-3.4921866563759156, 50.55531575111264], [-3.4913563623202792, 50.55559353850631]]]}}, {"type": "Feature", "properties": {"type": "postcode-cell", "postcode": "TQ14 8FA", "postcodes": ["TQ14 8FA"]}, "geometry": {"type": "Polygon", "coordinates": [[[-3.491416167937118, 50.55620426801142], [-3.4918791277454533, 50.55727578745442], [-3.4904987088727824, 50.55754039281369], [-3.491194431749438, 50.556117003820425], [-3.491416167937118, 50.55620426801142]]]}}, {"type": "Feature", "properties": {"type": "postcode-cell", "postcode": "TQ14 8GD", "postcodes": ["TQ14 8GD"]}, "geometry": {"type": "Polygon", "coordinates": [[[-3.4918974314969797, 50.56048716517774], [-3.4904756992869923, 50.561654744458295], [-3.488985068717458, 50.56193709911404], [-3.4884304543937388, 50.56161305780656], [-3.48869200345665, 50.55999579464312], [-3.4893758508855277, 50.55960704072164], [-3.490285870155871, 50.55938720569195], [-3.4913902750659966, 50.55954430111525], [-3.4919841465651937, 50.560138560912335], [-3.4918974314969797, 50.56048716517774]]]}}, {"type": "Feature", "properties": {"type": "postcode-cell", "postcode": "TQ14 8FD", "postcodes": ["TQ14 8FD"]}, "geometry": {"type": "Polygon", "coordinates": [[[-3.4930704766560003, 50.55829122314013], [-3.492739895636925, 50.55834292486023], [-3.4906909970909523, 50.55825691654775], [-3.4905944907619855, 50.558230549310466], [-3.4903812271518957, 50.5581071600571], [-3.490411101598604, 50.557584610102936], [-3.4904987088727824, 50.55754039281369], [-3.4918791277454533, 50.55727578745442], [-3.492242217301419, 50.557349086872364], [-3.4930704766560003, 50.55829122314013]]]}}, {"type": "Feature", "properties": {"type": "postcode-cell", "postcode": "TQ14 8TG", "postcodes": ["TQ14 8TG"]}, "geometry": {"type": "Polygon", "coordinates": [[[-3.491756107971838, 50.55433038631658], [-3.4914260246761915, 50.55434695407073], [-3.490339957642419, 50.553028573169776], [-3.49123588895081, 50.552939716258415], [-3.4920413543985647, 50.553265266101974], [-3.491756107971838, 50.55433038631658]]]}}, {"type": "Feature", "properties": {"type": "postcode-cell", "postcode": "TQ14 8TN", "postcodes": ["TQ14 8TN"]}, "geometry": {"type": "Polygon", "coordinates": [[[-3.48746849509008, 50.56148914305142], [-3.4859409923940845, 50.55912516559502], [-3.4859756962319453, 50.55906646402158], [-3.486705728076996, 50.558894926657004], [-3.487579649683006, 50.55909227518478], [-3.4876976448332586, 50.55913728842635], [-3.4883189282266542, 50.55955946971251], [-3.48869200345665, 50.55999579464312], [-3.4884304543937388, 50.56161305780656], [-3.48746849509008, 50.56148914305142]]]}}, {"type": "Feature", "properties": {"type": "postcode-cell", "postcode": "TQ14 8JX", "postcodes": ["TQ14 8JX"]}, "geometry": {"type": "Polygon", "coordinates": [[[-3.4884304543937388, 50.56161305780656], [-3.488985068717458, 50.56193709911404], [-3.4888693836036615, 50.566494055069725], [-3.483900112745645, 50.56615175020793], [-3.4836799897940947, 50.565569994621036], [-3.4837799897944857, 50.56488999462052], [-3.485169989795639, 50.564299994620065], [-3.484909989795764, 50.56369999461958], [-3.4840699897952625, 50.56364999461955], [-3.4850787754793164, 50.561515498959515], [-3.48746849509008, 50.56148914305142], [-3.4884304543937388, 50.56161305780656]]]}}, {"type": "Feature", "properties": {"type": "postcode-cell", "postcode": "TQ14 8GF", "postcodes": ["TQ14 8GF"]}, "geometry": {"type": "Polygon", "coordinates": [[[-3.4876976448332586, 50.55913728842635], [-3.488680712116184, 50.55816592297662], [-3.489118323468919, 50.558285821769914], [-3.4883189282266542, 50.55955946971251], [-3.4876976448332586, 50.55913728842635]]]}}, {"type": "Feature", "properties": {"type": "postcode-cell", "postcode": "TQ14 8HX", "postcodes": ["TQ14 8HX"]}, "geometry": {"type": "Polygon", "coordinates": [[[-3.4910946056320333, 50.556036018995094], [-3.4907062050220117, 50.55603795737762], [-3.4896455185402275, 50.55547712425125], [-3.490136178525241, 50.55485802120169], [-3.490818573042871, 50.55480256948239], [-3.4913563623202792, 50.55559353850631], [-3.4910946056320333, 50.556036018995094]]]}}, {"type": "Feature", "properties": {"type": "postcode-cell", "postcode": "TQ14 8UF", "postcodes": ["TQ14 8UF"]}, "geometry": {"type": "Polygon", "coordinates": [[[-3.4914476005643773, 50.5593053125762], [-3.4906909970909523, 50.55825691654775], [-3.492739895636925, 50.55834292486023], [-3.4914476005643773, 50.5593053125762]]]}}, {"type": "Feature", "properties": {"type": "postcode-cell", "postcode": "TQ14 8TH", "postcodes": ["TQ14 8TH"]}, "geometry": {"type": "Polygon", "coordinates": [[[-3.4910785619365665, 50.55452504602992], [-3.488935503281314, 50.55358121244113], [-3.4896027271001504, 50.552937070524], [-3.490339957642419, 50.553028573169776], [-3.4914260246761915, 50.55434695407073], [-3.4910785619365665, 50.55452504602992]]]}}, {"type": "Feature", "properties": {"type": "postcode-cell", "postcode": "TQ14 8UR", "postcodes": ["TQ14 8UR"]}, "geometry": {"type": "Polygon", "coordinates": [[[-3.4807782348266083, 50.55923612812398], [-3.4803718520765745, 50.5607035788225], [-3.478939989793238, 50.56118999461778], [-3.4773499897926032, 50.56043999461723], [-3.4773599897926113, 50.56043999461722], [-3.479430374035808, 50.55853403336364], [-3.4807782348266083, 50.55923612812398]]]}}, {"type": "Feature", "properties": {"type": "postcode-cell", "postcode": "TQ14 8GG", "postcodes": ["TQ14 8GG"]}, "geometry": {"type": "Polygon", "coordinates": [[[-3.4905944907619855, 50.558230549310466], [-3.490285870155871, 50.55938720569195], [-3.4893758508855277, 50.55960704072164], [-3.4897118094040005, 50.558290249021645], [-3.4903812271518957, 50.5581071600571], [-3.4905944907619855, 50.558230549310466]]]}}, {"type": "Feature", "properties": {"type": "postcode-cell", "postcode": "TQ14 8FF", "postcodes": ["TQ14 8FF"]}, "geometry": {"type": "Polygon", "coordinates": [[[-3.490411101598604, 50.557584610102936], [-3.4891711178696165, 50.55691491895905], [-3.4891275020086354, 50.55675009390092], [-3.4907062050220117, 50.55603795737762], [-3.4910946056320333, 50.556036018995094], [-3.491194431749438, 50.556117003820425], [-3.4904987088727824, 50.55754039281369], [-3.490411101598604, 50.557584610102936]]]}}, {"type": "Feature", "properties": {"type": "postcode-cell", "postcode": "TQ14 8TT", "postcodes": ["TQ14 8TT"]}, "geometry": {"type": "Polygon", "coordinates": [[[-3.4910785619365665, 50.55452504602992], [-3.490818573042871, 50.55480256948239], [-3.490136178525241, 50.55485802120169], [-3.4893787589557506, 50.55446371852032], [-3.488677395689577, 50.55375425260437], [-3.488935503281314, 50.55358121244113], [-3.4910785619365665, 50.55452504602992]]]}}, {"type": "Feature", "properties": {"type": "postcode-cell", "postcode": "TQ14 8TX", "postcodes": ["TQ14 8TX"]}, "geometry": {"type": "Polygon", "coordinates": [[[-3.488677395689577, 50.55375425260437], [-3.4893787589557506, 50.55446371852032], [-3.488926123977314, 50.55548407038506], [-3.4887584203420343, 50.55541781545361], [-3.488427591795694, 50.55438955915074], [-3.488558646373086, 50.553784122331564], [-3.488677395689577, 50.55375425260437]]]}}, {"type": "Feature", "properties": {"type": "postcode-cell", "postcode": "TQ14 8TR", "postcodes": ["TQ14 8TR"]}, "geometry": {"type": "Polygon", "coordinates": [[[-3.4896027271001504, 50.552937070524], [-3.488935503281314, 50.55358121244113], [-3.488677395689577, 50.55375425260437], [-3.488558646373086, 50.553784122331564], [-3.4840025905492826, 50.55390790478206], [-3.484369989800249, 50.55366999461184], [-3.4853699898010855, 50.55322999461146], [-3.486419989802157, 50.5523699946108], [-3.486449989802205, 50.55230999461074], [-3.486559989802306, 50.55223999461069], [-3.488404031887738, 50.55042244762762], [-3.4896027271001504, 50.552937070524]]]}}, {"type": "Feature", "properties": {"type": "postcode-cell", "postcode": "TQ14 8FT", "postcodes": ["TQ14 8FT"]}, "geometry": {"type": "Polygon", "coordinates": [[[-3.4907062050220117, 50.55603795737762], [-3.4891275020086354, 50.55675009390092], [-3.4886205660539567, 50.556442663804184], [-3.488588104544489, 50.556382193494706], [-3.4889563115968225, 50.55550598001098], [-3.4896455185402275, 50.55547712425125], [-3.4907062050220117, 50.55603795737762]]]}}, {"type": "Feature", "properties": {"type": "postcode-cell", "postcode": "TQ14 8GE", "postcodes": ["TQ14 8GE"]}, "geometry": {"type": "Polygon", "coordinates": [[[-3.4893758508855277, 50.55960704072164], [-3.48869200345665, 50.55999579464312], [-3.4883189282266542, 50.55955946971251], [-3.489118323468919, 50.558285821769914], [-3.4897118094040005, 50.558290249021645], [-3.4893758508855277, 50.55960704072164]]]}}, {"type": "Feature", "properties": {"type": "postcode-cell", "postcode": "TQ14 8FE", "postcodes": ["TQ14 8FE"]}, "geometry": {"type": "Polygon", "coordinates": [[[-3.4903812271518957, 50.5581071600571], [-3.4897118094040005, 50.558290249021645], [-3.489118323468919, 50.558285821769914], [-3.488680712116184, 50.55816592297662], [-3.4882457397714526, 50.55790579991494], [-3.488072699085511, 50.55771951195725], [-3.4891711178696165, 50.55691491895905], [-3.490411101598604, 50.557584610102936], [-3.4903812271518957, 50.5581071600571]]]}}, {"type": "Feature", "properties": {"type": "postcode-cell", "postcode": "TQ14 8FR", "postcodes": ["TQ14 8FR"]}, "geometry": {"type": "Polygon", "coordinates": [[[-3.490136178525241, 50.55485802120169], [-3.4896455185402275, 50.55547712425125], [-3.4889563115968225, 50.55550598001098], [-3.488926123977314, 50.55548407038506], [-3.4893787589557506, 50.55446371852032], [-3.490136178525241, 50.55485802120169]]]}}, {"type": "Feature", "properties": {"type": "postcode-cell", "postcode": "TQ14 8TL", "postcodes": ["TQ14 8TL"]}, "geometry": {"type": "Polygon", "coordinates": [[[-3.4889563115968225, 50.55550598001098], [-3.488588104544489, 50.556382193494706], [-3.4862955836646994, 50.555517774399945], [-3.4876959716187867, 50.5553016815946], [-3.4887584203420343, 50.55541781545361], [-3.488926123977314, 50.55548407038506], [-3.4889563115968225, 50.55550598001098]]]}}, {"type": "Feature", "properties": {"type": "postcode-cell", "postcode": "TQ14 8US", "postcodes": ["TQ14 8US"]}, "geometry": {"type": "Polygon", "coordinates": [[[-3.488427591795694, 50.55438955915074], [-3.4876959716187867, 50.5553016815946], [-3.4862955836646994, 50.555517774399945], [-3.4834913208545735, 50.55531563016432], [-3.48279411719766, 50.55501788038134], [-3.4827599897986654, 50.55486999461277], [-3.4831499897991076, 50.55445999461246], [-3.4840025905492826, 50.55390790478206], [-3.488558646373086, 50.553784122331564], [-3.488427591795694, 50.55438955915074]]]}}, {"type": "Feature", "properties": {"type": "postcode-cell", "postcode": "TQ14 8TS", "postcodes": ["TQ14 8TS"]}, "geometry": {"type": "Polygon", "coordinates": [[[-3.4891711178696165, 50.55691491895905], [-3.488072699085511, 50.55771951195725], [-3.487475038120702, 50.55764705449236], [-3.4871909131587473, 50.55688700477937], [-3.4886205660539567, 50.556442663804184], [-3.4891275020086354, 50.55675009390092], [-3.4891711178696165, 50.55691491895905]]]}}, {"type": "Feature", "properties": {"type": "postcode-cell", "postcode": "TQ14 8UH", "postcodes": ["TQ14 8UH"]}, "geometry": {"type": "Polygon", "coordinates": [[[-3.487579649683006, 50.55909227518478], [-3.487858050911268, 50.55831900130217], [-3.4882457397714526, 50.55790579991494], [-3.488680712116184, 50.55816592297662], [-3.4876976448332586, 50.55913728842635], [-3.487579649683006, 50.55909227518478]]]}}, {"type": "Feature", "properties": {"type": "postcode-cell", "postcode": "TQ14 8TJ", "postcodes": ["TQ14 8TJ"]}, "geometry": {"type": "Polygon", "coordinates": [[[-3.4887584203420343, 50.55541781545361], [-3.4876959716187867, 50.5553016815946], [-3.488427591795694, 50.55438955915074], [-3.4887584203420343, 50.55541781545361]]]}}, {"type": "Feature", "properties": {"type": "postcode-cell", "postcode": "TQ14 8TP", "postcodes": ["TQ14 8TP"]}, "geometry": {"type": "Polygon", "coordinates": [[[-3.488588104544489, 50.556382193494706], [-3.4886205660539567, 50.556442663804184], [-3.4871909131587473, 50.55688700477937], [-3.4836276589062405, 50.55542303863526], [-3.4834913208545735, 50.55531563016432], [-3.4862955836646994, 50.555517774399945], [-3.488588104544489, 50.556382193494706]]]}}, {"type": "Feature", "properties": {"type": "postcode-cell", "postcode": "TQ14 8UL", "postcodes": ["TQ14 8UL"]}, "geometry": {"type": "Polygon", "coordinates": [[[-3.488072699085511, 50.55771951195725], [-3.4882457397714526, 50.55790579991494], [-3.487858050911268, 50.55831900130217], [-3.486821132701132, 50.55853664112258], [-3.4868747631276005, 50.55812344304406], [-3.4872960791106125, 50.55770784132312], [-3.487475038120702, 50.55764705449236], [-3.488072699085511, 50.55771951195725]]]}}, {"type": "Feature", "properties": {"type": "postcode-cell", "postcode": "TQ14 8UJ", "postcodes": ["TQ14 8UJ"]}, "geometry": {"type": "Polygon", "coordinates": [[[-3.487579649683006, 50.55909227518478], [-3.486705728076996, 50.558894926657004], [-3.486821132701132, 50.55853664112258], [-3.487858050911268, 50.55831900130217], [-3.487579649683006, 50.55909227518478]]]}}, {"type": "Feature", "properties": {"type": "postcode-cell", "postcode": "TQ14 8UZ", "postcodes": ["TQ14 8UZ"]}, "geometry": {"type": "Polygon", "coordinates": [[[-3.486821132701132, 50.55853664112258], [-3.486705728076996, 50.558894926657004], [-3.4859756962319453, 50.55906646402158], [-3.4851573324174505, 50.55846507322542], [-3.485334271304124, 50.55789822039777], [-3.4868747631276005, 50.55812344304406], [-3.486821132701132, 50.55853664112258]]]}}, {"type": "Feature", "properties": {"type": "postcode-cell", "postcode": "TQ14 8TW", "postcodes": ["TQ14 8TW"]}, "geometry": {"type": "Polygon", "coordinates": [[[-3.4872960791106125, 50.55770784132312], [-3.485161273201274, 50.5572283705294], [-3.4836276589062405, 50.55542303863526], [-3.4871909131587473, 50.55688700477937], [-3.487475038120702, 50.55764705449236], [-3.4872960791106125, 50.55770784132312]]]}}, {"type": "Feature", "properties": {"type": "postcode-cell", "postcode": "TQ14 8UU", "postcodes": ["TQ14 8UU"]}, "geometry": {"type": "Polygon", "coordinates": [[[-3.4836276589062405, 50.55542303863526], [-3.485161273201274, 50.5572283705294], [-3.485334271304124, 50.55789822039777], [-3.4851573324174505, 50.55846507322542], [-3.4834284905892408, 50.55867593594392], [-3.4820368125875207, 50.556062355522734], [-3.4828199897985783, 50.55512999461298], [-3.48279411719766, 50.55501788038134], [-3.4834913208545735, 50.55531563016432], [-3.4836276589062405, 50.55542303863526]]]}}, {"type": "Feature", "properties": {"type": "postcode-cell", "postcode": "TQ14 8UW", "postcodes": ["TQ14 8UW"]}, "geometry": {"type": "Polygon", "coordinates": [[[-3.48746849509008, 50.56148914305142], [-3.4850787754793164, 50.561515498959515], [-3.485449989797529, 50.560729994617255], [-3.4843169856514806, 50.5601346878992], [-3.4843089970501895, 50.55996336025549], [-3.4859409923940845, 50.55912516559502], [-3.48746849509008, 50.56148914305142]]]}}, {"type": "Feature", "properties": {"type": "postcode-cell", "postcode": "TQ14 8XA", "postcodes": ["TQ14 8XA"]}, "geometry": {"type": "Polygon", "coordinates": [[[-3.485161273201274, 50.5572283705294], [-3.4872960791106125, 50.55770784132312], [-3.4868747631276005, 50.55812344304406], [-3.485334271304124, 50.55789822039777], [-3.485161273201274, 50.5572283705294]]]}}, {"type": "Feature", "properties": {"type": "postcode-cell", "postcode": "EX7 0LJ", "postcodes": ["EX7 0LJ"]}, "geometry": {"type": "Polygon", "coordinates": [[[-3.4888693836036615, 50.566494055069725], [-3.4912435939443593, 50.56761618185033], [-3.4915914214760795, 50.5714687425268], [-3.4871899897930962, 50.57221999462614], [-3.483089989789996, 50.57332999462709], [-3.4841499897924675, 50.56956999462416], [-3.4829999897918142, 50.569429994624066], [-3.4807599897909256, 50.56835999462326], [-3.4842399897936565, 50.56720999462232], [-3.4851899897946375, 50.566409994621694], [-3.4839599897939157, 50.566309994621626], [-3.483900112745645, 50.56615175020793], [-3.4888693836036615, 50.566494055069725]]]}}, {"type": "Feature", "properties": {"type": "postcode-cell", "postcode": "TQ14 8UN", "postcodes": ["TQ14 8UN"]}, "geometry": {"type": "Polygon", "coordinates": [[[-3.4859409923940845, 50.55912516559502], [-3.4843089970501895, 50.55996336025549], [-3.483218334939353, 50.55908065864365], [-3.4834284905892408, 50.55867593594392], [-3.4851573324174505, 50.55846507322542], [-3.4859756962319453, 50.55906646402158], [-3.4859409923940845, 50.55912516559502]]]}}, {"type": "Feature", "properties": {"type": "postcode-cell", "postcode": "TQ14 8UP", "postcodes": ["TQ14 8UP"]}, "geometry": {"type": "Polygon", "coordinates": [[[-3.4843169856514806, 50.5601346878992], [-3.48426998979709, 50.5601099946168], [-3.483329989796265, 50.56059999461721], [-3.4827299897960393, 50.56028999461699], [-3.4824472129863873, 50.56055614006252], [-3.4818083488492615, 50.5593909609514], [-3.483218334939353, 50.55908065864365], [-3.4843089970501895, 50.55996336025549], [-3.4843169856514806, 50.5601346878992]]]}}, {"type": "Feature", "properties": {"type": "postcode-cell", "postcode": "TQ14 8LS", "postcodes": ["TQ14 8LS"]}, "geometry": {"type": "Polygon", "coordinates": [[[-3.4834284905892408, 50.55867593594392], [-3.483218334939353, 50.55908065864365], [-3.4818083488492615, 50.5593909609514], [-3.4811134681082514, 50.55931108704202], [-3.4807782348266083, 50.55923612812398], [-3.479430374035808, 50.55853403336364], [-3.481769989797319, 50.55637999461398], [-3.4820368125875207, 50.556062355522734], [-3.4834284905892408, 50.55867593594392]]]}}, {"type": "Feature", "properties": {"type": "postcode-cell", "postcode": "TQ14 8SS", "postcodes": ["TQ14 8SS"]}, "geometry": {"type": "Polygon", "coordinates": [[[-3.4824472129863873, 50.56055614006252], [-3.482049989795308, 50.56092999461749], [-3.4813930861134135, 50.56064018619448], [-3.4811134681082514, 50.55931108704202], [-3.4818083488492615, 50.5593909609514], [-3.4824472129863873, 50.56055614006252]]]}}, {"type": "Feature", "properties": {"type": "postcode-cell", "postcode": "TQ14 8UT", "postcodes": ["TQ14 8UT"]}, "geometry": {"type": "Polygon", "coordinates": [[[-3.4811134681082514, 50.55931108704202], [-3.4813930861134135, 50.56064018619448], [-3.481029989794886, 50.560479994617175], [-3.4803718520765745, 50.5607035788225], [-3.4807782348266083, 50.55923612812398], [-3.4811134681082514, 50.55931108704202]]]}}]}