{"type": "FeatureCollection", "features": [{"type": "Feature", "properties": {"type": "ward-outline", "name": "Teignmouth West"}, "geometry": {"type": "Polygon", "coordinates": [[[-3.50032, 50.54641], [-3.50075, 50.54649], [-3.50128, 50.54593], [-3.50734, 50.54622], [-3.50759, 50.54655], [-3.50969, 50.54664], [-3.5098, 50.54684], [-3.50972, 50.5466], [-3.51047, 50.54643], [-3.51034, 50.54588], [-3.51103, 50.54643], [-3.51512, 50.54581], [-3.5155, 50.54546], [-3.51692, 50.54544], [-3.51804, 50.54554], [-3.51844, 50.54596], [-3.51917, 50.54607], [-3.51921, 50.54607], [-3.52064, 50.5497], [-3.52073, 50.55019], [-3.52034, 50.5504], [-3.52101, 50.55115], [-3.51977, 50.55167], [-3.51892, 50.55284], [-3.51914, 50.55366], [-3.51542, 50.55391], [-3.51577, 50.55522], [-3.51304, 50.55466], [-3.51509, 50.55699], [-3.51511, 50.55877], [-3.51564, 50.55876], [-3.51541, 50.55964], [-3.51583, 50.56035], [-3.51731, 50.56028], [-3.51815, 50.56168], [-3.51985, 50.56269], [-3.51922, 50.56472], [-3.5185, 50.56411], [-3.51742, 50.56438], [-3.51613, 50.56329], [-3.51233, 50.56166], [-3.51137, 50.56055], [-3.51062, 50.56095], [-3.50964, 50.55996], [-3.50842, 50.55945], [-3.5081, 50.55806], [-3.50652, 50.55622], [-3.50687, 50.55506], [-3.50888, 50.55485], [-3.50836, 50.5522], [-3.50619, 50.54975], [-3.50275, 50.54761], [-3.5003, 50.54783], [-3.49963, 50.54761], [-3.49916, 50.54711], [-3.50032, 50.54641]]]}}, {"type": "Feature", "properties": {"type": "postcode-cell", "postcode": "TQ14 9UD", "postcodes": ["TQ14 9UD"]}, "geometry": {"type": "Polygon", "coordinates": [[[-3.513957138683326, 50.56037142352858], [-3.5147423733644727, 50.55947873809078], [-3.5154795322466135, 50.55937392260376], [-3.515409989816821, 50.559639994615836], [-3.515829989816744, 50.56034999461638], [-3.517309989817709, 50.56027999461631], [-3.518149989817561, 50.56167999461734], [-3.519849989818144, 50.562689994618104], [-3.5192199898167744, 50.564719994619686], [-3.5184999898166183, 50.56410999461924], [-3.51741998981581, 50.564379994619465], [-3.5161299898155223, 50.56328999461864], [-3.5134971278793072, 50.562160660809454], [-3.513957138683326, 50.56037142352858]]]}}, {"type": "Feature", "properties": {"type": "postcode-cell", "postcode": "TQ14 9PH", "postcodes": ["TQ14 9PH"]}, "geometry": {"type": "Polygon", "coordinates": [[[-3.51831419011102, 50.54774291263217], [-3.5170054572751863, 50.5458987139609], [-3.5169708232274326, 50.54544453354458], [-3.5180399898252364, 50.54553999460486], [-3.518439989825284, 50.54595999460518], [-3.5191699898256883, 50.54606999460526], [-3.5192099898257148, 50.54606999460526], [-3.5200451511007054, 50.54819009150487], [-3.51831419011102, 50.54774291263217]]]}}, {"type": "Feature", "properties": {"type": "postcode-cell", "postcode": "TQ14 9AD", "postcodes": ["TQ14 9AD"]}, "geometry": {"type": "Polygon", "coordinates": [[[-3.513958960112593, 50.54691259351108], [-3.5124406085408406, 50.547153535824236], [-3.511891020196972, 50.546868783488875], [-3.5118028145097155, 50.54631285491933], [-3.5144819767150177, 50.54590672102928], [-3.513958960112593, 50.54691259351108]]]}}, {"type": "Feature", "properties": {"type": "postcode-cell", "postcode": "TQ14 9WP", "postcodes": ["TQ14 9WP"]}, "geometry": {"type": "Polygon", "coordinates": [[[-3.5177730100697535, 50.55054786434866], [-3.5163492765179876, 50.548823397193665], [-3.516322145449916, 50.54851696661251], [-3.51831419011102, 50.54774291263217], [-3.5200451511007054, 50.54819009150487], [-3.520639989824871, 50.54969999460803], [-3.5207299898246918, 50.5501899946084], [-3.5203399898243446, 50.55039999460858], [-3.5210099898244076, 50.55114999460915], [-3.5199443217919137, 50.55159688913643], [-3.5177730100697535, 50.55054786434866]]]}}, {"type": "Feature", "properties": {"type": "postcode-cell", "postcode": "TQ14 9AH", "postcodes": ["TQ14 9AH"]}, "geometry": {"type": "Polygon", "coordinates": [[[-3.5177730100697535, 50.55054786434866], [-3.5153745883852996, 50.550364672712675], [-3.5150066669793683, 50.55012579104992], [-3.514736627339653, 50.54930150926411], [-3.5163492765179876, 50.548823397193665], [-3.5177730100697535, 50.55054786434866]]]}}, {"type": "Feature", "properties": {"type": "postcode-cell", "postcode": "TQ14 9AE", "postcodes": ["TQ14 9AE"]}, "geometry": {"type": "Polygon", "coordinates": [[[-3.5170054572751863, 50.5458987139609], [-3.515380222606894, 50.54793633013471], [-3.514730993564992, 50.54789437637572], [-3.513958960112593, 50.54691259351108], [-3.5144819767150177, 50.54590672102928], [-3.5151199898232766, 50.545809994605136], [-3.515499989823682, 50.54545999460485], [-3.5169199898245815, 50.545439994604806], [-3.5169708232274326, 50.54544453354458], [-3.5170054572751863, 50.5458987139609]]]}}, {"type": "Feature", "properties": {"type": "postcode-cell", "postcode": "TQ14 9FA", "postcodes": ["TQ14 9FA"]}, "geometry": {"type": "Polygon", "coordinates": [[[-3.516322145449916, 50.54851696661251], [-3.515380222606894, 50.54793633013471], [-3.5170054572751863, 50.5458987139609], [-3.51831419011102, 50.54774291263217], [-3.516322145449916, 50.54851696661251]]]}}, {"type": "Feature", "properties": {"type": "postcode-cell", "postcode": "TQ14 9BS", "postcodes": ["TQ14 9BS"]}, "geometry": {"type": "Polygon", "coordinates": [[[-3.5199443217919137, 50.55159688913643], [-3.5197699898233785, 50.5516699946096], [-3.518919989822285, 50.5528399946105], [-3.518991141828276, 50.55310520084393], [-3.5171920622058845, 50.55297505798944], [-3.5147758044015016, 50.55181079889838], [-3.5144961257713137, 50.551388597145774], [-3.515196655180338, 50.5504462370141], [-3.5153745883852996, 50.550364672712675], [-3.5177730100697535, 50.55054786434866], [-3.5199443217919137, 50.55159688913643]]]}}, {"type": "Feature", "properties": {"type": "postcode-cell", "postcode": "TQ14 9AJ", "postcodes": ["TQ14 9AJ"]}, "geometry": {"type": "Polygon", "coordinates": [[[-3.5163492765179876, 50.548823397193665], [-3.514736627339653, 50.54930150926411], [-3.514657868877044, 50.54928610592942], [-3.5140968628029174, 50.54861799930901], [-3.514162240770287, 50.54814423761526], [-3.514730993564992, 50.54789437637572], [-3.515380222606894, 50.54793633013471], [-3.516322145449916, 50.54851696661251], [-3.5163492765179876, 50.548823397193665]]]}}, {"type": "Feature", "properties": {"type": "postcode-cell", "postcode": "TQ14 9UG", "postcodes": ["TQ14 9UG"]}, "geometry": {"type": "Polygon", "coordinates": [[[-3.5143963636800217, 50.553402415272515], [-3.5148806048865717, 50.5532343956812], [-3.5171920622058845, 50.55297505798944], [-3.518991141828276, 50.55310520084393], [-3.519139989822031, 50.55365999461113], [-3.5154199898195766, 50.5539099946114], [-3.5157699898191668, 50.5552199946124], [-3.5138748167109104, 50.5548312493964], [-3.5143963636800217, 50.553402415272515]]]}}, {"type": "Feature", "properties": {"type": "postcode-cell", "postcode": "TQ14 9UQ", "postcodes": ["TQ14 9UQ"]}, "geometry": {"type": "Polygon", "coordinates": [[[-3.5147423733644727, 50.55947873809078], [-3.513968196391126, 50.55887647034528], [-3.5151077287803636, 50.55856877559937], [-3.5151099898170504, 50.55876999461517], [-3.5156399898173896, 50.55875999461514], [-3.5154795322466135, 50.55937392260376], [-3.5147423733644727, 50.55947873809078]]]}}, {"type": "Feature", "properties": {"type": "postcode-cell", "postcode": "TQ14 9UZ", "postcodes": ["TQ14 9UZ"]}, "geometry": {"type": "Polygon", "coordinates": [[[-3.513968196391126, 50.55887647034528], [-3.5147423733644727, 50.55947873809078], [-3.513957138683326, 50.56037142352858], [-3.5129336027403477, 50.55877672095471], [-3.5132625956603123, 50.5587072006082], [-3.513968196391126, 50.55887647034528]]]}}, {"type": "Feature", "properties": {"type": "postcode-cell", "postcode": "TQ14 9XE", "postcodes": ["TQ14 9XE"]}, "geometry": {"type": "Polygon", "coordinates": [[[-3.5132625956603123, 50.5587072006082], [-3.513808223578621, 50.55812377238316], [-3.5151009342860418, 50.557964085082475], [-3.5151077287803636, 50.55856877559937], [-3.513968196391126, 50.55887647034528], [-3.5132625956603123, 50.5587072006082]]]}}, {"type": "Feature", "properties": {"type": "postcode-cell", "postcode": "TQ14 9AR", "postcodes": ["TQ14 9AR"]}, "geometry": {"type": "Polygon", "coordinates": [[[-3.514657868877044, 50.54928610592942], [-3.513622577282852, 50.549543671692604], [-3.5134705501251853, 50.54907653230705], [-3.5140968628029174, 50.54861799930901], [-3.514657868877044, 50.54928610592942]]]}}, {"type": "Feature", "properties": {"type": "postcode-cell", "postcode": "TQ14 9AT", "postcodes": ["TQ14 9AT"]}, "geometry": {"type": "Polygon", "coordinates": [[[-3.515196655180338, 50.5504462370141], [-3.5135266447807445, 50.55080417134059], [-3.512943839523489, 50.55053554667659], [-3.5134433448068276, 50.54989877451326], [-3.5150066669793683, 50.55012579104992], [-3.5153745883852996, 50.550364672712675], [-3.515196655180338, 50.5504462370141]]]}}, {"type": "Feature", "properties": {"type": "postcode-cell", "postcode": "TQ14 9BD", "postcodes": ["TQ14 9BD"]}, "geometry": {"type": "Polygon", "coordinates": [[[-3.5144961257713137, 50.551388597145774], [-3.5135912744238817, 50.55090592627439], [-3.5135266447807445, 50.55080417134059], [-3.515196655180338, 50.5504462370141], [-3.5144961257713137, 50.551388597145774]]]}}, {"type": "Feature", "properties": {"type": "postcode-cell", "postcode": "TQ14 9BB", "postcodes": ["TQ14 9BB"]}, "geometry": {"type": "Polygon", "coordinates": [[[-3.5147758044015016, 50.55181079889838], [-3.5133203133069335, 50.55180581626088], [-3.513280335472628, 50.551729378623506], [-3.5135912744238817, 50.55090592627439], [-3.5144961257713137, 50.551388597145774], [-3.5147758044015016, 50.55181079889838]]]}}, {"type": "Feature", "properties": {"type": "postcode-cell", "postcode": "TQ14 9AS", "postcodes": ["TQ14 9AS"]}, "geometry": {"type": "Polygon", "coordinates": [[[-3.5150066669793683, 50.55012579104992], [-3.5134433448068276, 50.54989877451326], [-3.513428220626669, 50.549767960486825], [-3.513622577282852, 50.549543671692604], [-3.514657868877044, 50.54928610592942], [-3.514736627339653, 50.54930150926411], [-3.5150066669793683, 50.55012579104992]]]}}, {"type": "Feature", "properties": {"type": "postcode-cell", "postcode": "TQ14 9UU", "postcodes": ["TQ14 9UU"]}, "geometry": {"type": "Polygon", "coordinates": [[[-3.5140269412446106, 50.55608317159504], [-3.5141388473886175, 50.55590897368552], [-3.515089989817892, 50.55698999461379], [-3.5150955714777217, 50.55748678896404], [-3.5139785641322105, 50.5573212068711], [-3.514015093257131, 50.556112458580614], [-3.5140269412446106, 50.55608317159504]]]}}, {"type": "Feature", "properties": {"type": "postcode-cell", "postcode": "TQ14 9UT", "postcodes": ["TQ14 9UT"]}, "geometry": {"type": "Polygon", "coordinates": [[[-3.514015093257131, 50.556112458580614], [-3.5127075192988833, 50.557358053992274], [-3.5122747310479556, 50.55739639879258], [-3.5120745549574814, 50.556985743415424], [-3.5140269412446106, 50.55608317159504], [-3.514015093257131, 50.556112458580614]]]}}, {"type": "Feature", "properties": {"type": "postcode-cell", "postcode": "TQ14 9UY", "postcodes": ["TQ14 9UY"]}, "geometry": {"type": "Polygon", "coordinates": [[[-3.5150955714777217, 50.55748678896404], [-3.5151009342860418, 50.557964085082475], [-3.513808223578621, 50.55812377238316], [-3.5135959760547437, 50.55753198603514], [-3.5139785641322105, 50.5573212068711], [-3.5150955714777217, 50.55748678896404]]]}}, {"type": "Feature", "properties": {"type": "postcode-cell", "postcode": "TQ14 9UX", "postcodes": ["TQ14 9UX"]}, "geometry": {"type": "Polygon", "coordinates": [[[-3.513808223578621, 50.55812377238316], [-3.5132625956603123, 50.5587072006082], [-3.5129336027403477, 50.55877672095471], [-3.5117974282723265, 50.55875602167798], [-3.511441922725134, 50.55820208628201], [-3.5122747310479556, 50.55739639879258], [-3.5127075192988833, 50.557358053992274], [-3.5135959760547437, 50.55753198603514], [-3.513808223578621, 50.55812377238316]]]}}, {"type": "Feature", "properties": {"type": "postcode-cell", "postcode": "TQ14 9BG", "postcodes": ["TQ14 9BG"]}, "geometry": {"type": "Polygon", "coordinates": [[[-3.5135912744238817, 50.55090592627439], [-3.513280335472628, 50.551729378623506], [-3.5125323058972318, 50.5514035473319], [-3.512199812679232, 50.55087081956448], [-3.512228728181093, 50.55076141129501], [-3.512797740290947, 50.550555496275734], [-3.512943839523489, 50.55053554667659], [-3.5135266447807445, 50.55080417134059], [-3.5135912744238817, 50.55090592627439]]]}}, {"type": "Feature", "properties": {"type": "postcode-cell", "postcode": "TQ14 9UR", "postcodes": ["TQ14 9UR"]}, "geometry": {"type": "Polygon", "coordinates": [[[-3.5139785641322105, 50.5573212068711], [-3.5135959760547437, 50.55753198603514], [-3.5127075192988833, 50.557358053992274], [-3.514015093257131, 50.556112458580614], [-3.5139785641322105, 50.5573212068711]]]}}, {"type": "Feature", "properties": {"type": "postcode-cell", "postcode": "TQ14 9EF", "postcodes": ["TQ14 9EF"]}, "geometry": {"type": "Polygon", "coordinates": [[[-3.5171920622058845, 50.55297505798944], [-3.5148806048865717, 50.5532343956812], [-3.5129288796827, 50.55223255460916], [-3.5133203133069335, 50.55180581626088], [-3.5147758044015016, 50.55181079889838], [-3.5171920622058845, 50.55297505798944]]]}}, {"type": "Feature", "properties": {"type": "postcode-cell", "postcode": "TQ14 9AP", "postcodes": ["TQ14 9AP"]}, "geometry": {"type": "Polygon", "coordinates": [[[-3.5134705501251853, 50.54907653230705], [-3.512772996587704, 50.54886988949259], [-3.5129536883675128, 50.548316302296364], [-3.51379085427756, 50.54814202050478], [-3.514162240770287, 50.54814423761526], [-3.5140968628029174, 50.54861799930901], [-3.5134705501251853, 50.54907653230705]]]}}, {"type": "Feature", "properties": {"type": "postcode-cell", "postcode": "TQ14 9AX", "postcodes": ["TQ14 9AX"]}, "geometry": {"type": "Polygon", "coordinates": [[[-3.513428220626669, 50.549767960486825], [-3.5124209048403428, 50.54939233809545], [-3.5122251984441637, 50.549120248110164], [-3.512772996587704, 50.54886988949259], [-3.5134705501251853, 50.54907653230705], [-3.513622577282852, 50.549543671692604], [-3.513428220626669, 50.549767960486825]]]}}, {"type": "Feature", "properties": {"type": "postcode-cell", "postcode": "TQ14 9AG", "postcodes": ["TQ14 9AG"]}, "geometry": {"type": "Polygon", "coordinates": [[[-3.514162240770287, 50.54814423761526], [-3.51379085427756, 50.54814202050478], [-3.51244476871894, 50.54718519531628], [-3.5124406085408406, 50.547153535824236], [-3.513958960112593, 50.54691259351108], [-3.514730993564992, 50.54789437637572], [-3.514162240770287, 50.54814423761526]]]}}, {"type": "Feature", "properties": {"type": "postcode-cell", "postcode": "TQ14 9AU", "postcodes": ["TQ14 9AU"]}, "geometry": {"type": "Polygon", "coordinates": [[[-3.5134433448068276, 50.54989877451326], [-3.512943839523489, 50.55053554667659], [-3.512797740290947, 50.550555496275734], [-3.512061893205066, 50.54980634126101], [-3.5124209048403428, 50.54939233809545], [-3.513428220626669, 50.549767960486825], [-3.5134433448068276, 50.54989877451326]]]}}, {"type": "Feature", "properties": {"type": "postcode-cell", "postcode": "TQ14 9UJ", "postcodes": ["TQ14 9UJ"]}, "geometry": {"type": "Polygon", "coordinates": [[[-3.5138748167109104, 50.5548312493964], [-3.5130399898177256, 50.55465999461204], [-3.513605409388944, 50.555302669239076], [-3.5125562723753117, 50.55473990503809], [-3.5137823227440244, 50.553498460436444], [-3.5143963636800217, 50.553402415272515], [-3.5138748167109104, 50.5548312493964]]]}}, {"type": "Feature", "properties": {"type": "postcode-cell", "postcode": "TQ14 9UF", "postcodes": ["TQ14 9UF"]}, "geometry": {"type": "Polygon", "coordinates": [[[-3.5110260798411157, 50.55971779340777], [-3.5117974282723265, 50.55875602167798], [-3.5129336027403477, 50.55877672095471], [-3.513957138683326, 50.56037142352858], [-3.5134971278793072, 50.562160660809454], [-3.5123299898139204, 50.561659994617465], [-3.5113699898138515, 50.560549994616615], [-3.5107213226222234, 50.56089595112615], [-3.5110260798411157, 50.55971779340777]]]}}, {"type": "Feature", "properties": {"type": "postcode-cell", "postcode": "TQ14 9BN", "postcodes": ["TQ14 9BN"]}, "geometry": {"type": "Polygon", "coordinates": [[[-3.5143963636800217, 50.553402415272515], [-3.5137823227440244, 50.553498460436444], [-3.5130070903785535, 50.55340243266087], [-3.5123872953294817, 50.552316994247036], [-3.5129288796827, 50.55223255460916], [-3.5148806048865717, 50.5532343956812], [-3.5143963636800217, 50.553402415272515]]]}}, {"type": "Feature", "properties": {"type": "postcode-cell", "postcode": "TQ14 9AQ", "postcodes": ["TQ14 9AQ"]}, "geometry": {"type": "Polygon", "coordinates": [[[-3.5129536883675128, 50.548316302296364], [-3.512113730659661, 50.54807389029734], [-3.51244476871894, 50.54718519531628], [-3.51379085427756, 50.54814202050478], [-3.5129536883675128, 50.548316302296364]]]}}, {"type": "Feature", "properties": {"type": "postcode-cell", "postcode": "TQ14 9BE", "postcodes": ["TQ14 9BE"]}, "geometry": {"type": "Polygon", "coordinates": [[[-3.5133203133069335, 50.55180581626088], [-3.5129288796827, 50.55223255460916], [-3.5123872953294817, 50.552316994247036], [-3.5118374659979077, 50.552280403340546], [-3.5125323058972318, 50.5514035473319], [-3.513280335472628, 50.551729378623506], [-3.5133203133069335, 50.55180581626088]]]}}, {"type": "Feature", "properties": {"type": "postcode-cell", "postcode": "TQ14 9UP", "postcodes": ["TQ14 9UP"]}, "geometry": {"type": "Polygon", "coordinates": [[[-3.5140269412446106, 50.55608317159504], [-3.5120745549574814, 50.556985743415424], [-3.511546057260955, 50.556469484730926], [-3.5117165643670893, 50.55612610804971], [-3.5140026330640484, 50.55575415452799], [-3.5141388473886175, 50.55590897368552], [-3.5140269412446106, 50.55608317159504]]]}}, {"type": "Feature", "properties": {"type": "postcode-cell", "postcode": "TQ14 8ES", "postcodes": ["TQ14 8ES"]}, "geometry": {"type": "Polygon", "coordinates": [[[-3.501862526229196, 50.54661312720511], [-3.5012309678758586, 50.54681395801362], [-3.5009225044302337, 50.546771941797374], [-3.5007020691845594, 50.54648107923244], [-3.500749989813948, 50.54648999460595], [-3.5012799898145475, 50.5459299946055], [-3.5020855748125403, 50.545968564106225], [-3.501862526229196, 50.54661312720511]]]}}, {"type": "Feature", "properties": {"type": "postcode-cell", "postcode": "TQ14 9AY", "postcodes": ["TQ14 9AY"]}, "geometry": {"type": "Polygon", "coordinates": [[[-3.512772996587704, 50.54886988949259], [-3.5122251984441637, 50.549120248110164], [-3.511471837608832, 50.54897259302731], [-3.511941152583947, 50.54812307524536], [-3.512113730659661, 50.54807389029734], [-3.5129536883675128, 50.548316302296364], [-3.512772996587704, 50.54886988949259]]]}}, {"type": "Feature", "properties": {"type": "postcode-cell", "postcode": "TQ14 9AF", "postcodes": ["TQ14 9AF"]}, "geometry": {"type": "Polygon", "coordinates": [[[-3.51244476871894, 50.54718519531628], [-3.512113730659661, 50.54807389029734], [-3.511941152583947, 50.54812307524536], [-3.510766232880932, 50.547836233683064], [-3.510737832044609, 50.54778805539623], [-3.510843243868199, 50.54728184834822], [-3.511891020196972, 50.546868783488875], [-3.5124406085408406, 50.547153535824236], [-3.51244476871894, 50.54718519531628]]]}}, {"type": "Feature", "properties": {"type": "postcode-cell", "postcode": "TQ14 9UL", "postcodes": ["TQ14 9UL"]}, "geometry": {"type": "Polygon", "coordinates": [[[-3.5125562723753117, 50.55473990503809], [-3.511358253173959, 50.55457231454814], [-3.511165321319665, 50.55396831322914], [-3.511796395528688, 50.553525995995095], [-3.5130070903785535, 50.55340243266087], [-3.5137823227440244, 50.553498460436444], [-3.5125562723753117, 50.55473990503809]]]}}, {"type": "Feature", "properties": {"type": "postcode-cell", "postcode": "TQ14 9EY", "postcodes": ["TQ14 9EY"]}, "geometry": {"type": "Polygon", "coordinates": [[[-3.5107672137753103, 50.55669911274371], [-3.511546057260955, 50.556469484730926], [-3.5120745549574814, 50.556985743415424], [-3.5122747310479556, 50.55739639879258], [-3.511441922725134, 50.55820208628201], [-3.5109005301560394, 50.558010029054884], [-3.5107672137753103, 50.55669911274371]]]}}, {"type": "Feature", "properties": {"type": "postcode-cell", "postcode": "TQ14 9HA", "postcodes": ["TQ14 9HA"]}, "geometry": {"type": "Polygon", "coordinates": [[[-3.5109005301560394, 50.558010029054884], [-3.5093423152869785, 50.55783248322389], [-3.509905116722286, 50.55660402167984], [-3.5107672137753103, 50.55669911274371], [-3.5109005301560394, 50.558010029054884]]]}}, {"type": "Feature", "properties": {"type": "postcode-cell", "postcode": "TQ14 9DZ", "postcodes": ["TQ14 9DZ"]}, "geometry": {"type": "Polygon", "coordinates": [[[-3.5123872953294817, 50.552316994247036], [-3.5130070903785535, 50.55340243266087], [-3.511796395528688, 50.553525995995095], [-3.5115996357938766, 50.55230024016193], [-3.5118374659979077, 50.552280403340546], [-3.5123872953294817, 50.552316994247036]]]}}, {"type": "Feature", "properties": {"type": "postcode-cell", "postcode": "TQ14 9DY", "postcodes": ["TQ14 9DY"]}, "geometry": {"type": "Polygon", "coordinates": [[[-3.5118374659979077, 50.552280403340546], [-3.5115996357938766, 50.55230024016193], [-3.5113902389543967, 50.55223772224369], [-3.511249710686044, 50.55169999432173], [-3.512199812679232, 50.55087081956448], [-3.5125323058972318, 50.5514035473319], [-3.5118374659979077, 50.552280403340546]]]}}, {"type": "Feature", "properties": {"type": "postcode-cell", "postcode": "TQ14 9UN", "postcodes": ["TQ14 9UN"]}, "geometry": {"type": "Polygon", "coordinates": [[[-3.5117165643670893, 50.55612610804971], [-3.510958659976963, 50.555465141382676], [-3.5107728257523996, 50.5550637035326], [-3.511358253173959, 50.55457231454814], [-3.5125562723753117, 50.55473990503809], [-3.513605409388944, 50.555302669239076], [-3.5140026330640484, 50.55575415452799], [-3.5117165643670893, 50.55612610804971]]]}}, {"type": "Feature", "properties": {"type": "postcode-cell", "postcode": "TQ14 9AZ", "postcodes": ["TQ14 9AZ"]}, "geometry": {"type": "Polygon", "coordinates": [[[-3.5124209048403428, 50.54939233809545], [-3.512061893205066, 50.54980634126101], [-3.511141618725561, 50.549818111692936], [-3.511218913865101, 50.549029597315695], [-3.511471837608832, 50.54897259302731], [-3.5122251984441637, 50.549120248110164], [-3.5124209048403428, 50.54939233809545]]]}}, {"type": "Feature", "properties": {"type": "postcode-cell", "postcode": "TQ14 9DX", "postcodes": ["TQ14 9DX"]}, "geometry": {"type": "Polygon", "coordinates": [[[-3.511165321319665, 50.55396831322914], [-3.510539231025156, 50.55373009695718], [-3.5101961525735135, 50.553354016731994], [-3.510278330992815, 50.55276423805221], [-3.510973009222171, 50.55232490278667], [-3.5113902389543967, 50.55223772224369], [-3.5115996357938766, 50.55230024016193], [-3.511796395528688, 50.553525995995095], [-3.511165321319665, 50.55396831322914]]]}}, {"type": "Feature", "properties": {"type": "postcode-cell", "postcode": "TQ14 9BA", "postcodes": ["TQ14 9BA"]}, "geometry": {"type": "Polygon", "coordinates": [[[-3.512228728181093, 50.55076141129501], [-3.510619366132393, 50.55036691550258], [-3.511141618725561, 50.549818111692936], [-3.512061893205066, 50.54980634126101], [-3.512797740290947, 50.550555496275734], [-3.512228728181093, 50.55076141129501]]]}}, {"type": "Feature", "properties": {"type": "postcode-cell", "postcode": "TQ14 9DU", "postcodes": ["TQ14 9DU"]}, "geometry": {"type": "Polygon", "coordinates": [[[-3.512199812679232, 50.55087081956448], [-3.511249710686044, 50.55169999432173], [-3.5105955794237578, 50.55133089992711], [-3.5102578389364942, 50.550431766037114], [-3.510619366132393, 50.55036691550258], [-3.512228728181093, 50.55076141129501], [-3.512199812679232, 50.55087081956448]]]}}, {"type": "Feature", "properties": {"type": "postcode-cell", "postcode": "TQ14 9EZ", "postcodes": ["TQ14 9EZ"]}, "geometry": {"type": "Polygon", "coordinates": [[[-3.511546057260955, 50.556469484730926], [-3.5107672137753103, 50.55669911274371], [-3.509905116722286, 50.55660402167984], [-3.50975160042671, 50.55647529455382], [-3.510958659976963, 50.555465141382676], [-3.5117165643670893, 50.55612610804971], [-3.511546057260955, 50.556469484730926]]]}}, {"type": "Feature", "properties": {"type": "postcode-cell", "postcode": "TQ14 9BQ", "postcodes": ["TQ14 9BQ"]}, "geometry": {"type": "Polygon", "coordinates": [[[-3.511218913865101, 50.549029597315695], [-3.5102497119796436, 50.54879793279308], [-3.5102563517063956, 50.54864072524702], [-3.510766232880932, 50.547836233683064], [-3.511941152583947, 50.54812307524536], [-3.511471837608832, 50.54897259302731], [-3.511218913865101, 50.549029597315695]]]}}, {"type": "Feature", "properties": {"type": "postcode-cell", "postcode": "TQ14 9DS", "postcodes": ["TQ14 9DS"]}, "geometry": {"type": "Polygon", "coordinates": [[[-3.510619366132393, 50.55036691550258], [-3.5102578389364942, 50.550431766037114], [-3.5101886990184834, 50.55042284366318], [-3.5097837059136725, 50.549046114041424], [-3.50982412493657, 50.54896112968504], [-3.5102497119796436, 50.54879793279308], [-3.511218913865101, 50.549029597315695], [-3.511141618725561, 50.549818111692936], [-3.510619366132393, 50.55036691550258]]]}}, {"type": "Feature", "properties": {"type": "postcode-cell", "postcode": "TQ14 9AB", "postcodes": ["TQ14 9AB"]}, "geometry": {"type": "Polygon", "coordinates": [[[-3.510737832044609, 50.54778805539623], [-3.5100589305038907, 50.54776145010128], [-3.5088607161238743, 50.54660445887557], [-3.5091116186652465, 50.54661521108811], [-3.510843243868199, 50.54728184834822], [-3.510737832044609, 50.54778805539623]]]}}, {"type": "Feature", "properties": {"type": "postcode-cell", "postcode": "TQ14 9NW", "postcodes": ["TQ14 9NW"]}, "geometry": {"type": "Polygon", "coordinates": [[[-3.5117974282723265, 50.55875602167798], [-3.5110260798411157, 50.55971779340777], [-3.509280044160017, 50.55886125377417], [-3.509063160547776, 50.55800151477545], [-3.509295874618923, 50.557841352385786], [-3.5093423152869785, 50.55783248322389], [-3.5109005301560394, 50.558010029054884], [-3.511441922725134, 50.55820208628201], [-3.5117974282723265, 50.55875602167798]]]}}, {"type": "Feature", "properties": {"type": "postcode-cell", "postcode": "TQ14 9EU", "postcodes": ["TQ14 9EU"]}, "geometry": {"type": "Polygon", "coordinates": [[[-3.5107728257523996, 50.5550637035326], [-3.5102279884383796, 50.55508904340864], [-3.509158178994832, 50.55416557747388], [-3.509329909478999, 50.554058512832874], [-3.510539231025156, 50.55373009695718], [-3.511165321319665, 50.55396831322914], [-3.511358253173959, 50.55457231454814], [-3.5107728257523996, 50.5550637035326]]]}}, {"type": "Feature", "properties": {"type": "postcode-cell", "postcode": "TQ14 9EX", "postcodes": ["TQ14 9EX"]}, "geometry": {"type": "Polygon", "coordinates": [[[-3.510958659976963, 50.555465141382676], [-3.50975160042671, 50.55647529455382], [-3.5092057695741263, 50.55628512282734], [-3.509901281546399, 50.5551687141628], [-3.509906572944566, 50.5551657900836], [-3.5102279884383796, 50.55508904340864], [-3.5107728257523996, 50.5550637035326], [-3.510958659976963, 50.555465141382676]]]}}, {"type": "Feature", "properties": {"type": "postcode-cell", "postcode": "TQ14 9DT", "postcodes": ["TQ14 9DT"]}, "geometry": {"type": "Polygon", "coordinates": [[[-3.5113902389543967, 50.55223772224369], [-3.510973009222171, 50.55232490278667], [-3.5095433127912568, 50.55180304287851], [-3.5105955794237578, 50.55133089992711], [-3.511249710686044, 50.55169999432173], [-3.5113902389543967, 50.55223772224369]]]}}, {"type": "Feature", "properties": {"type": "postcode-cell", "postcode": "TQ14 8HB", "postcodes": ["TQ14 8HB"]}, "geometry": {"type": "Polygon", "coordinates": [[[-3.50489911962215, 50.54706756102928], [-3.5042871457551166, 50.54739926341118], [-3.503827814403344, 50.54751616954801], [-3.503356171694142, 50.54724257802156], [-3.503165386273233, 50.54704488338899], [-3.5033045303700017, 50.54602691408027], [-3.505128349346075, 50.54611419402962], [-3.50489911962215, 50.54706756102928]]]}}, {"type": "Feature", "properties": {"type": "postcode-cell", "postcode": "TQ14 9AA", "postcodes": ["TQ14 9AA"]}, "geometry": {"type": "Polygon", "coordinates": [[[-3.511891020196972, 50.546868783488875], [-3.510843243868199, 50.54728184834822], [-3.5091116186652465, 50.54661521108811], [-3.509689989819475, 50.546639994605876], [-3.5097999898194465, 50.54683999460604], [-3.50971998981951, 50.54659999460585], [-3.510469989820064, 50.546429994605724], [-3.5103399898202454, 50.5458799946053], [-3.511029989820415, 50.54642999460572], [-3.5118028145097155, 50.54631285491933], [-3.511891020196972, 50.546868783488875]]]}}, {"type": "Feature", "properties": {"type": "postcode-cell", "postcode": "TQ14 9BJ", "postcodes": ["TQ14 9BJ"]}, "geometry": {"type": "Polygon", "coordinates": [[[-3.5102497119796436, 50.54879793279308], [-3.50982412493657, 50.54896112968504], [-3.509264305006548, 50.54880848039662], [-3.5085250494176874, 50.54834170129242], [-3.508701046663964, 50.54801063610085], [-3.5088634536265944, 50.54783766838628], [-3.5092799577289777, 50.54791379541934], [-3.5102563517063956, 50.54864072524702], [-3.5102497119796436, 50.54879793279308]]]}}, {"type": "Feature", "properties": {"type": "postcode-cell", "postcode": "TQ14 9BH", "postcodes": ["TQ14 9BH"]}, "geometry": {"type": "Polygon", "coordinates": [[[-3.510766232880932, 50.547836233683064], [-3.5102563517063956, 50.54864072524702], [-3.5092799577289777, 50.54791379541934], [-3.5100589305038907, 50.54776145010128], [-3.510737832044609, 50.54778805539623], [-3.510766232880932, 50.547836233683064]]]}}, {"type": "Feature", "properties": {"type": "postcode-cell", "postcode": "TQ14 9ED", "postcodes": ["TQ14 9ED"]}, "geometry": {"type": "Polygon", "coordinates": [[[-3.510278330992815, 50.55276423805221], [-3.5093491875538985, 50.552531133923544], [-3.508841414008111, 50.55207778772362], [-3.509540423806195, 50.55180299370156], [-3.5095433127912568, 50.55180304287851], [-3.510973009222171, 50.55232490278667], [-3.510278330992815, 50.55276423805221]]]}}, {"type": "Feature", "properties": {"type": "postcode-cell", "postcode": "TQ14 9DR", "postcodes": ["TQ14 9DR"]}, "geometry": {"type": "Polygon", "coordinates": [[[-3.5102578389364942, 50.550431766037114], [-3.5105955794237578, 50.55133089992711], [-3.5095433127912568, 50.55180304287851], [-3.509540423806195, 50.55180299370156], [-3.509314608840333, 50.55053240882843], [-3.5101886990184834, 50.55042284366318], [-3.5102578389364942, 50.550431766037114]]]}}, {"type": "Feature", "properties": {"type": "postcode-cell", "postcode": "TQ14 9LL", "postcodes": ["TQ14 9LL"]}, "geometry": {"type": "Polygon", "coordinates": [[[-3.50975160042671, 50.55647529455382], [-3.509905116722286, 50.55660402167984], [-3.5093423152869785, 50.55783248322389], [-3.509295874618923, 50.557841352385786], [-3.5086506631428254, 50.557337361644876], [-3.5085421969241843, 50.55628657499954], [-3.50854687643766, 50.55628175019877], [-3.5092057695741263, 50.55628512282734], [-3.50975160042671, 50.55647529455382]]]}}, {"type": "Feature", "properties": {"type": "postcode-cell", "postcode": "TQ14 9BL", "postcodes": ["TQ14 9BL"]}, "geometry": {"type": "Polygon", "coordinates": [[[-3.5100589305038907, 50.54776145010128], [-3.5092799577289777, 50.54791379541934], [-3.5088634536265944, 50.54783766838628], [-3.5085215783469375, 50.546589924549906], [-3.5088607161238743, 50.54660445887557], [-3.5100589305038907, 50.54776145010128]]]}}, {"type": "Feature", "properties": {"type": "postcode-cell", "postcode": "TQ14 9DP", "postcodes": ["TQ14 9DP"]}, "geometry": {"type": "Polygon", "coordinates": [[[-3.5101886990184834, 50.55042284366318], [-3.509314608840333, 50.55053240882843], [-3.509268483996829, 50.550528330169335], [-3.5087604155978878, 50.550199566089994], [-3.508673373231112, 50.549640896303536], [-3.5097837059136725, 50.549046114041424], [-3.5101886990184834, 50.55042284366318]]]}}, {"type": "Feature", "properties": {"type": "postcode-cell", "postcode": "TQ14 9EB", "postcodes": ["TQ14 9EB"]}, "geometry": {"type": "Polygon", "coordinates": [[[-3.509329909478999, 50.554058512832874], [-3.5088601089276175, 50.55326095416753], [-3.508883356145909, 50.55325537180769], [-3.5101961525735135, 50.553354016731994], [-3.510539231025156, 50.55373009695718], [-3.509329909478999, 50.554058512832874]]]}}, {"type": "Feature", "properties": {"type": "postcode-cell", "postcode": "TQ14 9DQ", "postcodes": ["TQ14 9DQ"]}, "geometry": {"type": "Polygon", "coordinates": [[[-3.5088634536265944, 50.54783766838628], [-3.508701046663964, 50.54801063610085], [-3.50686817560086, 50.547743169045866], [-3.5068614663709856, 50.547702936183214], [-3.5078463283791614, 50.546560982594144], [-3.5085215783469375, 50.546589924549906], [-3.5088634536265944, 50.54783766838628]]]}}, {"type": "Feature", "properties": {"type": "postcode-cell", "postcode": "TQ14 9FF", "postcodes": ["TQ14 9FF"]}, "geometry": {"type": "Polygon", "coordinates": [[[-3.510278330992815, 50.55276423805221], [-3.5101961525735135, 50.553354016731994], [-3.508883356145909, 50.55325537180769], [-3.5093491875538985, 50.552531133923544], [-3.510278330992815, 50.55276423805221]]]}}, {"type": "Feature", "properties": {"type": "postcode-cell", "postcode": "TQ14 9UB", "postcodes": ["TQ14 9UB"]}, "geometry": {"type": "Polygon", "coordinates": [[[-3.509280044160017, 50.55886125377417], [-3.5110260798411157, 50.55971779340777], [-3.5107213226222234, 50.56089595112615], [-3.5106199898131885, 50.56094999461696], [-3.5096399898130497, 50.55995999461619], [-3.50841998981253, 50.559449994615825], [-3.5083875575183474, 50.55930912079574], [-3.509280044160017, 50.55886125377417]]]}}, {"type": "Feature", "properties": {"type": "postcode-cell", "postcode": "TQ14 9DN", "postcodes": ["TQ14 9DN"]}, "geometry": {"type": "Polygon", "coordinates": [[[-3.509264305006548, 50.54880848039662], [-3.508471350332985, 50.54909623040003], [-3.5081900001332906, 50.54896038571041], [-3.5082299972776543, 50.54842882802378], [-3.5085250494176874, 50.54834170129242], [-3.509264305006548, 50.54880848039662]]]}}, {"type": "Feature", "properties": {"type": "postcode-cell", "postcode": "TQ14 9BR", "postcodes": ["TQ14 9BR"]}, "geometry": {"type": "Polygon", "coordinates": [[[-3.508841414008111, 50.55207778772362], [-3.5082195935803195, 50.552041491794405], [-3.5079214970388577, 50.55170494626902], [-3.508490162815807, 50.55097175191677], [-3.509268483996829, 50.550528330169335], [-3.509314608840333, 50.55053240882843], [-3.509540423806195, 50.55180299370156], [-3.508841414008111, 50.55207778772362]]]}}, {"type": "Feature", "properties": {"type": "postcode-cell", "postcode": "TQ14 9EE", "postcodes": ["TQ14 9EE"]}, "geometry": {"type": "Polygon", "coordinates": [[[-3.5088601089276175, 50.55326095416753], [-3.508570226923604, 50.553271433474755], [-3.5083599898159727, 50.5521999946102], [-3.5082195935803195, 50.552041491794405], [-3.508841414008111, 50.55207778772362], [-3.5093491875538985, 50.552531133923544], [-3.508883356145909, 50.55325537180769], [-3.5088601089276175, 50.55326095416753]]]}}, {"type": "Feature", "properties": {"type": "postcode-cell", "postcode": "TQ14 9DW", "postcodes": ["TQ14 9DW"]}, "geometry": {"type": "Polygon", "coordinates": [[[-3.5097837059136725, 50.549046114041424], [-3.508673373231112, 50.549640896303536], [-3.5084553405092853, 50.54950958057098], [-3.508471350332985, 50.54909623040003], [-3.509264305006548, 50.54880848039662], [-3.50982412493657, 50.54896112968504], [-3.5097837059136725, 50.549046114041424]]]}}, {"type": "Feature", "properties": {"type": "postcode-cell", "postcode": "TQ14 9ET", "postcodes": ["TQ14 9ET"]}, "geometry": {"type": "Polygon", "coordinates": [[[-3.5102279884383796, 50.55508904340864], [-3.509906572944566, 50.5551657900836], [-3.5088604325834787, 50.554750333694635], [-3.508757836833507, 50.554227512742905], [-3.509158178994832, 50.55416557747388], [-3.5102279884383796, 50.55508904340864]]]}}, {"type": "Feature", "properties": {"type": "postcode-cell", "postcode": "TQ14 9ER", "postcodes": ["TQ14 9ER"]}, "geometry": {"type": "Polygon", "coordinates": [[[-3.508757836833507, 50.554227512742905], [-3.508570226923604, 50.553271433474755], [-3.5088601089276175, 50.55326095416753], [-3.509329909478999, 50.554058512832874], [-3.509158178994832, 50.55416557747388], [-3.508757836833507, 50.554227512742905]]]}}, {"type": "Feature", "properties": {"type": "postcode-cell", "postcode": "TQ14 9HJ", "postcodes": ["TQ14 9HJ"]}, "geometry": {"type": "Polygon", "coordinates": [[[-3.5092057695741263, 50.55628512282734], [-3.50854687643766, 50.55628175019877], [-3.508457196701195, 50.55618278716707], [-3.508861737239569, 50.55535338215632], [-3.509901281546399, 50.5551687141628], [-3.5092057695741263, 50.55628512282734]]]}}, {"type": "Feature", "properties": {"type": "postcode-cell", "postcode": "TQ14 9ES", "postcodes": ["TQ14 9ES"]}, "geometry": {"type": "Polygon", "coordinates": [[[-3.509906572944566, 50.5551657900836], [-3.509901281546399, 50.5551687141628], [-3.508861737239569, 50.55535338215632], [-3.50805354227181, 50.55508082297228], [-3.5079177634546808, 50.55495053027787], [-3.5088799898150254, 50.55484999461226], [-3.5088604325834787, 50.554750333694635], [-3.509906572944566, 50.5551657900836]]]}}, {"type": "Feature", "properties": {"type": "postcode-cell", "postcode": "TQ14 9NL", "postcodes": ["TQ14 9NL"]}, "geometry": {"type": "Polygon", "coordinates": [[[-3.509063160547776, 50.55800151477545], [-3.509280044160017, 50.55886125377417], [-3.5083875575183474, 50.55930912079574], [-3.5081316707872, 50.55819761272332], [-3.509063160547776, 50.55800151477545]]]}}, {"type": "Feature", "properties": {"type": "postcode-cell", "postcode": "TQ14 9BW", "postcodes": ["TQ14 9BW"]}, "geometry": {"type": "Polygon", "coordinates": [[[-3.5087604155978878, 50.550199566089994], [-3.508012110164875, 50.550169405552786], [-3.5076542551197507, 50.549972191483505], [-3.5076912205182658, 50.54950385037105], [-3.507790940688681, 50.549422887780246], [-3.5084553405092853, 50.54950958057098], [-3.508673373231112, 50.549640896303536], [-3.5087604155978878, 50.550199566089994]]]}}, {"type": "Feature", "properties": {"type": "postcode-cell", "postcode": "TQ14 9NH", "postcodes": ["TQ14 9NH"]}, "geometry": {"type": "Polygon", "coordinates": [[[-3.508457196701195, 50.55618278716707], [-3.5080301031375245, 50.55595360621862], [-3.50805354227181, 50.55508082297228], [-3.508861737239569, 50.55535338215632], [-3.508457196701195, 50.55618278716707]]]}}, {"type": "Feature", "properties": {"type": "postcode-cell", "postcode": "TQ14 9FH", "postcodes": ["TQ14 9FH"]}, "geometry": {"type": "Polygon", "coordinates": [[[-3.5077088489993438, 50.55590911759064], [-3.5065275803060274, 50.5561948381457], [-3.5068420550736557, 50.55515258038263], [-3.5077088489993438, 50.55590911759064]]]}}, {"type": "Feature", "properties": {"type": "postcode-cell", "postcode": "TQ14 9DL", "postcodes": ["TQ14 9DL"]}, "geometry": {"type": "Polygon", "coordinates": [[[-3.5084553405092853, 50.54950958057098], [-3.507790940688681, 50.549422887780246], [-3.507630373583784, 50.54914781157106], [-3.5081900001332906, 50.54896038571041], [-3.508471350332985, 50.54909623040003], [-3.5084553405092853, 50.54950958057098]]]}}, {"type": "Feature", "properties": {"type": "postcode-cell", "postcode": "TQ14 9LR", "postcodes": ["TQ14 9LR"]}, "geometry": {"type": "Polygon", "coordinates": [[[-3.5086506631428254, 50.557337361644876], [-3.509295874618923, 50.557841352385786], [-3.509063160547776, 50.55800151477545], [-3.5081316707872, 50.55819761272332], [-3.5080999898129948, 50.558059994614744], [-3.5072917199061564, 50.55711873921268], [-3.5086506631428254, 50.557337361644876]]]}}, {"type": "Feature", "properties": {"type": "postcode-cell", "postcode": "TQ14 9LN", "postcodes": ["TQ14 9LN"]}, "geometry": {"type": "Polygon", "coordinates": [[[-3.50805354227181, 50.55508082297228], [-3.5080301031375245, 50.55595360621862], [-3.5077088489993438, 50.55590911759064], [-3.5068420550736557, 50.55515258038263], [-3.506869989813665, 50.55505999461245], [-3.5079177634546808, 50.55495053027787], [-3.50805354227181, 50.55508082297228]]]}}, {"type": "Feature", "properties": {"type": "postcode-cell", "postcode": "TQ14 9DD", "postcodes": ["TQ14 9DD"]}, "geometry": {"type": "Polygon", "coordinates": [[[-3.5085250494176874, 50.54834170129242], [-3.5082299972776543, 50.54842882802378], [-3.507212153669276, 50.548435116723766], [-3.5069787317264716, 50.54827455446487], [-3.5068345625106048, 50.54812619362068], [-3.50686817560086, 50.547743169045866], [-3.508701046663964, 50.54801063610085], [-3.5085250494176874, 50.54834170129242]]]}}, {"type": "Feature", "properties": {"type": "postcode-cell", "postcode": "TQ14 8FX", "postcodes": ["TQ14 8FX"]}, "geometry": {"type": "Polygon", "coordinates": [[[-3.5010357519777826, 50.54702559827332], [-3.5012309678758586, 50.54681395801362], [-3.501862526229196, 50.54661312720511], [-3.502026394601795, 50.54702026588003], [-3.501235867402673, 50.547396865951235], [-3.5010357519777826, 50.54702559827332]]]}}, {"type": "Feature", "properties": {"type": "postcode-cell", "postcode": "TQ14 8FW", "postcodes": ["TQ14 8FW"]}, "geometry": {"type": "Polygon", "coordinates": [[[-3.501235867402673, 50.547396865951235], [-3.501187179146081, 50.547457610317274], [-3.5008252101659103, 50.54739882951052], [-3.5007307610869653, 50.54706856688987], [-3.5010357519777826, 50.54702559827332], [-3.501235867402673, 50.547396865951235]]]}}, {"type": "Feature", "properties": {"type": "postcode-cell", "postcode": "TQ14 9LW", "postcodes": ["TQ14 9LW"]}, "geometry": {"type": "Polygon", "coordinates": [[[-3.5085421969241843, 50.55628657499954], [-3.5071042941277706, 50.55690046980796], [-3.5065199898128907, 50.556219994613365], [-3.5065275803060274, 50.5561948381457], [-3.5077088489993438, 50.55590911759064], [-3.5080301031375245, 50.55595360621862], [-3.508457196701195, 50.55618278716707], [-3.50854687643766, 50.55628175019877], [-3.5085421969241843, 50.55628657499954]]]}}, {"type": "Feature", "properties": {"type": "postcode-cell", "postcode": "TQ14 9EN", "postcodes": ["TQ14 9EN"]}, "geometry": {"type": "Polygon", "coordinates": [[[-3.5072043020731325, 50.550632196042336], [-3.508490162815807, 50.55097175191677], [-3.5079214970388577, 50.55170494626902], [-3.5070008463748032, 50.55066551287472], [-3.5072043020731325, 50.550632196042336]]]}}, {"type": "Feature", "properties": {"type": "postcode-cell", "postcode": "TQ14 9LP", "postcodes": ["TQ14 9LP"]}, "geometry": {"type": "Polygon", "coordinates": [[[-3.5086506631428254, 50.557337361644876], [-3.5072917199061564, 50.55711873921268], [-3.5071042941277706, 50.55690046980796], [-3.5085421969241843, 50.55628657499954], [-3.5086506631428254, 50.557337361644876]]]}}, {"type": "Feature", "properties": {"type": "postcode-cell", "postcode": "TQ14 9EA", "postcodes": ["TQ14 9EA"]}, "geometry": {"type": "Polygon", "coordinates": [[[-3.509268483996829, 50.550528330169335], [-3.508490162815807, 50.55097175191677], [-3.5072043020731325, 50.550632196042336], [-3.508012110164875, 50.550169405552786], [-3.5087604155978878, 50.550199566089994], [-3.509268483996829, 50.550528330169335]]]}}, {"type": "Feature", "properties": {"type": "postcode-cell", "postcode": "TQ14 9DG", "postcodes": ["TQ14 9DG"]}, "geometry": {"type": "Polygon", "coordinates": [[[-3.5068614663709856, 50.547702936183214], [-3.5054431531275525, 50.547446856866294], [-3.50489911962215, 50.54706756102928], [-3.505128349346075, 50.54611419402962], [-3.5073399898182043, 50.546219994605586], [-3.5075899898182024, 50.54654999460585], [-3.5078463283791614, 50.546560982594144], [-3.5068614663709856, 50.547702936183214]]]}}, {"type": "Feature", "properties": {"type": "postcode-cell", "postcode": "TQ14 9DJ", "postcodes": ["TQ14 9DJ"]}, "geometry": {"type": "Polygon", "coordinates": [[[-3.5081900001332906, 50.54896038571041], [-3.507630373583784, 50.54914781157106], [-3.5071805019851294, 50.548934457257964], [-3.507212153669276, 50.548435116723766], [-3.5082299972776543, 50.54842882802378], [-3.5081900001332906, 50.54896038571041]]]}}, {"type": "Feature", "properties": {"type": "postcode-cell", "postcode": "TQ14 9EL", "postcodes": ["TQ14 9EL"]}, "geometry": {"type": "Polygon", "coordinates": [[[-3.507212153669276, 50.548435116723766], [-3.5071805019851294, 50.548934457257964], [-3.505970485822205, 50.549613451631714], [-3.5059043322336216, 50.54957230039735], [-3.506069066022521, 50.54894535618693], [-3.5069787317264716, 50.54827455446487], [-3.507212153669276, 50.548435116723766]]]}}, {"type": "Feature", "properties": {"type": "postcode-cell", "postcode": "TQ14 9DH", "postcodes": ["TQ14 9DH"]}, "geometry": {"type": "Polygon", "coordinates": [[[-3.5076542551197507, 50.549972191483505], [-3.506347132480217, 50.54992742380672], [-3.5061899898157884, 50.54974999460835], [-3.5061289969742435, 50.549712053989566], [-3.5076912205182658, 50.54950385037105], [-3.5076542551197507, 50.549972191483505]]]}}, {"type": "Feature", "properties": {"type": "postcode-cell", "postcode": "TQ14 9EJ", "postcodes": ["TQ14 9EJ"]}, "geometry": {"type": "Polygon", "coordinates": [[[-3.5076912205182658, 50.54950385037105], [-3.5061289969742435, 50.549712053989566], [-3.505970485822205, 50.549613451631714], [-3.5071805019851294, 50.548934457257964], [-3.507630373583784, 50.54914781157106], [-3.507790940688681, 50.549422887780246], [-3.5076912205182658, 50.54950385037105]]]}}, {"type": "Feature", "properties": {"type": "postcode-cell", "postcode": "TQ14 9EP", "postcodes": ["TQ14 9EP"]}, "geometry": {"type": "Polygon", "coordinates": [[[-3.508012110164875, 50.550169405552786], [-3.5072043020731325, 50.550632196042336], [-3.5070008463748032, 50.55066551287472], [-3.506347132480217, 50.54992742380672], [-3.5076542551197507, 50.549972191483505], [-3.508012110164875, 50.550169405552786]]]}}, {"type": "Feature", "properties": {"type": "postcode-cell", "postcode": "TQ14 8FY", "postcodes": ["TQ14 8FY"]}, "geometry": {"type": "Polygon", "coordinates": [[[-3.501187179146081, 50.547457610317274], [-3.501235867402673, 50.547396865951235], [-3.502026394601795, 50.54702026588003], [-3.5021218992377707, 50.54708885575999], [-3.5022864080509244, 50.54747406191141], [-3.5022819196910002, 50.54765202952841], [-3.501305499138105, 50.54773971044777], [-3.501187179146081, 50.547457610317274]]]}}, {"type": "Feature", "properties": {"type": "postcode-cell", "postcode": "TQ14 9BY", "postcodes": ["TQ14 9BY"]}, "geometry": {"type": "Polygon", "coordinates": [[[-3.501305499138105, 50.54773971044777], [-3.500299989813023, 50.54782999460701], [-3.4997390885160202, 50.54764581846695], [-3.4998939119348105, 50.54751989399084], [-3.4999927306784366, 50.54748203407714], [-3.5008252101659103, 50.54739882951052], [-3.501187179146081, 50.547457610317274], [-3.501305499138105, 50.54773971044777]]]}}, {"type": "Feature", "properties": {"type": "postcode-cell", "postcode": "TQ14 9EH", "postcodes": ["TQ14 9EH"]}, "geometry": {"type": "Polygon", "coordinates": [[[-3.50513851854445, 50.548385388034646], [-3.505320546210634, 50.54831646305828], [-3.505817061409133, 50.54833808730554], [-3.506069066022521, 50.54894535618693], [-3.5059043322336216, 50.54957230039735], [-3.50475144463008, 50.54885512204108], [-3.50513851854445, 50.548385388034646]]]}}, {"type": "Feature", "properties": {"type": "postcode-cell", "postcode": "TQ14 9EQ", "postcodes": ["TQ14 9EQ"]}, "geometry": {"type": "Polygon", "coordinates": [[[-3.5047667501180566, 50.54815746709769], [-3.50513851854445, 50.548385388034646], [-3.50475144463008, 50.54885512204108], [-3.503608212418451, 50.54814391688073], [-3.5047667501180566, 50.54815746709769]]]}}, {"type": "Feature", "properties": {"type": "postcode-cell", "postcode": "TQ14 9QQ", "postcodes": ["TQ14 9QQ"]}, "geometry": {"type": "Polygon", "coordinates": [[[-3.506069066022521, 50.54894535618693], [-3.505817061409133, 50.54833808730554], [-3.5068345625106048, 50.54812619362068], [-3.5069787317264716, 50.54827455446487], [-3.506069066022521, 50.54894535618693]]]}}, {"type": "Feature", "properties": {"type": "postcode-cell", "postcode": "TQ14 9DA", "postcodes": ["TQ14 9DA"]}, "geometry": {"type": "Polygon", "coordinates": [[[-3.50686817560086, 50.547743169045866], [-3.5068345625106048, 50.54812619362068], [-3.505817061409133, 50.54833808730554], [-3.505320546210634, 50.54831646305828], [-3.5054431531275525, 50.547446856866294], [-3.5068614663709856, 50.547702936183214], [-3.50686817560086, 50.547743169045866]]]}}, {"type": "Feature", "properties": {"type": "postcode-cell", "postcode": "TQ14 9DF", "postcodes": ["TQ14 9DF"]}, "geometry": {"type": "Polygon", "coordinates": [[[-3.5054431531275525, 50.547446856866294], [-3.505320546210634, 50.54831646305828], [-3.50513851854445, 50.548385388034646], [-3.5047667501180566, 50.54815746709769], [-3.5042871457551166, 50.54739926341118], [-3.50489911962215, 50.54706756102928], [-3.5054431531275525, 50.547446856866294]]]}}, {"type": "Feature", "properties": {"type": "postcode-cell", "postcode": "TQ14 9DB", "postcodes": ["TQ14 9DB"]}, "geometry": {"type": "Polygon", "coordinates": [[[-3.503827814403344, 50.54751616954801], [-3.5042871457551166, 50.54739926341118], [-3.5047667501180566, 50.54815746709769], [-3.503608212418451, 50.54814391688073], [-3.5033682479555153, 50.547994630712694], [-3.503827814403344, 50.54751616954801]]]}}, {"type": "Feature", "properties": {"type": "postcode-cell", "postcode": "TQ14 9BZ", "postcodes": ["TQ14 9BZ"]}, "geometry": {"type": "Polygon", "coordinates": [[[-3.5033682479555153, 50.547994630712694], [-3.50274998981466, 50.54760999460676], [-3.5022819196910002, 50.54765202952841], [-3.5022864080509244, 50.54747406191141], [-3.503356171694142, 50.54724257802156], [-3.503827814403344, 50.54751616954801], [-3.5033682479555153, 50.547994630712694]]]}}, {"type": "Feature", "properties": {"type": "postcode-cell", "postcode": "TQ14 8HA", "postcodes": ["TQ14 8HA"]}, "geometry": {"type": "Polygon", "coordinates": [[[-3.502026394601795, 50.54702026588003], [-3.501862526229196, 50.54661312720511], [-3.5020855748125403, 50.545968564106225], [-3.5033045303700017, 50.54602691408027], [-3.503165386273233, 50.54704488338899], [-3.5021218992377707, 50.54708885575999], [-3.502026394601795, 50.54702026588003]]]}}, {"type": "Feature", "properties": {"type": "postcode-cell", "postcode": "TQ14 8HD", "postcodes": ["TQ14 8HD"]}, "geometry": {"type": "Polygon", "coordinates": [[[-3.5022864080509244, 50.54747406191141], [-3.5021218992377707, 50.54708885575999], [-3.503165386273233, 50.54704488338899], [-3.503356171694142, 50.54724257802156], [-3.5022864080509244, 50.54747406191141]]]}}, {"type": "Feature", "properties": {"type": "postcode-cell", "postcode": "TQ14 8EH", "postcodes": ["TQ14 8EH"]}, "geometry": {"type": "Polygon", "coordinates": [[[-3.4998527148369813, 50.546923680053915], [-3.4998939119348105, 50.54751989399084], [-3.4997390885160202, 50.54764581846695], [-3.4996299898127092, 50.547609994606844], [-3.499159989812654, 50.54710999460646], [-3.499676764594835, 50.54679815171845], [-3.4998527148369813, 50.546923680053915]]]}}, {"type": "Feature", "properties": {"type": "postcode-cell", "postcode": "TQ14 8EY", "postcodes": ["TQ14 8EY"]}, "geometry": {"type": "Polygon", "coordinates": [[[-3.5010357519777826, 50.54702559827332], [-3.5007307610869653, 50.54706856688987], [-3.500596848436092, 50.54703692837413], [-3.500504509996306, 50.546825354242074], [-3.5009225044302337, 50.546771941797374], [-3.5012309678758586, 50.54681395801362], [-3.5010357519777826, 50.54702559827332]]]}}, {"type": "Feature", "properties": {"type": "postcode-cell", "postcode": "TQ14 8FH", "postcodes": ["TQ14 8FH"]}, "geometry": {"type": "Polygon", "coordinates": [[[-3.5008252101659103, 50.54739882951052], [-3.4999927306784366, 50.54748203407714], [-3.500247691676617, 50.54724889006425], [-3.500596848436092, 50.54703692837413], [-3.5007307610869653, 50.54706856688987], [-3.5008252101659103, 50.54739882951052]]]}}, {"type": "Feature", "properties": {"type": "postcode-cell", "postcode": "TQ14 8EL", "postcodes": ["TQ14 8EL"]}, "geometry": {"type": "Polygon", "coordinates": [[[-3.5004057560106494, 50.54677648272184], [-3.5002351315664257, 50.546851146336586], [-3.4998527148369813, 50.546923680053915], [-3.499676764594835, 50.54679815171845], [-3.5003026626696347, 50.54642045087719], [-3.5004057560106494, 50.54677648272184]]]}}, {"type": "Feature", "properties": {"type": "postcode-cell", "postcode": "TQ14 8EU", "postcodes": ["TQ14 8EU"]}, "geometry": {"type": "Polygon", "coordinates": [[[-3.500504509996306, 50.546825354242074], [-3.5004057560106494, 50.54677648272184], [-3.5003026626696347, 50.54642045087719], [-3.5003199898137183, 50.5464099946059], [-3.5007020691845594, 50.54648107923244], [-3.5009225044302337, 50.546771941797374], [-3.500504509996306, 50.546825354242074]]]}}, {"type": "Feature", "properties": {"type": "postcode-cell", "postcode": "TQ14 8EX", "postcodes": ["TQ14 8EX"]}, "geometry": {"type": "Polygon", "coordinates": [[[-3.4998939119348105, 50.54751989399084], [-3.4998527148369813, 50.546923680053915], [-3.5002351315664257, 50.546851146336586], [-3.500247691676617, 50.54724889006425], [-3.4999927306784366, 50.54748203407714], [-3.4998939119348105, 50.54751989399084]]]}}, {"type": "Feature", "properties": {"type": "postcode-cell", "postcode": "TQ14 8EJ", "postcodes": ["TQ14 8EJ"]}, "geometry": {"type": "Polygon", "coordinates": [[[-3.500596848436092, 50.54703692837413], [-3.500247691676617, 50.54724889006425], [-3.5002351315664257, 50.546851146336586], [-3.5004057560106494, 50.54677648272184], [-3.500504509996306, 50.546825354242074], [-3.500596848436092, 50.54703692837413]]]}}]}