{"type": "FeatureCollection", "features": [{"type": "Feature", "properties": {"type": "ward-outline", "name": "Tiverton Castle"}, "geometry": {"type": "Polygon", "coordinates": [[[-3.48473, 50.90108], [-3.48496, 50.89941], [-3.48531, 50.89918], [-3.48596, 50.89951], [-3.48636, 50.89904], [-3.48589, 50.89871], [-3.48645, 50.89826], [-3.48563, 50.89704], [-3.48797, 50.89642], [-3.48856, 50.89715], [-3.48893, 50.89684], [-3.49028, 50.89728], [-3.48945, 50.89867], [-3.49027, 50.90223], [-3.48963, 50.90617], [-3.49088, 50.90674], [-3.49452, 50.90711], [-3.49755, 50.91014], [-3.49479, 50.91232], [-3.49458, 50.91378], [-3.49108, 50.91447], [-3.48306, 50.9169], [-3.47821, 50.91753], [-3.4809, 50.9154], [-3.48189, 50.91509], [-3.47739, 50.91141], [-3.4776, 50.91121], [-3.47848, 50.91147], [-3.47925, 50.91056], [-3.4795, 50.91015], [-3.47883, 50.90998], [-3.47975, 50.90864], [-3.4795, 50.90844], [-3.47996, 50.90824], [-3.47975, 50.90772], [-3.48046, 50.90765], [-3.48037, 50.90698], [-3.48248, 50.90619], [-3.48209, 50.90563], [-3.48321, 50.90469], [-3.48384, 50.90359], [-3.48364, 50.90315], [-3.48451, 50.90228], [-3.4842, 50.90149], [-3.48567, 50.90083], [-3.48473, 50.90108]]]}}, {"type": "Feature", "properties": {"type": "postcode-cell", "postcode": "EX16 6SQ", "postcodes": ["EX16 6SQ"]}, "geometry": {"type": "Polygon", "coordinates": [[[-3.491189134513953, 50.911409500193294], [-3.4930899623828364, 50.910144173158585], [-3.4972473696675537, 50.90983739647518], [-3.497549989638807, 50.91013999489203], [-3.4947899896360126, 50.91231999489379], [-3.494780096767027, 50.912388775802654], [-3.491189134513953, 50.911409500193294]]]}}, {"type": "Feature", "properties": {"type": "postcode-cell", "postcode": "EX16 6NT", "postcodes": ["EX16 6NT"]}, "geometry": {"type": "Polygon", "coordinates": [[[-3.4930899623828364, 50.910144173158585], [-3.4917477132788406, 50.90929678202983], [-3.491842845069652, 50.90922230942934], [-3.496283978951485, 50.90887404252659], [-3.4972473696675537, 50.90983739647518], [-3.4930899623828364, 50.910144173158585]]]}}, {"type": "Feature", "properties": {"type": "postcode-cell", "postcode": "EX16 6FP", "postcodes": ["EX16 6FP"]}, "geometry": {"type": "Polygon", "coordinates": [[[-3.4930899623828364, 50.910144173158585], [-3.491189134513953, 50.911409500193294], [-3.490231959745033, 50.91142382561116], [-3.489329582572496, 50.9112341675459], [-3.490655096726362, 50.90946177762394], [-3.4917477132788406, 50.90929678202983], [-3.4930899623828364, 50.910144173158585]]]}}, {"type": "Feature", "properties": {"type": "postcode-cell", "postcode": "EX16 6NR", "postcodes": ["EX16 6NR"]}, "geometry": {"type": "Polygon", "coordinates": [[[-3.488976063716779, 50.905138450592354], [-3.4888653906659695, 50.903969038476006], [-3.4899747372035144, 50.90404772066672], [-3.4897221137306986, 50.9056028946002], [-3.488976063716779, 50.905138450592354]]]}}, {"type": "Feature", "properties": {"type": "postcode-cell", "postcode": "EX16 6RZ", "postcodes": ["EX16 6RZ"]}, "geometry": {"type": "Polygon", "coordinates": [[[-3.491842845069652, 50.90922230942934], [-3.4917477132788406, 50.90929678202983], [-3.490655096726362, 50.90946177762394], [-3.490023866189928, 50.90864219098271], [-3.4921907649322903, 50.90687324682298], [-3.4930219843277786, 50.906957739607066], [-3.491842845069652, 50.90922230942934]]]}}, {"type": "Feature", "properties": {"type": "postcode-cell", "postcode": "EX16 6NP", "postcodes": ["EX16 6NP"]}, "geometry": {"type": "Polygon", "coordinates": [[[-3.491842845069652, 50.90922230942934], [-3.4930219843277786, 50.906957739607066], [-3.4945199896382975, 50.907109994889645], [-3.496283978951485, 50.90887404252659], [-3.491842845069652, 50.90922230942934]]]}}, {"type": "Feature", "properties": {"type": "postcode-cell", "postcode": "EX16 6SH", "postcodes": ["EX16 6SH"]}, "geometry": {"type": "Polygon", "coordinates": [[[-3.491494791725067, 50.91348617345998], [-3.490231959745033, 50.91142382561116], [-3.491189134513953, 50.911409500193294], [-3.494780096767027, 50.912388775802654], [-3.494579989635189, 50.913779994894995], [-3.492780293836703, 50.91413480767278], [-3.491494791725067, 50.91348617345998]]]}}, {"type": "Feature", "properties": {"type": "postcode-cell", "postcode": "EX16 6UP", "postcodes": ["EX16 6UP"]}, "geometry": {"type": "Polygon", "coordinates": [[[-3.490231959745033, 50.91142382561116], [-3.491494791725067, 50.91348617345998], [-3.489211208213272, 50.913623889249514], [-3.4881496312707614, 50.91325105068151], [-3.4881218473528564, 50.91289947304169], [-3.4886943574577156, 50.911311759047145], [-3.489329582572496, 50.9112341675459], [-3.490231959745033, 50.91142382561116]]]}}, {"type": "Feature", "properties": {"type": "postcode-cell", "postcode": "EX16 6FT", "postcodes": ["EX16 6FT"]}, "geometry": {"type": "Polygon", "coordinates": [[[-3.4894487200524877, 50.902328807469814], [-3.4891629074099133, 50.902094056589526], [-3.4892060555052233, 50.901866254410024], [-3.490137861340923, 50.90165640366972], [-3.4902699896378797, 50.902229994885786], [-3.490255551555991, 50.902318886247315], [-3.4894487200524877, 50.902328807469814]]]}}, {"type": "Feature", "properties": {"type": "postcode-cell", "postcode": "EX16 6RY", "postcodes": ["EX16 6RY"]}, "geometry": {"type": "Polygon", "coordinates": [[[-3.489211208213272, 50.913623889249514], [-3.491494791725067, 50.91348617345998], [-3.492780293836703, 50.91413480767278], [-3.4910799896326243, 50.914469994895576], [-3.490256522892012, 50.91471953604916], [-3.489211208213272, 50.913623889249514]]]}}, {"type": "Feature", "properties": {"type": "postcode-cell", "postcode": "EX16 6BB", "postcodes": ["EX16 6BB"]}, "geometry": {"type": "Polygon", "coordinates": [[[-3.4881496312707614, 50.91325105068151], [-3.487696795615636, 50.91372763678055], [-3.487290645765142, 50.91378509550622], [-3.484406672420483, 50.91337438113241], [-3.484312336519999, 50.912891424593134], [-3.4881218473528564, 50.91289947304169], [-3.4881496312707614, 50.91325105068151]]]}}, {"type": "Feature", "properties": {"type": "postcode-cell", "postcode": "EX16 6RX", "postcodes": ["EX16 6RX"]}, "geometry": {"type": "Polygon", "coordinates": [[[-3.4877952878106897, 50.914517832640804], [-3.487696795615636, 50.91372763678055], [-3.4881496312707614, 50.91325105068151], [-3.489211208213272, 50.913623889249514], [-3.490256522892012, 50.91471953604916], [-3.4882812254896645, 50.915318090461625], [-3.4877952878106897, 50.914517832640804]]]}}, {"type": "Feature", "properties": {"type": "postcode-cell", "postcode": "EX16 6SG", "postcodes": ["EX16 6SG"]}, "geometry": {"type": "Polygon", "coordinates": [[[-3.490655096726362, 50.90946177762394], [-3.489329582572496, 50.9112341675459], [-3.4886943574577156, 50.911311759047145], [-3.488211183393817, 50.911128424033286], [-3.4871450790708587, 50.909343302797694], [-3.487733729682143, 50.90878506093957], [-3.489477536081861, 50.908531230175356], [-3.490023866189928, 50.90864219098271], [-3.490655096726362, 50.90946177762394]]]}}, {"type": "Feature", "properties": {"type": "postcode-cell", "postcode": "EX16 6SW", "postcodes": ["EX16 6SW"]}, "geometry": {"type": "Polygon", "coordinates": [[[-3.490023866189928, 50.90864219098271], [-3.489477536081861, 50.908531230175356], [-3.4890736735899974, 50.90745949950409], [-3.490958538220903, 50.906747980486664], [-3.4921907649322903, 50.90687324682298], [-3.490023866189928, 50.90864219098271]]]}}, {"type": "Feature", "properties": {"type": "postcode-cell", "postcode": "EX16 6NX", "postcodes": ["EX16 6NX"]}, "geometry": {"type": "Polygon", "coordinates": [[[-3.4892709302525384, 50.90341441491728], [-3.4890923504800404, 50.90342134696284], [-3.4890469847404706, 50.90334077813445], [-3.4891496011667256, 50.903172398418], [-3.4894381880026923, 50.90305006027313], [-3.4895520997668417, 50.90301956840589], [-3.489696854169751, 50.903048372046094], [-3.4892709302525384, 50.90341441491728]]]}}, {"type": "Feature", "properties": {"type": "postcode-cell", "postcode": "EX16 6PA", "postcodes": ["EX16 6PA"]}, "geometry": {"type": "Polygon", "coordinates": [[[-3.489696854169751, 50.903048372046094], [-3.4901319160915754, 50.90308006325132], [-3.490010227430425, 50.90382923164719], [-3.4892709302525384, 50.90341441491728], [-3.489696854169751, 50.903048372046094]]]}}, {"type": "Feature", "properties": {"type": "postcode-cell", "postcode": "EX16 6PE", "postcodes": ["EX16 6PE"]}, "geometry": {"type": "Polygon", "coordinates": [[[-3.489696854169751, 50.903048372046094], [-3.4895520997668417, 50.90301956840589], [-3.4892776790046067, 50.90280510900754], [-3.4891873259167214, 50.90251744854746], [-3.4894487200524877, 50.902328807469814], [-3.490255551555991, 50.902318886247315], [-3.4901319160915754, 50.90308006325132], [-3.489696854169751, 50.903048372046094]]]}}, {"type": "Feature", "properties": {"type": "postcode-cell", "postcode": "EX16 6PW", "postcodes": ["EX16 6PW"]}, "geometry": {"type": "Polygon", "coordinates": [[[-3.4887600952455506, 50.9014704618871], [-3.4896402264420163, 50.90029514510611], [-3.489815453814123, 50.90025671542788], [-3.4900908391996395, 50.90145226901551], [-3.4887600952455506, 50.9014704618871]]]}}, {"type": "Feature", "properties": {"type": "postcode-cell", "postcode": "EX16 6PD", "postcodes": ["EX16 6PD"]}, "geometry": {"type": "Polygon", "coordinates": [[[-3.4892776790046067, 50.90280510900754], [-3.488646998300024, 50.90290059086857], [-3.488717660235881, 50.90252957786088], [-3.4891873259167214, 50.90251744854746], [-3.4892776790046067, 50.90280510900754]]]}}, {"type": "Feature", "properties": {"type": "postcode-cell", "postcode": "EX16 6PB", "postcodes": ["EX16 6PB"]}, "geometry": {"type": "Polygon", "coordinates": [[[-3.4895520997668417, 50.90301956840589], [-3.4894381880026923, 50.90305006027313], [-3.4885735529339352, 50.90297003451806], [-3.488646998300024, 50.90290059086857], [-3.4892776790046067, 50.90280510900754], [-3.4895520997668417, 50.90301956840589]]]}}, {"type": "Feature", "properties": {"type": "postcode-cell", "postcode": "EX16 6PQ", "postcodes": ["EX16 6PQ"]}, "geometry": {"type": "Polygon", "coordinates": [[[-3.4892060555052233, 50.901866254410024], [-3.4886926443277826, 50.90150524770066], [-3.4887600952455506, 50.9014704618871], [-3.4900908391996395, 50.90145226901551], [-3.490137861340923, 50.90165640366972], [-3.4892060555052233, 50.901866254410024]]]}}, {"type": "Feature", "properties": {"type": "postcode-cell", "postcode": "EX16 6PL", "postcodes": ["EX16 6PL"]}, "geometry": {"type": "Polygon", "coordinates": [[[-3.4896402264420163, 50.90029514510611], [-3.4888559313585197, 50.900336180972666], [-3.488302693503526, 50.89998560111018], [-3.4876645093871863, 50.899232514795834], [-3.487788651069712, 50.89902765825705], [-3.4890443968425147, 50.898619216425026], [-3.4894874195844237, 50.89860731287895], [-3.489449989639038, 50.898669994882965], [-3.489815453814123, 50.90025671542788], [-3.4896402264420163, 50.90029514510611]]]}}, {"type": "Feature", "properties": {"type": "postcode-cell", "postcode": "EX16 4LP", "postcodes": ["EX16 4LP"]}, "geometry": {"type": "Polygon", "coordinates": [[[-3.4890443968425147, 50.898619216425026], [-3.4873166618829186, 50.89772019637617], [-3.48672500424009, 50.89674987066724], [-3.4879699896391543, 50.89641999488117], [-3.488559989639186, 50.897149994881765], [-3.488929989639567, 50.896839994881496], [-3.4902799896402232, 50.89727999488183], [-3.4894874195844237, 50.89860731287895], [-3.4890443968425147, 50.898619216425026]]]}}, {"type": "Feature", "properties": {"type": "postcode-cell", "postcode": "EX16 6NE", "postcodes": ["EX16 6NE"]}, "geometry": {"type": "Polygon", "coordinates": [[[-3.4891496011667256, 50.903172398418], [-3.4883960806574907, 50.90308131180083], [-3.4885735529339352, 50.90297003451806], [-3.4894381880026923, 50.90305006027313], [-3.4891496011667256, 50.903172398418]]]}}, {"type": "Feature", "properties": {"type": "postcode-cell", "postcode": "EX16 6NU", "postcodes": ["EX16 6NU"]}, "geometry": {"type": "Polygon", "coordinates": [[[-3.490010227430425, 50.90382923164719], [-3.4899747372035144, 50.90404772066672], [-3.4888653906659695, 50.903969038476006], [-3.488709496989211, 50.903934144186024], [-3.4890923504800404, 50.90342134696284], [-3.4892709302525384, 50.90341441491728], [-3.490010227430425, 50.90382923164719]]]}}, {"type": "Feature", "properties": {"type": "postcode-cell", "postcode": "EX16 6PG", "postcodes": ["EX16 6PG"]}, "geometry": {"type": "Polygon", "coordinates": [[[-3.4891873259167214, 50.90251744854746], [-3.488717660235881, 50.90252957786088], [-3.488460386435871, 50.90241194098675], [-3.4884389607667368, 50.90214754530878], [-3.4891629074099133, 50.902094056589526], [-3.4894487200524877, 50.902328807469814], [-3.4891873259167214, 50.90251744854746]]]}}, {"type": "Feature", "properties": {"type": "postcode-cell", "postcode": "EX16 6NW", "postcodes": ["EX16 6NW"]}, "geometry": {"type": "Polygon", "coordinates": [[[-3.4888653906659695, 50.903969038476006], [-3.488976063716779, 50.905138450592354], [-3.4884746228446937, 50.90491972655254], [-3.4882961039855336, 50.904759781664524], [-3.4882916843443863, 50.903993770432415], [-3.4885127521347923, 50.9039242473999], [-3.488709496989211, 50.903934144186024], [-3.4888653906659695, 50.903969038476006]]]}}, {"type": "Feature", "properties": {"type": "postcode-cell", "postcode": "EX16 6NZ", "postcodes": ["EX16 6NZ"]}, "geometry": {"type": "Polygon", "coordinates": [[[-3.4890469847404706, 50.90334077813445], [-3.4883560262081943, 50.90322891453048], [-3.488289389966445, 50.90312201620693], [-3.4883960806574907, 50.90308131180083], [-3.4891496011667256, 50.903172398418], [-3.4890469847404706, 50.90334077813445]]]}}, {"type": "Feature", "properties": {"type": "postcode-cell", "postcode": "EX16 6AQ", "postcodes": ["EX16 6AQ"]}, "geometry": {"type": "Polygon", "coordinates": [[[-3.4890923504800404, 50.90342134696284], [-3.488709496989211, 50.903934144186024], [-3.4885127521347923, 50.9039242473999], [-3.4883560262081943, 50.90322891453048], [-3.4890469847404706, 50.90334077813445], [-3.4890923504800404, 50.90342134696284]]]}}, {"type": "Feature", "properties": {"type": "postcode-cell", "postcode": "EX16 6LH", "postcodes": ["EX16 6LH"]}, "geometry": {"type": "Polygon", "coordinates": [[[-3.488646998300024, 50.90290059086857], [-3.4885735529339352, 50.90297003451806], [-3.4883960806574907, 50.90308131180083], [-3.488289389966445, 50.90312201620693], [-3.487859251156326, 50.90301324133434], [-3.4877432184121537, 50.90273097346633], [-3.488460386435871, 50.90241194098675], [-3.488717660235881, 50.90252957786088], [-3.488646998300024, 50.90290059086857]]]}}, {"type": "Feature", "properties": {"type": "postcode-cell", "postcode": "EX16 6FA", "postcodes": ["EX16 6FA"]}, "geometry": {"type": "Polygon", "coordinates": [[[-3.4891629074099133, 50.902094056589526], [-3.4884389607667368, 50.90214754530878], [-3.4880848206901076, 50.90185256645382], [-3.4882676971478985, 50.90154733159054], [-3.4886926443277826, 50.90150524770066], [-3.4892060555052233, 50.901866254410024], [-3.4891629074099133, 50.902094056589526]]]}}, {"type": "Feature", "properties": {"type": "postcode-cell", "postcode": "EX16 6SF", "postcodes": ["EX16 6SF"]}, "geometry": {"type": "Polygon", "coordinates": [[[-3.487733729682143, 50.90878506093957], [-3.487615054897936, 50.90816600969731], [-3.4879340317763146, 50.90778238764638], [-3.4886228469238563, 50.907415243083996], [-3.4890736735899974, 50.90745949950409], [-3.489477536081861, 50.908531230175356], [-3.487733729682143, 50.90878506093957]]]}}, {"type": "Feature", "properties": {"type": "postcode-cell", "postcode": "EX16 6SE", "postcodes": ["EX16 6SE"]}, "geometry": {"type": "Polygon", "coordinates": [[[-3.4890736735899974, 50.90745949950409], [-3.4886228469238563, 50.907415243083996], [-3.4880181069767344, 50.906733936491825], [-3.4890070227090555, 50.90594502223261], [-3.4891678874055865, 50.90586205825173], [-3.4897015214876625, 50.90572965808073], [-3.4896299896356116, 50.90616999488894], [-3.4908799896361415, 50.906739994889385], [-3.490958538220903, 50.906747980486664], [-3.4890736735899974, 50.90745949950409]]]}}, {"type": "Feature", "properties": {"type": "postcode-cell", "postcode": "EX16 6LQ", "postcodes": ["EX16 6LQ"]}, "geometry": {"type": "Polygon", "coordinates": [[[-3.4883560262081943, 50.90322891453048], [-3.4885127521347923, 50.9039242473999], [-3.4882916843443863, 50.903993770432415], [-3.487396893879206, 50.90396443417438], [-3.487373708272291, 50.903945998417655], [-3.4875980959423805, 50.90316630156086], [-3.487859251156326, 50.90301324133434], [-3.488289389966445, 50.90312201620693], [-3.4883560262081943, 50.90322891453048]]]}}, {"type": "Feature", "properties": {"type": "postcode-cell", "postcode": "EX16 6PH", "postcodes": ["EX16 6PH"]}, "geometry": {"type": "Polygon", "coordinates": [[[-3.4886926443277826, 50.90150524770066], [-3.4882676971478985, 50.90154733159054], [-3.4881249505393295, 50.9014198519895], [-3.4878058302626207, 50.90069974485222], [-3.4888559313585197, 50.900336180972666], [-3.4896402264420163, 50.90029514510611], [-3.4887600952455506, 50.9014704618871], [-3.4886926443277826, 50.90150524770066]]]}}, {"type": "Feature", "properties": {"type": "postcode-cell", "postcode": "EX16 6LN", "postcodes": ["EX16 6LN"]}, "geometry": {"type": "Polygon", "coordinates": [[[-3.488460386435871, 50.90241194098675], [-3.4877432184121537, 50.90273097346633], [-3.487595455187484, 50.90264403615165], [-3.4877052353045612, 50.90208803036839], [-3.4878642146878063, 50.90192059764388], [-3.4880848206901076, 50.90185256645382], [-3.4884389607667368, 50.90214754530878], [-3.488460386435871, 50.90241194098675]]]}}, {"type": "Feature", "properties": {"type": "postcode-cell", "postcode": "EX16 6BA", "postcodes": ["EX16 6BA"]}, "geometry": {"type": "Polygon", "coordinates": [[[-3.4881218473528564, 50.91289947304169], [-3.484312336519999, 50.912891424593134], [-3.4841787022012887, 50.91272273039604], [-3.4841191056645147, 50.91255895840524], [-3.4844461826045903, 50.91170779092755], [-3.4860121418017638, 50.91128500292349], [-3.488211183393817, 50.911128424033286], [-3.4886943574577156, 50.911311759047145], [-3.4881218473528564, 50.91289947304169]]]}}, {"type": "Feature", "properties": {"type": "postcode-cell", "postcode": "EX16 6NH", "postcodes": ["EX16 6NH"]}, "geometry": {"type": "Polygon", "coordinates": [[[-3.488976063716779, 50.905138450592354], [-3.4897221137306986, 50.9056028946002], [-3.4897015214876625, 50.90572965808073], [-3.4891678874055865, 50.90586205825173], [-3.487505423856112, 50.905459847742186], [-3.4873415733677127, 50.90537423277199], [-3.4873355814593068, 50.90519025531193], [-3.4884746228446937, 50.90491972655254], [-3.488976063716779, 50.905138450592354]]]}}, {"type": "Feature", "properties": {"type": "postcode-cell", "postcode": "EX16 6LB", "postcodes": ["EX16 6LB"]}, "geometry": {"type": "Polygon", "coordinates": [[[-3.4880848206901076, 50.90185256645382], [-3.4878642146878063, 50.90192059764388], [-3.4868435805871623, 50.901719828167174], [-3.4870664111999603, 50.901453553348865], [-3.4881249505393295, 50.9014198519895], [-3.4882676971478985, 50.90154733159054], [-3.4880848206901076, 50.90185256645382]]]}}, {"type": "Feature", "properties": {"type": "postcode-cell", "postcode": "EX16 6RJ", "postcodes": ["EX16 6RJ"]}, "geometry": {"type": "Polygon", "coordinates": [[[-3.487615054897936, 50.90816600969731], [-3.487146415021064, 50.907956074284705], [-3.4867659270552904, 50.90752949123307], [-3.487214388599486, 50.90718958661437], [-3.4879340317763146, 50.90778238764638], [-3.487615054897936, 50.90816600969731]]]}}, {"type": "Feature", "properties": {"type": "postcode-cell", "postcode": "EX16 6FL", "postcodes": ["EX16 6FL"]}, "geometry": {"type": "Polygon", "coordinates": [[[-3.4888559313585197, 50.900336180972666], [-3.4878058302626207, 50.90069974485222], [-3.4870821704057, 50.900621169066596], [-3.4870707014963243, 50.899933240474084], [-3.488302693503526, 50.89998560111018], [-3.4888559313585197, 50.900336180972666]]]}}, {"type": "Feature", "properties": {"type": "postcode-cell", "postcode": "EX16 6FN", "postcodes": ["EX16 6FN"]}, "geometry": {"type": "Polygon", "coordinates": [[[-3.488302693503526, 50.89998560111018], [-3.4870707014963243, 50.899933240474084], [-3.486977702408339, 50.89969701851557], [-3.4876645093871863, 50.899232514795834], [-3.488302693503526, 50.89998560111018]]]}}, {"type": "Feature", "properties": {"type": "postcode-cell", "postcode": "EX16 6RW", "postcodes": ["EX16 6RW"]}, "geometry": {"type": "Polygon", "coordinates": [[[-3.4886228469238563, 50.907415243083996], [-3.4879340317763146, 50.90778238764638], [-3.487214388599486, 50.90718958661437], [-3.487249594269357, 50.906970914647715], [-3.4873437842063417, 50.906909825896484], [-3.487725360839966, 50.906746762371974], [-3.4880181069767344, 50.906733936491825], [-3.4886228469238563, 50.907415243083996]]]}}, {"type": "Feature", "properties": {"type": "postcode-cell", "postcode": "EX16 6LD", "postcodes": ["EX16 6LD"]}, "geometry": {"type": "Polygon", "coordinates": [[[-3.4877432184121537, 50.90273097346633], [-3.487859251156326, 50.90301324133434], [-3.4875980959423805, 50.90316630156086], [-3.4871600616955503, 50.90315561860923], [-3.486905351935188, 50.90283108207114], [-3.4871481581277095, 50.902683009102], [-3.487349059996714, 50.9026147840769], [-3.487595455187484, 50.90264403615165], [-3.4877432184121537, 50.90273097346633]]]}}, {"type": "Feature", "properties": {"type": "postcode-cell", "postcode": "EX16 4FG", "postcodes": ["EX16 4FG"]}, "geometry": {"type": "Polygon", "coordinates": [[[-3.486977702408339, 50.89969701851557], [-3.4864355316434112, 50.89962925045878], [-3.4861028810786796, 50.89934209866997], [-3.486359989636888, 50.899039994883275], [-3.485889989636742, 50.898709994883035], [-3.485926315631253, 50.8986808046938], [-3.4866149772028643, 50.898640871915646], [-3.487788651069712, 50.89902765825705], [-3.4876645093871863, 50.899232514795834], [-3.486977702408339, 50.89969701851557]]]}}, {"type": "Feature", "properties": {"type": "postcode-cell", "postcode": "EX16 4PH", "postcodes": ["EX16 4PH"]}, "geometry": {"type": "Polygon", "coordinates": [[[-3.487788651069712, 50.89902765825705], [-3.4866149772028643, 50.898640871915646], [-3.4873166618829186, 50.89772019637617], [-3.4890443968425147, 50.898619216425026], [-3.487788651069712, 50.89902765825705]]]}}, {"type": "Feature", "properties": {"type": "postcode-cell", "postcode": "EX16 6RP", "postcodes": ["EX16 6RP"]}, "geometry": {"type": "Polygon", "coordinates": [[[-3.4880181069767344, 50.906733936491825], [-3.487725360839966, 50.906746762371974], [-3.4870282095813203, 50.90618608567902], [-3.4871749305120785, 50.90606093055015], [-3.4873069067135565, 50.90601540141863], [-3.4890070227090555, 50.90594502223261], [-3.4880181069767344, 50.906733936491825]]]}}, {"type": "Feature", "properties": {"type": "postcode-cell", "postcode": "EX16 6FZ", "postcodes": ["EX16 6FZ"]}, "geometry": {"type": "Polygon", "coordinates": [[[-3.4882961039855336, 50.904759781664524], [-3.4875712583553273, 50.90467585925769], [-3.487173718399311, 50.90437569026594], [-3.487396893879206, 50.90396443417438], [-3.4882916843443863, 50.903993770432415], [-3.4882961039855336, 50.904759781664524]]]}}, {"type": "Feature", "properties": {"type": "postcode-cell", "postcode": "EX16 6PJ", "postcodes": ["EX16 6PJ"]}, "geometry": {"type": "Polygon", "coordinates": [[[-3.4881249505393295, 50.9014198519895], [-3.4870664111999603, 50.901453553348865], [-3.4869263545329274, 50.90067364099409], [-3.4870821704057, 50.900621169066596], [-3.4878058302626207, 50.90069974485222], [-3.4881249505393295, 50.9014198519895]]]}}, {"type": "Feature", "properties": {"type": "postcode-cell", "postcode": "EX16 6LU", "postcodes": ["EX16 6LU"]}, "geometry": {"type": "Polygon", "coordinates": [[[-3.487595455187484, 50.90264403615165], [-3.487349059996714, 50.9026147840769], [-3.487001020724128, 50.90236917655486], [-3.486914693038432, 50.90221001051194], [-3.4877052353045612, 50.90208803036839], [-3.487595455187484, 50.90264403615165]]]}}, {"type": "Feature", "properties": {"type": "postcode-cell", "postcode": "EX16 6NJ", "postcodes": ["EX16 6NJ"]}, "geometry": {"type": "Polygon", "coordinates": [[[-3.4884746228446937, 50.90491972655254], [-3.4873355814593068, 50.90519025531193], [-3.487325468867619, 50.90517789749661], [-3.4875712583553273, 50.90467585925769], [-3.4882961039855336, 50.904759781664524], [-3.4884746228446937, 50.90491972655254]]]}}, {"type": "Feature", "properties": {"type": "postcode-cell", "postcode": "EX16 6BL", "postcodes": ["EX16 6BL"]}, "geometry": {"type": "Polygon", "coordinates": [[[-3.487396893879206, 50.90396443417438], [-3.487173718399311, 50.90437569026594], [-3.48696786822085, 50.904465568695336], [-3.4862420055109706, 50.9043006786207], [-3.4862717500462095, 50.904135438295164], [-3.4865057990809185, 50.9038241508778], [-3.486843267066701, 50.90379612552217], [-3.487373708272291, 50.903945998417655], [-3.487396893879206, 50.90396443417438]]]}}, {"type": "Feature", "properties": {"type": "postcode-cell", "postcode": "EX16 6RR", "postcodes": ["EX16 6RR"]}, "geometry": {"type": "Polygon", "coordinates": [[[-3.4891678874055865, 50.90586205825173], [-3.4890070227090555, 50.90594502223261], [-3.4873069067135565, 50.90601540141863], [-3.487505423856112, 50.905459847742186], [-3.4891678874055865, 50.90586205825173]]]}}, {"type": "Feature", "properties": {"type": "postcode-cell", "postcode": "EX16 6RN", "postcodes": ["EX16 6RN"]}, "geometry": {"type": "Polygon", "coordinates": [[[-3.487733729682143, 50.90878506093957], [-3.4871450790708587, 50.909343302797694], [-3.4861815437723522, 50.909148135040425], [-3.485425196180219, 50.908146076386565], [-3.485492775074475, 50.90800264880086], [-3.487146415021064, 50.907956074284705], [-3.487615054897936, 50.90816600969731], [-3.487733729682143, 50.90878506093957]]]}}, {"type": "Feature", "properties": {"type": "postcode-cell", "postcode": "EX16 4LW", "postcodes": ["EX16 4LW"]}, "geometry": {"type": "Polygon", "coordinates": [[[-3.4873166618829186, 50.89772019637617], [-3.4866149772028643, 50.898640871915646], [-3.485926315631253, 50.8986808046938], [-3.4864499896373147, 50.898259994882665], [-3.485629989637365, 50.897039994881695], [-3.48672500424009, 50.89674987066724], [-3.4873166618829186, 50.89772019637617]]]}}, {"type": "Feature", "properties": {"type": "postcode-cell", "postcode": "EX16 6RG", "postcodes": ["EX16 6RG"]}, "geometry": {"type": "Polygon", "coordinates": [[[-3.4871749305120785, 50.90606093055015], [-3.48701998221914, 50.90578577516455], [-3.4872512883985993, 50.905406271177796], [-3.4873415733677127, 50.90537423277199], [-3.487505423856112, 50.905459847742186], [-3.4873069067135565, 50.90601540141863], [-3.4871749305120785, 50.90606093055015]]]}}, {"type": "Feature", "properties": {"type": "postcode-cell", "postcode": "EX16 6LR", "postcodes": ["EX16 6LR"]}, "geometry": {"type": "Polygon", "coordinates": [[[-3.4877052353045612, 50.90208803036839], [-3.486914693038432, 50.90221001051194], [-3.4863549871231716, 50.90187808816336], [-3.4868435805871623, 50.901719828167174], [-3.4878642146878063, 50.90192059764388], [-3.4877052353045612, 50.90208803036839]]]}}, {"type": "Feature", "properties": {"type": "postcode-cell", "postcode": "EX16 6NL", "postcodes": ["EX16 6NL"]}, "geometry": {"type": "Polygon", "coordinates": [[[-3.4873355814593068, 50.90519025531193], [-3.4873415733677127, 50.90537423277199], [-3.4872512883985993, 50.905406271177796], [-3.486617179977634, 50.905488273415145], [-3.4862133919922944, 50.90527807497307], [-3.486416782560869, 50.904901393194315], [-3.486598346725811, 50.9048615227078], [-3.487325468867619, 50.90517789749661], [-3.4873355814593068, 50.90519025531193]]]}}, {"type": "Feature", "properties": {"type": "postcode-cell", "postcode": "EX16 6FJ", "postcodes": ["EX16 6FJ"]}, "geometry": {"type": "Polygon", "coordinates": [[[-3.4875712583553273, 50.90467585925769], [-3.487325468867619, 50.90517789749661], [-3.486598346725811, 50.9048615227078], [-3.48696786822085, 50.904465568695336], [-3.487173718399311, 50.90437569026594], [-3.4875712583553273, 50.90467585925769]]]}}, {"type": "Feature", "properties": {"type": "postcode-cell", "postcode": "EX16 6NB", "postcodes": ["EX16 6NB"]}, "geometry": {"type": "Polygon", "coordinates": [[[-3.4868435805871623, 50.901719828167174], [-3.4863549871231716, 50.90187808816336], [-3.485935803416878, 50.90187684473642], [-3.4858056323688325, 50.900768303706144], [-3.4869263545329274, 50.90067364099409], [-3.4870664111999603, 50.901453553348865], [-3.4868435805871623, 50.901719828167174]]]}}, {"type": "Feature", "properties": {"type": "postcode-cell", "postcode": "EX16 4LN", "postcodes": ["EX16 4LN"]}, "geometry": {"type": "Polygon", "coordinates": [[[-3.4870707014963243, 50.899933240474084], [-3.4870821704057, 50.900621169066596], [-3.4869263545329274, 50.90067364099409], [-3.4858056323688325, 50.900768303706144], [-3.4850631635148153, 50.90047784082257], [-3.4864355316434112, 50.89962925045878], [-3.486977702408339, 50.89969701851557], [-3.4870707014963243, 50.899933240474084]]]}}, {"type": "Feature", "properties": {"type": "postcode-cell", "postcode": "EX16 6GE", "postcodes": ["EX16 6GE"]}, "geometry": {"type": "Polygon", "coordinates": [[[-3.487349059996714, 50.9026147840769], [-3.4871481581277095, 50.902683009102], [-3.4865370006458916, 50.902581029721816], [-3.487001020724128, 50.90236917655486], [-3.487349059996714, 50.9026147840769]]]}}, {"type": "Feature", "properties": {"type": "postcode-cell", "postcode": "EX16 6RQ", "postcodes": ["EX16 6RQ"]}, "geometry": {"type": "Polygon", "coordinates": [[[-3.4873437842063417, 50.906909825896484], [-3.486679734018459, 50.90653197086798], [-3.486748729565287, 50.90619885492009], [-3.4870282095813203, 50.90618608567902], [-3.487725360839966, 50.906746762371974], [-3.4873437842063417, 50.906909825896484]]]}}, {"type": "Feature", "properties": {"type": "postcode-cell", "postcode": "EX16 6LX", "postcodes": ["EX16 6LX"]}, "geometry": {"type": "Polygon", "coordinates": [[[-3.487001020724128, 50.90236917655486], [-3.4865370006458916, 50.902581029721816], [-3.486220665083346, 50.90263200012263], [-3.4859366863364527, 50.9025086962328], [-3.485701945282445, 50.902114946298106], [-3.485788062761123, 50.902010264047505], [-3.4859045708562117, 50.90189630990423], [-3.485935803416878, 50.90187684473642], [-3.4863549871231716, 50.90187808816336], [-3.486914693038432, 50.90221001051194], [-3.487001020724128, 50.90236917655486]]]}}, {"type": "Feature", "properties": {"type": "postcode-cell", "postcode": "EX16 6LG", "postcodes": ["EX16 6LG"]}, "geometry": {"type": "Polygon", "coordinates": [[[-3.487373708272291, 50.903945998417655], [-3.486843267066701, 50.90379612552217], [-3.486692376329284, 50.9032583684856], [-3.4871600616955503, 50.90315561860923], [-3.4875980959423805, 50.90316630156086], [-3.487373708272291, 50.903945998417655]]]}}, {"type": "Feature", "properties": {"type": "postcode-cell", "postcode": "EX16 6RH", "postcodes": ["EX16 6RH"]}, "geometry": {"type": "Polygon", "coordinates": [[[-3.487214388599486, 50.90718958661437], [-3.4867659270552904, 50.90752949123307], [-3.4859248003276084, 50.9074290362905], [-3.4863073332106054, 50.90694351999145], [-3.487249594269357, 50.906970914647715], [-3.487214388599486, 50.90718958661437]]]}}, {"type": "Feature", "properties": {"type": "postcode-cell", "postcode": "EX16 6RE", "postcodes": ["EX16 6RE"]}, "geometry": {"type": "Polygon", "coordinates": [[[-3.4870282095813203, 50.90618608567902], [-3.486748729565287, 50.90619885492009], [-3.4866971939821565, 50.90618666775636], [-3.4864633697628387, 50.905824436433655], [-3.486569070672499, 50.905712782504985], [-3.48701998221914, 50.90578577516455], [-3.4871749305120785, 50.90606093055015], [-3.4870282095813203, 50.90618608567902]]]}}, {"type": "Feature", "properties": {"type": "postcode-cell", "postcode": "EX16 6GA", "postcodes": ["EX16 6GA"]}, "geometry": {"type": "Polygon", "coordinates": [[[-3.48701998221914, 50.90578577516455], [-3.486569070672499, 50.905712782504985], [-3.486617179977634, 50.905488273415145], [-3.4872512883985993, 50.905406271177796], [-3.48701998221914, 50.90578577516455]]]}}, {"type": "Feature", "properties": {"type": "postcode-cell", "postcode": "EX16 6LF", "postcodes": ["EX16 6LF"]}, "geometry": {"type": "Polygon", "coordinates": [[[-3.486692376329284, 50.9032583684856], [-3.4864582316542365, 50.90315548867007], [-3.4864847702100406, 50.90289770266966], [-3.486905351935188, 50.90283108207114], [-3.4871600616955503, 50.90315561860923], [-3.486692376329284, 50.9032583684856]]]}}, {"type": "Feature", "properties": {"type": "postcode-cell", "postcode": "EX16 6LZ", "postcodes": ["EX16 6LZ"]}, "geometry": {"type": "Polygon", "coordinates": [[[-3.4871481581277095, 50.902683009102], [-3.486905351935188, 50.90283108207114], [-3.4864847702100406, 50.90289770266966], [-3.486220665083346, 50.90263200012263], [-3.4865370006458916, 50.902581029721816], [-3.4871481581277095, 50.902683009102]]]}}, {"type": "Feature", "properties": {"type": "postcode-cell", "postcode": "EX16 6RD", "postcodes": ["EX16 6RD"]}, "geometry": {"type": "Polygon", "coordinates": [[[-3.486748729565287, 50.90619885492009], [-3.486679734018459, 50.90653197086798], [-3.486228136338833, 50.90681508385595], [-3.4856090237012625, 50.90639028769235], [-3.4856186958884328, 50.906383743570274], [-3.4866971939821565, 50.90618666775636], [-3.486748729565287, 50.90619885492009]]]}}, {"type": "Feature", "properties": {"type": "postcode-cell", "postcode": "EX16 6RT", "postcodes": ["EX16 6RT"]}, "geometry": {"type": "Polygon", "coordinates": [[[-3.487249594269357, 50.906970914647715], [-3.4863073332106054, 50.90694351999145], [-3.486228136338833, 50.90681508385595], [-3.486679734018459, 50.90653197086798], [-3.4873437842063417, 50.906909825896484], [-3.487249594269357, 50.906970914647715]]]}}, {"type": "Feature", "properties": {"type": "postcode-cell", "postcode": "EX16 6AA", "postcodes": ["EX16 6AA"]}, "geometry": {"type": "Polygon", "coordinates": [[[-3.486843267066701, 50.90379612552217], [-3.4865057990809185, 50.9038241508778], [-3.485725167015807, 50.90364226282715], [-3.4861954152691523, 50.90322182352605], [-3.4864582316542365, 50.90315548867007], [-3.486692376329284, 50.9032583684856], [-3.486843267066701, 50.90379612552217]]]}}, {"type": "Feature", "properties": {"type": "postcode-cell", "postcode": "EX16 6GB", "postcodes": ["EX16 6GB"]}, "geometry": {"type": "Polygon", "coordinates": [[[-3.4864633697628387, 50.905824436433655], [-3.4862641633315437, 50.90581516637069], [-3.4858720109809855, 50.90552257986218], [-3.4859748496771243, 50.90535024996003], [-3.4862133919922944, 50.90527807497307], [-3.486617179977634, 50.905488273415145], [-3.486569070672499, 50.905712782504985], [-3.4864633697628387, 50.905824436433655]]]}}, {"type": "Feature", "properties": {"type": "postcode-cell", "postcode": "EX16 6AH", "postcodes": ["EX16 6AH"]}, "geometry": {"type": "Polygon", "coordinates": [[[-3.486598346725811, 50.9048615227078], [-3.486416782560869, 50.904901393194315], [-3.485902158744102, 50.904695261500905], [-3.4858560573197503, 50.90445810659891], [-3.4862420055109706, 50.9043006786207], [-3.48696786822085, 50.904465568695336], [-3.486598346725811, 50.9048615227078]]]}}, {"type": "Feature", "properties": {"type": "postcode-cell", "postcode": "EX16 6QD", "postcodes": ["EX16 6QD"]}, "geometry": {"type": "Polygon", "coordinates": [[[-3.486220665083346, 50.90263200012263], [-3.4864847702100406, 50.90289770266966], [-3.4864582316542365, 50.90315548867007], [-3.4861954152691523, 50.90322182352605], [-3.485625724887519, 50.90293110214454], [-3.4859366863364527, 50.9025086962328], [-3.486220665083346, 50.90263200012263]]]}}, {"type": "Feature", "properties": {"type": "postcode-cell", "postcode": "EX16 6AW", "postcodes": ["EX16 6AW"]}, "geometry": {"type": "Polygon", "coordinates": [[[-3.4863073332106054, 50.90694351999145], [-3.4859248003276084, 50.9074290362905], [-3.4855025410957956, 50.90758471591837], [-3.4853791624309194, 50.90751222599877], [-3.4851971659224037, 50.906631395221176], [-3.4852660491813108, 50.906533732358014], [-3.4854942037335275, 50.90640535687327], [-3.4856090237012625, 50.90639028769235], [-3.486228136338833, 50.90681508385595], [-3.4863073332106054, 50.90694351999145]]]}}, {"type": "Feature", "properties": {"type": "postcode-cell", "postcode": "EX16 4FD", "postcodes": ["EX16 4FD"]}, "geometry": {"type": "Polygon", "coordinates": [[[-3.4864355316434112, 50.89962925045878], [-3.4850631635148153, 50.90047784082257], [-3.484817816325728, 50.900442309866186], [-3.4849599896358177, 50.89940999488362], [-3.485309989636151, 50.899179994883404], [-3.4859599896364104, 50.89950999488366], [-3.4861028810786796, 50.89934209866997], [-3.4864355316434112, 50.89962925045878]]]}}, {"type": "Feature", "properties": {"type": "postcode-cell", "postcode": "EX16 6RL", "postcodes": ["EX16 6RL"]}, "geometry": {"type": "Polygon", "coordinates": [[[-3.4867659270552904, 50.90752949123307], [-3.487146415021064, 50.907956074284705], [-3.485492775074475, 50.90800264880086], [-3.4855025410957956, 50.90758471591837], [-3.4859248003276084, 50.9074290362905], [-3.4867659270552904, 50.90752949123307]]]}}, {"type": "Feature", "properties": {"type": "postcode-cell", "postcode": "EX16 6QS", "postcodes": ["EX16 6QS"]}, "geometry": {"type": "Polygon", "coordinates": [[[-3.4856090237012625, 50.90639028769235], [-3.4854942037335275, 50.90640535687327], [-3.4852711741163542, 50.90622542625412], [-3.485110298401685, 50.90562462360692], [-3.485613170400022, 50.905671054142466], [-3.4857518537121526, 50.90604592888305], [-3.4856186958884328, 50.906383743570274], [-3.4856090237012625, 50.90639028769235]]]}}, {"type": "Feature", "properties": {"type": "postcode-cell", "postcode": "EX16 6XE", "postcodes": ["EX16 6XE"]}, "geometry": {"type": "Polygon", "coordinates": [[[-3.4877952878106897, 50.914517832640804], [-3.4855512808621603, 50.91508887534064], [-3.485510100528775, 50.914884502174225], [-3.4863140873151135, 50.914169263316], [-3.487290645765142, 50.91378509550622], [-3.487696795615636, 50.91372763678055], [-3.4877952878106897, 50.914517832640804]]]}}, {"type": "Feature", "properties": {"type": "postcode-cell", "postcode": "EX16 0AJ", "postcodes": ["EX16 0AJ", "EX16 0BA", "EX16 0BX", "EX16 0DH", "EX16 0DZ", "EX16 0EW", "EX16 0FA", "EX16 0FG", "EX16 0FR", "EX16 0FS", "EX16 6BH", "EX16 7WY"]}, "geometry": {"type": "Polygon", "coordinates": [[[-3.4865057990809185, 50.9038241508778], [-3.4862717500462095, 50.904135438295164], [-3.4860294809317356, 50.904100781123], [-3.4855213161530183, 50.90366793002738], [-3.485725167015807, 50.90364226282715], [-3.4865057990809185, 50.9038241508778]]]}}, {"type": "Feature", "properties": {"type": "postcode-cell", "postcode": "EX16 6QE", "postcodes": ["EX16 6QE"]}, "geometry": {"type": "Polygon", "coordinates": [[[-3.4859366863364527, 50.9025086962328], [-3.485625724887519, 50.90293110214454], [-3.4853793763720495, 50.90303352354939], [-3.48491833632087, 50.902849677256754], [-3.4850074739974355, 50.90227387607231], [-3.485701945282445, 50.902114946298106], [-3.4859366863364527, 50.9025086962328]]]}}, {"type": "Feature", "properties": {"type": "postcode-cell", "postcode": "EX16 6FS", "postcodes": ["EX16 6FS"]}, "geometry": {"type": "Polygon", "coordinates": [[[-3.4856186958884328, 50.906383743570274], [-3.4857518537121526, 50.90604592888305], [-3.4862641633315437, 50.90581516637069], [-3.4864633697628387, 50.905824436433655], [-3.4866971939821565, 50.90618666775636], [-3.4856186958884328, 50.906383743570274]]]}}, {"type": "Feature", "properties": {"type": "postcode-cell", "postcode": "EX16 6UT", "postcodes": ["EX16 6UT"]}, "geometry": {"type": "Polygon", "coordinates": [[[-3.4836303959812533, 50.91542005423555], [-3.483946605346263, 50.915275200531916], [-3.485423536439584, 50.91549423817155], [-3.4858605724578466, 50.91605153024659], [-3.4833415429817265, 50.91681469990025], [-3.4836303959812533, 50.91542005423555]]]}}, {"type": "Feature", "properties": {"type": "postcode-cell", "postcode": "EX16 6XF", "postcodes": ["EX16 6XF"]}, "geometry": {"type": "Polygon", "coordinates": [[[-3.4882812254896645, 50.915318090461625], [-3.4858605724578466, 50.91605153024659], [-3.485423536439584, 50.91549423817155], [-3.4855512808621603, 50.91508887534064], [-3.4877952878106897, 50.914517832640804], [-3.4882812254896645, 50.915318090461625]]]}}, {"type": "Feature", "properties": {"type": "postcode-cell", "postcode": "EX16 6BD", "postcodes": ["EX16 6BD"]}, "geometry": {"type": "Polygon", "coordinates": [[[-3.485510100528775, 50.914884502174225], [-3.484262377286548, 50.913814658145824], [-3.4842695054039603, 50.91380331186518], [-3.4863140873151135, 50.914169263316], [-3.485510100528775, 50.914884502174225]]]}}, {"type": "Feature", "properties": {"type": "postcode-cell", "postcode": "EX16 6AF", "postcodes": ["EX16 6AF"]}, "geometry": {"type": "Polygon", "coordinates": [[[-3.4862420055109706, 50.9043006786207], [-3.4858560573197503, 50.90445810659891], [-3.4855500899858067, 50.90428027866498], [-3.4860294809317356, 50.904100781123], [-3.4862717500462095, 50.904135438295164], [-3.4862420055109706, 50.9043006786207]]]}}, {"type": "Feature", "properties": {"type": "postcode-cell", "postcode": "EX16 6BJ", "postcodes": ["EX16 6BJ"]}, "geometry": {"type": "Polygon", "coordinates": [[[-3.4862133919922944, 50.90527807497307], [-3.4859748496771243, 50.90535024996003], [-3.4851321302600886, 50.905061342950816], [-3.485326664762221, 50.90490791588494], [-3.485902158744102, 50.904695261500905], [-3.486416782560869, 50.904901393194315], [-3.4862133919922944, 50.90527807497307]]]}}, {"type": "Feature", "properties": {"type": "postcode-cell", "postcode": "EX16 6BG", "postcodes": ["EX16 6BG"]}, "geometry": {"type": "Polygon", "coordinates": [[[-3.4855512808621603, 50.91508887534064], [-3.485423536439584, 50.91549423817155], [-3.483946605346263, 50.915275200531916], [-3.483558747636864, 50.91443546932271], [-3.4837200356426545, 50.91410283573482], [-3.484262377286548, 50.913814658145824], [-3.485510100528775, 50.914884502174225], [-3.4855512808621603, 50.91508887534064]]]}}, {"type": "Feature", "properties": {"type": "postcode-cell", "postcode": "EX16 6SA", "postcodes": ["EX16 6SA"]}, "geometry": {"type": "Polygon", "coordinates": [[[-3.4858056323688325, 50.900768303706144], [-3.485935803416878, 50.90187684473642], [-3.4859045708562117, 50.90189630990423], [-3.4846838600606276, 50.90143963323301], [-3.4845164213481947, 50.9013479266276], [-3.4856699896356007, 50.900829994884724], [-3.4847299896348822, 50.90107999488494], [-3.484817816325728, 50.900442309866186], [-3.4850631635148153, 50.90047784082257], [-3.4858056323688325, 50.900768303706144]]]}}, {"type": "Feature", "properties": {"type": "postcode-cell", "postcode": "EX16 0ZZ", "postcodes": ["EX16 0ZZ"]}, "geometry": {"type": "Polygon", "coordinates": [[[-3.4860294809317356, 50.904100781123], [-3.4855500899858067, 50.90428027866498], [-3.4852270122320883, 50.904132691767806], [-3.4854471234488047, 50.90367355173368], [-3.4855213161530183, 50.90366793002738], [-3.4860294809317356, 50.904100781123]]]}}, {"type": "Feature", "properties": {"type": "postcode-cell", "postcode": "EX16 6PZ", "postcodes": ["EX16 6PZ"]}, "geometry": {"type": "Polygon", "coordinates": [[[-3.4855213161530183, 50.90366793002738], [-3.4854471234488047, 50.90367355173368], [-3.485420690296134, 50.903655700059325], [-3.4852904407553766, 50.903412522418904], [-3.4853793763720495, 50.90303352354939], [-3.485625724887519, 50.90293110214454], [-3.4861954152691523, 50.90322182352605], [-3.485725167015807, 50.90364226282715], [-3.4855213161530183, 50.90366793002738]]]}}, {"type": "Feature", "properties": {"type": "postcode-cell", "postcode": "EX16 6AL", "postcodes": ["EX16 6AL"]}, "geometry": {"type": "Polygon", "coordinates": [[[-3.4857518537121526, 50.90604592888305], [-3.485613170400022, 50.905671054142466], [-3.4858720109809855, 50.90552257986218], [-3.4862641633315437, 50.90581516637069], [-3.4857518537121526, 50.90604592888305]]]}}, {"type": "Feature", "properties": {"type": "postcode-cell", "postcode": "EX16 6QW", "postcodes": ["EX16 6QW"]}, "geometry": {"type": "Polygon", "coordinates": [[[-3.4858720109809855, 50.90552257986218], [-3.485613170400022, 50.905671054142466], [-3.485110298401685, 50.90562462360692], [-3.4843280055828005, 50.90530592663217], [-3.4842682005315413, 50.905255759470826], [-3.4851321302600886, 50.905061342950816], [-3.4859748496771243, 50.90535024996003], [-3.4858720109809855, 50.90552257986218]]]}}, {"type": "Feature", "properties": {"type": "postcode-cell", "postcode": "EX16 6AY", "postcodes": ["EX16 6AY"]}, "geometry": {"type": "Polygon", "coordinates": [[[-3.488211183393817, 50.911128424033286], [-3.4860121418017638, 50.91128500292349], [-3.4848322315765006, 50.90999273005599], [-3.485800823827252, 50.9092389647131], [-3.4861815437723522, 50.909148135040425], [-3.4871450790708587, 50.909343302797694], [-3.488211183393817, 50.911128424033286]]]}}, {"type": "Feature", "properties": {"type": "postcode-cell", "postcode": "EX16 6QH", "postcodes": ["EX16 6QH"]}, "geometry": {"type": "Polygon", "coordinates": [[[-3.485902158744102, 50.904695261500905], [-3.485326664762221, 50.90490791588494], [-3.4850447027432003, 50.90420478106437], [-3.4852270122320883, 50.904132691767806], [-3.4855500899858067, 50.90428027866498], [-3.4858560573197503, 50.90445810659891], [-3.485902158744102, 50.904695261500905]]]}}, {"type": "Feature", "properties": {"type": "postcode-cell", "postcode": "EX16 6EQ", "postcodes": ["EX16 6EQ"]}, "geometry": {"type": "Polygon", "coordinates": [[[-3.4813511489036713, 50.90825659636382], [-3.480813560944496, 50.908816135014305], [-3.47983446167342, 50.90880225669167], [-3.479661747131447, 50.90876852560956], [-3.4797499896281274, 50.90863999489103], [-3.4794999896280654, 50.90843999489088], [-3.479959989628453, 50.9082399948907], [-3.479749989628565, 50.907719994890286], [-3.4801582162826614, 50.907679747744325], [-3.4813511489036713, 50.90825659636382]]]}}, {"type": "Feature", "properties": {"type": "postcode-cell", "postcode": "EX16 6PP", "postcodes": ["EX16 6PP"]}, "geometry": {"type": "Polygon", "coordinates": [[[-3.4846838600606276, 50.90143963323301], [-3.484786867046978, 50.90173207067687], [-3.484338091283009, 50.90184193485705], [-3.4841999896343494, 50.90148999488527], [-3.4845164213481947, 50.9013479266276], [-3.4846838600606276, 50.90143963323301]]]}}, {"type": "Feature", "properties": {"type": "postcode-cell", "postcode": "EX16 6AR", "postcodes": ["EX16 6AR"]}, "geometry": {"type": "Polygon", "coordinates": [[[-3.4855025410957956, 50.90758471591837], [-3.485492775074475, 50.90800264880086], [-3.485425196180219, 50.908146076386565], [-3.484127652304823, 50.90828910678246], [-3.483869835155135, 50.907897670542425], [-3.4844663321619462, 50.907354954876226], [-3.4853791624309194, 50.90751222599877], [-3.4855025410957956, 50.90758471591837]]]}}, {"type": "Feature", "properties": {"type": "postcode-cell", "postcode": "EX16 6BE", "postcodes": ["EX16 6BE"]}, "geometry": {"type": "Polygon", "coordinates": [[[-3.484406672420483, 50.91337438113241], [-3.487290645765142, 50.91378509550622], [-3.4863140873151135, 50.914169263316], [-3.4842695054039603, 50.91380331186518], [-3.484406672420483, 50.91337438113241]]]}}, {"type": "Feature", "properties": {"type": "postcode-cell", "postcode": "EX16 6SJ", "postcodes": ["EX16 6SJ"]}, "geometry": {"type": "Polygon", "coordinates": [[[-3.4842695054039603, 50.91380331186518], [-3.484262377286548, 50.913814658145824], [-3.4837200356426545, 50.91410283573482], [-3.4824747137243888, 50.91392012299636], [-3.4822579720713014, 50.91340722120171], [-3.4841787022012887, 50.91272273039604], [-3.484312336519999, 50.912891424593134], [-3.484406672420483, 50.91337438113241], [-3.4842695054039603, 50.91380331186518]]]}}, {"type": "Feature", "properties": {"type": "postcode-cell", "postcode": "EX16 6AZ", "postcodes": ["EX16 6AZ"]}, "geometry": {"type": "Polygon", "coordinates": [[[-3.4860121418017638, 50.91128500292349], [-3.4844461826045903, 50.91170779092755], [-3.4836322397895363, 50.91126055338382], [-3.4833015900209614, 50.910838004055144], [-3.48338623615563, 50.910738388296124], [-3.4843358651868344, 50.91000534156821], [-3.4848322315765006, 50.90999273005599], [-3.4860121418017638, 50.91128500292349]]]}}, {"type": "Feature", "properties": {"type": "postcode-cell", "postcode": "EX16 6PT", "postcodes": ["EX16 6PT"]}, "geometry": {"type": "Polygon", "coordinates": [[[-3.4852270122320883, 50.904132691767806], [-3.4850447027432003, 50.90420478106437], [-3.4849439726090434, 50.90422279418666], [-3.48435748335379, 50.90380191719349], [-3.4844080629858776, 50.90362794480578], [-3.485420690296134, 50.903655700059325], [-3.4854471234488047, 50.90367355173368], [-3.4852270122320883, 50.904132691767806]]]}}, {"type": "Feature", "properties": {"type": "postcode-cell", "postcode": "EX16 6QP", "postcodes": ["EX16 6QP"]}, "geometry": {"type": "Polygon", "coordinates": [[[-3.4842682005315413, 50.905255759470826], [-3.484204649497003, 50.90524111919162], [-3.48416958093298, 50.90522399437197], [-3.4846089385369616, 50.90435695771871], [-3.4849439726090434, 50.90422279418666], [-3.4850447027432003, 50.90420478106437], [-3.485326664762221, 50.90490791588494], [-3.4851321302600886, 50.905061342950816], [-3.4842682005315413, 50.905255759470826]]]}}, {"type": "Feature", "properties": {"type": "postcode-cell", "postcode": "EX16 6QU", "postcodes": ["EX16 6QU"]}, "geometry": {"type": "Polygon", "coordinates": [[[-3.4852711741163542, 50.90622542625412], [-3.4845940535580113, 50.90595750725849], [-3.4843280055828005, 50.90530592663217], [-3.485110298401685, 50.90562462360692], [-3.4852711741163542, 50.90622542625412]]]}}, {"type": "Feature", "properties": {"type": "postcode-cell", "postcode": "EX16 6PY", "postcodes": ["EX16 6PY"]}, "geometry": {"type": "Polygon", "coordinates": [[[-3.485420690296134, 50.903655700059325], [-3.4844080629858776, 50.90362794480578], [-3.484331481700974, 50.9035704683392], [-3.484291527597443, 50.90337577618275], [-3.484442700168842, 50.903258224387315], [-3.4847207434713052, 50.9032415025931], [-3.4852904407553766, 50.903412522418904], [-3.485420690296134, 50.903655700059325]]]}}, {"type": "Feature", "properties": {"type": "postcode-cell", "postcode": "EX16 6QT", "postcodes": ["EX16 6QT"]}, "geometry": {"type": "Polygon", "coordinates": [[[-3.4854942037335275, 50.90640535687327], [-3.4852660491813108, 50.906533732358014], [-3.484695831005452, 50.90641315577497], [-3.484394557771809, 50.90619387183006], [-3.4845940535580113, 50.90595750725849], [-3.4852711741163542, 50.90622542625412], [-3.4854942037335275, 50.90640535687327]]]}}, {"type": "Feature", "properties": {"type": "postcode-cell", "postcode": "EX16 6QB", "postcodes": ["EX16 6QB"]}, "geometry": {"type": "Polygon", "coordinates": [[[-3.4852904407553766, 50.903412522418904], [-3.4847207434713052, 50.9032415025931], [-3.4848874860673096, 50.90286015328081], [-3.48491833632087, 50.902849677256754], [-3.4853793763720495, 50.90303352354939], [-3.4852904407553766, 50.903412522418904]]]}}, {"type": "Feature", "properties": {"type": "postcode-cell", "postcode": "EX16 6NS", "postcodes": ["EX16 6NS"]}, "geometry": {"type": "Polygon", "coordinates": [[[-3.4841191056645147, 50.91255895840524], [-3.4824281663761103, 50.912508109200864], [-3.4815948097530653, 50.91214951811345], [-3.4817392162214893, 50.91174082270732], [-3.4836322397895363, 50.91126055338382], [-3.4844461826045903, 50.91170779092755], [-3.4841191056645147, 50.91255895840524]]]}}, {"type": "Feature", "properties": {"type": "postcode-cell", "postcode": "EX16 0SA", "postcodes": ["EX16 0SA", "EX16 0SB", "EX16 0SD", "EX16 0SE", "EX16 0SF", "EX16 0SG", "EX16 0SH", "EX16 0SJ", "EX16 0SL", "EX16 0SN", "EX16 0SP", "EX16 0SQ", "EX16 0SR", "EX16 0SS", "EX16 0ST", "EX16 0SU", "EX16 0SW", "EX16 0SX", "EX16 0SY", "EX16 0SZ", "EX16 0TA", "EX16 0TB", "EX16 0TD", "EX16 0TE", "EX16 0TF"]}, "geometry": {"type": "Polygon", "coordinates": [[[-3.485788062761123, 50.902010264047505], [-3.484786867046978, 50.90173207067687], [-3.4846838600606276, 50.90143963323301], [-3.4859045708562117, 50.90189630990423], [-3.485788062761123, 50.902010264047505]]]}}, {"type": "Feature", "properties": {"type": "postcode-cell", "postcode": "EX16 6AP", "postcodes": ["EX16 6AP"]}, "geometry": {"type": "Polygon", "coordinates": [[[-3.4853791624309194, 50.90751222599877], [-3.4844663321619462, 50.907354954876226], [-3.484000996398137, 50.906987471033226], [-3.4851971659224037, 50.906631395221176], [-3.4853791624309194, 50.90751222599877]]]}}, {"type": "Feature", "properties": {"type": "postcode-cell", "postcode": "EX16 6QF", "postcodes": ["EX16 6QF"]}, "geometry": {"type": "Polygon", "coordinates": [[[-3.4848874860673096, 50.90286015328081], [-3.4843223391699483, 50.90290252205951], [-3.484199624458256, 50.90285300688957], [-3.4840305245256125, 50.90275946476496], [-3.4845099896341747, 50.90227999488589], [-3.484490966853534, 50.90223151829591], [-3.4850074739974355, 50.90227387607231], [-3.48491833632087, 50.902849677256754], [-3.4848874860673096, 50.90286015328081]]]}}, {"type": "Feature", "properties": {"type": "postcode-cell", "postcode": "EX16 6FF", "postcodes": ["EX16 6FF"]}, "geometry": {"type": "Polygon", "coordinates": [[[-3.485701945282445, 50.902114946298106], [-3.4850074739974355, 50.90227387607231], [-3.484490966853534, 50.90223151829591], [-3.484338091283009, 50.90184193485705], [-3.484786867046978, 50.90173207067687], [-3.485788062761123, 50.902010264047505], [-3.485701945282445, 50.902114946298106]]]}}, {"type": "Feature", "properties": {"type": "postcode-cell", "postcode": "EX16 6AU", "postcodes": ["EX16 6AU"]}, "geometry": {"type": "Polygon", "coordinates": [[[-3.4861815437723522, 50.909148135040425], [-3.485800823827252, 50.9092389647131], [-3.4836847768546217, 50.909041569580424], [-3.4838585496320356, 50.90853929754115], [-3.484127652304823, 50.90828910678246], [-3.485425196180219, 50.908146076386565], [-3.4861815437723522, 50.909148135040425]]]}}, {"type": "Feature", "properties": {"type": "postcode-cell", "postcode": "EX16 6QX", "postcodes": ["EX16 6QX"]}, "geometry": {"type": "Polygon", "coordinates": [[[-3.4843280055828005, 50.90530592663217], [-3.4845940535580113, 50.90595750725849], [-3.484394557771809, 50.90619387183006], [-3.4841286850460453, 50.90624077362762], [-3.483852000525405, 50.905955838845], [-3.484204649497003, 50.90524111919162], [-3.4842682005315413, 50.905255759470826], [-3.4843280055828005, 50.90530592663217]]]}}, {"type": "Feature", "properties": {"type": "postcode-cell", "postcode": "EX16 6NF", "postcodes": ["EX16 6NF"]}, "geometry": {"type": "Polygon", "coordinates": [[[-3.4847207434713052, 50.9032415025931], [-3.484442700168842, 50.903258224387315], [-3.4843223391699483, 50.90290252205951], [-3.4848874860673096, 50.90286015328081], [-3.4847207434713052, 50.9032415025931]]]}}, {"type": "Feature", "properties": {"type": "postcode-cell", "postcode": "EX16 6QG", "postcodes": ["EX16 6QG"]}, "geometry": {"type": "Polygon", "coordinates": [[[-3.484199624458256, 50.90285300688957], [-3.483982751857687, 50.90330044636045], [-3.4836964311232355, 50.90327416706412], [-3.4836399896332084, 50.90314999488658], [-3.4840305245256125, 50.90275946476496], [-3.484199624458256, 50.90285300688957]]]}}, {"type": "Feature", "properties": {"type": "postcode-cell", "postcode": "EX16 6QQ", "postcodes": ["EX16 6QQ"]}, "geometry": {"type": "Polygon", "coordinates": [[[-3.484291527597443, 50.90337577618275], [-3.483982751857687, 50.90330044636045], [-3.484199624458256, 50.90285300688957], [-3.4843223391699483, 50.90290252205951], [-3.484442700168842, 50.903258224387315], [-3.484291527597443, 50.90337577618275]]]}}, {"type": "Feature", "properties": {"type": "postcode-cell", "postcode": "EX16 6PR", "postcodes": ["EX16 6PR"]}, "geometry": {"type": "Polygon", "coordinates": [[[-3.48435748335379, 50.90380191719349], [-3.4840195738689497, 50.90400722636389], [-3.4837488018981166, 50.90389927950663], [-3.4840839131382073, 50.90361303893397], [-3.484331481700974, 50.9035704683392], [-3.4844080629858776, 50.90362794480578], [-3.48435748335379, 50.90380191719349]]]}}, {"type": "Feature", "properties": {"type": "postcode-cell", "postcode": "EX16 6RA", "postcodes": ["EX16 6RA"]}, "geometry": {"type": "Polygon", "coordinates": [[[-3.4852660491813108, 50.906533732358014], [-3.4851971659224037, 50.906631395221176], [-3.484000996398137, 50.906987471033226], [-3.4836889001924543, 50.90689760573321], [-3.483742938391536, 50.90668352738185], [-3.483765279465979, 50.90666748797481], [-3.484695831005452, 50.90641315577497], [-3.4852660491813108, 50.906533732358014]]]}}, {"type": "Feature", "properties": {"type": "postcode-cell", "postcode": "EX16 6PU", "postcodes": ["EX16 6PU"]}, "geometry": {"type": "Polygon", "coordinates": [[[-3.4846089385369616, 50.90435695771871], [-3.4840917751959366, 50.90417820952854], [-3.4840195738689497, 50.90400722636389], [-3.48435748335379, 50.90380191719349], [-3.4849439726090434, 50.90422279418666], [-3.4846089385369616, 50.90435695771871]]]}}, {"type": "Feature", "properties": {"type": "postcode-cell", "postcode": "EX16 6AX", "postcodes": ["EX16 6AX"]}, "geometry": {"type": "Polygon", "coordinates": [[[-3.485800823827252, 50.9092389647131], [-3.4848322315765006, 50.90999273005599], [-3.4843358651868344, 50.91000534156821], [-3.4834840330416452, 50.90915684645343], [-3.4836847768546217, 50.909041569580424], [-3.485800823827252, 50.9092389647131]]]}}, {"type": "Feature", "properties": {"type": "postcode-cell", "postcode": "EX16 6AD", "postcodes": ["EX16 6AD"]}, "geometry": {"type": "Polygon", "coordinates": [[[-3.484000996398137, 50.906987471033226], [-3.4844663321619462, 50.907354954876226], [-3.483869835155135, 50.907897670542425], [-3.4832081003207773, 50.9076514913757], [-3.4831575688817704, 50.90740013086406], [-3.4833166351507048, 50.907110131374196], [-3.483606378435581, 50.90692184628899], [-3.4836889001924543, 50.90689760573321], [-3.484000996398137, 50.906987471033226]]]}}, {"type": "Feature", "properties": {"type": "postcode-cell", "postcode": "EX16 6QN", "postcodes": ["EX16 6QN"]}, "geometry": {"type": "Polygon", "coordinates": [[[-3.48416958093298, 50.90522399437197], [-3.483717940858481, 50.90515771814894], [-3.483931151709246, 50.904244907272336], [-3.4840917751959366, 50.90417820952854], [-3.4846089385369616, 50.90435695771871], [-3.48416958093298, 50.90522399437197]]]}}, {"type": "Feature", "properties": {"type": "postcode-cell", "postcode": "EX16 6RB", "postcodes": ["EX16 6RB"]}, "geometry": {"type": "Polygon", "coordinates": [[[-3.484695831005452, 50.90641315577497], [-3.483765279465979, 50.90666748797481], [-3.4841286850460453, 50.90624077362762], [-3.484394557771809, 50.90619387183006], [-3.484695831005452, 50.90641315577497]]]}}, {"type": "Feature", "properties": {"type": "postcode-cell", "postcode": "EX16 6EU", "postcodes": ["EX16 6EU"]}, "geometry": {"type": "Polygon", "coordinates": [[[-3.4836847768546217, 50.909041569580424], [-3.4834840330416452, 50.90915684645343], [-3.48333934375423, 50.90918266927726], [-3.482956370973882, 50.90919930036487], [-3.482183596912409, 50.908330014835755], [-3.482796316403051, 50.9081476922768], [-3.4838585496320356, 50.90853929754115], [-3.4836847768546217, 50.909041569580424]]]}}, {"type": "Feature", "properties": {"type": "postcode-cell", "postcode": "EX16 6QZ", "postcodes": ["EX16 6QZ"]}, "geometry": {"type": "Polygon", "coordinates": [[[-3.483765279465979, 50.90666748797481], [-3.483742938391536, 50.90668352738185], [-3.4833255852130893, 50.90618092428309], [-3.483852000525405, 50.905955838845], [-3.4841286850460453, 50.90624077362762], [-3.483765279465979, 50.90666748797481]]]}}, {"type": "Feature", "properties": {"type": "postcode-cell", "postcode": "EX16 6BS", "postcodes": ["EX16 6BS"]}, "geometry": {"type": "Polygon", "coordinates": [[[-3.484127652304823, 50.90828910678246], [-3.4838585496320356, 50.90853929754115], [-3.482796316403051, 50.9081476922768], [-3.48306663340233, 50.90774115865893], [-3.4832081003207773, 50.9076514913757], [-3.483869835155135, 50.907897670542425], [-3.484127652304823, 50.90828910678246]]]}}, {"type": "Feature", "properties": {"type": "postcode-cell", "postcode": "EX16 6QR", "postcodes": ["EX16 6QR"]}, "geometry": {"type": "Polygon", "coordinates": [[[-3.484204649497003, 50.90524111919162], [-3.483852000525405, 50.905955838845], [-3.4833255852130893, 50.90618092428309], [-3.4824506004412785, 50.90591840797745], [-3.482110487919918, 50.90561279140094], [-3.4827403962569736, 50.905084123771765], [-3.483717940858481, 50.90515771814894], [-3.48416958093298, 50.90522399437197], [-3.484204649497003, 50.90524111919162]]]}}, {"type": "Feature", "properties": {"type": "postcode-cell", "postcode": "EX16 6ET", "postcodes": ["EX16 6ET"]}, "geometry": {"type": "Polygon", "coordinates": [[[-3.48338623615563, 50.910738388296124], [-3.48333934375423, 50.90918266927726], [-3.4834840330416452, 50.90915684645343], [-3.4843358651868344, 50.91000534156821], [-3.48338623615563, 50.910738388296124]]]}}, {"type": "Feature", "properties": {"type": "postcode-cell", "postcode": "EX16 6PX", "postcodes": ["EX16 6PX"]}, "geometry": {"type": "Polygon", "coordinates": [[[-3.4840839131382073, 50.90361303893397], [-3.483835652582462, 50.903580453469665], [-3.4836964311232355, 50.90327416706412], [-3.483982751857687, 50.90330044636045], [-3.484291527597443, 50.90337577618275], [-3.484331481700974, 50.9035704683392], [-3.4840839131382073, 50.90361303893397]]]}}, {"type": "Feature", "properties": {"type": "postcode-cell", "postcode": "EX16 6AT", "postcodes": ["EX16 6AT"]}, "geometry": {"type": "Polygon", "coordinates": [[[-3.4819293096545505, 50.90696315315306], [-3.481915606716935, 50.90710455305726], [-3.4814717607958765, 50.907494178099554], [-3.480398312720607, 50.90719084682362], [-3.4803699896293097, 50.906979994889696], [-3.481275708214684, 50.906640894895155], [-3.4819293096545505, 50.90696315315306]]]}}, {"type": "Feature", "properties": {"type": "postcode-cell", "postcode": "EX16 6QJ", "postcodes": ["EX16 6QJ"]}, "geometry": {"type": "Polygon", "coordinates": [[[-3.4840917751959366, 50.90417820952854], [-3.483931151709246, 50.904244907272336], [-3.483438990761303, 50.9042901579376], [-3.4836694317508505, 50.90388779973197], [-3.4837488018981166, 50.90389927950663], [-3.4840195738689497, 50.90400722636389], [-3.4840917751959366, 50.90417820952854]]]}}, {"type": "Feature", "properties": {"type": "postcode-cell", "postcode": "EX16 6QL", "postcodes": ["EX16 6QL"]}, "geometry": {"type": "Polygon", "coordinates": [[[-3.483717940858481, 50.90515771814894], [-3.4827403962569736, 50.905084123771765], [-3.4832099896322055, 50.90468999488785], [-3.483438990761303, 50.9042901579376], [-3.483931151709246, 50.904244907272336], [-3.483717940858481, 50.90515771814894]]]}}, {"type": "Feature", "properties": {"type": "postcode-cell", "postcode": "EX16 6PS", "postcodes": ["EX16 6PS"]}, "geometry": {"type": "Polygon", "coordinates": [[[-3.4840839131382073, 50.90361303893397], [-3.4837488018981166, 50.90389927950663], [-3.4836694317508505, 50.90388779973197], [-3.4838399896331267, 50.903589994886964], [-3.483835652582462, 50.903580453469665], [-3.4840839131382073, 50.90361303893397]]]}}, {"type": "Feature", "properties": {"type": "postcode-cell", "postcode": "EX16 6GS", "postcodes": ["EX16 6GS"]}, "geometry": {"type": "Polygon", "coordinates": [[[-3.483742938391536, 50.90668352738185], [-3.4836889001924543, 50.90689760573321], [-3.483606378435581, 50.90692184628899], [-3.4825682767149493, 50.90647574912576], [-3.4824506004412785, 50.90591840797745], [-3.4833255852130893, 50.90618092428309], [-3.483742938391536, 50.90668352738185]]]}}, {"type": "Feature", "properties": {"type": "postcode-cell", "postcode": "EX16 6ES", "postcodes": ["EX16 6ES"]}, "geometry": {"type": "Polygon", "coordinates": [[[-3.4833015900209614, 50.910838004055144], [-3.4822835102130125, 50.91049729185909], [-3.482278912874261, 50.909478027784075], [-3.482956370973882, 50.90919930036487], [-3.48333934375423, 50.90918266927726], [-3.48338623615563, 50.910738388296124], [-3.4833015900209614, 50.910838004055144]]]}}, {"type": "Feature", "properties": {"type": "postcode-cell", "postcode": "EX16 6GX", "postcodes": ["EX16 6GX"]}, "geometry": {"type": "Polygon", "coordinates": [[[-3.4824506004412785, 50.90591840797745], [-3.4825682767149493, 50.90647574912576], [-3.482117406805137, 50.90691191443421], [-3.4819293096545505, 50.90696315315306], [-3.481275708214684, 50.906640894895155], [-3.48247998963103, 50.90618999488905], [-3.482089989631046, 50.905629994888606], [-3.482110487919918, 50.90561279140094], [-3.4824506004412785, 50.90591840797745]]]}}, {"type": "Feature", "properties": {"type": "postcode-cell", "postcode": "EX16 6UU", "postcodes": ["EX16 6UU"]}, "geometry": {"type": "Polygon", "coordinates": [[[-3.4833415429817265, 50.91681469990025], [-3.4833158652311824, 50.91682247887052], [-3.482082068711417, 50.91583641859858], [-3.4820512799873407, 50.91561294145698], [-3.482660883161555, 50.91540422108592], [-3.4836303959812533, 50.91542005423555], [-3.4833415429817265, 50.91681469990025]]]}}, {"type": "Feature", "properties": {"type": "postcode-cell", "postcode": "EX16 6GY", "postcodes": ["EX16 6GY"]}, "geometry": {"type": "Polygon", "coordinates": [[[-3.4833166351507048, 50.907110131374196], [-3.482117406805137, 50.90691191443421], [-3.4825682767149493, 50.90647574912576], [-3.483606378435581, 50.90692184628899], [-3.4833166351507048, 50.907110131374196]]]}}, {"type": "Feature", "properties": {"type": "postcode-cell", "postcode": "EX16 6BQ", "postcodes": ["EX16 6BQ"]}, "geometry": {"type": "Polygon", "coordinates": [[[-3.483946605346263, 50.915275200531916], [-3.4836303959812533, 50.91542005423555], [-3.482660883161555, 50.91540422108592], [-3.482724562310019, 50.91471995460025], [-3.483558747636864, 50.91443546932271], [-3.483946605346263, 50.915275200531916]]]}}, {"type": "Feature", "properties": {"type": "postcode-cell", "postcode": "EX16 6BN", "postcodes": ["EX16 6BN"]}, "geometry": {"type": "Polygon", "coordinates": [[[-3.483558747636864, 50.91443546932271], [-3.482724562310019, 50.91471995460025], [-3.4812235906149738, 50.9145450767993], [-3.4811119332020963, 50.914453772286166], [-3.481128564497806, 50.91443403166879], [-3.4824747137243888, 50.91392012299636], [-3.4837200356426545, 50.91410283573482], [-3.483558747636864, 50.91443546932271]]]}}, {"type": "Feature", "properties": {"type": "postcode-cell", "postcode": "EX16 6GZ", "postcodes": ["EX16 6GZ"]}, "geometry": {"type": "Polygon", "coordinates": [[[-3.4831575688817704, 50.90740013086406], [-3.482359840307292, 50.907399325103434], [-3.481915606716935, 50.90710455305726], [-3.4819293096545505, 50.90696315315306], [-3.482117406805137, 50.90691191443421], [-3.4833166351507048, 50.907110131374196], [-3.4831575688817704, 50.90740013086406]]]}}, {"type": "Feature", "properties": {"type": "postcode-cell", "postcode": "EX16 6AS", "postcodes": ["EX16 6AS"]}, "geometry": {"type": "Polygon", "coordinates": [[[-3.482796316403051, 50.9081476922768], [-3.482183596912409, 50.908330014835755], [-3.481571702942671, 50.908181261777614], [-3.4816367150721406, 50.90801174384685], [-3.482186423719251, 50.907733592398706], [-3.48306663340233, 50.90774115865893], [-3.482796316403051, 50.9081476922768]]]}}, {"type": "Feature", "properties": {"type": "postcode-cell", "postcode": "EX16 6PN", "postcodes": ["EX16 6PN"]}, "geometry": {"type": "Polygon", "coordinates": [[[-3.481025162280833, 50.916397600255074], [-3.482082068711417, 50.91583641859858], [-3.4833158652311824, 50.91682247887052], [-3.4830599896263466, 50.91689999489759], [-3.480878467873896, 50.91718339480293], [-3.481025162280833, 50.916397600255074]]]}}, {"type": "Feature", "properties": {"type": "postcode-cell", "postcode": "EX16 6GW", "postcodes": ["EX16 6GW"]}, "geometry": {"type": "Polygon", "coordinates": [[[-3.4832081003207773, 50.9076514913757], [-3.48306663340233, 50.90774115865893], [-3.482186423719251, 50.907733592398706], [-3.482359840307292, 50.907399325103434], [-3.4831575688817704, 50.90740013086406], [-3.4832081003207773, 50.9076514913757]]]}}, {"type": "Feature", "properties": {"type": "postcode-cell", "postcode": "EX16 6EH", "postcodes": ["EX16 6EH"]}, "geometry": {"type": "Polygon", "coordinates": [[[-3.482278912874261, 50.909478027784075], [-3.4812607707157612, 50.90929650941206], [-3.480813560944496, 50.908816135014305], [-3.4813511489036713, 50.90825659636382], [-3.481571702942671, 50.908181261777614], [-3.482183596912409, 50.908330014835755], [-3.482956370973882, 50.90919930036487], [-3.482278912874261, 50.909478027784075]]]}}, {"type": "Feature", "properties": {"type": "postcode-cell", "postcode": "EX16 6GU", "postcodes": ["EX16 6GU"]}, "geometry": {"type": "Polygon", "coordinates": [[[-3.482359840307292, 50.907399325103434], [-3.482186423719251, 50.907733592398706], [-3.4816367150721406, 50.90801174384685], [-3.4814717607958765, 50.907494178099554], [-3.481915606716935, 50.90710455305726], [-3.482359840307292, 50.907399325103434]]]}}, {"type": "Feature", "properties": {"type": "postcode-cell", "postcode": "EX16 6EN", "postcodes": ["EX16 6EN"]}, "geometry": {"type": "Polygon", "coordinates": [[[-3.4836322397895363, 50.91126055338382], [-3.4817392162214893, 50.91174082270732], [-3.481170019470032, 50.91124559328958], [-3.481857786062579, 50.91057130019457], [-3.4822835102130125, 50.91049729185909], [-3.4833015900209614, 50.910838004055144], [-3.4836322397895363, 50.91126055338382]]]}}, {"type": "Feature", "properties": {"type": "postcode-cell", "postcode": "EX16 6NN", "postcodes": ["EX16 6NN"]}, "geometry": {"type": "Polygon", "coordinates": [[[-3.4841787022012887, 50.91272273039604], [-3.4822579720713014, 50.91340722120171], [-3.481692094387197, 50.91321472384643], [-3.4824281663761103, 50.912508109200864], [-3.4841191056645147, 50.91255895840524], [-3.4841787022012887, 50.91272273039604]]]}}, {"type": "Feature", "properties": {"type": "postcode-cell", "postcode": "EX16 6TP", "postcodes": ["EX16 6TP"]}, "geometry": {"type": "Polygon", "coordinates": [[[-3.481128564497806, 50.91443403166879], [-3.481147084889922, 50.91326374444949], [-3.4811762011624023, 50.91325504808233], [-3.481692094387197, 50.91321472384643], [-3.4822579720713014, 50.91340722120171], [-3.4824747137243888, 50.91392012299636], [-3.481128564497806, 50.91443403166879]]]}}, {"type": "Feature", "properties": {"type": "postcode-cell", "postcode": "EX16 6BP", "postcodes": ["EX16 6BP"]}, "geometry": {"type": "Polygon", "coordinates": [[[-3.482660883161555, 50.91540422108592], [-3.4820512799873407, 50.91561294145698], [-3.481365016176696, 50.915254382074046], [-3.4818899896264512, 50.915089994896164], [-3.4812235906149738, 50.9145450767993], [-3.482724562310019, 50.91471995460025], [-3.482660883161555, 50.91540422108592]]]}}, {"type": "Feature", "properties": {"type": "postcode-cell", "postcode": "EX16 6UX", "postcodes": ["EX16 6UX"]}, "geometry": {"type": "Polygon", "coordinates": [[[-3.4820512799873407, 50.91561294145698], [-3.482082068711417, 50.91583641859858], [-3.481025162280833, 50.916397600255074], [-3.480380018448554, 50.91581173913731], [-3.4808999896256743, 50.91539999489642], [-3.481365016176696, 50.915254382074046], [-3.4820512799873407, 50.91561294145698]]]}}, {"type": "Feature", "properties": {"type": "postcode-cell", "postcode": "EX16 6QA", "postcodes": ["EX16 6QA"]}, "geometry": {"type": "Polygon", "coordinates": [[[-3.4816367150721406, 50.90801174384685], [-3.481571702942671, 50.908181261777614], [-3.4813511489036713, 50.90825659636382], [-3.4801582162826614, 50.907679747744325], [-3.480459989629052, 50.907649994890235], [-3.480398312720607, 50.90719084682362], [-3.4814717607958765, 50.907494178099554], [-3.4816367150721406, 50.90801174384685]]]}}, {"type": "Feature", "properties": {"type": "postcode-cell", "postcode": "EX16 6EJ", "postcodes": ["EX16 6EJ"]}, "geometry": {"type": "Polygon", "coordinates": [[[-3.482278912874261, 50.909478027784075], [-3.4822835102130125, 50.91049729185909], [-3.481857786062579, 50.91057130019457], [-3.4815513625202263, 50.91047712148974], [-3.4805613893531997, 50.90996980990637], [-3.4812607707157612, 50.90929650941206], [-3.482278912874261, 50.909478027784075]]]}}, {"type": "Feature", "properties": {"type": "postcode-cell", "postcode": "EX16 6JX", "postcodes": ["EX16 6JX"]}, "geometry": {"type": "Polygon", "coordinates": [[[-3.481692094387197, 50.91321472384643], [-3.4811762011624023, 50.91325504808233], [-3.4815594425240746, 50.912160448292205], [-3.4815948097530653, 50.91214951811345], [-3.4824281663761103, 50.912508109200864], [-3.481692094387197, 50.91321472384643]]]}}, {"type": "Feature", "properties": {"type": "postcode-cell", "postcode": "EX16 6JU", "postcodes": ["EX16 6JU"]}, "geometry": {"type": "Polygon", "coordinates": [[[-3.4815594425240746, 50.912160448292205], [-3.4804701884538805, 50.912243441501474], [-3.480322885469274, 50.91211951226602], [-3.4809219524380044, 50.911254444636796], [-3.481170019470032, 50.91124559328958], [-3.4817392162214893, 50.91174082270732], [-3.4815948097530653, 50.91214951811345], [-3.4815594425240746, 50.912160448292205]]]}}, {"type": "Feature", "properties": {"type": "postcode-cell", "postcode": "EX16 6JY", "postcodes": ["EX16 6JY"]}, "geometry": {"type": "Polygon", "coordinates": [[[-3.481147084889922, 50.91326374444949], [-3.4801127307963315, 50.91300093355995], [-3.4804701884538805, 50.912243441501474], [-3.4815594425240746, 50.912160448292205], [-3.4811762011624023, 50.91325504808233], [-3.481147084889922, 50.91326374444949]]]}}, {"type": "Feature", "properties": {"type": "postcode-cell", "postcode": "EX16 6JZ", "postcodes": ["EX16 6JZ"]}, "geometry": {"type": "Polygon", "coordinates": [[[-3.4811119332020963, 50.914453772286166], [-3.4795661642459925, 50.91318971756603], [-3.4797886825475994, 50.91308279709681], [-3.4801127307963315, 50.91300093355995], [-3.481147084889922, 50.91326374444949], [-3.481128564497806, 50.91443403166879], [-3.4811119332020963, 50.914453772286166]]]}}, {"type": "Feature", "properties": {"type": "postcode-cell", "postcode": "EX16 6FQ", "postcodes": ["EX16 6FQ"]}, "geometry": {"type": "Polygon", "coordinates": [[[-3.4807703872169453, 50.917197434335776], [-3.4782099896229473, 50.91752999489813], [-3.4794775703790775, 50.91652632884618], [-3.4807703872169453, 50.917197434335776]]]}}, {"type": "Feature", "properties": {"type": "postcode-cell", "postcode": "EX16 6UY", "postcodes": ["EX16 6UY"]}, "geometry": {"type": "Polygon", "coordinates": [[[-3.480878467873896, 50.91718339480293], [-3.4807703872169453, 50.917197434335776], [-3.4794775703790775, 50.91652632884618], [-3.480380018448554, 50.91581173913731], [-3.481025162280833, 50.916397600255074], [-3.480878467873896, 50.91718339480293]]]}}, {"type": "Feature", "properties": {"type": "postcode-cell", "postcode": "EX16 6EL", "postcodes": ["EX16 6EL"]}, "geometry": {"type": "Polygon", "coordinates": [[[-3.481170019470032, 50.91124559328958], [-3.4809219524380044, 50.911254444636796], [-3.480632113665269, 50.911189642522736], [-3.48012846439553, 50.91077404011897], [-3.480128544661258, 50.910772458918835], [-3.4815513625202263, 50.91047712148974], [-3.481857786062579, 50.91057130019457], [-3.481170019470032, 50.91124559328958]]]}}, {"type": "Feature", "properties": {"type": "postcode-cell", "postcode": "EX16 6EW", "postcodes": ["EX16 6EW"]}, "geometry": {"type": "Polygon", "coordinates": [[[-3.4809219524380044, 50.911254444636796], [-3.480322885469274, 50.91211951226602], [-3.4799561474438456, 50.91197880588673], [-3.4800851236396806, 50.911417380622645], [-3.480632113665269, 50.911189642522736], [-3.4809219524380044, 50.911254444636796]]]}}, {"type": "Feature", "properties": {"type": "postcode-cell", "postcode": "EX16 6JS", "postcodes": ["EX16 6JS"]}, "geometry": {"type": "Polygon", "coordinates": [[[-3.4804701884538805, 50.912243441501474], [-3.4801127307963315, 50.91300093355995], [-3.4797886825475994, 50.91308279709681], [-3.479031516443415, 50.91204255225572], [-3.4792742830036243, 50.911931466490664], [-3.4799561474438456, 50.91197880588673], [-3.480322885469274, 50.91211951226602], [-3.4804701884538805, 50.912243441501474]]]}}, {"type": "Feature", "properties": {"type": "postcode-cell", "postcode": "EX16 6ER", "postcodes": ["EX16 6ER"]}, "geometry": {"type": "Polygon", "coordinates": [[[-3.4815513625202263, 50.91047712148974], [-3.480128544661258, 50.910772458918835], [-3.4798668792939567, 50.91013012648028], [-3.480060137129864, 50.910052581761526], [-3.4805613893531997, 50.90996980990637], [-3.4815513625202263, 50.91047712148974]]]}}, {"type": "Feature", "properties": {"type": "postcode-cell", "postcode": "EX16 6JN", "postcodes": ["EX16 6JN"]}, "geometry": {"type": "Polygon", "coordinates": [[[-3.4812607707157612, 50.90929650941206], [-3.4805613893531997, 50.90996980990637], [-3.480060137129864, 50.910052581761526], [-3.47983446167342, 50.90880225669167], [-3.480813560944496, 50.908816135014305], [-3.4812607707157612, 50.90929650941206]]]}}, {"type": "Feature", "properties": {"type": "postcode-cell", "postcode": "EX16 6EP", "postcodes": ["EX16 6EP"]}, "geometry": {"type": "Polygon", "coordinates": [[[-3.4800851236396806, 50.911417380622645], [-3.4791927213817644, 50.9112415623388], [-3.47914607436393, 50.91118539682568], [-3.48012846439553, 50.91077404011897], [-3.480632113665269, 50.911189642522736], [-3.4800851236396806, 50.911417380622645]]]}}, {"type": "Feature", "properties": {"type": "postcode-cell", "postcode": "EX16 6JP", "postcodes": ["EX16 6JP"]}, "geometry": {"type": "Polygon", "coordinates": [[[-3.4799561474438456, 50.91197880588673], [-3.4792742830036243, 50.911931466490664], [-3.4791927213817644, 50.9112415623388], [-3.4800851236396806, 50.911417380622645], [-3.4799561474438456, 50.91197880588673]]]}}, {"type": "Feature", "properties": {"type": "postcode-cell", "postcode": "EX16 6JW", "postcodes": ["EX16 6JW"]}, "geometry": {"type": "Polygon", "coordinates": [[[-3.480128544661258, 50.910772458918835], [-3.48012846439553, 50.91077404011897], [-3.47914607436393, 50.91118539682568], [-3.4788150184663067, 50.91107405665256], [-3.4792499896269025, 50.91055999489256], [-3.4794999896272554, 50.91014999489223], [-3.4792540562715737, 50.91008759448546], [-3.4798668792939567, 50.91013012648028], [-3.480128544661258, 50.910772458918835]]]}}, {"type": "Feature", "properties": {"type": "postcode-cell", "postcode": "EX16 6JT", "postcodes": ["EX16 6JT"]}, "geometry": {"type": "Polygon", "coordinates": [[[-3.4795661642459925, 50.91318971756603], [-3.4782948037038413, 50.91214999312482], [-3.479031516443415, 50.91204255225572], [-3.4797886825475994, 50.91308279709681], [-3.4795661642459925, 50.91318971756603]]]}}, {"type": "Feature", "properties": {"type": "postcode-cell", "postcode": "EX16 6ST", "postcodes": ["EX16 6ST"]}, "geometry": {"type": "Polygon", "coordinates": [[[-3.47983446167342, 50.90880225669167], [-3.480060137129864, 50.910052581761526], [-3.4798668792939567, 50.91013012648028], [-3.4792540562715737, 50.91008759448546], [-3.4788299896269077, 50.909979994892105], [-3.479661747131447, 50.90876852560956], [-3.47983446167342, 50.90880225669167]]]}}, {"type": "Feature", "properties": {"type": "postcode-cell", "postcode": "EX16 6JR", "postcodes": ["EX16 6JR"]}, "geometry": {"type": "Polygon", "coordinates": [[[-3.47914607436393, 50.91118539682568], [-3.4791927213817644, 50.9112415623388], [-3.4792742830036243, 50.911931466490664], [-3.479031516443415, 50.91204255225572], [-3.4782948037038413, 50.91214999312482], [-3.4773899896253133, 50.91140999489327], [-3.4775999896255416, 50.9112099948931], [-3.4784799896259813, 50.91146999489329], [-3.4788150184663067, 50.91107405665256], [-3.47914607436393, 50.91118539682568]]]}}]}