{"type": "FeatureCollection", "features": [{"type": "Feature", "properties": {"type": "ward-outline", "name": "Tiverton Cranmore"}, "geometry": {"type": "Polygon", "coordinates": [[[-3.43844, 50.90916], [-3.44071, 50.90403], [-3.44139, 50.90115], [-3.44576, 50.89353], [-3.44727, 50.89194], [-3.44774, 50.88811], [-3.44958, 50.88596], [-3.4514, 50.88632], [-3.45297, 50.88614], [-3.45804, 50.88659], [-3.45838, 50.88604], [-3.45895, 50.88627], [-3.46215, 50.88598], [-3.46707, 50.88495], [-3.46914, 50.88442], [-3.47073, 50.88355], [-3.4738, 50.88431], [-3.47556, 50.88422], [-3.47792, 50.88339], [-3.48013, 50.88343], [-3.48175, 50.88208], [-3.48348, 50.88201], [-3.48569, 50.88237], [-3.48616, 50.88143], [-3.4883, 50.88142], [-3.49286, 50.8854], [-3.49487, 50.888], [-3.49626, 50.89106], [-3.4956, 50.89253], [-3.49331, 50.89353], [-3.49241, 50.89425], [-3.49028, 50.89728], [-3.48893, 50.89684], [-3.48856, 50.89715], [-3.48797, 50.89642], [-3.48563, 50.89704], [-3.48645, 50.89826], [-3.48589, 50.89871], [-3.48636, 50.89904], [-3.48596, 50.89951], [-3.48531, 50.89918], [-3.48496, 50.89941], [-3.48473, 50.90108], [-3.48153, 50.90215], [-3.47762, 50.90399], [-3.46863, 50.90629], [-3.46233, 50.90732], [-3.45351, 50.90968], [-3.44427, 50.91013], [-3.43844, 50.90916]]]}}, {"type": "Feature", "properties": {"type": "postcode-cell", "postcode": "EX16 4LL", "postcodes": ["EX16 4LL"]}, "geometry": {"type": "MultiPolygon", "coordinates": [[[[-3.4809934888995024, 50.90065950985694], [-3.4811630968367555, 50.89754631326513], [-3.483909024345334, 50.89586725902949], [-3.4876302063845657, 50.89651002684139], [-3.485629989637365, 50.897039994881695], [-3.4864499896373147, 50.898259994882665], [-3.485889989636742, 50.898709994883035], [-3.486359989636888, 50.899039994883275], [-3.4859599896364104, 50.89950999488366], [-3.485309989636151, 50.899179994883404], [-3.4849599896358177, 50.89940999488362], [-3.4847299896348822, 50.90107999488494], [-3.4826497427504792, 50.90177559292695], [-3.4809934888995024, 50.90065950985694]]], [[[-3.4904758034694634, 50.89700146062289], [-3.4902799896402232, 50.89727999488183], [-3.488929989639567, 50.896839994881496], [-3.488559989639186, 50.897149994881765], [-3.4881096827418268, 50.89659283787428], [-3.4904758034694634, 50.89700146062289]]]]}}, {"type": "Feature", "properties": {"type": "postcode-cell", "postcode": "EX16 4PT", "postcodes": ["EX16 4PT"]}, "geometry": {"type": "Polygon", "coordinates": [[[-3.4881096827418268, 50.89659283787428], [-3.4879699896391543, 50.89641999488117], [-3.4876302063845657, 50.89651002684139], [-3.483909024345334, 50.89586725902949], [-3.472299048291947, 50.88592936153754], [-3.4726573845198696, 50.884027147365366], [-3.473799989635831, 50.88430999487169], [-3.4755599896369973, 50.88421999487158], [-3.4779199896388944, 50.883389994870896], [-3.4801299896402855, 50.8834299948709], [-3.4817499896419584, 50.88207999486981], [-3.4834799896430955, 50.882009994869726], [-3.4856899896443356, 50.88236999486999], [-3.486159989645081, 50.88142999486922], [-3.488299989646452, 50.88141999486921], [-3.4928599896474823, 50.885399994872316], [-3.4948699896475386, 50.88799999487437], [-3.496259989646983, 50.891059994876805], [-3.4955999896458674, 50.89252999487797], [-3.4933099896439317, 50.8935299948788], [-3.4924099896430154, 50.8942499948794], [-3.4904758034694634, 50.89700146062289], [-3.4881096827418268, 50.89659283787428]]]}}, {"type": "Feature", "properties": {"type": "postcode-cell", "postcode": "EX16 4PP", "postcodes": ["EX16 4PP"]}, "geometry": {"type": "Polygon", "coordinates": [[[-3.472299048291947, 50.88592936153754], [-3.469054277356612, 50.88929893323411], [-3.4686487739499814, 50.889564772505906], [-3.46728228055844, 50.890328519640086], [-3.459203835099023, 50.89300567133946], [-3.4471595983954324, 50.89205623893088], [-3.447269989615316, 50.89193999487807], [-3.4477399896174292, 50.88810999487501], [-3.44957998961962, 50.88595999487327], [-3.451399989620607, 50.88631999487353], [-3.4529699896216934, 50.88613999487338], [-3.4580399896247074, 50.88658999487367], [-3.4583799896251852, 50.88603999487323], [-3.4589499896254403, 50.886269994873416], [-3.4621499896276164, 50.885979994873146], [-3.467069989631238, 50.88494999487226], [-3.469139989632809, 50.88441999487182], [-3.4707299896342323, 50.8835499948711], [-3.4726573845198696, 50.884027147365366], [-3.472299048291947, 50.88592936153754]]]}}, {"type": "Feature", "properties": {"type": "postcode-cell", "postcode": "EX16 4PQ", "postcodes": ["EX16 4PQ"]}, "geometry": {"type": "Polygon", "coordinates": [[[-3.4803826017168995, 50.90125316839602], [-3.4789332254324004, 50.90161805414343], [-3.478206475601957, 50.900933651100765], [-3.478779111934428, 50.898254721216226], [-3.4811630968367555, 50.89754631326513], [-3.4809934888995024, 50.90065950985694], [-3.4803826017168995, 50.90125316839602]]]}}, {"type": "Feature", "properties": {"type": "postcode-cell", "postcode": "EX16 4LJ", "postcodes": ["EX16 4LJ"]}, "geometry": {"type": "Polygon", "coordinates": [[[-3.4803826017168995, 50.90125316839602], [-3.4809934888995024, 50.90065950985694], [-3.4826497427504792, 50.90177559292695], [-3.4815299896323326, 50.90214999488581], [-3.4808195828746924, 50.90248432436315], [-3.4803826017168995, 50.90125316839602]]]}}, {"type": "Feature", "properties": {"type": "postcode-cell", "postcode": "EX16 4HQ", "postcodes": ["EX16 4HQ"]}, "geometry": {"type": "Polygon", "coordinates": [[[-3.479120987433987, 50.90218034498757], [-3.480677745107255, 50.9025510745381], [-3.479186249664045, 50.903252964310994], [-3.479120987433987, 50.90218034498757]]]}}, {"type": "Feature", "properties": {"type": "postcode-cell", "postcode": "EX16 4JJ", "postcodes": ["EX16 4JJ"]}, "geometry": {"type": "Polygon", "coordinates": [[[-3.4808195828746924, 50.90248432436315], [-3.480677745107255, 50.9025510745381], [-3.479120987433987, 50.90218034498757], [-3.478745410486471, 50.90188559478778], [-3.4789332254324004, 50.90161805414343], [-3.4803826017168995, 50.90125316839602], [-3.4808195828746924, 50.90248432436315]]]}}, {"type": "Feature", "properties": {"type": "postcode-cell", "postcode": "EX16 4QD", "postcodes": ["EX16 4QD"]}, "geometry": {"type": "Polygon", "coordinates": [[[-3.479120987433987, 50.90218034498757], [-3.479186249664045, 50.903252964310994], [-3.4780734073412582, 50.90377663592229], [-3.4778146563977193, 50.90328225563732], [-3.4780626296176997, 50.90211258599978], [-3.478745410486471, 50.90188559478778], [-3.479120987433987, 50.90218034498757]]]}}, {"type": "Feature", "properties": {"type": "postcode-cell", "postcode": "EX16 4HT", "postcodes": ["EX16 4HT"]}, "geometry": {"type": "Polygon", "coordinates": [[[-3.478745410486471, 50.90188559478778], [-3.4780626296176997, 50.90211258599978], [-3.476537582668181, 50.901735552345464], [-3.476801517434636, 50.90131648200711], [-3.478206475601957, 50.900933651100765], [-3.4789332254324004, 50.90161805414343], [-3.478745410486471, 50.90188559478778]]]}}, {"type": "Feature", "properties": {"type": "postcode-cell", "postcode": "EX16 4PN", "postcodes": ["EX16 4PN"]}, "geometry": {"type": "Polygon", "coordinates": [[[-3.478206475601957, 50.900933651100765], [-3.476801517434636, 50.90131648200711], [-3.4762092171531545, 50.89993259022534], [-3.4760891952777317, 50.89928567026739], [-3.476831599010602, 50.89852816642788], [-3.478779111934428, 50.898254721216226], [-3.478206475601957, 50.900933651100765]]]}}, {"type": "Feature", "properties": {"type": "postcode-cell", "postcode": "EX16 4PL", "postcodes": ["EX16 4PL"]}, "geometry": {"type": "Polygon", "coordinates": [[[-3.4811630968367555, 50.89754631326513], [-3.478779111934428, 50.898254721216226], [-3.476831599010602, 50.89852816642788], [-3.4732969055004257, 50.89738204122926], [-3.469054277356612, 50.88929893323411], [-3.472299048291947, 50.88592936153754], [-3.483909024345334, 50.89586725902949], [-3.4811630968367555, 50.89754631326513]]]}}, {"type": "Feature", "properties": {"type": "postcode-cell", "postcode": "EX16 4HJ", "postcodes": ["EX16 4HJ"]}, "geometry": {"type": "Polygon", "coordinates": [[[-3.474896560586279, 50.90458079723891], [-3.4751139795258887, 50.903510914797636], [-3.4759710621309545, 50.90334984783259], [-3.4775908242730416, 50.903997458027334], [-3.4749430617847863, 50.90467495536618], [-3.474896560586279, 50.90458079723891]]]}}, {"type": "Feature", "properties": {"type": "postcode-cell", "postcode": "EX16 4HR", "postcodes": ["EX16 4HR"]}, "geometry": {"type": "Polygon", "coordinates": [[[-3.4778146563977193, 50.90328225563732], [-3.476276201409077, 50.9025264693381], [-3.476280057657939, 50.901824527425305], [-3.476537582668181, 50.901735552345464], [-3.4780626296176997, 50.90211258599978], [-3.4778146563977193, 50.90328225563732]]]}}, {"type": "Feature", "properties": {"type": "postcode-cell", "postcode": "EX16 4HU", "postcodes": ["EX16 4HU"]}, "geometry": {"type": "Polygon", "coordinates": [[[-3.476801517434636, 50.90131648200711], [-3.476537582668181, 50.901735552345464], [-3.476280057657939, 50.901824527425305], [-3.4756987067770737, 50.901740298852495], [-3.475321440364095, 50.90157881178616], [-3.4762092171531545, 50.89993259022534], [-3.476801517434636, 50.90131648200711]]]}}, {"type": "Feature", "properties": {"type": "postcode-cell", "postcode": "EX16 4HH", "postcodes": ["EX16 4HH"]}, "geometry": {"type": "Polygon", "coordinates": [[[-3.4780734073412582, 50.90377663592229], [-3.4776199896289657, 50.903989994887326], [-3.4775908242730416, 50.903997458027334], [-3.4759710621309545, 50.90334984783259], [-3.4759660043942424, 50.90273642746917], [-3.476276201409077, 50.9025264693381], [-3.4778146563977193, 50.90328225563732], [-3.4780734073412582, 50.90377663592229]]]}}, {"type": "Feature", "properties": {"type": "postcode-cell", "postcode": "EX16 4HW", "postcodes": ["EX16 4HW"]}, "geometry": {"type": "Polygon", "coordinates": [[[-3.4759710621309545, 50.90334984783259], [-3.4751139795258887, 50.903510914797636], [-3.4744773072936224, 50.90292542196112], [-3.4745233824772996, 50.902872362659274], [-3.4759660043942424, 50.90273642746917], [-3.4759710621309545, 50.90334984783259]]]}}, {"type": "Feature", "properties": {"type": "postcode-cell", "postcode": "EX16 4QB", "postcodes": ["EX16 4QB"]}, "geometry": {"type": "Polygon", "coordinates": [[[-3.469054277356612, 50.88929893323411], [-3.4732969055004257, 50.89738204122926], [-3.4725194870273923, 50.89794603849244], [-3.4719429215357667, 50.89815133072219], [-3.4693702620594973, 50.897763407771706], [-3.4686487739499814, 50.889564772505906], [-3.469054277356612, 50.88929893323411]]]}}, {"type": "Feature", "properties": {"type": "postcode-cell", "postcode": "EX16 4HP", "postcodes": ["EX16 4HP"]}, "geometry": {"type": "Polygon", "coordinates": [[[-3.476276201409077, 50.9025264693381], [-3.4759660043942424, 50.90273642746917], [-3.4745233824772996, 50.902872362659274], [-3.4745247704656097, 50.9027171529837], [-3.4756987067770737, 50.901740298852495], [-3.476280057657939, 50.901824527425305], [-3.476276201409077, 50.9025264693381]]]}}, {"type": "Feature", "properties": {"type": "postcode-cell", "postcode": "EX16 4HX", "postcodes": ["EX16 4HX"]}, "geometry": {"type": "Polygon", "coordinates": [[[-3.4762092171531545, 50.89993259022534], [-3.475321440364095, 50.90157881178616], [-3.4742315540593833, 50.901315097007235], [-3.474376444428837, 50.90033451143086], [-3.474743955976638, 50.89992521515603], [-3.4760891952777317, 50.89928567026739], [-3.4762092171531545, 50.89993259022534]]]}}, {"type": "Feature", "properties": {"type": "postcode-cell", "postcode": "EX16 4DD", "postcodes": ["EX16 4DD"]}, "geometry": {"type": "Polygon", "coordinates": [[[-3.470731872211724, 50.905082935919594], [-3.4710660260940505, 50.904752876979465], [-3.4712345348171207, 50.904687159640304], [-3.4726723397237307, 50.904625718430616], [-3.473627766075231, 50.90501147767839], [-3.4709926089840106, 50.90568563147169], [-3.470731872211724, 50.905082935919594]]]}}, {"type": "Feature", "properties": {"type": "postcode-cell", "postcode": "EX16 4HN", "postcodes": ["EX16 4HN"]}, "geometry": {"type": "Polygon", "coordinates": [[[-3.474896560586279, 50.90458079723891], [-3.4737345391267174, 50.90380959226084], [-3.473872072583531, 50.90320043615671], [-3.4741385465172185, 50.90300616648926], [-3.4744773072936224, 50.90292542196112], [-3.4751139795258887, 50.903510914797636], [-3.474896560586279, 50.90458079723891]]]}}, {"type": "Feature", "properties": {"type": "postcode-cell", "postcode": "EX16 4HY", "postcodes": ["EX16 4HY"]}, "geometry": {"type": "Polygon", "coordinates": [[[-3.4737763426713304, 50.90151158651823], [-3.472513865550375, 50.90059156253014], [-3.472634689075834, 50.900426858987764], [-3.474376444428837, 50.90033451143086], [-3.4742315540593833, 50.901315097007235], [-3.4737763426713304, 50.90151158651823]]]}}, {"type": "Feature", "properties": {"type": "postcode-cell", "postcode": "EX16 4HB", "postcodes": ["EX16 4HB"]}, "geometry": {"type": "Polygon", "coordinates": [[[-3.4742315540593833, 50.901315097007235], [-3.475321440364095, 50.90157881178616], [-3.4756987067770737, 50.901740298852495], [-3.4745247704656097, 50.9027171529837], [-3.4736183641327094, 50.90162543957224], [-3.4737763426713304, 50.90151158651823], [-3.4742315540593833, 50.901315097007235]]]}}, {"type": "Feature", "properties": {"type": "postcode-cell", "postcode": "EX16 4QR", "postcodes": ["EX16 4QR"]}, "geometry": {"type": "Polygon", "coordinates": [[[-3.4760891952777317, 50.89928567026739], [-3.474743955976638, 50.89992521515603], [-3.472758527814266, 50.89954353230052], [-3.4725194870273923, 50.89794603849244], [-3.4732969055004257, 50.89738204122926], [-3.476831599010602, 50.89852816642788], [-3.4760891952777317, 50.89928567026739]]]}}, {"type": "Feature", "properties": {"type": "postcode-cell", "postcode": "EX16 4BJ", "postcodes": ["EX16 4BJ"]}, "geometry": {"type": "Polygon", "coordinates": [[[-3.4745247704656097, 50.9027171529837], [-3.4745233824772996, 50.902872362659274], [-3.4744773072936224, 50.90292542196112], [-3.4741385465172185, 50.90300616648926], [-3.473151936287513, 50.90258881437236], [-3.473031040343363, 50.90211568266518], [-3.4735862582353216, 50.90163449326903], [-3.4736183641327094, 50.90162543957224], [-3.4745247704656097, 50.9027171529837]]]}}, {"type": "Feature", "properties": {"type": "postcode-cell", "postcode": "EX16 4HL", "postcodes": ["EX16 4HL"]}, "geometry": {"type": "Polygon", "coordinates": [[[-3.4749430617847863, 50.90467495536618], [-3.473627766075231, 50.90501147767839], [-3.4726723397237307, 50.904625718430616], [-3.4728689681626874, 50.90388375085844], [-3.4737345391267174, 50.90380959226084], [-3.474896560586279, 50.90458079723891], [-3.4749430617847863, 50.90467495536618]]]}}, {"type": "Feature", "properties": {"type": "postcode-cell", "postcode": "EX16 4HZ", "postcodes": ["EX16 4HZ"]}, "geometry": {"type": "Polygon", "coordinates": [[[-3.4736183641327094, 50.90162543957224], [-3.4735862582353216, 50.90163449326903], [-3.4718047933517697, 50.901300698910475], [-3.471586791682162, 50.901038113054724], [-3.472513865550375, 50.90059156253014], [-3.4737763426713304, 50.90151158651823], [-3.4736183641327094, 50.90162543957224]]]}}, {"type": "Feature", "properties": {"type": "postcode-cell", "postcode": "EX16 4BQ", "postcodes": ["EX16 4BQ"]}, "geometry": {"type": "Polygon", "coordinates": [[[-3.4737345391267174, 50.90380959226084], [-3.4728689681626874, 50.90388375085844], [-3.4722251720163277, 50.90344273788278], [-3.4721710188578605, 50.90325752517402], [-3.473872072583531, 50.90320043615671], [-3.4737345391267174, 50.90380959226084]]]}}, {"type": "Feature", "properties": {"type": "postcode-cell", "postcode": "EX16 4AA", "postcodes": ["EX16 4AA"]}, "geometry": {"type": "Polygon", "coordinates": [[[-3.4728689681626874, 50.90388375085844], [-3.4726723397237307, 50.904625718430616], [-3.4712345348171207, 50.904687159640304], [-3.4714928563533927, 50.90418661930216], [-3.4722251720163277, 50.90344273788278], [-3.4728689681626874, 50.90388375085844]]]}}, {"type": "Feature", "properties": {"type": "postcode-cell", "postcode": "EX16 4BH", "postcodes": ["EX16 4BH"]}, "geometry": {"type": "Polygon", "coordinates": [[[-3.473872072583531, 50.90320043615671], [-3.4721710188578605, 50.90325752517402], [-3.4721473445788065, 50.90323474597032], [-3.473151936287513, 50.90258881437236], [-3.4741385465172185, 50.90300616648926], [-3.473872072583531, 50.90320043615671]]]}}, {"type": "Feature", "properties": {"type": "postcode-cell", "postcode": "EX16 4JQ", "postcodes": ["EX16 4JQ"]}, "geometry": {"type": "Polygon", "coordinates": [[[-3.474376444428837, 50.90033451143086], [-3.472634689075834, 50.900426858987764], [-3.472246541515268, 50.89986338386962], [-3.472758527814266, 50.89954353230052], [-3.474743955976638, 50.89992521515603], [-3.474376444428837, 50.90033451143086]]]}}, {"type": "Feature", "properties": {"type": "postcode-cell", "postcode": "EX16 4AD", "postcodes": ["EX16 4AD"]}, "geometry": {"type": "Polygon", "coordinates": [[[-3.4721710188578605, 50.90325752517402], [-3.4722251720163277, 50.90344273788278], [-3.4714928563533927, 50.90418661930216], [-3.470929367263968, 50.903477925141026], [-3.472036477197412, 50.90318582942474], [-3.4721473445788065, 50.90323474597032], [-3.4721710188578605, 50.90325752517402]]]}}, {"type": "Feature", "properties": {"type": "postcode-cell", "postcode": "EX16 4BG", "postcodes": ["EX16 4BG"]}, "geometry": {"type": "Polygon", "coordinates": [[[-3.4721473445788065, 50.90323474597032], [-3.472036477197412, 50.90318582942474], [-3.4717371527487746, 50.90282895641775], [-3.4718900956414838, 50.90232162465874], [-3.4719316988473534, 50.90227876853684], [-3.473031040343363, 50.90211568266518], [-3.473151936287513, 50.90258881437236], [-3.4721473445788065, 50.90323474597032]]]}}, {"type": "Feature", "properties": {"type": "postcode-cell", "postcode": "EX16 4JB", "postcodes": ["EX16 4JB"]}, "geometry": {"type": "Polygon", "coordinates": [[[-3.471586791682162, 50.901038113054724], [-3.4715712897299724, 50.90103341720145], [-3.4713633598423876, 50.89992564624483], [-3.4714849683774736, 50.89983977755792], [-3.472246541515268, 50.89986338386962], [-3.472634689075834, 50.900426858987764], [-3.472513865550375, 50.90059156253014], [-3.471586791682162, 50.901038113054724]]]}}, {"type": "Feature", "properties": {"type": "postcode-cell", "postcode": "EX16 4AQ", "postcodes": ["EX16 4AQ"]}, "geometry": {"type": "Polygon", "coordinates": [[[-3.473031040343363, 50.90211568266518], [-3.4719316988473534, 50.90227876853684], [-3.471637363858718, 50.90169883566872], [-3.4718047933517697, 50.901300698910475], [-3.4735862582353216, 50.90163449326903], [-3.473031040343363, 50.90211568266518]]]}}, {"type": "Feature", "properties": {"type": "postcode-cell", "postcode": "EX16 4AG", "postcodes": ["EX16 4AG"]}, "geometry": {"type": "Polygon", "coordinates": [[[-3.4718047933517697, 50.901300698910475], [-3.471637363858718, 50.90169883566872], [-3.4706262915150567, 50.90192946747033], [-3.4706971964823037, 50.901014736863495], [-3.4715712897299724, 50.90103341720145], [-3.471586791682162, 50.901038113054724], [-3.4718047933517697, 50.901300698910475]]]}}, {"type": "Feature", "properties": {"type": "postcode-cell", "postcode": "EX16 4AE", "postcodes": ["EX16 4AE"]}, "geometry": {"type": "Polygon", "coordinates": [[[-3.4710660260940505, 50.904752876979465], [-3.470240296759397, 50.90378229071273], [-3.4703296386171814, 50.903500132396665], [-3.470929367263968, 50.903477925141026], [-3.4714928563533927, 50.90418661930216], [-3.4712345348171207, 50.904687159640304], [-3.4710660260940505, 50.904752876979465]]]}}, {"type": "Feature", "properties": {"type": "postcode-cell", "postcode": "EX16 4AH", "postcodes": ["EX16 4AH"]}, "geometry": {"type": "Polygon", "coordinates": [[[-3.4719316988473534, 50.90227876853684], [-3.4718900956414838, 50.90232162465874], [-3.470459922253042, 50.90213154870569], [-3.470452284605262, 50.90205906578337], [-3.4706262915150567, 50.90192946747033], [-3.471637363858718, 50.90169883566872], [-3.4719316988473534, 50.90227876853684]]]}}, {"type": "Feature", "properties": {"type": "postcode-cell", "postcode": "EX16 4JH", "postcodes": ["EX16 4JH"]}, "geometry": {"type": "Polygon", "coordinates": [[[-3.4725194870273923, 50.89794603849244], [-3.472758527814266, 50.89954353230052], [-3.472246541515268, 50.89986338386962], [-3.4714849683774736, 50.89983977755792], [-3.4709249421892556, 50.89886575662964], [-3.4719429215357667, 50.89815133072219], [-3.4725194870273923, 50.89794603849244]]]}}, {"type": "Feature", "properties": {"type": "postcode-cell", "postcode": "EX16 4AN", "postcodes": ["EX16 4AN"]}, "geometry": {"type": "Polygon", "coordinates": [[[-3.470929367263968, 50.903477925141026], [-3.4703296386171814, 50.903500132396665], [-3.4700625653770896, 50.903198462934995], [-3.470137890390509, 50.90270797528644], [-3.470172421518369, 50.902691160392834], [-3.4717371527487746, 50.90282895641775], [-3.472036477197412, 50.90318582942474], [-3.470929367263968, 50.903477925141026]]]}}, {"type": "Feature", "properties": {"type": "postcode-cell", "postcode": "EX16 4AF", "postcodes": ["EX16 4AF"]}, "geometry": {"type": "Polygon", "coordinates": [[[-3.4717371527487746, 50.90282895641775], [-3.470172421518369, 50.902691160392834], [-3.470459922253042, 50.90213154870569], [-3.4718900956414838, 50.90232162465874], [-3.4717371527487746, 50.90282895641775]]]}}, {"type": "Feature", "properties": {"type": "postcode-cell", "postcode": "EX16 4JD", "postcodes": ["EX16 4JD"]}, "geometry": {"type": "Polygon", "coordinates": [[[-3.4715712897299724, 50.90103341720145], [-3.4706971964823037, 50.901014736863495], [-3.4705559010465032, 50.90098131227752], [-3.470325972652338, 50.90047963432904], [-3.471191485804201, 50.8999622166943], [-3.4713633598423876, 50.89992564624483], [-3.4715712897299724, 50.90103341720145]]]}}, {"type": "Feature", "properties": {"type": "postcode-cell", "postcode": "EX16 4JE", "postcodes": ["EX16 4JE"]}, "geometry": {"type": "Polygon", "coordinates": [[[-3.470325972652338, 50.90047963432904], [-3.469883415947334, 50.90028023177939], [-3.469806998808946, 50.899987818445155], [-3.470233251874921, 50.89979620257555], [-3.471191485804201, 50.8999622166943], [-3.470325972652338, 50.90047963432904]]]}}, {"type": "Feature", "properties": {"type": "postcode-cell", "postcode": "EX16 4JG", "postcodes": ["EX16 4JG"]}, "geometry": {"type": "Polygon", "coordinates": [[[-3.4713633598423876, 50.89992564624483], [-3.471191485804201, 50.8999622166943], [-3.470233251874921, 50.89979620257555], [-3.4702972523682134, 50.89942342894234], [-3.4709094552722117, 50.89886804573695], [-3.4709249421892556, 50.89886575662964], [-3.4714849683774736, 50.89983977755792], [-3.4713633598423876, 50.89992564624483]]]}}, {"type": "Feature", "properties": {"type": "postcode-cell", "postcode": "EX16 4AJ", "postcodes": ["EX16 4AJ"]}, "geometry": {"type": "Polygon", "coordinates": [[[-3.4706971964823037, 50.901014736863495], [-3.4706262915150567, 50.90192946747033], [-3.470452284605262, 50.90205906578337], [-3.4691005166532487, 50.901395147946204], [-3.4705559010465032, 50.90098131227752], [-3.4706971964823037, 50.901014736863495]]]}}, {"type": "Feature", "properties": {"type": "postcode-cell", "postcode": "EX16 4AB", "postcodes": ["EX16 4AB"]}, "geometry": {"type": "Polygon", "coordinates": [[[-3.470731872211724, 50.905082935919594], [-3.4687242066534085, 50.90485071212348], [-3.468659569628967, 50.90417964196171], [-3.470240296759397, 50.90378229071273], [-3.4710660260940505, 50.904752876979465], [-3.470731872211724, 50.905082935919594]]]}}, {"type": "Feature", "properties": {"type": "postcode-cell", "postcode": "EX16 4AL", "postcodes": ["EX16 4AL"]}, "geometry": {"type": "Polygon", "coordinates": [[[-3.470137890390509, 50.90270797528644], [-3.4686194775989523, 50.90239643966168], [-3.4685317257969333, 50.90230123674], [-3.4688546295357083, 50.9013943901062], [-3.4691005166532487, 50.901395147946204], [-3.470452284605262, 50.90205906578337], [-3.470459922253042, 50.90213154870569], [-3.470172421518369, 50.902691160392834], [-3.470137890390509, 50.90270797528644]]]}}, {"type": "Feature", "properties": {"type": "postcode-cell", "postcode": "EX16 4PB", "postcodes": ["EX16 4PB"]}, "geometry": {"type": "Polygon", "coordinates": [[[-3.4660015369519956, 50.89572802251665], [-3.4656297664644793, 50.89613671349549], [-3.4624482007024104, 50.897596301181245], [-3.461149667516341, 50.897642080276725], [-3.4586630009811814, 50.89696274605004], [-3.459203835099023, 50.89300567133946], [-3.46728228055844, 50.890328519640086], [-3.4660015369519956, 50.89572802251665]]]}}, {"type": "Feature", "properties": {"type": "postcode-cell", "postcode": "EX16 4HG", "postcodes": ["EX16 4HG"]}, "geometry": {"type": "Polygon", "coordinates": [[[-3.46728228055844, 50.890328519640086], [-3.4686487739499814, 50.889564772505906], [-3.4693702620594973, 50.897763407771706], [-3.469096452965849, 50.89805182557806], [-3.4681583730100685, 50.898169661971394], [-3.467628250172175, 50.89793750944514], [-3.466179046370455, 50.89609472248133], [-3.4660015369519956, 50.89572802251665], [-3.46728228055844, 50.890328519640086]]]}}, {"type": "Feature", "properties": {"type": "postcode-cell", "postcode": "EX16 4QA", "postcodes": ["EX16 4QA"]}, "geometry": {"type": "Polygon", "coordinates": [[[-3.4709249421892556, 50.89886575662964], [-3.4709094552722117, 50.89886804573695], [-3.470578554947674, 50.8988404378464], [-3.4693477990399635, 50.898409476343254], [-3.469096452965849, 50.89805182557806], [-3.4693702620594973, 50.897763407771706], [-3.4719429215357667, 50.89815133072219], [-3.4709249421892556, 50.89886575662964]]]}}, {"type": "Feature", "properties": {"type": "postcode-cell", "postcode": "EX16 4JA", "postcodes": ["EX16 4JA"]}, "geometry": {"type": "Polygon", "coordinates": [[[-3.470233251874921, 50.89979620257555], [-3.469806998808946, 50.899987818445155], [-3.4693407297024397, 50.89976413697053], [-3.4695169257021226, 50.899496390347544], [-3.4702972523682134, 50.89942342894234], [-3.470233251874921, 50.89979620257555]]]}}, {"type": "Feature", "properties": {"type": "postcode-cell", "postcode": "EX16 4ER", "postcodes": ["EX16 4ER"]}, "geometry": {"type": "Polygon", "coordinates": [[[-3.469883415947334, 50.90028023177939], [-3.4685710139854025, 50.90074502389226], [-3.468143990169395, 50.90025645223546], [-3.468122910225353, 50.89985018255983], [-3.4693407297024397, 50.89976413697053], [-3.469806998808946, 50.899987818445155], [-3.469883415947334, 50.90028023177939]]]}}, {"type": "Feature", "properties": {"type": "postcode-cell", "postcode": "EX16 4AY", "postcodes": ["EX16 4AY"]}, "geometry": {"type": "Polygon", "coordinates": [[[-3.470240296759397, 50.90378229071273], [-3.468659569628967, 50.90417964196171], [-3.468475938447355, 50.90395230893822], [-3.4684864031167075, 50.903498012100265], [-3.4700625653770896, 50.903198462934995], [-3.4703296386171814, 50.903500132396665], [-3.470240296759397, 50.90378229071273]]]}}, {"type": "Feature", "properties": {"type": "postcode-cell", "postcode": "EX16 4EU", "postcodes": ["EX16 4EU"]}, "geometry": {"type": "Polygon", "coordinates": [[[-3.4705559010465032, 50.90098131227752], [-3.4691005166532487, 50.901395147946204], [-3.4688546295357083, 50.9013943901062], [-3.4686341946587103, 50.90123124977015], [-3.4685710139854025, 50.90074502389226], [-3.469883415947334, 50.90028023177939], [-3.470325972652338, 50.90047963432904], [-3.4705559010465032, 50.90098131227752]]]}}, {"type": "Feature", "properties": {"type": "postcode-cell", "postcode": "EX16 4JR", "postcodes": ["EX16 4JR"]}, "geometry": {"type": "Polygon", "coordinates": [[[-3.4693477990399635, 50.898409476343254], [-3.468946553746531, 50.899006866851565], [-3.468362168326134, 50.89914593332809], [-3.468071930734386, 50.89842943427729], [-3.4681583730100685, 50.898169661971394], [-3.469096452965849, 50.89805182557806], [-3.4693477990399635, 50.898409476343254]]]}}, {"type": "Feature", "properties": {"type": "postcode-cell", "postcode": "EX16 4PD", "postcodes": ["EX16 4PD"]}, "geometry": {"type": "Polygon", "coordinates": [[[-3.4702972523682134, 50.89942342894234], [-3.4695169257021226, 50.899496390347544], [-3.4694502413509203, 50.8991780796315], [-3.470578554947674, 50.8988404378464], [-3.4709094552722117, 50.89886804573695], [-3.4702972523682134, 50.89942342894234]]]}}, {"type": "Feature", "properties": {"type": "postcode-cell", "postcode": "EX16 4DL", "postcodes": ["EX16 4DL"]}, "geometry": {"type": "Polygon", "coordinates": [[[-3.4709926089840106, 50.90568563147169], [-3.469155750108656, 50.90615550962903], [-3.4680803873689254, 50.90521096155398], [-3.4687242066534085, 50.90485071212348], [-3.470731872211724, 50.905082935919594], [-3.4709926089840106, 50.90568563147169]]]}}, {"type": "Feature", "properties": {"type": "postcode-cell", "postcode": "EX16 4AS", "postcodes": ["EX16 4AS"]}, "geometry": {"type": "Polygon", "coordinates": [[[-3.4685317257969333, 50.90230123674], [-3.467921273386073, 50.90232226956313], [-3.467374350249518, 50.902126910984585], [-3.4671289436261334, 50.9013344368113], [-3.4686341946587103, 50.90123124977015], [-3.4688546295357083, 50.9013943901062], [-3.4685317257969333, 50.90230123674]]]}}, {"type": "Feature", "properties": {"type": "postcode-cell", "postcode": "EX16 4JP", "postcodes": ["EX16 4JP"]}, "geometry": {"type": "Polygon", "coordinates": [[[-3.4693407297024397, 50.89976413697053], [-3.468122910225353, 50.89985018255983], [-3.4680630970310786, 50.89979005316162], [-3.4681615490857935, 50.89934099105682], [-3.468362168326134, 50.89914593332809], [-3.468946553746531, 50.899006866851565], [-3.4694502413509203, 50.8991780796315], [-3.4695169257021226, 50.899496390347544], [-3.4693407297024397, 50.89976413697053]]]}}, {"type": "Feature", "properties": {"type": "postcode-cell", "postcode": "EX16 4PY", "postcodes": ["EX16 4PY"]}, "geometry": {"type": "Polygon", "coordinates": [[[-3.4693477990399635, 50.898409476343254], [-3.470578554947674, 50.8988404378464], [-3.4694502413509203, 50.8991780796315], [-3.468946553746531, 50.899006866851565], [-3.4693477990399635, 50.898409476343254]]]}}, {"type": "Feature", "properties": {"type": "postcode-cell", "postcode": "EX16 4AW", "postcodes": ["EX16 4AW"]}, "geometry": {"type": "Polygon", "coordinates": [[[-3.470137890390509, 50.90270797528644], [-3.4700625653770896, 50.903198462934995], [-3.4684864031167075, 50.903498012100265], [-3.4683473301838776, 50.90333053546389], [-3.4686194775989523, 50.90239643966168], [-3.470137890390509, 50.90270797528644]]]}}, {"type": "Feature", "properties": {"type": "postcode-cell", "postcode": "EX16 4FE", "postcodes": ["EX16 4FE"]}, "geometry": {"type": "Polygon", "coordinates": [[[-3.4674449664539586, 50.90533784538608], [-3.4680803873689254, 50.90521096155398], [-3.469155750108656, 50.90615550962903], [-3.468629989622138, 50.90628999488928], [-3.4679492816211313, 50.90640130376993], [-3.4674449664539586, 50.90533784538608]]]}}, {"type": "Feature", "properties": {"type": "postcode-cell", "postcode": "EX16 4PE", "postcodes": ["EX16 4PE"]}, "geometry": {"type": "Polygon", "coordinates": [[[-3.4687242066534085, 50.90485071212348], [-3.4680803873689254, 50.90521096155398], [-3.4674449664539586, 50.90533784538608], [-3.4666756198061757, 50.905326599061944], [-3.4664107696876933, 50.905019206700906], [-3.467194527896371, 50.90395756394973], [-3.468475938447355, 50.90395230893822], [-3.468659569628967, 50.90417964196171], [-3.4687242066534085, 50.90485071212348]]]}}, {"type": "Feature", "properties": {"type": "postcode-cell", "postcode": "EX16 4PA", "postcodes": ["EX16 4PA"]}, "geometry": {"type": "Polygon", "coordinates": [[[-3.468362168326134, 50.89914593332809], [-3.4681615490857935, 50.89934099105682], [-3.46708606798316, 50.898833278642805], [-3.468071930734386, 50.89842943427729], [-3.468362168326134, 50.89914593332809]]]}}, {"type": "Feature", "properties": {"type": "postcode-cell", "postcode": "EX16 4AZ", "postcodes": ["EX16 4AZ"]}, "geometry": {"type": "Polygon", "coordinates": [[[-3.468475938447355, 50.90395230893822], [-3.467194527896371, 50.90395756394973], [-3.4670434002490236, 50.9038403445889], [-3.467001859866576, 50.90357934906072], [-3.467777123277144, 50.903257415855094], [-3.4683473301838776, 50.90333053546389], [-3.4684864031167075, 50.903498012100265], [-3.468475938447355, 50.90395230893822]]]}}, {"type": "Feature", "properties": {"type": "postcode-cell", "postcode": "EX16 4AR", "postcodes": ["EX16 4AR"]}, "geometry": {"type": "Polygon", "coordinates": [[[-3.4686194775989523, 50.90239643966168], [-3.4683473301838776, 50.90333053546389], [-3.467777123277144, 50.903257415855094], [-3.467366511844095, 50.90305255655376], [-3.4676797730906728, 50.902461651058026], [-3.467921273386073, 50.90232226956313], [-3.4685317257969333, 50.90230123674], [-3.4686194775989523, 50.90239643966168]]]}}, {"type": "Feature", "properties": {"type": "postcode-cell", "postcode": "EX16 4ET", "postcodes": ["EX16 4ET"]}, "geometry": {"type": "Polygon", "coordinates": [[[-3.468122910225353, 50.89985018255983], [-3.468143990169395, 50.90025645223546], [-3.466160586812279, 50.90080003459663], [-3.4660317784760446, 50.899940664681516], [-3.4668442320442816, 50.89969326161542], [-3.4680630970310786, 50.89979005316162], [-3.468122910225353, 50.89985018255983]]]}}, {"type": "Feature", "properties": {"type": "postcode-cell", "postcode": "EX16 4LG", "postcodes": ["EX16 4LG"]}, "geometry": {"type": "Polygon", "coordinates": [[[-3.466179046370455, 50.89609472248133], [-3.466254981034648, 50.89855228773359], [-3.465280984309262, 50.8983745202125], [-3.464802224703421, 50.89739632962862], [-3.4656297664644793, 50.89613671349549], [-3.4660015369519956, 50.89572802251665], [-3.466179046370455, 50.89609472248133]]]}}, {"type": "Feature", "properties": {"type": "postcode-cell", "postcode": "EX16 4DN", "postcodes": ["EX16 4DN"]}, "geometry": {"type": "Polygon", "coordinates": [[[-3.466548323403811, 50.90543329424457], [-3.4666756198061757, 50.905326599061944], [-3.4674449664539586, 50.90533784538608], [-3.4679492816211313, 50.90640130376993], [-3.4666969608867766, 50.90660607062788], [-3.466548323403811, 50.90543329424457]]]}}, {"type": "Feature", "properties": {"type": "postcode-cell", "postcode": "EX16 4JF", "postcodes": ["EX16 4JF"]}, "geometry": {"type": "Polygon", "coordinates": [[[-3.4680630970310786, 50.89979005316162], [-3.4668442320442816, 50.89969326161542], [-3.466704624424691, 50.89880293400128], [-3.46708606798316, 50.898833278642805], [-3.4681615490857935, 50.89934099105682], [-3.4680630970310786, 50.89979005316162]]]}}, {"type": "Feature", "properties": {"type": "postcode-cell", "postcode": "EX16 4JW", "postcodes": ["EX16 4JW"]}, "geometry": {"type": "Polygon", "coordinates": [[[-3.468071930734386, 50.89842943427729], [-3.46708606798316, 50.898833278642805], [-3.466704624424691, 50.89880293400128], [-3.4665121584554823, 50.89870082418314], [-3.46646453768713, 50.8986679763392], [-3.467628250172175, 50.89793750944514], [-3.4681583730100685, 50.898169661971394], [-3.468071930734386, 50.89842943427729]]]}}, {"type": "Feature", "properties": {"type": "postcode-cell", "postcode": "EX16 4AU", "postcodes": ["EX16 4AU"]}, "geometry": {"type": "Polygon", "coordinates": [[[-3.4676797730906728, 50.902461651058026], [-3.466399032046211, 50.90279127317675], [-3.4659694315825225, 50.902536008539606], [-3.4662227680942874, 50.90221705639722], [-3.467374350249518, 50.902126910984585], [-3.467921273386073, 50.90232226956313], [-3.4676797730906728, 50.902461651058026]]]}}, {"type": "Feature", "properties": {"type": "postcode-cell", "postcode": "EX16 4ES", "postcodes": ["EX16 4ES"]}, "geometry": {"type": "Polygon", "coordinates": [[[-3.4686341946587103, 50.90123124977015], [-3.4671289436261334, 50.9013344368113], [-3.4662055219818546, 50.901177824270896], [-3.4660305431270535, 50.90105290726575], [-3.466160586812279, 50.90080003459663], [-3.468143990169395, 50.90025645223546], [-3.4685710139854025, 50.90074502389226], [-3.4686341946587103, 50.90123124977015]]]}}, {"type": "Feature", "properties": {"type": "postcode-cell", "postcode": "EX16 4AX", "postcodes": ["EX16 4AX"]}, "geometry": {"type": "Polygon", "coordinates": [[[-3.467366511844095, 50.90305255655376], [-3.466528381346781, 50.902948489573085], [-3.466399032046211, 50.90279127317675], [-3.4676797730906728, 50.902461651058026], [-3.467366511844095, 50.90305255655376]]]}}, {"type": "Feature", "properties": {"type": "postcode-cell", "postcode": "EX16 4JN", "postcodes": ["EX16 4JN"]}, "geometry": {"type": "Polygon", "coordinates": [[[-3.466704624424691, 50.89880293400128], [-3.4668442320442816, 50.89969326161542], [-3.4660317784760446, 50.899940664681516], [-3.465864054012678, 50.89986457855848], [-3.4665121584554823, 50.89870082418314], [-3.466704624424691, 50.89880293400128]]]}}, {"type": "Feature", "properties": {"type": "postcode-cell", "postcode": "EX16 4AP", "postcodes": ["EX16 4AP"]}, "geometry": {"type": "Polygon", "coordinates": [[[-3.467777123277144, 50.903257415855094], [-3.467001859866576, 50.90357934906072], [-3.4664885088300017, 50.90326783502897], [-3.466528381346781, 50.902948489573085], [-3.467366511844095, 50.90305255655376], [-3.467777123277144, 50.903257415855094]]]}}, {"type": "Feature", "properties": {"type": "postcode-cell", "postcode": "EX16 4BB", "postcodes": ["EX16 4BB"]}, "geometry": {"type": "Polygon", "coordinates": [[[-3.467194527896371, 50.90395756394973], [-3.4664107696876933, 50.905019206700906], [-3.4656136897923764, 50.904534887731515], [-3.466105132165486, 50.90388014698555], [-3.4670434002490236, 50.9038403445889], [-3.467194527896371, 50.90395756394973]]]}}, {"type": "Feature", "properties": {"type": "postcode-cell", "postcode": "EX16 4AT", "postcodes": ["EX16 4AT"]}, "geometry": {"type": "Polygon", "coordinates": [[[-3.467374350249518, 50.902126910984585], [-3.4662227680942874, 50.90221705639722], [-3.4662055219818546, 50.901177824270896], [-3.4671289436261334, 50.9013344368113], [-3.467374350249518, 50.902126910984585]]]}}, {"type": "Feature", "properties": {"type": "postcode-cell", "postcode": "EX16 4NB", "postcodes": ["EX16 4NB"]}, "geometry": {"type": "Polygon", "coordinates": [[[-3.45530771244508, 50.90847715793215], [-3.4582480998101564, 50.908412313326046], [-3.45350998961089, 50.90967999489216], [-3.4505018166383183, 50.90982657799539], [-3.45530771244508, 50.90847715793215]]]}}, {"type": "Feature", "properties": {"type": "postcode-cell", "postcode": "EX16 4DW", "postcodes": ["EX16 4DW"]}, "geometry": {"type": "Polygon", "coordinates": [[[-3.4666756198061757, 50.905326599061944], [-3.466548323403811, 50.90543329424457], [-3.4641341199123197, 50.906256432233434], [-3.4632925187454853, 50.90531302857455], [-3.4648691699027916, 50.904391917288095], [-3.4656136897923764, 50.904534887731515], [-3.4664107696876933, 50.905019206700906], [-3.4666756198061757, 50.905326599061944]]]}}, {"type": "Feature", "properties": {"type": "postcode-cell", "postcode": "EX16 4EP", "postcodes": ["EX16 4EP"]}, "geometry": {"type": "Polygon", "coordinates": [[[-3.4660317784760446, 50.899940664681516], [-3.466160586812279, 50.90080003459663], [-3.4660305431270535, 50.90105290726575], [-3.465340707916652, 50.901111294670876], [-3.463957369511284, 50.90046187828467], [-3.464381872719128, 50.89993925401913], [-3.4651636800394985, 50.899619895351734], [-3.465864054012678, 50.89986457855848], [-3.4660317784760446, 50.899940664681516]]]}}, {"type": "Feature", "properties": {"type": "postcode-cell", "postcode": "EX16 4BA", "postcodes": ["EX16 4BA"]}, "geometry": {"type": "Polygon", "coordinates": [[[-3.4670434002490236, 50.9038403445889], [-3.466105132165486, 50.90388014698555], [-3.466051411359435, 50.9035618117207], [-3.4664885088300017, 50.90326783502897], [-3.467001859866576, 50.90357934906072], [-3.4670434002490236, 50.9038403445889]]]}}, {"type": "Feature", "properties": {"type": "postcode-cell", "postcode": "EX16 4LS", "postcodes": ["EX16 4LS"]}, "geometry": {"type": "Polygon", "coordinates": [[[-3.466528381346781, 50.902948489573085], [-3.4664885088300017, 50.90326783502897], [-3.466051411359435, 50.9035618117207], [-3.465236193217579, 50.90338640229617], [-3.4657455818796015, 50.90256166786101], [-3.4659694315825225, 50.902536008539606], [-3.466399032046211, 50.90279127317675], [-3.466528381346781, 50.902948489573085]]]}}, {"type": "Feature", "properties": {"type": "postcode-cell", "postcode": "EX16 4BN", "postcodes": ["EX16 4BN"]}, "geometry": {"type": "Polygon", "coordinates": [[[-3.4662055219818546, 50.901177824270896], [-3.4662227680942874, 50.90221705639722], [-3.4659694315825225, 50.902536008539606], [-3.4657455818796015, 50.90256166786101], [-3.465232224442978, 50.902465769145415], [-3.4648415841434823, 50.902171102993265], [-3.4650102962179434, 50.90137305798557], [-3.465340707916652, 50.901111294670876], [-3.4660305431270535, 50.90105290726575], [-3.4662055219818546, 50.901177824270896]]]}}, {"type": "Feature", "properties": {"type": "postcode-cell", "postcode": "EX16 4HA", "postcodes": ["EX16 4HA"]}, "geometry": {"type": "Polygon", "coordinates": [[[-3.46646453768713, 50.8986679763392], [-3.4663677324568956, 50.89864487811469], [-3.466254981034648, 50.89855228773359], [-3.466179046370455, 50.89609472248133], [-3.467628250172175, 50.89793750944514], [-3.46646453768713, 50.8986679763392]]]}}, {"type": "Feature", "properties": {"type": "postcode-cell", "postcode": "EX16 4BD", "postcodes": ["EX16 4BD"]}, "geometry": {"type": "Polygon", "coordinates": [[[-3.466105132165486, 50.90388014698555], [-3.4656136897923764, 50.904534887731515], [-3.4648691699027916, 50.904391917288095], [-3.46463685375025, 50.90407927441332], [-3.4650732494224497, 50.90344378073335], [-3.465236193217579, 50.90338640229617], [-3.466051411359435, 50.9035618117207], [-3.466105132165486, 50.90388014698555]]]}}, {"type": "Feature", "properties": {"type": "postcode-cell", "postcode": "EX16 4JL", "postcodes": ["EX16 4JL"]}, "geometry": {"type": "Polygon", "coordinates": [[[-3.46646453768713, 50.8986679763392], [-3.4665121584554823, 50.89870082418314], [-3.465864054012678, 50.89986457855848], [-3.4651636800394985, 50.899619895351734], [-3.465120222109659, 50.89934310851636], [-3.4663677324568956, 50.89864487811469], [-3.46646453768713, 50.8986679763392]]]}}, {"type": "Feature", "properties": {"type": "postcode-cell", "postcode": "EX16 4QL", "postcodes": ["EX16 4QL"]}, "geometry": {"type": "Polygon", "coordinates": [[[-3.464802224703421, 50.89739632962862], [-3.4639076736675123, 50.897972230944866], [-3.4624482007024104, 50.897596301181245], [-3.4656297664644793, 50.89613671349549], [-3.464802224703421, 50.89739632962862]]]}}, {"type": "Feature", "properties": {"type": "postcode-cell", "postcode": "EX16 4LH", "postcodes": ["EX16 4LH"]}, "geometry": {"type": "Polygon", "coordinates": [[[-3.4663677324568956, 50.89864487811469], [-3.465120222109659, 50.89934310851636], [-3.464753121487294, 50.899028005538526], [-3.464634998728233, 50.89880840866233], [-3.465280984309262, 50.8983745202125], [-3.466254981034648, 50.89855228773359], [-3.4663677324568956, 50.89864487811469]]]}}, {"type": "Feature", "properties": {"type": "postcode-cell", "postcode": "EX16 4DT", "postcodes": ["EX16 4DT"]}, "geometry": {"type": "Polygon", "coordinates": [[[-3.4666969608867766, 50.90660607062788], [-3.4639482050380344, 50.907055466202436], [-3.4641341199123197, 50.906256432233434], [-3.466548323403811, 50.90543329424457], [-3.4666969608867766, 50.90660607062788]]]}}, {"type": "Feature", "properties": {"type": "postcode-cell", "postcode": "EX16 4DX", "postcodes": ["EX16 4DX"]}, "geometry": {"type": "Polygon", "coordinates": [[[-3.4641341199123197, 50.906256432233434], [-3.4639482050380344, 50.907055466202436], [-3.4623299896176296, 50.90731999489016], [-3.4583553511588723, 50.90838361521177], [-3.457428701484321, 50.90615145913224], [-3.458204547348256, 50.90575526277051], [-3.462537936858308, 50.90508963667261], [-3.4632925187454853, 50.90531302857455], [-3.4641341199123197, 50.906256432233434]]]}}, {"type": "Feature", "properties": {"type": "postcode-cell", "postcode": "EX16 4LQ", "postcodes": ["EX16 4LQ"]}, "geometry": {"type": "Polygon", "coordinates": [[[-3.465280984309262, 50.8983745202125], [-3.464634998728233, 50.89880840866233], [-3.4637415148867174, 50.89846338236218], [-3.4639076736675123, 50.897972230944866], [-3.464802224703421, 50.89739632962862], [-3.465280984309262, 50.8983745202125]]]}}, {"type": "Feature", "properties": {"type": "postcode-cell", "postcode": "EX16 4LR", "postcodes": ["EX16 4LR"]}, "geometry": {"type": "Polygon", "coordinates": [[[-3.4657455818796015, 50.90256166786101], [-3.465236193217579, 50.90338640229617], [-3.4650732494224497, 50.90344378073335], [-3.4642255835697737, 50.902965502233414], [-3.465232224442978, 50.902465769145415], [-3.4657455818796015, 50.90256166786101]]]}}, {"type": "Feature", "properties": {"type": "postcode-cell", "postcode": "EX16 4BS", "postcodes": ["EX16 4BS"]}, "geometry": {"type": "Polygon", "coordinates": [[[-3.4650102962179434, 50.90137305798557], [-3.4636899004826533, 50.901603112211674], [-3.4632049222590737, 50.9015161946484], [-3.463189377465545, 50.90103217153694], [-3.463634346994655, 50.900519828774456], [-3.463957369511284, 50.90046187828467], [-3.465340707916652, 50.901111294670876], [-3.4650102962179434, 50.90137305798557]]]}}, {"type": "Feature", "properties": {"type": "postcode-cell", "postcode": "EX16 4EN", "postcodes": ["EX16 4EN"]}, "geometry": {"type": "Polygon", "coordinates": [[[-3.4651636800394985, 50.899619895351734], [-3.464381872719128, 50.89993925401913], [-3.4634622581153636, 50.899356490037704], [-3.4634617767474896, 50.89935234821996], [-3.464753121487294, 50.899028005538526], [-3.465120222109659, 50.89934310851636], [-3.4651636800394985, 50.899619895351734]]]}}, {"type": "Feature", "properties": {"type": "postcode-cell", "postcode": "EX16 4BL", "postcodes": ["EX16 4BL"]}, "geometry": {"type": "Polygon", "coordinates": [[[-3.465232224442978, 50.902465769145415], [-3.4642255835697737, 50.902965502233414], [-3.4636483269715055, 50.90298372861401], [-3.4635665771663837, 50.902536909130156], [-3.4642497404596924, 50.90215930534331], [-3.4648415841434823, 50.902171102993265], [-3.465232224442978, 50.902465769145415]]]}}, {"type": "Feature", "properties": {"type": "postcode-cell", "postcode": "EX16 4BR", "postcodes": ["EX16 4BR"]}, "geometry": {"type": "Polygon", "coordinates": [[[-3.4648415841434823, 50.902171102993265], [-3.4642497404596924, 50.90215930534331], [-3.4636899004826533, 50.901603112211674], [-3.4650102962179434, 50.90137305798557], [-3.4648415841434823, 50.902171102993265]]]}}, {"type": "Feature", "properties": {"type": "postcode-cell", "postcode": "EX16 4QJ", "postcodes": ["EX16 4QJ"]}, "geometry": {"type": "Polygon", "coordinates": [[[-3.4637415148867174, 50.89846338236218], [-3.463010106872912, 50.89875113372209], [-3.4627552559180206, 50.898736989159765], [-3.461149667516341, 50.897642080276725], [-3.4624482007024104, 50.897596301181245], [-3.4639076736675123, 50.897972230944866], [-3.4637415148867174, 50.89846338236218]]]}}, {"type": "Feature", "properties": {"type": "postcode-cell", "postcode": "EX16 4BE", "postcodes": ["EX16 4BE"]}, "geometry": {"type": "Polygon", "coordinates": [[[-3.46463685375025, 50.90407927441332], [-3.4629891699708, 50.90352267899724], [-3.462989789678119, 50.90350400205293], [-3.4636483269715055, 50.90298372861401], [-3.4642255835697737, 50.902965502233414], [-3.4650732494224497, 50.90344378073335], [-3.46463685375025, 50.90407927441332]]]}}, {"type": "Feature", "properties": {"type": "postcode-cell", "postcode": "EX16 4FB", "postcodes": ["EX16 4FB"]}, "geometry": {"type": "Polygon", "coordinates": [[[-3.46463685375025, 50.90407927441332], [-3.4648691699027916, 50.904391917288095], [-3.4632925187454853, 50.90531302857455], [-3.462537936858308, 50.90508963667261], [-3.4626391892558117, 50.90382162231212], [-3.4629891699708, 50.90352267899724], [-3.46463685375025, 50.90407927441332]]]}}, {"type": "Feature", "properties": {"type": "postcode-cell", "postcode": "EX16 4BW", "postcodes": ["EX16 4BW"]}, "geometry": {"type": "Polygon", "coordinates": [[[-3.4635665771663837, 50.902536909130156], [-3.462965131591801, 50.90215326617769], [-3.4629238262817577, 50.90170522928392], [-3.4632049222590737, 50.9015161946484], [-3.4636899004826533, 50.901603112211674], [-3.4642497404596924, 50.90215930534331], [-3.4635665771663837, 50.902536909130156]]]}}, {"type": "Feature", "properties": {"type": "postcode-cell", "postcode": "EX16 4EW", "postcodes": ["EX16 4EW"]}, "geometry": {"type": "Polygon", "coordinates": [[[-3.464381872719128, 50.89993925401913], [-3.463957369511284, 50.90046187828467], [-3.463634346994655, 50.900519828774456], [-3.462525298462571, 50.900017515698224], [-3.4634622581153636, 50.899356490037704], [-3.464381872719128, 50.89993925401913]]]}}, {"type": "Feature", "properties": {"type": "postcode-cell", "postcode": "EX16 4EL", "postcodes": ["EX16 4EL"]}, "geometry": {"type": "Polygon", "coordinates": [[[-3.464753121487294, 50.899028005538526], [-3.4634617767474896, 50.89935234821996], [-3.463010106872912, 50.89875113372209], [-3.4637415148867174, 50.89846338236218], [-3.464634998728233, 50.89880840866233], [-3.464753121487294, 50.899028005538526]]]}}, {"type": "Feature", "properties": {"type": "postcode-cell", "postcode": "EX16 4PU", "postcodes": ["EX16 4PU"]}, "geometry": {"type": "Polygon", "coordinates": [[[-3.462525298462571, 50.900017515698224], [-3.4620141330926004, 50.899962773610774], [-3.4617776273629888, 50.89947778407401], [-3.4627552559180206, 50.898736989159765], [-3.463010106872912, 50.89875113372209], [-3.4634617767474896, 50.89935234821996], [-3.4634622581153636, 50.899356490037704], [-3.462525298462571, 50.900017515698224]]]}}, {"type": "Feature", "properties": {"type": "postcode-cell", "postcode": "EX16 4RB", "postcodes": ["EX16 4RB"]}, "geometry": {"type": "Polygon", "coordinates": [[[-3.4636483269715055, 50.90298372861401], [-3.462989789678119, 50.90350400205293], [-3.461991136824656, 50.90285283217178], [-3.462126752116285, 50.90256756428237], [-3.462965131591801, 50.90215326617769], [-3.4635665771663837, 50.902536909130156], [-3.4636483269715055, 50.90298372861401]]]}}, {"type": "Feature", "properties": {"type": "postcode-cell", "postcode": "EX16 4BP", "postcodes": ["EX16 4BP"]}, "geometry": {"type": "Polygon", "coordinates": [[[-3.4632049222590737, 50.9015161946484], [-3.4629238262817577, 50.90170522928392], [-3.4613452913562184, 50.901644304648634], [-3.460658555951613, 50.901449610528104], [-3.4604310228117625, 50.901241685045484], [-3.460905709887253, 50.90077828790698], [-3.4609173770025445, 50.9007736967036], [-3.463189377465545, 50.90103217153694], [-3.4632049222590737, 50.9015161946484]]]}}, {"type": "Feature", "properties": {"type": "postcode-cell", "postcode": "EX16 4EZ", "postcodes": ["EX16 4EZ"]}, "geometry": {"type": "Polygon", "coordinates": [[[-3.463634346994655, 50.900519828774456], [-3.463189377465545, 50.90103217153694], [-3.4609173770025445, 50.9007736967036], [-3.4620141330926004, 50.899962773610774], [-3.462525298462571, 50.900017515698224], [-3.463634346994655, 50.900519828774456]]]}}, {"type": "Feature", "properties": {"type": "postcode-cell", "postcode": "EX16 4PX", "postcodes": ["EX16 4PX"]}, "geometry": {"type": "Polygon", "coordinates": [[[-3.4627552559180206, 50.898736989159765], [-3.4617776273629888, 50.89947778407401], [-3.4591926882194626, 50.89858583795838], [-3.4579842305575004, 50.8978508895687], [-3.4586630009811814, 50.89696274605004], [-3.461149667516341, 50.897642080276725], [-3.4627552559180206, 50.898736989159765]]]}}, {"type": "Feature", "properties": {"type": "postcode-cell", "postcode": "EX16 4EJ", "postcodes": ["EX16 4EJ"]}, "geometry": {"type": "Polygon", "coordinates": [[[-3.457141473909407, 50.89834735624479], [-3.4579842305575004, 50.8978508895687], [-3.4591926882194626, 50.89858583795838], [-3.460905709887253, 50.90077828790698], [-3.4604310228117625, 50.901241685045484], [-3.4596301269467498, 50.901253852313125], [-3.4580762952260793, 50.90067250844642], [-3.457141473909407, 50.89834735624479]]]}}, {"type": "Feature", "properties": {"type": "postcode-cell", "postcode": "EX16 4HD", "postcodes": ["EX16 4HD"]}, "geometry": {"type": "Polygon", "coordinates": [[[-3.4580762952260793, 50.90067250844642], [-3.4568974194228392, 50.901466733629285], [-3.4565784422385413, 50.9014822317114], [-3.456539760267731, 50.901471271922574], [-3.455467140272646, 50.90042843403637], [-3.45467201547602, 50.89878714493032], [-3.457141473909407, 50.89834735624479], [-3.4580762952260793, 50.90067250844642]]]}}, {"type": "Feature", "properties": {"type": "postcode-cell", "postcode": "EX16 4EA", "postcodes": ["EX16 4EA"]}, "geometry": {"type": "Polygon", "coordinates": [[[-3.4626391892558117, 50.90382162231212], [-3.459962037505565, 50.903803391189726], [-3.460032844039318, 50.90341074594208], [-3.4601958688134635, 50.90320524234553], [-3.4606101596735397, 50.90290936319919], [-3.461991136824656, 50.90285283217178], [-3.462989789678119, 50.90350400205293], [-3.4629891699708, 50.90352267899724], [-3.4626391892558117, 50.90382162231212]]]}}, {"type": "Feature", "properties": {"type": "postcode-cell", "postcode": "EX16 4EH", "postcodes": ["EX16 4EH"]}, "geometry": {"type": "Polygon", "coordinates": [[[-3.4620141330926004, 50.899962773610774], [-3.4609173770025445, 50.9007736967036], [-3.460905709887253, 50.90077828790698], [-3.4591926882194626, 50.89858583795838], [-3.4617776273629888, 50.89947778407401], [-3.4620141330926004, 50.899962773610774]]]}}, {"type": "Feature", "properties": {"type": "postcode-cell", "postcode": "EX16 4EQ", "postcodes": ["EX16 4EQ"]}, "geometry": {"type": "Polygon", "coordinates": [[[-3.462126752116285, 50.90256756428237], [-3.461991136824656, 50.90285283217178], [-3.4606101596735397, 50.90290936319919], [-3.460658555951613, 50.901449610528104], [-3.4613452913562184, 50.901644304648634], [-3.462126752116285, 50.90256756428237]]]}}, {"type": "Feature", "properties": {"type": "postcode-cell", "postcode": "EX16 4RA", "postcodes": ["EX16 4RA"]}, "geometry": {"type": "Polygon", "coordinates": [[[-3.4613452913562184, 50.901644304648634], [-3.4629238262817577, 50.90170522928392], [-3.462965131591801, 50.90215326617769], [-3.462126752116285, 50.90256756428237], [-3.4613452913562184, 50.901644304648634]]]}}, {"type": "Feature", "properties": {"type": "postcode-cell", "postcode": "EX16 4DZ", "postcodes": ["EX16 4DZ"]}, "geometry": {"type": "Polygon", "coordinates": [[[-3.459962037505565, 50.903803391189726], [-3.4626391892558117, 50.90382162231212], [-3.462537936858308, 50.90508963667261], [-3.458204547348256, 50.90575526277051], [-3.459962037505565, 50.903803391189726]]]}}, {"type": "Feature", "properties": {"type": "postcode-cell", "postcode": "EX16 4EB", "postcodes": ["EX16 4EB"]}, "geometry": {"type": "Polygon", "coordinates": [[[-3.458204547348256, 50.90575526277051], [-3.457428701484321, 50.90615145913224], [-3.455046520396239, 50.905009171721325], [-3.4565907980712, 50.90356312319816], [-3.4583096984403916, 50.9026401391688], [-3.460032844039318, 50.90341074594208], [-3.459962037505565, 50.903803391189726], [-3.458204547348256, 50.90575526277051]]]}}, {"type": "Feature", "properties": {"type": "postcode-cell", "postcode": "EX16 4ED", "postcodes": ["EX16 4ED"]}, "geometry": {"type": "Polygon", "coordinates": [[[-3.4601958688134635, 50.90320524234553], [-3.458995986080649, 50.902019267984755], [-3.4596301269467498, 50.901253852313125], [-3.4604310228117625, 50.901241685045484], [-3.460658555951613, 50.901449610528104], [-3.4606101596735397, 50.90290936319919], [-3.4601958688134635, 50.90320524234553]]]}}, {"type": "Feature", "properties": {"type": "postcode-cell", "postcode": "EX16 4NZ", "postcodes": ["EX16 4NZ"]}, "geometry": {"type": "Polygon", "coordinates": [[[-3.457141473909407, 50.89834735624479], [-3.45467201547602, 50.89878714493032], [-3.447783168837554, 50.89915357627341], [-3.443378999051835, 50.89768206872966], [-3.445759989613601, 50.89352999487936], [-3.4471595983954324, 50.89205623893088], [-3.459203835099023, 50.89300567133946], [-3.4586630009811814, 50.89696274605004], [-3.4579842305575004, 50.8978508895687], [-3.457141473909407, 50.89834735624479]]]}}, {"type": "Feature", "properties": {"type": "postcode-cell", "postcode": "EX16 4EF", "postcodes": ["EX16 4EF"]}, "geometry": {"type": "Polygon", "coordinates": [[[-3.458995986080649, 50.902019267984755], [-3.4583924254784484, 50.902327366684084], [-3.4571778613672843, 50.9018629045126], [-3.4568974194228392, 50.901466733629285], [-3.4580762952260793, 50.90067250844642], [-3.4596301269467498, 50.901253852313125], [-3.458995986080649, 50.902019267984755]]]}}, {"type": "Feature", "properties": {"type": "postcode-cell", "postcode": "EX16 4EE", "postcodes": ["EX16 4EE"]}, "geometry": {"type": "Polygon", "coordinates": [[[-3.460032844039318, 50.90341074594208], [-3.4583096984403916, 50.9026401391688], [-3.4583924254784484, 50.902327366684084], [-3.458995986080649, 50.902019267984755], [-3.4601958688134635, 50.90320524234553], [-3.460032844039318, 50.90341074594208]]]}}, {"type": "Feature", "properties": {"type": "postcode-cell", "postcode": "EX16 4EX", "postcodes": ["EX16 4EX"]}, "geometry": {"type": "Polygon", "coordinates": [[[-3.455046520396239, 50.905009171721325], [-3.4533494682459698, 50.904588136664565], [-3.4565784422385413, 50.9014822317114], [-3.4568974194228392, 50.901466733629285], [-3.4571778613672843, 50.9018629045126], [-3.4565907980712, 50.90356312319816], [-3.455046520396239, 50.905009171721325]]]}}, {"type": "Feature", "properties": {"type": "postcode-cell", "postcode": "EX16 4GH", "postcodes": ["EX16 4GH"]}, "geometry": {"type": "Polygon", "coordinates": [[[-3.4583553511588723, 50.90838361521177], [-3.4582480998101564, 50.908412313326046], [-3.45530771244508, 50.90847715793215], [-3.4539618308873057, 50.9083256068287], [-3.449181371737099, 50.90668586429308], [-3.4530576445790975, 50.90454139161682], [-3.4533494682459698, 50.904588136664565], [-3.455046520396239, 50.905009171721325], [-3.457428701484321, 50.90615145913224], [-3.4583553511588723, 50.90838361521177]]]}}, {"type": "Feature", "properties": {"type": "postcode-cell", "postcode": "EX16 4EG", "postcodes": ["EX16 4EG"]}, "geometry": {"type": "Polygon", "coordinates": [[[-3.4583096984403916, 50.9026401391688], [-3.4565907980712, 50.90356312319816], [-3.4571778613672843, 50.9018629045126], [-3.4583924254784484, 50.902327366684084], [-3.4583096984403916, 50.9026401391688]]]}}, {"type": "Feature", "properties": {"type": "postcode-cell", "postcode": "EX16 4EY", "postcodes": ["EX16 4EY"]}, "geometry": {"type": "Polygon", "coordinates": [[[-3.4533494682459698, 50.904588136664565], [-3.4530576445790975, 50.90454139161682], [-3.4512314830690425, 50.902155525494045], [-3.4551437484498786, 50.90142316559176], [-3.456539760267731, 50.901471271922574], [-3.4565784422385413, 50.9014822317114], [-3.4533494682459698, 50.904588136664565]]]}}, {"type": "Feature", "properties": {"type": "postcode-cell", "postcode": "EX16 4HF", "postcodes": ["EX16 4HF"]}, "geometry": {"type": "Polygon", "coordinates": [[[-3.455467140272646, 50.90042843403637], [-3.4551437484498786, 50.90142316559176], [-3.4512314830690425, 50.902155525494045], [-3.447783168837554, 50.89915357627341], [-3.45467201547602, 50.89878714493032], [-3.455467140272646, 50.90042843403637]]]}}, {"type": "Feature", "properties": {"type": "postcode-cell", "postcode": "EX16 4HE", "postcodes": ["EX16 4HE"]}, "geometry": {"type": "Polygon", "coordinates": [[[-3.455467140272646, 50.90042843403637], [-3.456539760267731, 50.901471271922574], [-3.4551437484498786, 50.90142316559176], [-3.455467140272646, 50.90042843403637]]]}}, {"type": "Feature", "properties": {"type": "postcode-cell", "postcode": "EX16 4NH", "postcodes": ["EX16 4NH"]}, "geometry": {"type": "Polygon", "coordinates": [[[-3.4530576445790975, 50.90454139161682], [-3.449181371737099, 50.90668586429308], [-3.448138825307751, 50.907117181673975], [-3.4407737422990397, 50.90375999813845], [-3.4413899896072095, 50.90114999488548], [-3.443378999051835, 50.89768206872966], [-3.447783168837554, 50.89915357627341], [-3.4512314830690425, 50.902155525494045], [-3.4530576445790975, 50.90454139161682]]]}}, {"type": "Feature", "properties": {"type": "postcode-cell", "postcode": "EX16 4PZ", "postcodes": ["EX16 4PZ"]}, "geometry": {"type": "Polygon", "coordinates": [[[-3.4414654344747238, 50.9090240408181], [-3.4412683837034366, 50.909630626887015], [-3.4384399896015347, 50.90915999489191], [-3.4403057824714423, 50.904943551436304], [-3.4414654344747238, 50.9090240408181]]]}}, {"type": "Feature", "properties": {"type": "postcode-cell", "postcode": "EX16 4GJ", "postcodes": ["EX16 4GJ"]}, "geometry": {"type": "Polygon", "coordinates": [[[-3.44843136905409, 50.90928617118885], [-3.4539618308873057, 50.9083256068287], [-3.45530771244508, 50.90847715793215], [-3.4505018166383183, 50.90982657799539], [-3.448522498490899, 50.90992298402413], [-3.44843136905409, 50.90928617118885]]]}}, {"type": "Feature", "properties": {"type": "postcode-cell", "postcode": "EX16 4NQ", "postcodes": ["EX16 4NQ"]}, "geometry": {"type": "Polygon", "coordinates": [[[-3.4414654344747238, 50.9090240408181], [-3.448097432479734, 50.90817266232752], [-3.44843136905409, 50.90928617118885], [-3.448522498490899, 50.90992298402413], [-3.4442699896047895, 50.91012999489262], [-3.4412683837034366, 50.909630626887015], [-3.4414654344747238, 50.9090240408181]]]}}, {"type": "Feature", "properties": {"type": "postcode-cell", "postcode": "EX16 4GG", "postcodes": ["EX16 4GG"]}, "geometry": {"type": "Polygon", "coordinates": [[[-3.4539618308873057, 50.9083256068287], [-3.44843136905409, 50.90928617118885], [-3.448097432479734, 50.90817266232752], [-3.448138825307751, 50.907117181673975], [-3.449181371737099, 50.90668586429308], [-3.4539618308873057, 50.9083256068287]]]}}, {"type": "Feature", "properties": {"type": "postcode-cell", "postcode": "EX16 4FL", "postcodes": ["EX16 4FL"]}, "geometry": {"type": "Polygon", "coordinates": [[[-3.448138825307751, 50.907117181673975], [-3.448097432479734, 50.90817266232752], [-3.4414654344747238, 50.9090240408181], [-3.4403057824714423, 50.904943551436304], [-3.440709989605411, 50.90402999488778], [-3.4407737422990397, 50.90375999813845], [-3.448138825307751, 50.907117181673975]]]}}]}