{"type": "FeatureCollection", "features": [{"type": "Feature", "properties": {"type": "ward-outline", "name": "Trinity"}, "geometry": {"type": "MultiPolygon", "coordinates": [[[[-3.05797, 50.7035], [-3.05487, 50.70252], [-3.06091, 50.70302], [-3.06094, 50.70479], [-3.05896, 50.7153], [-3.0595, 50.71224], [-3.05953, 50.71202], [-3.05983, 50.71069], [-3.05984, 50.71059], [-3.0602, 50.70869], [-3.06024, 50.70845], [-3.0608, 50.70553], [-3.05996, 50.70451], [-3.06039, 50.70428], [-3.05947, 50.70361], [-3.05797, 50.7035]]], [[[-3.05881, 50.71722], [-3.0588, 50.71715], [-3.05922, 50.71806], [-3.05889, 50.71875], [-3.05881, 50.71722]]], [[[-3.05577, 50.71899], [-3.05608, 50.71897], [-3.05527, 50.71915], [-3.0556, 50.71904], [-3.05577, 50.71899]]], [[[-2.96519, 50.76151], [-2.9606, 50.76077], [-2.95259, 50.76138], [-2.94961, 50.76092], [-2.93942, 50.75711], [-2.93514, 50.75419], [-2.93651, 50.75299], [-2.93968, 50.75184], [-2.94057, 50.74989], [-2.94059, 50.74864], [-2.93825, 50.74597], [-2.93786, 50.7441], [-2.93888, 50.74335], [-2.94063, 50.7427], [-2.94565, 50.73782], [-2.94659, 50.73729], [-2.94662, 50.73585], [-2.94631, 50.73526], [-2.94585, 50.73518], [-2.94702, 50.73499], [-2.94778, 50.73378], [-2.9496, 50.73235], [-2.95307, 50.7285], [-2.9526, 50.72459], [-2.94873, 50.72126], [-2.94871, 50.71977], [-2.94793, 50.71842], [-2.94766, 50.71825], [-2.94772, 50.71824], [-2.95175, 50.71596], [-2.95317, 50.71454], [-2.95507, 50.71385], [-2.95826, 50.7131], [-2.96456, 50.71304], [-2.96681, 50.71274], [-2.97085, 50.70957], [-2.97256, 50.7089], [-2.97578, 50.70822], [-2.98201, 50.70509], [-2.98452, 50.70463], [-2.98569, 50.70496], [-2.99215, 50.70558], [-2.99501, 50.70546], [-2.99773, 50.70459], [-3.00167, 50.70213], [-3.00669, 50.7004], [-3.02263, 50.69839], [-3.0288, 50.69871], [-3.04739, 50.70151], [-3.0536, 50.70186], [-3.05463, 50.70241], [-3.05483, 50.70292], [-3.05815, 50.70388], [-3.05907, 50.70519], [-3.05656, 50.7115], [-3.05598, 50.71378], [-3.05615, 50.71493], [-3.05535, 50.7164], [-3.05477, 50.71658], [-3.0545, 50.71822], [-3.05484, 50.71873], [-3.05612, 50.71891], [-3.05499, 50.71905], [-3.05432, 50.71982], [-3.05431, 50.71986], [-3.0542, 50.72009], [-3.05331, 50.72119], [-3.0532, 50.72128], [-3.05318, 50.72135], [-3.05317, 50.72135], [-3.05316, 50.72137], [-3.05266, 50.72269], [-3.0513, 50.72411], [-3.05017, 50.72443], [-3.04995, 50.72534], [-3.04928, 50.72554], [-3.04893, 50.72642], [-3.04935, 50.72668], [-3.04813, 50.72674], [-3.04773, 50.72904], [-3.04815, 50.73058], [-3.04938, 50.72988], [-3.04928, 50.73389], [-3.05031, 50.73401], [-3.05047, 50.73435], [-3.04972, 50.7348], [-3.04818, 50.73428], [-3.04762, 50.73476], [-3.04598, 50.73425], [-3.04425, 50.73426], [-3.04323, 50.73397], [-3.04027, 50.73407], [-3.0391, 50.73352], [-3.03651, 50.73329], [-3.03212, 50.73196], [-3.02812, 50.7314], [-3.02843, 50.73268], [-3.02601, 50.73324], [-3.02633, 50.73395], [-3.0243, 50.73447], [-3.02422, 50.73508], [-3.02181, 50.73574], [-3.02282, 50.73793], [-3.02071, 50.73985], [-3.01967, 50.74025], [-3.01939, 50.74103], [-3.01775, 50.74209], [-3.01655, 50.74388], [-3.01542, 50.744], [-3.01483, 50.74481], [-3.01263, 50.74591], [-3.00913, 50.74514], [-3.00779, 50.74533], [-3.00691, 50.74676], [-3.00169, 50.74484], [-2.99309, 50.74103], [-2.99147, 50.73963], [-2.98952, 50.73466], [-2.98858, 50.7379], [-2.98744, 50.74008], [-2.98682, 50.74358], [-2.98886, 50.74675], [-2.98952, 50.75226], [-2.98577, 50.75776], [-2.9751, 50.76261], [-2.97199, 50.76367], [-2.96519, 50.76151]]]]}}, {"type": "Feature", "properties": {"type": "postcode-cell", "postcode": "EX12 4AA", "postcodes": ["EX12 4AA"]}, "geometry": {"type": "MultiPolygon", "coordinates": [[[[-3.0600388214381593, 50.70954062219626], [-3.0601999894636016, 50.70868999473994], [-3.0602399894637435, 50.70844999473975], [-3.060799989465526, 50.7055299947375], [-3.0599599894655203, 50.70450999473673], [-3.0603899894658952, 50.7042799947365], [-3.0594699894656685, 50.70360999473603], [-3.0583447290542627, 50.70352747749835], [-3.0582492552566505, 50.702799775212206], [-3.060909989466833, 50.70301999473555], [-3.0609399894659766, 50.70478999473693], [-3.060044788226727, 50.70954236017715], [-3.0600388214381593, 50.70954062219626]]], [[[-3.0584463481003357, 50.7043019925623], [-3.0590699894646467, 50.70518999473724], [-3.058688662249556, 50.70614874094371], [-3.0584463481003357, 50.7043019925623]]]]}}, {"type": "Feature", "properties": {"type": "postcode-cell", "postcode": "EX12 4AD", "postcodes": ["EX12 4AD"]}, "geometry": {"type": "Polygon", "coordinates": [[[-3.0509726033280256, 50.708792459524865], [-3.0406824492048488, 50.70349043188686], [-3.039104611877466, 50.70231072758458], [-3.0363267819967903, 50.699844068139406], [-3.0473899894593997, 50.70150999473462], [-3.0512459808424515, 50.70172736072404], [-3.0581612698039122, 50.707474664000095], [-3.0574245102043336, 50.7093268320852], [-3.0509726033280256, 50.708792459524865]]]}}, {"type": "Feature", "properties": {"type": "postcode-cell", "postcode": "EX12 4AB", "postcodes": ["EX12 4AB"]}, "geometry": {"type": "MultiPolygon", "coordinates": [[[[-3.0583447290542627, 50.70352747749835], [-3.057969989464815, 50.70349999473596], [-3.0548699894634246, 50.702519994735276], [-3.0582492552566505, 50.702799775212206], [-3.0583447290542627, 50.70352747749835]]], [[[-3.058688662249556, 50.70614874094371], [-3.0581612698039122, 50.707474664000095], [-3.0512459808424515, 50.70172736072404], [-3.053599989462981, 50.7018599947348], [-3.054629989463333, 50.70240999473518], [-3.054829989463203, 50.70291999473558], [-3.0581499894647357, 50.703879994736255], [-3.0584463481003357, 50.7043019925623], [-3.058688662249556, 50.70614874094371]]]]}}, {"type": "Feature", "properties": {"type": "postcode-cell", "postcode": "EX12 4AE", "postcodes": ["EX12 4AE"]}, "geometry": {"type": "MultiPolygon", "coordinates": [[[[-3.0589721462189643, 50.715231110681465], [-3.059499989461424, 50.712239994742696], [-3.0595299894615504, 50.71201999474254], [-3.0598214489625426, 50.71072785864426], [-3.058972928789795, 50.71523132654055], [-3.0589721462189643, 50.715231110681465]]], [[[-3.054389178094879, 50.71396685080508], [-3.053004010181036, 50.71339442035033], [-3.057089980025467, 50.71016777133181], [-3.056559989460008, 50.71149999474219], [-3.0559799894585304, 50.71377999474394], [-3.056076419519606, 50.71443232306953], [-3.054389178094879, 50.71396685080508]]], [[[-3.060044788226727, 50.70954236017715], [-3.0598315812057124, 50.71067407733482], [-3.059839989462444, 50.71058999474141], [-3.0600388214381593, 50.70954062219626], [-3.060044788226727, 50.70954236017715]]]]}}, {"type": "Feature", "properties": {"type": "postcode-cell", "postcode": "EX12 4BE", "postcodes": ["EX12 4BE"]}, "geometry": {"type": "Polygon", "coordinates": [[[-3.0394688188806835, 50.71250830269434], [-3.031784760555947, 50.71989903483112], [-3.031092618918763, 50.72007119801404], [-3.0283617523015223, 50.71972668251164], [-3.023311038777293, 50.714017551283725], [-3.028368643139004, 50.69868763421723], [-3.0287999894495594, 50.698709994732816], [-3.0363267819967903, 50.699844068139406], [-3.039104611877466, 50.70231072758458], [-3.0401964130333643, 50.71074737082095], [-3.0401728818705007, 50.71084702004157], [-3.0394688188806835, 50.71250830269434]]]}}, {"type": "Feature", "properties": {"type": "postcode-cell", "postcode": "EX12 4BB", "postcodes": ["EX12 4BB"]}, "geometry": {"type": "Polygon", "coordinates": [[[-3.0401728818705007, 50.71084702004157], [-3.0399201702974104, 50.714218587492546], [-3.0394688188806835, 50.71250830269434], [-3.0401728818705007, 50.71084702004157]]]}}, {"type": "Feature", "properties": {"type": "postcode-cell", "postcode": "EX12 4AG", "postcodes": ["EX12 4AG"]}, "geometry": {"type": "MultiPolygon", "coordinates": [[[[-3.0527783639627923, 50.7150033952585], [-3.052686033601579, 50.71478415039598], [-3.054389178094879, 50.71396685080508], [-3.056076419519606, 50.71443232306953], [-3.056149989458066, 50.71492999474486], [-3.055349989456853, 50.716399994746], [-3.054828981988592, 50.71656168691323], [-3.0527783639627923, 50.7150033952585]]], [[[-3.058972928789795, 50.71523132654055], [-3.0589599894595842, 50.71529999474508], [-3.0589721462189643, 50.715231110681465], [-3.058972928789795, 50.71523132654055]]], [[[-3.0587999894585747, 50.7171499947465], [-3.05921998945838, 50.718059994747215], [-3.0588899894578385, 50.71874999474776], [-3.0588099894585454, 50.71721999474655], [-3.0587999894585747, 50.7171499947465]]]]}}, {"type": "Feature", "properties": {"type": "postcode-cell", "postcode": "EX12 4AL", "postcodes": ["EX12 4AL"]}, "geometry": {"type": "Polygon", "coordinates": [[[-3.053004010181036, 50.71339442035033], [-3.052350728050031, 50.71339833207142], [-3.0519938681655683, 50.713288499774386], [-3.0503701301639046, 50.71181323193021], [-3.0502130406348824, 50.711321086308764], [-3.0509726033280256, 50.708792459524865], [-3.0574245102043336, 50.7093268320852], [-3.057089980025467, 50.71016777133181], [-3.053004010181036, 50.71339442035033]]]}}, {"type": "Feature", "properties": {"type": "postcode-cell", "postcode": "EX12 4BG", "postcodes": ["EX12 4BG"]}, "geometry": {"type": "MultiPolygon", "coordinates": [[[[-3.054828981988592, 50.71656168691323], [-3.054769989456415, 50.71657999474615], [-3.0545360587765478, 50.71800091340138], [-3.051327104750377, 50.7153233592964], [-3.051482365773951, 50.71516853424207], [-3.0527783639627923, 50.7150033952585], [-3.054828981988592, 50.71656168691323]]], [[[-3.0557341818740054, 50.719000526419094], [-3.0557699894558317, 50.71898999474799], [-3.0560799894560278, 50.71896999474797], [-3.0557780196975135, 50.71903709995611], [-3.0557341818740054, 50.719000526419094]]], [[[-3.0555254607430262, 50.71882639107155], [-3.056119989456081, 50.718909994747925], [-3.055689586090781, 50.718963320446335], [-3.0555254607430262, 50.71882639107155]]]]}}, {"type": "Feature", "properties": {"type": "postcode-cell", "postcode": "EX12 4AJ", "postcodes": ["EX12 4AJ"]}, "geometry": {"type": "Polygon", "coordinates": [[[-3.052406981544288, 50.7144917393797], [-3.051708171963602, 50.71464379011449], [-3.0509340629236448, 50.71431561113571], [-3.05113944945552, 50.713914253735915], [-3.0519938681655683, 50.713288499774386], [-3.052350728050031, 50.71339833207142], [-3.052406981544288, 50.7144917393797]]]}}, {"type": "Feature", "properties": {"type": "postcode-cell", "postcode": "EX12 4AF", "postcodes": ["EX12 4AF"]}, "geometry": {"type": "Polygon", "coordinates": [[[-3.052350728050031, 50.71339833207142], [-3.053004010181036, 50.71339442035033], [-3.054389178094879, 50.71396685080508], [-3.052686033601579, 50.71478415039598], [-3.052406981544288, 50.7144917393797], [-3.052350728050031, 50.71339833207142]]]}}, {"type": "Feature", "properties": {"type": "postcode-cell", "postcode": "EX12 4AQ", "postcodes": ["EX12 4AQ"]}, "geometry": {"type": "Polygon", "coordinates": [[[-3.052686033601579, 50.71478415039598], [-3.0527783639627923, 50.7150033952585], [-3.051482365773951, 50.71516853424207], [-3.051449063080395, 50.71497562208939], [-3.051708171963602, 50.71464379011449], [-3.052406981544288, 50.7144917393797], [-3.052686033601579, 50.71478415039598]]]}}, {"type": "Feature", "properties": {"type": "postcode-cell", "postcode": "EX12 4BJ", "postcodes": ["EX12 4BJ"]}, "geometry": {"type": "Polygon", "coordinates": [[[-3.040775754204394, 50.724973755795354], [-3.0345469462116967, 50.72229796552246], [-3.031092618918763, 50.72007119801404], [-3.031784760555947, 50.71989903483112], [-3.0400051650201725, 50.717937364327575], [-3.0413747687294506, 50.71766891447571], [-3.044735029224404, 50.717865369821624], [-3.045841416387174, 50.71802945517163], [-3.053404047844826, 50.72107374554147], [-3.053309989453253, 50.72118999474973], [-3.0531999894531427, 50.721279994749814], [-3.0531799894530955, 50.72134999474987], [-3.0531699894530906, 50.72134999474988], [-3.053159989453074, 50.721369994749885], [-3.052659989452118, 50.72268999475091], [-3.0512999894505937, 50.72410999475205], [-3.05016998944975, 50.724429994752306], [-3.049949989449169, 50.72533999475304], [-3.0492799894486633, 50.72553999475319], [-3.0490737757869004, 50.72605847887003], [-3.040775754204394, 50.724973755795354]]]}}, {"type": "Feature", "properties": {"type": "postcode-cell", "postcode": "EX12 4BQ", "postcodes": ["EX12 4BQ"]}, "geometry": {"type": "MultiPolygon", "coordinates": [[[[-3.0545360587765478, 50.71800091340138], [-3.0544999894554423, 50.71821999474743], [-3.054839989455396, 50.71872999474781], [-3.0555254607430262, 50.71882639107155], [-3.055689586090781, 50.718963320446335], [-3.0549899894553287, 50.719049994748076], [-3.0543199894545414, 50.71981999474865], [-3.054309989454516, 50.719859994748695], [-3.054199989454335, 50.72008999474886], [-3.053404047844826, 50.72107374554147], [-3.045841416387174, 50.71802945517163], [-3.045987748351796, 50.717906141447216], [-3.0496047052624875, 50.71572510158418], [-3.050402064081737, 50.715407754172844], [-3.051327104750377, 50.7153233592964], [-3.0545360587765478, 50.71800091340138]]], [[[-3.0557780196975135, 50.71903709995611], [-3.0552699894554487, 50.71914999474813], [-3.0555999894557018, 50.71903999474804], [-3.0557341818740054, 50.719000526419094], [-3.0557780196975135, 50.71903709995611]]]]}}, {"type": "Feature", "properties": {"type": "postcode-cell", "postcode": "EX12 4AH", "postcodes": ["EX12 4AH"]}, "geometry": {"type": "Polygon", "coordinates": [[[-3.051449063080395, 50.71497562208939], [-3.050739350727425, 50.71457125186681], [-3.0509105874491915, 50.71433288172343], [-3.0509340629236448, 50.71431561113571], [-3.051708171963602, 50.71464379011449], [-3.051449063080395, 50.71497562208939]]]}}, {"type": "Feature", "properties": {"type": "postcode-cell", "postcode": "EX12 4BT", "postcodes": ["EX12 4BT"]}, "geometry": {"type": "Polygon", "coordinates": [[[-3.05113944945552, 50.713914253735915], [-3.0496234822981205, 50.71388845315148], [-3.0493215276739822, 50.71379592385699], [-3.049234172272647, 50.713385303102136], [-3.0503701301639046, 50.71181323193021], [-3.0519938681655683, 50.713288499774386], [-3.05113944945552, 50.713914253735915]]]}}, {"type": "Feature", "properties": {"type": "postcode-cell", "postcode": "EX12 4AW", "postcodes": ["EX12 4AW"]}, "geometry": {"type": "Polygon", "coordinates": [[[-3.0509340629236448, 50.71431561113571], [-3.0509105874491915, 50.71433288172343], [-3.050005784860735, 50.71421479680057], [-3.0496234822981205, 50.71388845315148], [-3.05113944945552, 50.713914253735915], [-3.0509340629236448, 50.71431561113571]]]}}, {"type": "Feature", "properties": {"type": "postcode-cell", "postcode": "EX12 4BR", "postcodes": ["EX12 4BR"]}, "geometry": {"type": "Polygon", "coordinates": [[[-3.051482365773951, 50.71516853424207], [-3.051327104750377, 50.7153233592964], [-3.050402064081737, 50.715407754172844], [-3.0507274009041314, 50.714577947246056], [-3.050739350727425, 50.71457125186681], [-3.051449063080395, 50.71497562208939], [-3.051482365773951, 50.71516853424207]]]}}, {"type": "Feature", "properties": {"type": "postcode-cell", "postcode": "EX12 4BH", "postcodes": ["EX12 4BH"]}, "geometry": {"type": "Polygon", "coordinates": [[[-3.0499901269847336, 50.714595069283305], [-3.0499925002453523, 50.7145941062086], [-3.0507274009041314, 50.714577947246056], [-3.050402064081737, 50.715407754172844], [-3.0496047052624875, 50.71572510158418], [-3.0499901269847336, 50.714595069283305]]]}}, {"type": "Feature", "properties": {"type": "postcode-cell", "postcode": "EX12 4BU", "postcodes": ["EX12 4BU"]}, "geometry": {"type": "Polygon", "coordinates": [[[-3.0496047052624875, 50.71572510158418], [-3.045987748351796, 50.717906141447216], [-3.048706044009537, 50.7144448358798], [-3.0488103194773037, 50.714382241079875], [-3.0499901269847336, 50.714595069283305], [-3.0496047052624875, 50.71572510158418]]]}}, {"type": "Feature", "properties": {"type": "postcode-cell", "postcode": "EX12 4AN", "postcodes": ["EX12 4AN"]}, "geometry": {"type": "Polygon", "coordinates": [[[-3.0507274009041314, 50.714577947246056], [-3.0499925002453523, 50.7145941062086], [-3.050005784860735, 50.71421479680057], [-3.0509105874491915, 50.71433288172343], [-3.050739350727425, 50.71457125186681], [-3.0507274009041314, 50.714577947246056]]]}}, {"type": "Feature", "properties": {"type": "postcode-cell", "postcode": "EX12 4BS", "postcodes": ["EX12 4BS"]}, "geometry": {"type": "Polygon", "coordinates": [[[-3.0493215276739822, 50.71379592385699], [-3.0488103194773037, 50.714382241079875], [-3.048706044009537, 50.7144448358798], [-3.047356982333988, 50.71351078454188], [-3.049234172272647, 50.713385303102136], [-3.0493215276739822, 50.71379592385699]]]}}, {"type": "Feature", "properties": {"type": "postcode-cell", "postcode": "EX12 4AR", "postcodes": ["EX12 4AR"]}, "geometry": {"type": "Polygon", "coordinates": [[[-3.049234172272647, 50.713385303102136], [-3.047356982333988, 50.71351078454188], [-3.0472075889639747, 50.713489476864005], [-3.0465685608338755, 50.7127210697733], [-3.0502130406348824, 50.711321086308764], [-3.0503701301639046, 50.71181323193021], [-3.049234172272647, 50.713385303102136]]]}}, {"type": "Feature", "properties": {"type": "postcode-cell", "postcode": "EX12 4AP", "postcodes": ["EX12 4AP"]}, "geometry": {"type": "Polygon", "coordinates": [[[-3.0496234822981205, 50.71388845315148], [-3.050005784860735, 50.71421479680057], [-3.0499925002453523, 50.7145941062086], [-3.0499901269847336, 50.714595069283305], [-3.0488103194773037, 50.714382241079875], [-3.0493215276739822, 50.71379592385699], [-3.0496234822981205, 50.71388845315148]]]}}, {"type": "Feature", "properties": {"type": "postcode-cell", "postcode": "EX12 4AT", "postcodes": ["EX12 4AT"]}, "geometry": {"type": "Polygon", "coordinates": [[[-3.045841416387174, 50.71802945517163], [-3.044735029224404, 50.717865369821624], [-3.0472075889639747, 50.713489476864005], [-3.047356982333988, 50.71351078454188], [-3.048706044009537, 50.7144448358798], [-3.045987748351796, 50.717906141447216], [-3.045841416387174, 50.71802945517163]]]}}, {"type": "Feature", "properties": {"type": "postcode-cell", "postcode": "EX12 4AU", "postcodes": ["EX12 4AU"]}, "geometry": {"type": "Polygon", "coordinates": [[[-3.0472075889639747, 50.713489476864005], [-3.044735029224404, 50.717865369821624], [-3.0413747687294506, 50.71766891447571], [-3.0414526494068492, 50.71748470599225], [-3.046545532794658, 50.7127177133722], [-3.0465685608338755, 50.7127210697733], [-3.0472075889639747, 50.713489476864005]]]}}, {"type": "Feature", "properties": {"type": "postcode-cell", "postcode": "EX12 4AS", "postcodes": ["EX12 4AS"]}, "geometry": {"type": "Polygon", "coordinates": [[[-3.0502130406348824, 50.711321086308764], [-3.0465685608338755, 50.7127210697733], [-3.046545532794658, 50.7127177133722], [-3.045351355875815, 50.712251192846146], [-3.0426039316953775, 50.708033629426595], [-3.0406824492048488, 50.70349043188686], [-3.0509726033280256, 50.708792459524865], [-3.0502130406348824, 50.711321086308764]]]}}, {"type": "Feature", "properties": {"type": "postcode-cell", "postcode": "EX12 4AZ", "postcodes": ["EX12 4AZ"]}, "geometry": {"type": "Polygon", "coordinates": [[[-3.0426039316953775, 50.708033629426595], [-3.042743960321844, 50.714147252682935], [-3.042190564587286, 50.71504083682445], [-3.0401964130333643, 50.71074737082095], [-3.039104611877466, 50.70231072758458], [-3.0406824492048488, 50.70349043188686], [-3.0426039316953775, 50.708033629426595]]]}}, {"type": "Feature", "properties": {"type": "postcode-cell", "postcode": "EX12 4AX", "postcodes": ["EX12 4AX"]}, "geometry": {"type": "Polygon", "coordinates": [[[-3.046545532794658, 50.7127177133722], [-3.0414526494068492, 50.71748470599225], [-3.042190564587286, 50.71504083682445], [-3.042743960321844, 50.714147252682935], [-3.045351355875815, 50.712251192846146], [-3.046545532794658, 50.7127177133722]]]}}, {"type": "Feature", "properties": {"type": "postcode-cell", "postcode": "EX12 4AY", "postcodes": ["EX12 4AY"]}, "geometry": {"type": "Polygon", "coordinates": [[[-3.045351355875815, 50.712251192846146], [-3.042743960321844, 50.714147252682935], [-3.0426039316953775, 50.708033629426595], [-3.045351355875815, 50.712251192846146]]]}}, {"type": "Feature", "properties": {"type": "postcode-cell", "postcode": "EX12 4BL", "postcodes": ["EX12 4BL"]}, "geometry": {"type": "Polygon", "coordinates": [[[-3.040775754204394, 50.724973755795354], [-3.0490737757869004, 50.72605847887003], [-3.0489299894480175, 50.726419994753876], [-3.049349989448144, 50.726679994754065], [-3.0481299894473755, 50.72673999475414], [-3.047729989445997, 50.72903999475594], [-3.0481499894454918, 50.73057999475712], [-3.049379989446581, 50.72987999475656], [-3.0492799894445395, 50.73388999475966], [-3.050309989445104, 50.73400999475973], [-3.0504699894450344, 50.73434999475999], [-3.049719989444359, 50.73479999476036], [-3.048179989443681, 50.73427999475997], [-3.0476199894431057, 50.73475999476037], [-3.0459799894423636, 50.73424999476], [-3.0442499894413104, 50.73425999476003], [-3.0432299894408352, 50.73396999475982], [-3.040269989438993, 50.73406999475997], [-3.0398309805452075, 50.73386362596483], [-3.040775754204394, 50.724973755795354]]]}}, {"type": "Feature", "properties": {"type": "postcode-cell", "postcode": "EX12 4BA", "postcodes": ["EX12 4BA"]}, "geometry": {"type": "Polygon", "coordinates": [[[-3.0413747687294506, 50.71766891447571], [-3.0400051650201725, 50.717937364327575], [-3.0399201702974104, 50.714218587492546], [-3.0401728818705007, 50.71084702004157], [-3.0401964130333643, 50.71074737082095], [-3.042190564587286, 50.71504083682445], [-3.0414526494068492, 50.71748470599225], [-3.0413747687294506, 50.71766891447571]]]}}, {"type": "Feature", "properties": {"type": "postcode-cell", "postcode": "EX12 4BW", "postcodes": ["EX12 4BW"]}, "geometry": {"type": "Polygon", "coordinates": [[[-3.0345469462116967, 50.72229796552246], [-3.037119403552639, 50.733344118001675], [-3.036509989437104, 50.73328999475944], [-3.032119989435105, 50.73195999475846], [-3.030150667594817, 50.731684308562805], [-3.0253046344954293, 50.723379220376174], [-3.0283617523015223, 50.71972668251164], [-3.031092618918763, 50.72007119801404], [-3.0345469462116967, 50.72229796552246]]]}}, {"type": "Feature", "properties": {"type": "postcode-cell", "postcode": "EX12 4BD", "postcodes": ["EX12 4BD"]}, "geometry": {"type": "Polygon", "coordinates": [[[-3.0400051650201725, 50.717937364327575], [-3.031784760555947, 50.71989903483112], [-3.0394688188806835, 50.71250830269434], [-3.0399201702974104, 50.714218587492546], [-3.0400051650201725, 50.717937364327575]]]}}, {"type": "Feature", "properties": {"type": "postcode-cell", "postcode": "DT7 3XP", "postcodes": ["DT7 3XP"]}, "geometry": {"type": "Polygon", "coordinates": [[[-3.023311038777293, 50.714017551283725], [-3.012445576132031, 50.71520564062812], [-3.012065127162266, 50.7150730242823], [-3.0072302073147754, 50.710371165420355], [-3.0065330945777546, 50.70954913294962], [-3.0063905219608675, 50.709287775280316], [-3.0032095520543924, 50.70159946475972], [-3.0066899894353973, 50.700399994734546], [-3.022629989445998, 50.69838999473267], [-3.028368643139004, 50.69868763421723], [-3.023311038777293, 50.714017551283725]]]}}, {"type": "Feature", "properties": {"type": "postcode-cell", "postcode": "EX12 4BN", "postcodes": ["EX12 4BN"]}, "geometry": {"type": "Polygon", "coordinates": [[[-3.040775754204394, 50.724973755795354], [-3.0398309805452075, 50.73386362596483], [-3.039099989438558, 50.73351999475955], [-3.037119403552639, 50.733344118001675], [-3.0345469462116967, 50.72229796552246], [-3.040775754204394, 50.724973755795354]]]}}, {"type": "Feature", "properties": {"type": "postcode-cell", "postcode": "EX13 8ST", "postcodes": ["EX13 8ST"]}, "geometry": {"type": "Polygon", "coordinates": [[[-3.016044333090032, 50.72864603762873], [-3.016267653881054, 50.727787034072726], [-3.0163724541125387, 50.72766300759457], [-3.0253046344954293, 50.723379220376174], [-3.030150667594817, 50.731684308562805], [-3.028119989432964, 50.731399994758114], [-3.02842998943252, 50.73267999475909], [-3.0260099894307784, 50.73323999475958], [-3.0263299894306215, 50.733949994760124], [-3.0242999894291374, 50.73446999476056], [-3.024219989428786, 50.73507999476102], [-3.0236006649512657, 50.73524960880578], [-3.016044333090032, 50.72864603762873]]]}}, {"type": "Feature", "properties": {"type": "postcode-cell", "postcode": "DT7 3RD", "postcodes": ["DT7 3RD"]}, "geometry": {"type": "Polygon", "coordinates": [[[-3.0253046344954293, 50.723379220376174], [-3.0163724541125387, 50.72766300759457], [-3.0063484204990227, 50.720943036191244], [-3.012445576132031, 50.71520564062812], [-3.023311038777293, 50.714017551283725], [-3.0283617523015223, 50.71972668251164], [-3.0253046344954293, 50.723379220376174]]]}}, {"type": "Feature", "properties": {"type": "postcode-cell", "postcode": "EX13 8SU", "postcodes": ["EX13 8SU"]}, "geometry": {"type": "Polygon", "coordinates": [[[-3.0061658455888596, 50.736671643145606], [-3.016044333090032, 50.72864603762873], [-3.0236006649512657, 50.73524960880578], [-3.0218099894270023, 50.73573999476159], [-3.02281998942653, 50.73792999476327], [-3.0207099894243052, 50.73984999476479], [-3.019669989423478, 50.740249994765136], [-3.019389989422923, 50.74102999476574], [-3.0177499894214077, 50.742089994766566], [-3.016814403014051, 50.743485590506246], [-3.0061658455888596, 50.736671643145606]]]}}, {"type": "Feature", "properties": {"type": "postcode-cell", "postcode": "EX13 8TE", "postcodes": ["EX13 8TE"]}, "geometry": {"type": "Polygon", "coordinates": [[[-2.998176407291918, 50.73729377065328], [-3.0009109505683553, 50.7360165286457], [-3.0061658455888596, 50.736671643145606], [-3.016814403014051, 50.743485590506246], [-3.0165499894197985, 50.74387999476799], [-3.0154199894190548, 50.74399999476812], [-3.0148299894182977, 50.74480999476875], [-3.0126299894164226, 50.74590999476963], [-3.0091299894146912, 50.74513999476909], [-3.0077899894137876, 50.74532999476927], [-3.006909989412548, 50.746759994770414], [-3.001689989410349, 50.74483999476901], [-2.994111593423121, 50.74148265511235], [-2.998176407291918, 50.73729377065328]]]}}, {"type": "Feature", "properties": {"type": "postcode-cell", "postcode": "EX13 8SX", "postcodes": ["EX13 8SX"]}, "geometry": {"type": "Polygon", "coordinates": [[[-3.0061658455888596, 50.736671643145606], [-3.0009109505683553, 50.7360165286457], [-2.9974873358638914, 50.729204738991136], [-2.9989732596973844, 50.726958237476595], [-3.016267653881054, 50.727787034072726], [-3.016044333090032, 50.72864603762873], [-3.0061658455888596, 50.736671643145606]]]}}, {"type": "Feature", "properties": {"type": "postcode-cell", "postcode": "DT7 3RB", "postcodes": ["DT7 3RB"]}, "geometry": {"type": "Polygon", "coordinates": [[[-3.012445576132031, 50.71520564062812], [-3.0063484204990227, 50.720943036191244], [-3.0009484985881274, 50.72227530231459], [-3.000304719995249, 50.71641733642382], [-3.001000812907512, 50.713975900171526], [-3.012065127162266, 50.7150730242823], [-3.012445576132031, 50.71520564062812]]]}}, {"type": "Feature", "properties": {"type": "postcode-cell", "postcode": "EX13 8SY", "postcodes": ["EX13 8SY"]}, "geometry": {"type": "Polygon", "coordinates": [[[-3.016267653881054, 50.727787034072726], [-2.9989732596973844, 50.726958237476595], [-2.999197013646875, 50.723071648781165], [-3.0009484985881274, 50.72227530231459], [-3.0063484204990227, 50.720943036191244], [-3.0163724541125387, 50.72766300759457], [-3.016267653881054, 50.727787034072726]]]}}, {"type": "Feature", "properties": {"type": "postcode-cell", "postcode": "DT7 3YL", "postcodes": ["DT7 3YL"]}, "geometry": {"type": "Polygon", "coordinates": [[[-3.002420544435769, 50.71140044583596], [-3.0033860029584103, 50.71106377820552], [-3.0072302073147754, 50.710371165420355], [-3.012065127162266, 50.7150730242823], [-3.001000812907512, 50.713975900171526], [-3.0009636341049695, 50.71395960471589], [-3.00222558075241, 50.71152120135037], [-3.002420544435769, 50.71140044583596]]]}}, {"type": "Feature", "properties": {"type": "postcode-cell", "postcode": "DT7 3YD", "postcodes": ["DT7 3YD"]}, "geometry": {"type": "Polygon", "coordinates": [[[-3.00222558075241, 50.71152120135037], [-3.0018981552896054, 50.71000127003786], [-3.0019024301294683, 50.70998812044757], [-3.0027059503549434, 50.710125203348696], [-3.003100440467633, 50.71036185861888], [-3.0030211892433614, 50.71075929786499], [-3.002420544435769, 50.71140044583596], [-3.00222558075241, 50.71152120135037]]]}}, {"type": "Feature", "properties": {"type": "postcode-cell", "postcode": "DT7 3RF", "postcodes": ["DT7 3RF"]}, "geometry": {"type": "Polygon", "coordinates": [[[-2.9989732596973844, 50.726958237476595], [-2.9974873358638914, 50.729204738991136], [-2.9824075236110295, 50.7285360489314], [-2.9816916924167844, 50.723894694596275], [-2.9900949332600857, 50.719431713630186], [-2.990218525129767, 50.719430726091566], [-2.999197013646875, 50.723071648781165], [-2.9989732596973844, 50.726958237476595]]]}}, {"type": "Feature", "properties": {"type": "postcode-cell", "postcode": "DT7 3XT", "postcodes": ["DT7 3XT"]}, "geometry": {"type": "Polygon", "coordinates": [[[-3.002420544435769, 50.71140044583596], [-3.0030211892433614, 50.71075929786499], [-3.003867733577343, 50.71047004060678], [-3.0033860029584103, 50.71106377820552], [-3.002420544435769, 50.71140044583596]]]}}, {"type": "Feature", "properties": {"type": "postcode-cell", "postcode": "DT7 3RE", "postcodes": ["DT7 3RE"]}, "geometry": {"type": "Polygon", "coordinates": [[[-3.0042580221892545, 50.71025361486515], [-3.0065330945777546, 50.70954913294962], [-3.0072302073147754, 50.710371165420355], [-3.0033860029584103, 50.71106377820552], [-3.003867733577343, 50.71047004060678], [-3.0042580221892545, 50.71025361486515]]]}}, {"type": "Feature", "properties": {"type": "postcode-cell", "postcode": "DT7 3YA", "postcodes": ["DT7 3YA"]}, "geometry": {"type": "Polygon", "coordinates": [[[-3.003867733577343, 50.71047004060678], [-3.0030211892433614, 50.71075929786499], [-3.003100440467633, 50.71036185861888], [-3.0042580221892545, 50.71025361486515], [-3.003867733577343, 50.71047004060678]]]}}, {"type": "Feature", "properties": {"type": "postcode-cell", "postcode": "DT7 3YB", "postcodes": ["DT7 3YB"]}, "geometry": {"type": "Polygon", "coordinates": [[[-3.0027059503549434, 50.710125203348696], [-3.0063905219608675, 50.709287775280316], [-3.0065330945777546, 50.70954913294962], [-3.0042580221892545, 50.71025361486515], [-3.003100440467633, 50.71036185861888], [-3.0027059503549434, 50.710125203348696]]]}}, {"type": "Feature", "properties": {"type": "postcode-cell", "postcode": "DT7 3RA", "postcodes": ["DT7 3RA"]}, "geometry": {"type": "Polygon", "coordinates": [[[-3.0019024301294683, 50.70998812044757], [-3.0018981552896054, 50.71000127003786], [-2.998968820800075, 50.711291702668554], [-2.996510935950703, 50.70497992437927], [-2.9977299894279255, 50.70458999473794], [-2.99955687121431, 50.70344940121752], [-3.0019024301294683, 50.70998812044757]]]}}, {"type": "Feature", "properties": {"type": "postcode-cell", "postcode": "DT7 3XS", "postcodes": ["DT7 3XS"]}, "geometry": {"type": "Polygon", "coordinates": [[[-3.0063905219608675, 50.709287775280316], [-3.0027059503549434, 50.710125203348696], [-3.0019024301294683, 50.70998812044757], [-2.99955687121431, 50.70344940121752], [-3.001669989431517, 50.702129994735955], [-3.0032095520543924, 50.70159946475972], [-3.0063905219608675, 50.709287775280316]]]}}, {"type": "Feature", "properties": {"type": "postcode-cell", "postcode": "DT7 3XZ", "postcodes": ["DT7 3XZ"]}, "geometry": {"type": "Polygon", "coordinates": [[[-3.000304719995249, 50.71641733642382], [-2.9904063486242154, 50.71926175985132], [-2.9954805100635085, 50.71393194159292], [-2.9992717382965712, 50.71358804470637], [-3.0009636341049695, 50.71395960471589], [-3.001000812907512, 50.713975900171526], [-3.000304719995249, 50.71641733642382]]]}}, {"type": "Feature", "properties": {"type": "postcode-cell", "postcode": "DT7 3XW", "postcodes": ["DT7 3XW"]}, "geometry": {"type": "Polygon", "coordinates": [[[-2.999197013646875, 50.723071648781165], [-2.990218525129767, 50.719430726091566], [-2.9904063486242154, 50.71926175985132], [-3.000304719995249, 50.71641733642382], [-3.0009484985881274, 50.72227530231459], [-2.999197013646875, 50.723071648781165]]]}}, {"type": "Feature", "properties": {"type": "postcode-cell", "postcode": "DT7 3XR", "postcodes": ["DT7 3XR"]}, "geometry": {"type": "Polygon", "coordinates": [[[-3.0009636341049695, 50.71395960471589], [-2.9992717382965712, 50.71358804470637], [-2.998968820800075, 50.711291702668554], [-3.0018981552896054, 50.71000127003786], [-3.00222558075241, 50.71152120135037], [-3.0009636341049695, 50.71395960471589]]]}}, {"type": "Feature", "properties": {"type": "postcode-cell", "postcode": "EX13 5ST", "postcodes": ["EX13 5ST"]}, "geometry": {"type": "Polygon", "coordinates": [[[-2.967070874494525, 50.76045648169462], [-2.9778225305833197, 50.76137266359482], [-2.9750999893855075, 50.76260999478324], [-2.97198998938311, 50.76366999478413], [-2.966034413787356, 50.76177825625159], [-2.967070874494525, 50.76045648169462]]]}}, {"type": "Feature", "properties": {"type": "postcode-cell", "postcode": "EX13 8SZ", "postcodes": ["EX13 8SZ"]}, "geometry": {"type": "Polygon", "coordinates": [[[-2.998176407291918, 50.73729377065328], [-2.9898560388363764, 50.73551656906775], [-2.989519989408058, 50.73465999476134], [-2.9893056059293093, 50.73539897275248], [-2.9814736251729705, 50.73372537580791], [-2.9806491852024464, 50.733062813045294], [-2.980248106216462, 50.73071146343283], [-2.9824075236110295, 50.7285360489314], [-2.9974873358638914, 50.729204738991136], [-3.0009109505683553, 50.7360165286457], [-2.998176407291918, 50.73729377065328]]]}}, {"type": "Feature", "properties": {"type": "postcode-cell", "postcode": "DT7 3XU", "postcodes": ["DT7 3XU"]}, "geometry": {"type": "Polygon", "coordinates": [[[-2.998968820800075, 50.711291702668554], [-2.9992717382965712, 50.71358804470637], [-2.9954805100635085, 50.71393194159292], [-2.98415319776037, 50.704697219446714], [-2.9845199894199648, 50.70462999473822], [-2.985689989420503, 50.704959994738445], [-2.992149989424077, 50.70557999473879], [-2.9950099894258577, 50.70545999473866], [-2.996510935950703, 50.70497992437927], [-2.998968820800075, 50.711291702668554]]]}}, {"type": "Feature", "properties": {"type": "postcode-cell", "postcode": "DT7 3XX", "postcodes": ["DT7 3XX"]}, "geometry": {"type": "Polygon", "coordinates": [[[-2.990218525129767, 50.719430726091566], [-2.9900949332600857, 50.719431713630186], [-2.989378927529033, 50.718816982580975], [-2.9826183337698295, 50.704978511113445], [-2.98415319776037, 50.704697219446714], [-2.9954805100635085, 50.71393194159292], [-2.9904063486242154, 50.71926175985132], [-2.990218525129767, 50.719430726091566]]]}}, {"type": "Feature", "properties": {"type": "postcode-cell", "postcode": "DT7 3XY", "postcodes": ["DT7 3XY"]}, "geometry": {"type": "Polygon", "coordinates": [[[-2.989378927529033, 50.718816982580975], [-2.977207941530143, 50.71470215014452], [-2.9750139203669153, 50.7083817831248], [-2.975779989412931, 50.70821999474115], [-2.982009989418229, 50.70508999473863], [-2.9826183337698295, 50.704978511113445], [-2.989378927529033, 50.718816982580975]]]}}, {"type": "Feature", "properties": {"type": "postcode-cell", "postcode": "DT7 3RG", "postcodes": ["DT7 3RG"]}, "geometry": {"type": "Polygon", "coordinates": [[[-2.9816916924167844, 50.723894694596275], [-2.9754101605065664, 50.72124426287699], [-2.977207941530143, 50.71470215014452], [-2.989378927529033, 50.718816982580975], [-2.9900949332600857, 50.719431713630186], [-2.9816916924167844, 50.723894694596275]]]}}, {"type": "Feature", "properties": {"type": "postcode-cell", "postcode": "EX13 8TA", "postcodes": ["EX13 8TA"]}, "geometry": {"type": "MultiPolygon", "coordinates": [[[[-2.994111593423121, 50.74148265511235], [-2.9930899894070495, 50.7410299947662], [-2.9914699894067684, 50.73962999476513], [-2.9898560388363764, 50.73551656906775], [-2.998176407291918, 50.73729377065328], [-2.994111593423121, 50.74148265511235]]], [[[-2.9833453933615246, 50.740758696125546], [-2.9814736251729705, 50.73372537580791], [-2.9893056059293093, 50.73539897275248], [-2.9885799894058853, 50.73789999476385], [-2.987439989404116, 50.74007999476555], [-2.9868199894020075, 50.74357999476828], [-2.987469574309155, 50.74458944987919], [-2.9833453933615246, 50.740758696125546]]]]}}, {"type": "Feature", "properties": {"type": "postcode-cell", "postcode": "EX13 5SL", "postcodes": ["EX13 5SL"]}, "geometry": {"type": "Polygon", "coordinates": [[[-2.9755119165979877, 50.75604035870472], [-2.983240145566126, 50.747372684906836], [-2.9888236258550953, 50.746693492794336], [-2.9888599894016643, 50.7467499947707], [-2.989519989399331, 50.75225999477497], [-2.985769989394344, 50.757759994779285], [-2.980593632643605, 50.76011313069145], [-2.9755119165979877, 50.75604035870472]]]}}, {"type": "Feature", "properties": {"type": "postcode-cell", "postcode": "DT7 3SX", "postcodes": ["DT7 3SX"]}, "geometry": {"type": "Polygon", "coordinates": [[[-2.9833453933615246, 50.740758696125546], [-2.9751462918954794, 50.740126805033725], [-2.974516362235841, 50.739886297606915], [-2.973463292581902, 50.73712066978175], [-2.9806491852024464, 50.733062813045294], [-2.9814736251729705, 50.73372537580791], [-2.9833453933615246, 50.740758696125546]]]}}, {"type": "Feature", "properties": {"type": "postcode-cell", "postcode": "DT7 3RQ", "postcodes": ["DT7 3RQ"]}, "geometry": {"type": "Polygon", "coordinates": [[[-2.977207941530143, 50.71470215014452], [-2.9754101605065664, 50.72124426287699], [-2.9702406744617775, 50.721663827086104], [-2.964448469378958, 50.719798008771825], [-2.96004262425052, 50.71308305181884], [-2.964559989403799, 50.71303999474508], [-2.9668099894052986, 50.712739994744794], [-2.9708499894093, 50.70956999474229], [-2.972559989410661, 50.70889999474174], [-2.9750139203669153, 50.7083817831248], [-2.977207941530143, 50.71470215014452]]]}}, {"type": "Feature", "properties": {"type": "postcode-cell", "postcode": "DT7 3SP", "postcodes": ["DT7 3SP"]}, "geometry": {"type": "Polygon", "coordinates": [[[-2.980248106216462, 50.73071146343283], [-2.9757573452123514, 50.73034260578552], [-2.9694626345173347, 50.72634118733446], [-2.969084801414216, 50.72527736227963], [-2.9702406744617775, 50.721663827086104], [-2.9754101605065664, 50.72124426287699], [-2.9816916924167844, 50.723894694596275], [-2.9824075236110295, 50.7285360489314], [-2.980248106216462, 50.73071146343283]]]}}, {"type": "Feature", "properties": {"type": "postcode-cell", "postcode": "DT7 3SL", "postcodes": ["DT7 3SL"]}, "geometry": {"type": "Polygon", "coordinates": [[[-2.983240145566126, 50.747372684906836], [-2.97791791600599, 50.747010083310116], [-2.9751462918954794, 50.740126805033725], [-2.9833453933615246, 50.740758696125546], [-2.987469574309155, 50.74458944987919], [-2.9888236258550953, 50.746693492794336], [-2.983240145566126, 50.747372684906836]]]}}, {"type": "Feature", "properties": {"type": "postcode-cell", "postcode": "DT7 3XH", "postcodes": ["DT7 3XH"]}, "geometry": {"type": "Polygon", "coordinates": [[[-2.983240145566126, 50.747372684906836], [-2.9755119165979877, 50.75604035870472], [-2.9702454257945443, 50.754528586096555], [-2.9702037387204134, 50.75431928638089], [-2.9723291344311695, 50.75079018455948], [-2.975596861754149, 50.747133322188546], [-2.97791791600599, 50.747010083310116], [-2.983240145566126, 50.747372684906836]]]}}, {"type": "Feature", "properties": {"type": "postcode-cell", "postcode": "DT7 3SJ", "postcodes": ["DT7 3SJ"]}, "geometry": {"type": "Polygon", "coordinates": [[[-2.9751462918954794, 50.740126805033725], [-2.97791791600599, 50.747010083310116], [-2.975596861754149, 50.747133322188546], [-2.9747996334522906, 50.746886124427256], [-2.9712884132432476, 50.741910060231845], [-2.974516362235841, 50.739886297606915], [-2.9751462918954794, 50.740126805033725]]]}}, {"type": "Feature", "properties": {"type": "postcode-cell", "postcode": "DT7 3SN", "postcodes": ["DT7 3SN"]}, "geometry": {"type": "Polygon", "coordinates": [[[-2.9806491852024464, 50.733062813045294], [-2.973463292581902, 50.73712066978175], [-2.972160790895369, 50.73702685482742], [-2.9673334015913877, 50.734415114497345], [-2.967303751335603, 50.734344658071855], [-2.9672860984848595, 50.73202753095022], [-2.967414997433282, 50.731899086556616], [-2.9757573452123514, 50.73034260578552], [-2.980248106216462, 50.73071146343283], [-2.9806491852024464, 50.733062813045294]]]}}, {"type": "Feature", "properties": {"type": "postcode-cell", "postcode": "EX13 5SU", "postcodes": ["EX13 5SU"]}, "geometry": {"type": "Polygon", "coordinates": [[[-2.980593632643605, 50.76011313069145], [-2.9778225305833197, 50.76137266359482], [-2.967070874494525, 50.76045648169462], [-2.966135149720425, 50.75820774559793], [-2.9664687601167556, 50.756251386759196], [-2.9702454257945443, 50.754528586096555], [-2.9755119165979877, 50.75604035870472], [-2.980593632643605, 50.76011313069145]]]}}, {"type": "Feature", "properties": {"type": "postcode-cell", "postcode": "DT7 3XB", "postcodes": ["DT7 3XB"]}, "geometry": {"type": "Polygon", "coordinates": [[[-2.975596861754149, 50.747133322188546], [-2.9723291344311695, 50.75079018455948], [-2.9671256836324393, 50.74932517046132], [-2.969952896518273, 50.74729435555927], [-2.9717276843185214, 50.746742332933536], [-2.9747996334522906, 50.746886124427256], [-2.975596861754149, 50.747133322188546]]]}}, {"type": "Feature", "properties": {"type": "postcode-cell", "postcode": "DT7 3SH", "postcodes": ["DT7 3SH"]}, "geometry": {"type": "Polygon", "coordinates": [[[-2.9712884132432476, 50.741910060231845], [-2.9685344975764956, 50.74170131317018], [-2.966873830615227, 50.739424295124515], [-2.972160790895369, 50.73702685482742], [-2.973463292581902, 50.73712066978175], [-2.974516362235841, 50.739886297606915], [-2.9712884132432476, 50.741910060231845]]]}}, {"type": "Feature", "properties": {"type": "postcode-cell", "postcode": "DT7 3SW", "postcodes": ["DT7 3SW"]}, "geometry": {"type": "Polygon", "coordinates": [[[-2.967414997433282, 50.731899086556616], [-2.965700054059129, 50.72934859256712], [-2.9694626345173347, 50.72634118733446], [-2.9757573452123514, 50.73034260578552], [-2.967414997433282, 50.731899086556616]]]}}, {"type": "Feature", "properties": {"type": "postcode-cell", "postcode": "DT7 3SQ", "postcodes": ["DT7 3SQ"]}, "geometry": {"type": "Polygon", "coordinates": [[[-2.972160790895369, 50.73702685482742], [-2.966873830615227, 50.739424295124515], [-2.965528333745926, 50.73912977401801], [-2.9643236009489486, 50.73795126873482], [-2.9642246935458427, 50.73738388023135], [-2.9673334015913877, 50.734415114497345], [-2.972160790895369, 50.73702685482742]]]}}, {"type": "Feature", "properties": {"type": "postcode-cell", "postcode": "DT7 3XE", "postcodes": ["DT7 3XE"]}, "geometry": {"type": "Polygon", "coordinates": [[[-2.9747996334522906, 50.746886124427256], [-2.9717276843185214, 50.746742332933536], [-2.969504962541028, 50.745691217927195], [-2.9672210368589367, 50.74276823706132], [-2.9685344975764956, 50.74170131317018], [-2.9712884132432476, 50.741910060231845], [-2.9747996334522906, 50.746886124427256]]]}}, {"type": "Feature", "properties": {"type": "postcode-cell", "postcode": "DT7 3RP", "postcodes": ["DT7 3RP"]}, "geometry": {"type": "Polygon", "coordinates": [[[-2.9702037387204134, 50.75431928638089], [-2.9645969648931447, 50.750313504346835], [-2.9671256836324393, 50.74932517046132], [-2.9723291344311695, 50.75079018455948], [-2.9702037387204134, 50.75431928638089]]]}}, {"type": "Feature", "properties": {"type": "postcode-cell", "postcode": "EX13 5TB", "postcodes": ["EX13 5TB"]}, "geometry": {"type": "Polygon", "coordinates": [[[-2.966034413787356, 50.76177825625159], [-2.9651899893800886, 50.761509994782564], [-2.9605999893776933, 50.760769994782066], [-2.9603280227044846, 50.7607907156259], [-2.9608738282678813, 50.7595606303866], [-2.966135149720425, 50.75820774559793], [-2.967070874494525, 50.76045648169462], [-2.966034413787356, 50.76177825625159]]]}}, {"type": "Feature", "properties": {"type": "postcode-cell", "postcode": "DT7 3RJ", "postcodes": ["DT7 3RJ"]}, "geometry": {"type": "Polygon", "coordinates": [[[-2.969084801414216, 50.72527736227963], [-2.962071787479078, 50.72678144023486], [-2.9580502276765324, 50.72503508769655], [-2.964448469378958, 50.719798008771825], [-2.9702406744617775, 50.721663827086104], [-2.969084801414216, 50.72527736227963]]]}}, {"type": "Feature", "properties": {"type": "postcode-cell", "postcode": "DT7 3SR", "postcodes": ["DT7 3SR"]}, "geometry": {"type": "Polygon", "coordinates": [[[-2.9694626345173347, 50.72634118733446], [-2.965700054059129, 50.72934859256712], [-2.9635640427476666, 50.72848240140796], [-2.962071787479078, 50.72678144023486], [-2.969084801414216, 50.72527736227963], [-2.9694626345173347, 50.72634118733446]]]}}, {"type": "Feature", "properties": {"type": "postcode-cell", "postcode": "DT7 3XA", "postcodes": ["DT7 3XA"]}, "geometry": {"type": "Polygon", "coordinates": [[[-2.9672210368589367, 50.74276823706132], [-2.96346606325187, 50.74367328189202], [-2.9610526651444355, 50.74191951714862], [-2.965528333745926, 50.73912977401801], [-2.966873830615227, 50.739424295124515], [-2.9685344975764956, 50.74170131317018], [-2.9672210368589367, 50.74276823706132]]]}}, {"type": "Feature", "properties": {"type": "postcode-cell", "postcode": "DT7 3RW", "postcodes": ["DT7 3RW"]}, "geometry": {"type": "Polygon", "coordinates": [[[-2.9702454257945443, 50.754528586096555], [-2.9664687601167556, 50.756251386759196], [-2.9561767945097226, 50.75436959952295], [-2.9560630787415962, 50.75397995847092], [-2.9625131853898354, 50.749820062639735], [-2.9645969648931447, 50.750313504346835], [-2.9702037387204134, 50.75431928638089], [-2.9702454257945443, 50.754528586096555]]]}}, {"type": "Feature", "properties": {"type": "postcode-cell", "postcode": "DT7 3XL", "postcodes": ["DT7 3XL"]}, "geometry": {"type": "Polygon", "coordinates": [[[-2.9717276843185214, 50.746742332933536], [-2.969952896518273, 50.74729435555927], [-2.963997450764634, 50.74720646342381], [-2.967793718467129, 50.74558591170668], [-2.969504962541028, 50.745691217927195], [-2.9717276843185214, 50.746742332933536]]]}}, {"type": "Feature", "properties": {"type": "postcode-cell", "postcode": "DT7 3XF", "postcodes": ["DT7 3XF"]}, "geometry": {"type": "Polygon", "coordinates": [[[-2.9671256836324393, 50.74932517046132], [-2.9645969648931447, 50.750313504346835], [-2.9625131853898354, 50.749820062639735], [-2.961891362703304, 50.7473727642149], [-2.963997450764634, 50.74720646342381], [-2.969952896518273, 50.74729435555927], [-2.9671256836324393, 50.74932517046132]]]}}, {"type": "Feature", "properties": {"type": "postcode-cell", "postcode": "DT7 3XD", "postcodes": ["DT7 3XD"]}, "geometry": {"type": "Polygon", "coordinates": [[[-2.9633782098173933, 50.74451964013294], [-2.96346606325187, 50.74367328189202], [-2.9672210368589367, 50.74276823706132], [-2.969504962541028, 50.745691217927195], [-2.967793718467129, 50.74558591170668], [-2.9633782098173933, 50.74451964013294]]]}}, {"type": "Feature", "properties": {"type": "postcode-cell", "postcode": "DT7 3UZ", "postcodes": ["DT7 3UZ"]}, "geometry": {"type": "Polygon", "coordinates": [[[-2.967793718467129, 50.74558591170668], [-2.963997450764634, 50.74720646342381], [-2.961891362703304, 50.7473727642149], [-2.9617527027213835, 50.74721982117121], [-2.9633782098173933, 50.74451964013294], [-2.967793718467129, 50.74558591170668]]]}}, {"type": "Feature", "properties": {"type": "postcode-cell", "postcode": "DT7 3SU", "postcodes": ["DT7 3SU"]}, "geometry": {"type": "Polygon", "coordinates": [[[-2.9673334015913877, 50.734415114497345], [-2.9642246935458427, 50.73738388023135], [-2.961207288433644, 50.73604225251312], [-2.9611934844048022, 50.73601645639454], [-2.9614476040655484, 50.735609680990166], [-2.9623744681182345, 50.73482089229372], [-2.967303751335603, 50.734344658071855], [-2.9673334015913877, 50.734415114497345]]]}}, {"type": "Feature", "properties": {"type": "postcode-cell", "postcode": "DT7 3SG", "postcodes": ["DT7 3SG"]}, "geometry": {"type": "Polygon", "coordinates": [[[-2.967303751335603, 50.734344658071855], [-2.9623744681182345, 50.73482089229372], [-2.9621056469088067, 50.73416886191282], [-2.965655045581081, 50.732107757352104], [-2.9672860984848595, 50.73202753095022], [-2.967303751335603, 50.734344658071855]]]}}, {"type": "Feature", "properties": {"type": "postcode-cell", "postcode": "DT7 3RR", "postcodes": ["DT7 3RR"]}, "geometry": {"type": "Polygon", "coordinates": [[[-2.961891362703304, 50.7473727642149], [-2.9625131853898354, 50.749820062639735], [-2.9560630787415962, 50.75397995847092], [-2.9500393354300996, 50.749866820291885], [-2.9532304179269278, 50.74571036941405], [-2.9617527027213835, 50.74721982117121], [-2.961891362703304, 50.7473727642149]]]}}, {"type": "Feature", "properties": {"type": "postcode-cell", "postcode": "DT7 3UT", "postcodes": ["DT7 3UT"]}, "geometry": {"type": "Polygon", "coordinates": [[[-2.962071787479078, 50.72678144023486], [-2.9635640427476666, 50.72848240140796], [-2.9620287403171224, 50.729444305947396], [-2.957364349104216, 50.729778985206295], [-2.9539019492863074, 50.72825056899908], [-2.9528457196445546, 50.72663434771869], [-2.952780892687687, 50.72609503820152], [-2.9580502276765324, 50.72503508769655], [-2.962071787479078, 50.72678144023486]]]}}, {"type": "Feature", "properties": {"type": "postcode-cell", "postcode": "DT7 3XG", "postcodes": ["DT7 3XG"]}, "geometry": {"type": "Polygon", "coordinates": [[[-2.965528333745926, 50.73912977401801], [-2.9610526651444355, 50.74191951714862], [-2.9581440842885574, 50.7414326435289], [-2.9581014860689128, 50.740110929319435], [-2.9612552381594117, 50.73851023907824], [-2.9643236009489486, 50.73795126873482], [-2.965528333745926, 50.73912977401801]]]}}, {"type": "Feature", "properties": {"type": "postcode-cell", "postcode": "DT7 3XQ", "postcodes": ["DT7 3XQ"]}, "geometry": {"type": "Polygon", "coordinates": [[[-2.9633782098173933, 50.74451964013294], [-2.9617527027213835, 50.74721982117121], [-2.9532304179269278, 50.74571036941405], [-2.9528403107748624, 50.74383558980166], [-2.9581440842885574, 50.7414326435289], [-2.9610526651444355, 50.74191951714862], [-2.96346606325187, 50.74367328189202], [-2.9633782098173933, 50.74451964013294]]]}}, {"type": "Feature", "properties": {"type": "postcode-cell", "postcode": "DT7 3SS", "postcodes": ["DT7 3SS"]}, "geometry": {"type": "Polygon", "coordinates": [[[-2.9672860984848595, 50.73202753095022], [-2.965655045581081, 50.732107757352104], [-2.960973418739025, 50.73195049775257], [-2.9608354820267557, 50.731877337994206], [-2.9620287403171224, 50.729444305947396], [-2.9635640427476666, 50.72848240140796], [-2.965700054059129, 50.72934859256712], [-2.967414997433282, 50.731899086556616], [-2.9672860984848595, 50.73202753095022]]]}}, {"type": "Feature", "properties": {"type": "postcode-cell", "postcode": "DT7 3XN", "postcodes": ["DT7 3XN"]}, "geometry": {"type": "Polygon", "coordinates": [[[-2.9643236009489486, 50.73795126873482], [-2.9612552381594117, 50.73851023907824], [-2.9598916914423525, 50.737090580821366], [-2.9603255283916847, 50.73669534659472], [-2.961207288433644, 50.73604225251312], [-2.9642246935458427, 50.73738388023135], [-2.9643236009489486, 50.73795126873482]]]}}, {"type": "Feature", "properties": {"type": "postcode-cell", "postcode": "DT7 3SY", "postcodes": ["DT7 3SY"]}, "geometry": {"type": "Polygon", "coordinates": [[[-2.9623744681182345, 50.73482089229372], [-2.9614476040655484, 50.735609680990166], [-2.9601860463856866, 50.7336987962223], [-2.960657468139878, 50.73331397896121], [-2.9621056469088067, 50.73416886191282], [-2.9623744681182345, 50.73482089229372]]]}}, {"type": "Feature", "properties": {"type": "postcode-cell", "postcode": "DT7 3SF", "postcodes": ["DT7 3SF"]}, "geometry": {"type": "Polygon", "coordinates": [[[-2.9621056469088067, 50.73416886191282], [-2.960657468139878, 50.73331397896121], [-2.960973418739025, 50.73195049775257], [-2.965655045581081, 50.732107757352104], [-2.9621056469088067, 50.73416886191282]]]}}, {"type": "Feature", "properties": {"type": "postcode-cell", "postcode": "DT7 3UU", "postcodes": ["DT7 3UU"]}, "geometry": {"type": "Polygon", "coordinates": [[[-2.960973418739025, 50.73195049775257], [-2.960657468139878, 50.73331397896121], [-2.9601860463856866, 50.7336987962223], [-2.9598236689821578, 50.73384028713054], [-2.9585255857927115, 50.73395761406209], [-2.9579622943158146, 50.7337713484148], [-2.957392683655752, 50.73290787850401], [-2.960053553762448, 50.73170567333], [-2.9608354820267557, 50.731877337994206], [-2.960973418739025, 50.73195049775257]]]}}, {"type": "Feature", "properties": {"type": "postcode-cell", "postcode": "EX13 5TA", "postcodes": ["EX13 5TA"]}, "geometry": {"type": "Polygon", "coordinates": [[[-2.955579678343886, 50.755257698082715], [-2.9608738282678813, 50.7595606303866], [-2.9603280227044846, 50.7607907156259], [-2.952589989372574, 50.76137999478269], [-2.9496099893710115, 50.76091999478237], [-2.9492619122091353, 50.76078987516632], [-2.955579678343886, 50.755257698082715]]]}}, {"type": "Feature", "properties": {"type": "postcode-cell", "postcode": "EX13 5TF", "postcodes": ["EX13 5TF"]}, "geometry": {"type": "Polygon", "coordinates": [[[-2.966135149720425, 50.75820774559793], [-2.9608738282678813, 50.7595606303866], [-2.955579678343886, 50.755257698082715], [-2.9561767945097226, 50.75436959952295], [-2.9664687601167556, 50.756251386759196], [-2.966135149720425, 50.75820774559793]]]}}, {"type": "Feature", "properties": {"type": "postcode-cell", "postcode": "DT7 3SE", "postcodes": ["DT7 3SE"]}, "geometry": {"type": "Polygon", "coordinates": [[[-2.9614476040655484, 50.735609680990166], [-2.9611934844048022, 50.73601645639454], [-2.9596899274927715, 50.735547490285725], [-2.9596123256871354, 50.73544358864769], [-2.9598236689821578, 50.73384028713054], [-2.9601860463856866, 50.7336987962223], [-2.9614476040655484, 50.735609680990166]]]}}, {"type": "Feature", "properties": {"type": "postcode-cell", "postcode": "DT7 3TG", "postcodes": ["DT7 3TG"]}, "geometry": {"type": "Polygon", "coordinates": [[[-2.957923391106517, 50.7350198404065], [-2.9581263961521884, 50.73487478548607], [-2.958516611380657, 50.73478531578293], [-2.9596123256871354, 50.73544358864769], [-2.9596899274927715, 50.735547490285725], [-2.9581738998794864, 50.73589690589136], [-2.9581446141133325, 50.73584349891934], [-2.957923391106517, 50.7350198404065]]]}}, {"type": "Feature", "properties": {"type": "postcode-cell", "postcode": "DT7 3TE", "postcodes": ["DT7 3TE"]}, "geometry": {"type": "Polygon", "coordinates": [[[-2.9581446141133325, 50.73584349891934], [-2.957406694157297, 50.735122156961395], [-2.957923391106517, 50.7350198404065], [-2.9581446141133325, 50.73584349891934]]]}}, {"type": "Feature", "properties": {"type": "postcode-cell", "postcode": "DT7 3XJ", "postcodes": ["DT7 3XJ"]}, "geometry": {"type": "Polygon", "coordinates": [[[-2.9581014860689128, 50.740110929319435], [-2.957641672382821, 50.73942688172385], [-2.957336215818646, 50.73820031664451], [-2.957523846136206, 50.73794147406363], [-2.9598916914423525, 50.737090580821366], [-2.9612552381594117, 50.73851023907824], [-2.9581014860689128, 50.740110929319435]]]}}, {"type": "Feature", "properties": {"type": "postcode-cell", "postcode": "DT7 3UY", "postcodes": ["DT7 3UY"]}, "geometry": {"type": "Polygon", "coordinates": [[[-2.961207288433644, 50.73604225251312], [-2.9603255283916847, 50.73669534659472], [-2.9576640883162932, 50.736315401746204], [-2.9579398860398993, 50.73602757714306], [-2.9581738998794864, 50.73589690589136], [-2.9596899274927715, 50.735547490285725], [-2.9611934844048022, 50.73601645639454], [-2.961207288433644, 50.73604225251312]]]}}, {"type": "Feature", "properties": {"type": "postcode-cell", "postcode": "DT7 3ST", "postcodes": ["DT7 3ST"]}, "geometry": {"type": "Polygon", "coordinates": [[[-2.9608354820267557, 50.731877337994206], [-2.960053553762448, 50.73170567333], [-2.957364349104216, 50.729778985206295], [-2.9620287403171224, 50.729444305947396], [-2.9608354820267557, 50.731877337994206]]]}}, {"type": "Feature", "properties": {"type": "postcode-cell", "postcode": "DT7 3RH", "postcodes": ["DT7 3RH"]}, "geometry": {"type": "Polygon", "coordinates": [[[-2.964448469378958, 50.719798008771825], [-2.9580502276765324, 50.72503508769655], [-2.952780892687687, 50.72609503820152], [-2.952599989390877, 50.724589994754226], [-2.948729989390218, 50.72125999475173], [-2.9487099893909483, 50.71976999475058], [-2.9479299893911532, 50.71841999474956], [-2.9476599893910755, 50.71824999474943], [-2.9477199893911177, 50.71823999474941], [-2.951749989394666, 50.71595999474759], [-2.953169989396225, 50.71453999474646], [-2.955069989397707, 50.71384999474589], [-2.9582599893999926, 50.71309999474526], [-2.96004262425052, 50.71308305181884], [-2.964448469378958, 50.719798008771825]]]}}, {"type": "Feature", "properties": {"type": "postcode-cell", "postcode": "DT7 3UX", "postcodes": ["DT7 3UX"]}, "geometry": {"type": "Polygon", "coordinates": [[[-2.9596123256871354, 50.73544358864769], [-2.958516611380657, 50.73478531578293], [-2.9585255857927115, 50.73395761406209], [-2.9598236689821578, 50.73384028713054], [-2.9596123256871354, 50.73544358864769]]]}}, {"type": "Feature", "properties": {"type": "postcode-cell", "postcode": "DT7 3UJ", "postcodes": ["DT7 3UJ"]}, "geometry": {"type": "Polygon", "coordinates": [[[-2.9598916914423525, 50.737090580821366], [-2.957523846136206, 50.73794147406363], [-2.95743329676636, 50.7372727464229], [-2.9576294307696043, 50.73634304015095], [-2.9576640883162932, 50.736315401746204], [-2.9603255283916847, 50.73669534659472], [-2.9598916914423525, 50.737090580821366]]]}}, {"type": "Feature", "properties": {"type": "postcode-cell", "postcode": "DT7 3RN", "postcodes": ["DT7 3RN"]}, "geometry": {"type": "Polygon", "coordinates": [[[-2.942905697675558, 50.750425307397826], [-2.9500393354300996, 50.749866820291885], [-2.9560630787415962, 50.75397995847092], [-2.9561767945097226, 50.75436959952295], [-2.955579678343886, 50.755257698082715], [-2.9492619122091353, 50.76078987516632], [-2.9394199893667885, 50.757109994779604], [-2.9351399893656738, 50.75418999477743], [-2.936509989367093, 50.75298999477647], [-2.9396799893695666, 50.75183999477553], [-2.9400125928986602, 50.75111127623842], [-2.942905697675558, 50.750425307397826]]]}}, {"type": "Feature", "properties": {"type": "postcode-cell", "postcode": "DT7 3RS", "postcodes": ["DT7 3RS"]}, "geometry": {"type": "Polygon", "coordinates": [[[-2.9581014860689128, 50.740110929319435], [-2.9581440842885574, 50.7414326435289], [-2.9528403107748624, 50.74383558980166], [-2.9508895075592196, 50.74279406730803], [-2.949657093460273, 50.74190937850243], [-2.952280146336365, 50.738683039818866], [-2.957641672382821, 50.73942688172385], [-2.9581014860689128, 50.740110929319435]]]}}, {"type": "Feature", "properties": {"type": "postcode-cell", "postcode": "DT7 3UR", "postcodes": ["DT7 3UR"]}, "geometry": {"type": "Polygon", "coordinates": [[[-2.957392683655752, 50.73290787850401], [-2.9567636541053273, 50.73282099837679], [-2.9537958364023824, 50.73103437395977], [-2.9539019492863074, 50.72825056899908], [-2.957364349104216, 50.729778985206295], [-2.960053553762448, 50.73170567333], [-2.957392683655752, 50.73290787850401]]]}}, {"type": "Feature", "properties": {"type": "postcode-cell", "postcode": "DT7 3TF", "postcodes": ["DT7 3TF"]}, "geometry": {"type": "Polygon", "coordinates": [[[-2.9579398860398993, 50.73602757714306], [-2.9569260313446013, 50.735297395579515], [-2.9573549797675946, 50.73511980353539], [-2.957406694157297, 50.735122156961395], [-2.9581446141133325, 50.73584349891934], [-2.9581738998794864, 50.73589690589136], [-2.9579398860398993, 50.73602757714306]]]}}, {"type": "Feature", "properties": {"type": "postcode-cell", "postcode": "DT7 3TR", "postcodes": ["DT7 3TR"]}, "geometry": {"type": "Polygon", "coordinates": [[[-2.95743329676636, 50.7372727464229], [-2.9552760519178722, 50.73607226241711], [-2.955914065633466, 50.73574714225564], [-2.9576294307696043, 50.73634304015095], [-2.95743329676636, 50.7372727464229]]]}}, {"type": "Feature", "properties": {"type": "postcode-cell", "postcode": "DT7 3RL", "postcodes": ["DT7 3RL"]}, "geometry": {"type": "Polygon", "coordinates": [[[-2.9500393354300996, 50.749866820291885], [-2.942905697675558, 50.750425307397826], [-2.9442756910098713, 50.745696768682045], [-2.9508895075592196, 50.74279406730803], [-2.9528403107748624, 50.74383558980166], [-2.9532304179269278, 50.74571036941405], [-2.9500393354300996, 50.749866820291885]]]}}, {"type": "Feature", "properties": {"type": "postcode-cell", "postcode": "DT7 3TS", "postcodes": ["DT7 3TS"]}, "geometry": {"type": "Polygon", "coordinates": [[[-2.9576640883162932, 50.736315401746204], [-2.9576294307696043, 50.73634304015095], [-2.955914065633466, 50.73574714225564], [-2.9560723546931866, 50.735395176592135], [-2.956219369666094, 50.73529237971504], [-2.9569260313446013, 50.735297395579515], [-2.9579398860398993, 50.73602757714306], [-2.9576640883162932, 50.736315401746204]]]}}, {"type": "Feature", "properties": {"type": "postcode-cell", "postcode": "DT7 3SD", "postcodes": ["DT7 3SD"]}, "geometry": {"type": "Polygon", "coordinates": [[[-2.958516611380657, 50.73478531578293], [-2.9581263961521884, 50.73487478548607], [-2.9571678819884863, 50.73451586253908], [-2.9570009834778466, 50.734366182533016], [-2.9579622943158146, 50.7337713484148], [-2.9585255857927115, 50.73395761406209], [-2.958516611380657, 50.73478531578293]]]}}, {"type": "Feature", "properties": {"type": "postcode-cell", "postcode": "DT7 3TD", "postcodes": ["DT7 3TD"]}, "geometry": {"type": "Polygon", "coordinates": [[[-2.9579622943158146, 50.7337713484148], [-2.9570009834778466, 50.734366182533016], [-2.956358726821234, 50.73443823059519], [-2.9558889538470496, 50.73421929523261], [-2.955551963147184, 50.734002316213825], [-2.9567636541053273, 50.73282099837679], [-2.957392683655752, 50.73290787850401], [-2.9579622943158146, 50.7337713484148]]]}}, {"type": "Feature", "properties": {"type": "postcode-cell", "postcode": "DT7 3SB", "postcodes": ["DT7 3SB"]}, "geometry": {"type": "Polygon", "coordinates": [[[-2.957923391106517, 50.7350198404065], [-2.957406694157297, 50.735122156961395], [-2.9573549797675946, 50.73511980353539], [-2.9571678819884863, 50.73451586253908], [-2.9581263961521884, 50.73487478548607], [-2.957923391106517, 50.7350198404065]]]}}, {"type": "Feature", "properties": {"type": "postcode-cell", "postcode": "DT7 3SA", "postcodes": ["DT7 3SA"]}, "geometry": {"type": "Polygon", "coordinates": [[[-2.9573549797675946, 50.73511980353539], [-2.9569260313446013, 50.735297395579515], [-2.956219369666094, 50.73529237971504], [-2.956358726821234, 50.73443823059519], [-2.9570009834778466, 50.734366182533016], [-2.9571678819884863, 50.73451586253908], [-2.9573549797675946, 50.73511980353539]]]}}, {"type": "Feature", "properties": {"type": "postcode-cell", "postcode": "DT7 3UP", "postcodes": ["DT7 3UP"]}, "geometry": {"type": "Polygon", "coordinates": [[[-2.955551963147184, 50.734002316213825], [-2.9546656498951496, 50.733989004119486], [-2.9539995153989396, 50.73370880449131], [-2.9530594423348013, 50.732541018496256], [-2.953111390111574, 50.731994297253586], [-2.9537958364023824, 50.73103437395977], [-2.9567636541053273, 50.73282099837679], [-2.955551963147184, 50.734002316213825]]]}}, {"type": "Feature", "properties": {"type": "postcode-cell", "postcode": "DT7 3EG", "postcodes": ["DT7 3EG"]}, "geometry": {"type": "Polygon", "coordinates": [[[-2.9560723546931866, 50.735395176592135], [-2.955205082601026, 50.73503137548538], [-2.9558889538470496, 50.73421929523261], [-2.956358726821234, 50.73443823059519], [-2.956219369666094, 50.73529237971504], [-2.9560723546931866, 50.735395176592135]]]}}, {"type": "Feature", "properties": {"type": "postcode-cell", "postcode": "DT7 3TT", "postcodes": ["DT7 3TT"]}, "geometry": {"type": "Polygon", "coordinates": [[[-2.957523846136206, 50.73794147406363], [-2.957336215818646, 50.73820031664451], [-2.9553838991552217, 50.73764199820646], [-2.954494899447475, 50.73661410410827], [-2.954607667437793, 50.73623058398105], [-2.9552760519178722, 50.73607226241711], [-2.95743329676636, 50.7372727464229], [-2.957523846136206, 50.73794147406363]]]}}, {"type": "Feature", "properties": {"type": "postcode-cell", "postcode": "DT7 3NF", "postcodes": ["DT7 3NF"]}, "geometry": {"type": "Polygon", "coordinates": [[[-2.9537958364023824, 50.73103437395977], [-2.953111390111574, 50.731994297253586], [-2.949877734252577, 50.73251511625785], [-2.94947519040729, 50.73244805477504], [-2.9495999893852147, 50.732349994760256], [-2.953069989389214, 50.728499994757236], [-2.9528457196445546, 50.72663434771869], [-2.9539019492863074, 50.72825056899908], [-2.9537958364023824, 50.73103437395977]]]}}, {"type": "Feature", "properties": {"type": "postcode-cell", "postcode": "DT7 3UQ", "postcodes": ["DT7 3UQ"]}, "geometry": {"type": "Polygon", "coordinates": [[[-2.957641672382821, 50.73942688172385], [-2.952280146336365, 50.738683039818866], [-2.9523147534442087, 50.738513559484566], [-2.9553838991552217, 50.73764199820646], [-2.957336215818646, 50.73820031664451], [-2.957641672382821, 50.73942688172385]]]}}, {"type": "Feature", "properties": {"type": "postcode-cell", "postcode": "DT7 3TB", "postcodes": ["DT7 3TB"]}, "geometry": {"type": "Polygon", "coordinates": [[[-2.955914065633466, 50.73574714225564], [-2.9552760519178722, 50.73607226241711], [-2.954607667437793, 50.73623058398105], [-2.9536693331343673, 50.7355634988169], [-2.954535696582631, 50.73493109467672], [-2.955205082601026, 50.73503137548538], [-2.9560723546931866, 50.735395176592135], [-2.955914065633466, 50.73574714225564]]]}}, {"type": "Feature", "properties": {"type": "postcode-cell", "postcode": "DT7 3TQ", "postcodes": ["DT7 3TQ"]}, "geometry": {"type": "Polygon", "coordinates": [[[-2.955205082601026, 50.73503137548538], [-2.954535696582631, 50.73493109467672], [-2.9546656498951496, 50.733989004119486], [-2.955551963147184, 50.734002316213825], [-2.9558889538470496, 50.73421929523261], [-2.955205082601026, 50.73503137548538]]]}}, {"type": "Feature", "properties": {"type": "postcode-cell", "postcode": "DT7 3TN", "postcodes": ["DT7 3TN"]}, "geometry": {"type": "Polygon", "coordinates": [[[-2.9536693331343673, 50.7355634988169], [-2.9530815208124994, 50.735462911913984], [-2.952510057443518, 50.73508399491729], [-2.9539995153989396, 50.73370880449131], [-2.9546656498951496, 50.733989004119486], [-2.954535696582631, 50.73493109467672], [-2.9536693331343673, 50.7355634988169]]]}}, {"type": "Feature", "properties": {"type": "postcode-cell", "postcode": "DT7 3TJ", "postcodes": ["DT7 3TJ"]}, "geometry": {"type": "Polygon", "coordinates": [[[-2.9517787798038775, 50.7335168803378], [-2.9504804650732086, 50.733535498416956], [-2.9501920224311795, 50.733398881320994], [-2.949877734252577, 50.73251511625785], [-2.953111390111574, 50.731994297253586], [-2.9530594423348013, 50.732541018496256], [-2.9517787798038775, 50.7335168803378]]]}}, {"type": "Feature", "properties": {"type": "postcode-cell", "postcode": "DT7 3TH", "postcodes": ["DT7 3TH"]}, "geometry": {"type": "Polygon", "coordinates": [[[-2.9530594423348013, 50.732541018496256], [-2.9539995153989396, 50.73370880449131], [-2.952510057443518, 50.73508399491729], [-2.951522628750161, 50.734891241181465], [-2.9517787798038775, 50.7335168803378], [-2.9530594423348013, 50.732541018496256]]]}}, {"type": "Feature", "properties": {"type": "postcode-cell", "postcode": "DT7 3UG", "postcodes": ["DT7 3UG"]}, "geometry": {"type": "Polygon", "coordinates": [[[-2.954494899447475, 50.73661410410827], [-2.953927973209217, 50.73679021021553], [-2.9519653770843814, 50.736709233715736], [-2.9530815208124994, 50.735462911913984], [-2.9536693331343673, 50.7355634988169], [-2.954607667437793, 50.73623058398105], [-2.954494899447475, 50.73661410410827]]]}}, {"type": "Feature", "properties": {"type": "postcode-cell", "postcode": "DT7 3UH", "postcodes": ["DT7 3UH"]}, "geometry": {"type": "Polygon", "coordinates": [[[-2.9553838991552217, 50.73764199820646], [-2.9523147534442087, 50.738513559484566], [-2.952310088552628, 50.73850291773601], [-2.953927973209217, 50.73679021021553], [-2.954494899447475, 50.73661410410827], [-2.9553838991552217, 50.73764199820646]]]}}, {"type": "Feature", "properties": {"type": "postcode-cell", "postcode": "DT7 3TX", "postcodes": ["DT7 3TX"]}, "geometry": {"type": "Polygon", "coordinates": [[[-2.952280146336365, 50.738683039818866], [-2.949657093460273, 50.74190937850243], [-2.943370243608547, 50.74003631382478], [-2.944977553904925, 50.738473748125315], [-2.949102561433526, 50.736439526839575], [-2.951118946041922, 50.737077312619455], [-2.952310088552628, 50.73850291773601], [-2.9523147534442087, 50.738513559484566], [-2.952280146336365, 50.738683039818866]]]}}, {"type": "Feature", "properties": {"type": "postcode-cell", "postcode": "DT7 3TU", "postcodes": ["DT7 3TU"]}, "geometry": {"type": "Polygon", "coordinates": [[[-2.952310088552628, 50.73850291773601], [-2.951118946041922, 50.737077312619455], [-2.9519653770843814, 50.736709233715736], [-2.953927973209217, 50.73679021021553], [-2.952310088552628, 50.73850291773601]]]}}, {"type": "Feature", "properties": {"type": "postcode-cell", "postcode": "DT7 3TZ", "postcodes": ["DT7 3TZ"]}, "geometry": {"type": "Polygon", "coordinates": [[[-2.9519653770843814, 50.736709233715736], [-2.951118946041922, 50.737077312619455], [-2.949102561433526, 50.736439526839575], [-2.9493610600394797, 50.73538064811896], [-2.9494199411282995, 50.73535931461384], [-2.951522628750161, 50.734891241181465], [-2.952510057443518, 50.73508399491729], [-2.9530815208124994, 50.735462911913984], [-2.9519653770843814, 50.736709233715736]]]}}, {"type": "Feature", "properties": {"type": "postcode-cell", "postcode": "DT7 3TW", "postcodes": ["DT7 3TW"]}, "geometry": {"type": "Polygon", "coordinates": [[[-2.951522628750161, 50.734891241181465], [-2.9494199411282995, 50.73535931461384], [-2.9504804650732086, 50.733535498416956], [-2.9517787798038775, 50.7335168803378], [-2.951522628750161, 50.734891241181465]]]}}, {"type": "Feature", "properties": {"type": "postcode-cell", "postcode": "DT7 3TL", "postcodes": ["DT7 3TL"]}, "geometry": {"type": "Polygon", "coordinates": [[[-2.9494199411282995, 50.73535931461384], [-2.9493610600394797, 50.73538064811896], [-2.9475987820413554, 50.73406850198729], [-2.9476492371077234, 50.73398817090381], [-2.9501920224311795, 50.733398881320994], [-2.9504804650732086, 50.733535498416956], [-2.9494199411282995, 50.73535931461384]]]}}, {"type": "Feature", "properties": {"type": "postcode-cell", "postcode": "DT7 3UA", "postcodes": ["DT7 3UA"]}, "geometry": {"type": "Polygon", "coordinates": [[[-2.9493610600394797, 50.73538064811896], [-2.949102561433526, 50.736439526839575], [-2.944977553904925, 50.738473748125315], [-2.9456499893801253, 50.73781999476457], [-2.9465899893809517, 50.73728999476415], [-2.946619989381686, 50.73584999476304], [-2.9463099893817954, 50.73525999476257], [-2.9458499893815597, 50.73517999476254], [-2.9470199893823543, 50.73498999476236], [-2.9475987820413554, 50.73406850198729], [-2.9493610600394797, 50.73538064811896]]]}}, {"type": "Feature", "properties": {"type": "postcode-cell", "postcode": "DT7 3TP", "postcodes": ["DT7 3TP"]}, "geometry": {"type": "Polygon", "coordinates": [[[-2.9501920224311795, 50.733398881320994], [-2.9476492371077234, 50.73398817090381], [-2.9477799893834122, 50.733779994761406], [-2.94947519040729, 50.73244805477504], [-2.949877734252577, 50.73251511625785], [-2.9501920224311795, 50.733398881320994]]]}}, {"type": "Feature", "properties": {"type": "postcode-cell", "postcode": "DT7 3UF", "postcodes": ["DT7 3UF"]}, "geometry": {"type": "Polygon", "coordinates": [[[-2.9442756910098713, 50.745696768682045], [-2.942905697675558, 50.750425307397826], [-2.9400125928986602, 50.75111127623842], [-2.940569989371071, 50.74988999477401], [-2.940589989371706, 50.74863999477305], [-2.9382499893716303, 50.74596999477101], [-2.937859989372329, 50.74409999476956], [-2.9388799893733135, 50.743349994768984], [-2.9406299893746857, 50.74269999476844], [-2.942275067558989, 50.74110093021727], [-2.9442756910098713, 50.745696768682045]]]}}, {"type": "Feature", "properties": {"type": "postcode-cell", "postcode": "DT7 3TY", "postcodes": ["DT7 3TY"]}, "geometry": {"type": "Polygon", "coordinates": [[[-2.9508895075592196, 50.74279406730803], [-2.9442756910098713, 50.745696768682045], [-2.942275067558989, 50.74110093021727], [-2.943370243608547, 50.74003631382478], [-2.949657093460273, 50.74190937850243], [-2.9508895075592196, 50.74279406730803]]]}}]}