{"type": "FeatureCollection", "features": [{"type": "Feature", "properties": {"type": "ward-outline", "name": "Way"}, "geometry": {"type": "Polygon", "coordinates": [[[-3.62403, 50.92183], [-3.62355, 50.91616], [-3.62255, 50.91596], [-3.62302, 50.91547], [-3.62331, 50.9138], [-3.62002, 50.91371], [-3.61579, 50.91412], [-3.61503, 50.91375], [-3.61296, 50.91376], [-3.60967, 50.91288], [-3.60809, 50.9129], [-3.60317, 50.9145], [-3.59863, 50.91421], [-3.59721, 50.91266], [-3.59703, 50.9117], [-3.59786, 50.91012], [-3.59746, 50.90934], [-3.59628, 50.90864], [-3.59446, 50.90854], [-3.59208, 50.90721], [-3.59104, 50.90504], [-3.58875, 50.90427], [-3.58617, 50.90456], [-3.58461, 50.90418], [-3.58384, 50.90443], [-3.58304, 50.9042], [-3.5825, 50.90436], [-3.5823, 50.90399], [-3.58089, 50.90383], [-3.57996, 50.90376], [-3.57984, 50.9041], [-3.57898, 50.90393], [-3.5767, 50.90315], [-3.57617, 50.90255], [-3.57527, 50.90256], [-3.57498, 50.90209], [-3.57188, 50.90133], [-3.57017, 50.90002], [-3.56997, 50.899], [-3.5695, 50.89872], [-3.5693, 50.89896], [-3.56883, 50.89831], [-3.56791, 50.89836], [-3.5675, 50.89795], [-3.5659, 50.89778], [-3.56589, 50.89752], [-3.56325, 50.89746], [-3.56274, 50.89731], [-3.56295, 50.89699], [-3.56052, 50.89583], [-3.56038, 50.89536], [-3.55988, 50.89542], [-3.55891, 50.89492], [-3.55841, 50.89513], [-3.55735, 50.8945], [-3.55582, 50.89447], [-3.55516, 50.89402], [-3.55066, 50.89325], [-3.55077, 50.89303], [-3.5498, 50.89267], [-3.54972, 50.89219], [-3.54913, 50.8919], [-3.54939, 50.89039], [-3.54908, 50.89035], [-3.54945, 50.89006], [-3.54853, 50.88992], [-3.54829, 50.88963], [-3.54861, 50.8894], [-3.54823, 50.88949], [-3.5471, 50.88867], [-3.5454, 50.88827], [-3.54476, 50.88772], [-3.54137, 50.88697], [-3.54104, 50.88632], [-3.54204, 50.88531], [-3.54416, 50.88594], [-3.54513, 50.88514], [-3.54554, 50.88524], [-3.5477, 50.88454], [-3.54878, 50.88466], [-3.55165, 50.88368], [-3.55436, 50.88354], [-3.55526, 50.8831], [-3.55607, 50.88329], [-3.55662, 50.88186], [-3.55745, 50.88138], [-3.56005, 50.88087], [-3.56096, 50.87965], [-3.56289, 50.87923], [-3.56397, 50.87941], [-3.5645, 50.87891], [-3.56447, 50.87746], [-3.56599, 50.87622], [-3.56968, 50.87531], [-3.57137, 50.8746], [-3.57202, 50.87377], [-3.57499, 50.87255], [-3.5733, 50.87154], [-3.57191, 50.87204], [-3.57253, 50.87087], [-3.56866, 50.86859], [-3.56874, 50.86677], [-3.5682, 50.86588], [-3.56801, 50.8638], [-3.56654, 50.86175], [-3.56541, 50.86115], [-3.56124, 50.86062], [-3.56083, 50.85996], [-3.55908, 50.85995], [-3.55786, 50.85907], [-3.55491, 50.85567], [-3.55631, 50.85516], [-3.55557, 50.85306], [-3.5575, 50.85388], [-3.55898, 50.85367], [-3.55832, 50.852], [-3.55931, 50.85166], [-3.55993, 50.84894], [-3.56069, 50.84861], [-3.56044, 50.84833], [-3.5614, 50.84845], [-3.56151, 50.84697], [-3.56252, 50.84472], [-3.56349, 50.84385], [-3.56344, 50.8429], [-3.56376, 50.8429], [-3.56538, 50.83962], [-3.56706, 50.83819], [-3.56832, 50.8376], [-3.56803, 50.83417], [-3.56728, 50.83342], [-3.57728, 50.83225], [-3.58101, 50.83274], [-3.59, 50.8332], [-3.5943, 50.83306], [-3.5971, 50.83262], [-3.5985, 50.83319], [-3.60009, 50.8334], [-3.60228, 50.83326], [-3.60184, 50.82971], [-3.60249, 50.8239], [-3.60793, 50.82455], [-3.60745, 50.82308], [-3.60755, 50.82102], [-3.60811, 50.82028], [-3.60766, 50.82011], [-3.6078, 50.81883], [-3.60979, 50.81743], [-3.61387, 50.81725], [-3.61464, 50.81691], [-3.61876, 50.81671], [-3.62003, 50.81712], [-3.6201, 50.8204], [-3.62082, 50.82268], [-3.62149, 50.82334], [-3.6193, 50.82366], [-3.61661, 50.83104], [-3.61902, 50.83074], [-3.62013, 50.83278], [-3.62145, 50.83318], [-3.62159, 50.8344], [-3.62278, 50.83546], [-3.62279, 50.83609], [-3.62414, 50.83584], [-3.62414, 50.83791], [-3.62743, 50.83743], [-3.62844, 50.83829], [-3.62855, 50.8388], [-3.62814, 50.8388], [-3.6279, 50.83934], [-3.62663, 50.84013], [-3.62909, 50.84057], [-3.63222, 50.83988], [-3.63572, 50.84004], [-3.63687, 50.84144], [-3.63671, 50.84185], [-3.63974, 50.84323], [-3.64235, 50.84401], [-3.64757, 50.84487], [-3.65083, 50.8463], [-3.65273, 50.8465], [-3.65841, 50.84786], [-3.66642, 50.84767], [-3.66995, 50.84806], [-3.66947, 50.84832], [-3.67031, 50.84864], [-3.66986, 50.84896], [-3.67014, 50.84905], [-3.66975, 50.84959], [-3.67011, 50.84962], [-3.66978, 50.85001], [-3.66892, 50.85025], [-3.6695, 50.85055], [-3.66907, 50.85078], [-3.66924, 50.85104], [-3.66849, 50.8511], [-3.66822, 50.8516], [-3.66871, 50.8522], [-3.66786, 50.85262], [-3.66718, 50.85254], [-3.66677, 50.8529], [-3.66739, 50.85299], [-3.66668, 50.85386], [-3.66595, 50.85371], [-3.66563, 50.85404], [-3.66594, 50.85428], [-3.66511, 50.85472], [-3.66539, 50.85492], [-3.66402, 50.8557], [-3.66446, 50.85593], [-3.6647, 50.85761], [-3.66408, 50.85775], [-3.66336, 50.85877], [-3.6625, 50.8592], [-3.66262, 50.85953], [-3.66144, 50.86034], [-3.66146, 50.86128], [-3.65987, 50.86244], [-3.66029, 50.86288], [-3.65976, 50.86322], [-3.66001, 50.86363], [-3.65941, 50.86431], [-3.65989, 50.86446], [-3.65972, 50.86526], [-3.66065, 50.86728], [-3.66019, 50.86799], [-3.65951, 50.86826], [-3.65763, 50.87127], [-3.65648, 50.87213], [-3.65612, 50.87323], [-3.65433, 50.87389], [-3.65091, 50.87382], [-3.64277, 50.87436], [-3.64233, 50.8746], [-3.63949, 50.87423], [-3.63571, 50.87451], [-3.63359, 50.87496], [-3.62942, 50.87512], [-3.6305, 50.87597], [-3.63181, 50.87789], [-3.63325, 50.87888], [-3.63288, 50.87971], [-3.63407, 50.8802], [-3.63371, 50.88108], [-3.63421, 50.88107], [-3.63521, 50.88377], [-3.6416, 50.88285], [-3.64107, 50.88413], [-3.64219, 50.88469], [-3.6424, 50.88619], [-3.64359, 50.88573], [-3.64513, 50.88614], [-3.64577, 50.88811], [-3.64573, 50.88997], [-3.64654, 50.89107], [-3.64688, 50.89568], [-3.65078, 50.89854], [-3.65137, 50.89952], [-3.65315, 50.90016], [-3.65322, 50.90071], [-3.65412, 50.90147], [-3.65451, 50.90227], [-3.6537, 50.90391], [-3.65403, 50.90512], [-3.65372, 50.90583], [-3.65476, 50.90717], [-3.65863, 50.9069], [-3.65905, 50.90715], [-3.6606, 50.90703], [-3.66149, 50.90752], [-3.66342, 50.90295], [-3.66385, 50.89897], [-3.6648, 50.89861], [-3.66449, 50.89441], [-3.6637, 50.89343], [-3.6669, 50.89283], [-3.67025, 50.89034], [-3.67221, 50.89088], [-3.67629, 50.89125], [-3.67862, 50.89191], [-3.67964, 50.89177], [-3.68164, 50.89208], [-3.68658, 50.89387], [-3.69131, 50.89649], [-3.69245, 50.89601], [-3.69301, 50.89454], [-3.69505, 50.89375], [-3.69795, 50.89314], [-3.69787, 50.89267], [-3.69858, 50.89229], [-3.69893, 50.89242], [-3.70032, 50.89127], [-3.70344, 50.89081], [-3.70376, 50.88996], [-3.70462, 50.88946], [-3.70464, 50.88859], [-3.70513, 50.88864], [-3.7059, 50.88801], [-3.70557, 50.88758], [-3.70758, 50.88755], [-3.71108, 50.88685], [-3.7109, 50.88736], [-3.7125, 50.88682], [-3.71216, 50.8865], [-3.71286, 50.88567], [-3.71269, 50.88485], [-3.71397, 50.884], [-3.71366, 50.88378], [-3.71618, 50.88296], [-3.71674, 50.88222], [-3.71745, 50.88233], [-3.71733, 50.88191], [-3.71902, 50.88194], [-3.71917, 50.88223], [-3.71991, 50.88162], [-3.72082, 50.8819], [-3.72125, 50.88168], [-3.72147, 50.88192], [-3.7217, 50.88158], [-3.72264, 50.88148], [-3.72333, 50.88195], [-3.72464, 50.88146], [-3.72547, 50.88165], [-3.72731, 50.88121], [-3.7274, 50.88152], [-3.7277, 50.88097], [-3.72898, 50.88107], [-3.72936, 50.8807], [-3.72985, 50.88097], [-3.72964, 50.88129], [-3.73023, 50.88133], [-3.73099, 50.88113], [-3.73095, 50.88067], [-3.7316, 50.88109], [-3.73229, 50.88047], [-3.73378, 50.88086], [-3.73439, 50.88045], [-3.73537, 50.88053], [-3.73687, 50.88002], [-3.73812, 50.88014], [-3.73929, 50.88087], [-3.74053, 50.88046], [-3.74036, 50.88007], [-3.74093, 50.88012], [-3.74181, 50.87916], [-3.74233, 50.87919], [-3.74311, 50.87869], [-3.74482, 50.87894], [-3.74511, 50.87874], [-3.74619, 50.87919], [-3.74652, 50.8789], [-3.74689, 50.87919], [-3.74882, 50.87843], [-3.74947, 50.87845], [-3.74974, 50.87933], [-3.74942, 50.88005], [-3.74993, 50.88103], [-3.74941, 50.88247], [-3.74478, 50.88564], [-3.74439, 50.88635], [-3.74273, 50.88691], [-3.74075, 50.88708], [-3.74033, 50.88743], [-3.74058, 50.88825], [-3.74264, 50.88882], [-3.74346, 50.88968], [-3.74481, 50.8903], [-3.73882, 50.89086], [-3.73545, 50.8901], [-3.73468, 50.89066], [-3.73373, 50.89228], [-3.73485, 50.89453], [-3.73491, 50.89561], [-3.73589, 50.89635], [-3.73574, 50.89853], [-3.73703, 50.90037], [-3.73702, 50.90112], [-3.73604, 50.90167], [-3.73624, 50.9026], [-3.73506, 50.90323], [-3.73449, 50.90508], [-3.73203, 50.9061], [-3.73152, 50.90708], [-3.7297, 50.90774], [-3.72924, 50.91018], [-3.72839, 50.90996], [-3.72806, 50.91076], [-3.72558, 50.90907], [-3.72562, 50.90974], [-3.72512, 50.90996], [-3.72216, 50.91019], [-3.72078, 50.91058], [-3.72035, 50.91027], [-3.7192, 50.9106], [-3.71708, 50.91052], [-3.71263, 50.91144], [-3.70846, 50.91139], [-3.70635, 50.91075], [-3.70348, 50.91101], [-3.69769, 50.91061], [-3.69853, 50.913], [-3.69303, 50.91424], [-3.68692, 50.91493], [-3.68109, 50.91679], [-3.67726, 50.91751], [-3.6767, 50.91804], [-3.67581, 50.91803], [-3.67366, 50.91897], [-3.6656, 50.92054], [-3.65851, 50.92055], [-3.65417, 50.92089], [-3.65012, 50.92165], [-3.64381, 50.92182], [-3.64292, 50.92125], [-3.64087, 50.918], [-3.6342, 50.91879], [-3.63257, 50.91988], [-3.62749, 50.91959], [-3.62536, 50.92155], [-3.62403, 50.92183]]]}}, {"type": "Feature", "properties": {"type": "postcode-cell", "postcode": "EX17 4TN", "postcodes": ["EX17 4TN"]}, "geometry": {"type": "Polygon", "coordinates": [[[-3.735669786504733, 50.88696540343169], [-3.7447082316350784, 50.8857706332315], [-3.7443899898096347, 50.886349994870336], [-3.7427299898082884, 50.886909994870784], [-3.740749989806916, 50.88707999487093], [-3.7403299898064826, 50.887429994871226], [-3.740579989806264, 50.888249994871884], [-3.7426399898073477, 50.88881999487231], [-3.743459989807487, 50.88967999487299], [-3.7448099898080804, 50.89029999487349], [-3.7388199898039094, 50.890859994874], [-3.735449989802055, 50.890099994873424], [-3.7348229004970883, 50.890556061209594], [-3.735669786504733, 50.88696540343169]]]}}, {"type": "Feature", "properties": {"type": "postcode-cell", "postcode": "EX17 4QG", "postcodes": ["EX17 4QG"]}, "geometry": {"type": "Polygon", "coordinates": [[[-3.7341223348664925, 50.88573765315367], [-3.721726093086265, 50.88526131340961], [-3.7177738741758333, 50.88502476558566], [-3.7151905556418536, 50.883281963470026], [-3.7161799897927836, 50.88295999486788], [-3.716739989793491, 50.88221999486729], [-3.7174499897939026, 50.88232999486737], [-3.7173299897940195, 50.88190999486703], [-3.7190199897951084, 50.88193999486704], [-3.71916998979507, 50.882229994867245], [-3.719909989795837, 50.88161999486676], [-3.7208199897963, 50.881899994867], [-3.7212499897966835, 50.881679994866815], [-3.721469989796716, 50.881919994867], [-3.7216999897970213, 50.881579994866705], [-3.722639989797683, 50.881479994866645], [-3.723329989797914, 50.881949994867], [-3.724639989798997, 50.88145999486658], [-3.7254699897994503, 50.88164999486675], [-3.7273099898008546, 50.88120999486637], [-3.727399989800769, 50.8815199948666], [-3.72769998980122, 50.88096999486615], [-3.7289799898020086, 50.88106999486622], [-3.729359989802429, 50.880699994865935], [-3.7298499898026245, 50.88096999486614], [-3.729639989802337, 50.881289994866385], [-3.7302299898027043, 50.88132999486643], [-3.7309899898032937, 50.881129994866264], [-3.730949989803481, 50.88066999486589], [-3.7315999898037107, 50.881089994866215], [-3.732289989804449, 50.88046999486572], [-3.73377998980524, 50.88085999486601], [-3.733903949137296, 50.88077667877201], [-3.7341223348664925, 50.88573765315367]]]}}, {"type": "Feature", "properties": {"type": "postcode-cell", "postcode": "EX17 4QQ", "postcodes": ["EX17 4QQ"]}, "geometry": {"type": "Polygon", "coordinates": [[[-3.735669786504733, 50.88696540343169], [-3.7341223348664925, 50.88573765315367], [-3.733903949137296, 50.88077667877201], [-3.7343899898058295, 50.88044999486568], [-3.735369989806431, 50.88052999486573], [-3.736869989807649, 50.88001999486531], [-3.7381199898084083, 50.88013999486537], [-3.739289989808833, 50.88086999486596], [-3.740529989809835, 50.8804599948656], [-3.740359989809905, 50.88006999486531], [-3.7409299898102533, 50.88011999486533], [-3.7418099898112738, 50.87915999486456], [-3.7423299898115987, 50.87918999486458], [-3.743109989812341, 50.87868999486416], [-3.7448199898133434, 50.87893999486435], [-3.7451099898136224, 50.87873999486419], [-3.7461899898141224, 50.87918999486454], [-3.7465199898144714, 50.8788999948643], [-3.746889989814581, 50.87918999486453], [-3.7488199898161922, 50.87842999486391], [-3.7494699898166113, 50.878449994863914], [-3.749739989816378, 50.87932999486463], [-3.7494199898158334, 50.88004999486519], [-3.749929989815715, 50.881029994865955], [-3.7494099898147106, 50.88246999486714], [-3.7447799898102185, 50.88563999486974], [-3.7447082316350784, 50.8857706332315], [-3.735669786504733, 50.88696540343169]]]}}, {"type": "Feature", "properties": {"type": "postcode-cell", "postcode": "EX17 4RT", "postcodes": ["EX17 4RT"]}, "geometry": {"type": "Polygon", "coordinates": [[[-3.6535628483194253, 50.85801116856283], [-3.6548906005327284, 50.852757418538324], [-3.6632537805933354, 50.84774516430355], [-3.666419989776855, 50.84766999484016], [-3.669949989778959, 50.84805999484043], [-3.669469989778526, 50.84831999484065], [-3.6703099897789198, 50.848639994840894], [-3.6698599897784803, 50.84895999484116], [-3.670139989778622, 50.84904999484123], [-3.6697499897781154, 50.849589994841665], [-3.670109989778334, 50.84961999484169], [-3.669779989777939, 50.85000999484199], [-3.6689199897772715, 50.8502499948422], [-3.6694999897775062, 50.850549994842424], [-3.669069989777121, 50.85077999484262], [-3.6692399897771084, 50.851039994842836], [-3.6684899897765946, 50.851099994842876], [-3.668219989776186, 50.85159999484328], [-3.6687099897762265, 50.85219999484378], [-3.6678599897754784, 50.8526199948441], [-3.6671799897750756, 50.85253999484403], [-3.666769989774641, 50.852899994844336], [-3.6673899897749993, 50.85298999484441], [-3.6666799897741345, 50.8538599948451], [-3.665949989773733, 50.853709994845], [-3.665629989773371, 50.854039994845266], [-3.6659399897734595, 50.854279994845456], [-3.6651099897727177, 50.85471999484584], [-3.665389989772807, 50.85491999484599], [-3.6640199897715533, 50.85569999484661], [-3.66445998977173, 50.85592999484679], [-3.6646999897711043, 50.85760999484815], [-3.6640799897706344, 50.857749994848255], [-3.6633599897696927, 50.85876999484908], [-3.662499989768936, 50.85919999484944], [-3.6626199897688596, 50.8595299948497], [-3.6614399897677177, 50.86033999485036], [-3.6614599897672937, 50.861279994851124], [-3.65986998976572, 50.86243999485203], [-3.660289989765787, 50.862879994852385], [-3.659841130133266, 50.86316794301436], [-3.6535628483194253, 50.85801116856283]]]}}, {"type": "Feature", "properties": {"type": "postcode-cell", "postcode": "EX16 8NZ", "postcodes": ["EX16 8NZ"]}, "geometry": {"type": "Polygon", "coordinates": [[[-3.716154016705323, 50.9019190862534], [-3.71725683039223, 50.91052666960454], [-3.7170799897806033, 50.910519994890024], [-3.71262998977727, 50.91143999489081], [-3.708459989774572, 50.91138999489083], [-3.7063499897734906, 50.910749994890324], [-3.705287574310434, 50.910846250134526], [-3.7025404190968474, 50.90972856154394], [-3.698848945644035, 50.9060615613603], [-3.698473704482267, 50.905462092670504], [-3.7104471240640526, 50.898667415611584], [-3.7116760333177616, 50.8989170192346], [-3.716154016705323, 50.9019190862534]]]}}, {"type": "Feature", "properties": {"type": "postcode-cell", "postcode": "EX17 4SQ", "postcodes": ["EX17 4SQ"]}, "geometry": {"type": "Polygon", "coordinates": [[[-3.7116760333177616, 50.8989170192346], [-3.7197721184141916, 50.890960703752555], [-3.7232665415231474, 50.8917620664617], [-3.7250005843160205, 50.899945887883725], [-3.716154016705323, 50.9019190862534], [-3.7116760333177616, 50.8989170192346]]]}}, {"type": "Feature", "properties": {"type": "postcode-cell", "postcode": "EX17 4BN", "postcodes": ["EX17 4BN"]}, "geometry": {"type": "Polygon", "coordinates": [[[-3.735669786504733, 50.88696540343169], [-3.7348229004970883, 50.890556061209594], [-3.734679989801294, 50.89065999487389], [-3.733729989799922, 50.89227999487517], [-3.7339723589966254, 50.89276691715071], [-3.7311282142536775, 50.89245261200787], [-3.721726093086265, 50.88526131340961], [-3.7341223348664925, 50.88573765315367], [-3.735669786504733, 50.88696540343169]]]}}, {"type": "Feature", "properties": {"type": "postcode-cell", "postcode": "EX17 4DL", "postcodes": ["EX17 4DL"]}, "geometry": {"type": "Polygon", "coordinates": [[[-3.6548906005327284, 50.852757418538324], [-3.6403456359104283, 50.84953984542446], [-3.642765544949901, 50.844078467707604], [-3.6475699897659624, 50.844869994838156], [-3.650829989767401, 50.84629999483924], [-3.6527299897685364, 50.84649999483939], [-3.658409989771578, 50.8478599948404], [-3.6632537805933354, 50.84774516430355], [-3.6548906005327284, 50.852757418538324]]]}}, {"type": "Feature", "properties": {"type": "postcode-cell", "postcode": "EX17 4SJ", "postcodes": ["EX17 4SJ"]}, "geometry": {"type": "Polygon", "coordinates": [[[-3.716154016705323, 50.9019190862534], [-3.7250005843160205, 50.899945887883725], [-3.7357632441454602, 50.89856316531367], [-3.7370299897983363, 50.90036999488166], [-3.737019989797983, 50.901119994882265], [-3.7360399897970886, 50.9016699948827], [-3.73623998979679, 50.90259999488347], [-3.735059989795728, 50.903229994883986], [-3.7344899897945005, 50.905079994885476], [-3.7320299897924216, 50.90609999488633], [-3.731519989791632, 50.90707999488711], [-3.7296999897901357, 50.90773999488768], [-3.729239989788709, 50.910179994889646], [-3.7283899897882544, 50.90995999488947], [-3.7280599897876683, 50.91075999489013], [-3.725579989786828, 50.90906999488876], [-3.725619989786546, 50.90973999488931], [-3.7251199897861165, 50.9099599948895], [-3.7221599897840734, 50.91018999488972], [-3.720779989782992, 50.91057999489004], [-3.720349989782854, 50.91026999488979], [-3.719199989781951, 50.91059999489007], [-3.71725683039223, 50.91052666960454], [-3.716154016705323, 50.9019190862534]]]}}, {"type": "Feature", "properties": {"type": "postcode-cell", "postcode": "EX17 4QH", "postcodes": ["EX17 4QH"]}, "geometry": {"type": "Polygon", "coordinates": [[[-3.721726093086265, 50.88526131340961], [-3.7311282142536775, 50.89245261200787], [-3.7232665415231474, 50.8917620664617], [-3.7197721184141916, 50.890960703752555], [-3.7177738741758333, 50.88502476558566], [-3.721726093086265, 50.88526131340961]]]}}, {"type": "Feature", "properties": {"type": "postcode-cell", "postcode": "EX17 4SH", "postcodes": ["EX17 4SH"]}, "geometry": {"type": "Polygon", "coordinates": [[[-3.7339723589966254, 50.89276691715071], [-3.734849989799612, 50.89452999487699], [-3.734909989799153, 50.89560999487785], [-3.7358899897994493, 50.896349994878435], [-3.735739989798346, 50.8985299948802], [-3.7357632441454602, 50.89856316531367], [-3.7250005843160205, 50.899945887883725], [-3.7232665415231474, 50.8917620664617], [-3.7311282142536775, 50.89245261200787], [-3.7339723589966254, 50.89276691715071]]]}}, {"type": "Feature", "properties": {"type": "postcode-cell", "postcode": "EX16 8NY", "postcodes": ["EX16 8NY"]}, "geometry": {"type": "Polygon", "coordinates": [[[-3.7197721184141916, 50.890960703752555], [-3.7116760333177616, 50.8989170192346], [-3.7104471240640526, 50.898667415611584], [-3.6988318796490445, 50.892513590691436], [-3.698679265250865, 50.89232686880479], [-3.6989299897771515, 50.89241999487566], [-3.70031998977859, 50.89126999487472], [-3.703439989780837, 50.89080999487433], [-3.70375998978144, 50.88995999487365], [-3.7046199897822314, 50.889459994873235], [-3.7046399897826476, 50.88858999487252], [-3.7051299897829457, 50.88863999487256], [-3.705899989783739, 50.888009994872036], [-3.705569989783723, 50.88757999487171], [-3.707579989785048, 50.88754999487165], [-3.7110799897876543, 50.88684999487106], [-3.7108999897872987, 50.88735999487148], [-3.7124999897885944, 50.88681999487102], [-3.71215998978852, 50.886499994870775], [-3.712859989789362, 50.88566999487009], [-3.7126899897896304, 50.884849994869434], [-3.7139699897908587, 50.88399999486874], [-3.713659989790759, 50.883779994868576], [-3.7151905556418536, 50.883281963470026], [-3.7177738741758333, 50.88502476558566], [-3.7197721184141916, 50.890960703752555]]]}}, {"type": "Feature", "properties": {"type": "postcode-cell", "postcode": "EX17 4QY", "postcodes": ["EX17 4QY"]}, "geometry": {"type": "Polygon", "coordinates": [[[-3.6788366130768764, 50.898702364359906], [-3.6645956153237815, 50.895841149911924], [-3.6644899897538257, 50.89440999487762], [-3.66369998975377, 50.89342999487684], [-3.666899989756127, 50.89282999487634], [-3.67024998975946, 50.890339994874296], [-3.672209989760484, 50.89087999487472], [-3.676289989762964, 50.891249994874975], [-3.67861998976417, 50.89190999487548], [-3.679639989764899, 50.89176999487535], [-3.681639989766056, 50.892079994875566], [-3.6844808767621875, 50.893109427781376], [-3.6788366130768764, 50.898702364359906]]]}}, {"type": "Feature", "properties": {"type": "postcode-cell", "postcode": "EX16 8AN", "postcodes": ["EX16 8AN"]}, "geometry": {"type": "MultiPolygon", "coordinates": [[[[-3.6925758369422987, 50.912281880470644], [-3.697276421975948, 50.91100792449032], [-3.6977862946128925, 50.91088401833397], [-3.698529989767346, 50.9129999948922], [-3.693029989763184, 50.914239994893265], [-3.689993752191716, 50.91458291848609], [-3.6925758369422987, 50.912281880470644]]], [[[-3.7025404190968474, 50.90972856154394], [-3.705287574310434, 50.910846250134526], [-3.7034799897714965, 50.91100999489056], [-3.6986428943224388, 50.91067584619909], [-3.7025404190968474, 50.90972856154394]]]]}}, {"type": "Feature", "properties": {"type": "postcode-cell", "postcode": "EX16 8NU", "postcodes": ["EX16 8NU"]}, "geometry": {"type": "Polygon", "coordinates": [[[-3.6988318796490445, 50.892513590691436], [-3.6913248450412084, 50.90359644546034], [-3.689531293667154, 50.903976723217546], [-3.6813018260819796, 50.904367924238784], [-3.6788366130768764, 50.898702364359906], [-3.6844808767621875, 50.893109427781376], [-3.6865799897684393, 50.89386999487695], [-3.6913099897703012, 50.89648999487903], [-3.6924499897712657, 50.896009994878604], [-3.693009989772312, 50.894539994877434], [-3.69504998977401, 50.893749994876764], [-3.6979499897761805, 50.893139994876265], [-3.6978699897763443, 50.892669994875874], [-3.698579989776985, 50.89228999487557], [-3.698679265250865, 50.89232686880479], [-3.6988318796490445, 50.892513590691436]]]}}, {"type": "Feature", "properties": {"type": "postcode-cell", "postcode": "EX16 8NX", "postcodes": ["EX16 8NX"]}, "geometry": {"type": "Polygon", "coordinates": [[[-3.698473704482267, 50.905462092670504], [-3.6913248450412084, 50.90359644546034], [-3.6988318796490445, 50.892513590691436], [-3.7104471240640526, 50.898667415611584], [-3.698473704482267, 50.905462092670504]]]}}, {"type": "Feature", "properties": {"type": "postcode-cell", "postcode": "EX16 8PD", "postcodes": ["EX16 8PD"]}, "geometry": {"type": "Polygon", "coordinates": [[[-3.7025404190968474, 50.90972856154394], [-3.6986428943224388, 50.91067584619909], [-3.6976899897679063, 50.910609994890294], [-3.6977862946128925, 50.91088401833397], [-3.697276421975948, 50.91100792449032], [-3.6950758331524254, 50.90886168530221], [-3.698848945644035, 50.9060615613603], [-3.7025404190968474, 50.90972856154394]]]}}, {"type": "Feature", "properties": {"type": "postcode-cell", "postcode": "EX16 8PB", "postcodes": ["EX16 8PB"]}, "geometry": {"type": "Polygon", "coordinates": [[[-3.6925758369422987, 50.912281880470644], [-3.6927716865039635, 50.910283025364684], [-3.6950758331524254, 50.90886168530221], [-3.697276421975948, 50.91100792449032], [-3.6925758369422987, 50.912281880470644]]]}}, {"type": "Feature", "properties": {"type": "postcode-cell", "postcode": "EX16 8PA", "postcodes": ["EX16 8PA"]}, "geometry": {"type": "Polygon", "coordinates": [[[-3.6950758331524254, 50.90886168530221], [-3.6927716865039635, 50.910283025364684], [-3.689531293667154, 50.903976723217546], [-3.6913248450412084, 50.90359644546034], [-3.698473704482267, 50.905462092670504], [-3.698848945644035, 50.9060615613603], [-3.6950758331524254, 50.90886168530221]]]}}, {"type": "Feature", "properties": {"type": "postcode-cell", "postcode": "EX16 8PS", "postcodes": ["EX16 8PS"]}, "geometry": {"type": "Polygon", "coordinates": [[[-3.6925758369422987, 50.912281880470644], [-3.689993752191716, 50.91458291848609], [-3.686919989758882, 50.91492999489388], [-3.6855057201023667, 50.915381242884166], [-3.680593233332105, 50.912121127217674], [-3.6797218629682966, 50.90605897916136], [-3.6813018260819796, 50.904367924238784], [-3.689531293667154, 50.903976723217546], [-3.6927716865039635, 50.910283025364684], [-3.6925758369422987, 50.912281880470644]]]}}, {"type": "Feature", "properties": {"type": "postcode-cell", "postcode": "EX16 8QL", "postcodes": ["EX16 8QL"]}, "geometry": {"type": "Polygon", "coordinates": [[[-3.6636501948697826, 50.92005261270884], [-3.6659387773562138, 50.916186258062545], [-3.680593233332105, 50.912121127217674], [-3.6855057201023667, 50.915381242884166], [-3.6810899897542217, 50.91678999489544], [-3.6772599897513922, 50.91750999489605], [-3.6766999897507837, 50.9180399948965], [-3.6758099897502063, 50.91802999489649], [-3.673659989748372, 50.91896999489729], [-3.6655999897423963, 50.9205399948986], [-3.663718181857744, 50.92054269104958], [-3.6636501948697826, 50.92005261270884]]]}}, {"type": "Feature", "properties": {"type": "postcode-cell", "postcode": "EX16 8NT", "postcodes": ["EX16 8NT"]}, "geometry": {"type": "MultiPolygon", "coordinates": [[[[-3.6813018260819796, 50.904367924238784], [-3.6797218629682966, 50.90605897916136], [-3.6620748604714133, 50.90625299436668], [-3.662035156195016, 50.90622920011326], [-3.663419989749156, 50.90294999488449], [-3.663849989751287, 50.898969994881284], [-3.664799989752072, 50.898609994880985], [-3.6645956153237815, 50.895841149911924], [-3.6788366130768764, 50.898702364359906], [-3.6813018260819796, 50.904367924238784]]], [[[-3.6518311036259172, 50.9001127773571], [-3.652082158260666, 50.899776060881265], [-3.653149989743785, 50.900159994882344], [-3.653219989743576, 50.90070999488281], [-3.6541199897438044, 50.9014699948834], [-3.65413031183242, 50.90149116877933], [-3.6518311036259172, 50.9001127773571]]]]}}, {"type": "Feature", "properties": {"type": "postcode-cell", "postcode": "EX16 8NW", "postcodes": ["EX16 8NW"]}, "geometry": {"type": "Polygon", "coordinates": [[[-3.6636501948697826, 50.92005261270884], [-3.6540271734295002, 50.91643433917432], [-3.6564197083040835, 50.91288340062703], [-3.658017635022692, 50.91244777724623], [-3.663338027106026, 50.91151585908867], [-3.6659387773562138, 50.916186258062545], [-3.6636501948697826, 50.92005261270884]]]}}, {"type": "Feature", "properties": {"type": "postcode-cell", "postcode": "EX16 8NP", "postcodes": ["EX16 8NP"]}, "geometry": {"type": "Polygon", "coordinates": [[[-3.6620748604714133, 50.90625299436668], [-3.6797218629682966, 50.90605897916136], [-3.680593233332105, 50.912121127217674], [-3.6659387773562138, 50.916186258062545], [-3.663338027106026, 50.91151585908867], [-3.6625060701754153, 50.90839866449604], [-3.6620748604714133, 50.90625299436668]]]}}, {"type": "Feature", "properties": {"type": "postcode-cell", "postcode": "EX16 8NS", "postcodes": ["EX16 8NS"]}, "geometry": {"type": "Polygon", "coordinates": [[[-3.6625060701754153, 50.90839866449604], [-3.6553408501757287, 50.9120537988107], [-3.653854842964072, 50.91231708684223], [-3.650705214688323, 50.90052333947279], [-3.6518311036259172, 50.9001127773571], [-3.65413031183242, 50.90149116877933], [-3.654509989743689, 50.90226999488404], [-3.6536999897423983, 50.90390999488537], [-3.654029989742048, 50.90511999488634], [-3.653719989741517, 50.905829994886915], [-3.654759989741566, 50.90716999488798], [-3.6586299897442083, 50.90689999488772], [-3.659049989744364, 50.90714999488793], [-3.660599989745426, 50.90702999488779], [-3.6614899897457764, 50.9075199948882], [-3.662035156195016, 50.90622920011326], [-3.6620748604714133, 50.90625299436668], [-3.6625060701754153, 50.90839866449604]]]}}, {"type": "Feature", "properties": {"type": "postcode-cell", "postcode": "EX16 8NR", "postcodes": ["EX16 8NR"]}, "geometry": {"type": "Polygon", "coordinates": [[[-3.663338027106026, 50.91151585908867], [-3.658017635022692, 50.91244777724623], [-3.6553408501757287, 50.9120537988107], [-3.6625060701754153, 50.90839866449604], [-3.663338027106026, 50.91151585908867]]]}}, {"type": "Feature", "properties": {"type": "postcode-cell", "postcode": "EX17 4DJ", "postcodes": ["EX17 4DJ"]}, "geometry": {"type": "Polygon", "coordinates": [[[-3.659841130133266, 50.86316794301436], [-3.6597599897652886, 50.86321999485267], [-3.660009989765258, 50.863629994853014], [-3.659409989764551, 50.864309994853556], [-3.659889989764792, 50.86445999485367], [-3.6597199897643096, 50.86525999485432], [-3.66064998976397, 50.86727999485591], [-3.6601899897633414, 50.867989994856494], [-3.6595099897627725, 50.86825999485672], [-3.657629989760151, 50.87126999485916], [-3.6564799897590063, 50.87212999485985], [-3.6561199897582615, 50.87322999486075], [-3.654329989756792, 50.87388999486128], [-3.6509099897546085, 50.873819994861265], [-3.6476614244638172, 50.8740355711313], [-3.6428698688531003, 50.86163088900847], [-3.6452026239239017, 50.85951892791006], [-3.6535628483194253, 50.85801116856283], [-3.659841130133266, 50.86316794301436]]]}}, {"type": "Feature", "properties": {"type": "postcode-cell", "postcode": "EX16 8QN", "postcodes": ["EX16 8QN"]}, "geometry": {"type": "Polygon", "coordinates": [[[-3.6469886722292744, 50.9155326002657], [-3.6513014081185196, 50.91567642692198], [-3.6540271734295002, 50.91643433917432], [-3.6636501948697826, 50.92005261270884], [-3.663718181857744, 50.92054269104958], [-3.6585099897377824, 50.92054999489869], [-3.6541699897348017, 50.92088999489901], [-3.650119989731816, 50.92164999489966], [-3.6438099897276386, 50.92181999489984], [-3.642919989727326, 50.921249994899405], [-3.641619158895909, 50.919187760132736], [-3.6469886722292744, 50.9155326002657]]]}}, {"type": "Feature", "properties": {"type": "postcode-cell", "postcode": "EX16 8PP", "postcodes": ["EX16 8PP"]}, "geometry": {"type": "Polygon", "coordinates": [[[-3.6540271734295002, 50.91643433917432], [-3.6513014081185196, 50.91567642692198], [-3.6538434335423777, 50.91238078749876], [-3.6564197083040835, 50.91288340062703], [-3.6540271734295002, 50.91643433917432]]]}}, {"type": "Feature", "properties": {"type": "postcode-cell", "postcode": "EX16 8PG", "postcodes": ["EX16 8PG"]}, "geometry": {"type": "Polygon", "coordinates": [[[-3.650705214688323, 50.90052333947279], [-3.6439020918970884, 50.90243227839509], [-3.6339610161550184, 50.899773221941565], [-3.631126739515908, 50.89802294714572], [-3.6302010787180703, 50.89249666547452], [-3.642304804108259, 50.885510110510324], [-3.6423999897433257, 50.88618999487127], [-3.6435899897443105, 50.88572999487088], [-3.6451299897451177, 50.88613999487119], [-3.645769989744612, 50.888109994872764], [-3.645729989743721, 50.889969994874264], [-3.646539989743735, 50.891069994875146], [-3.646879989741806, 50.89567999487883], [-3.650779989743002, 50.89853999488108], [-3.6513699897429297, 50.899519994881864], [-3.652082158260666, 50.899776060881265], [-3.6518311036259172, 50.9001127773571], [-3.650705214688323, 50.90052333947279]]]}}, {"type": "Feature", "properties": {"type": "postcode-cell", "postcode": "EX16 8NH", "postcodes": ["EX16 8NH"]}, "geometry": {"type": "Polygon", "coordinates": [[[-3.653854842964072, 50.91231708684223], [-3.6553408501757287, 50.9120537988107], [-3.658017635022692, 50.91244777724623], [-3.6564197083040835, 50.91288340062703], [-3.6538434335423777, 50.91238078749876], [-3.653854842964072, 50.91231708684223]]]}}, {"type": "Feature", "properties": {"type": "postcode-cell", "postcode": "EX16 8NN", "postcodes": ["EX16 8NN"]}, "geometry": {"type": "Polygon", "coordinates": [[[-3.6538434335423777, 50.91238078749876], [-3.6513014081185196, 50.91567642692198], [-3.6469886722292744, 50.9155326002657], [-3.6437799456570086, 50.90265313410378], [-3.6439020918970884, 50.90243227839509], [-3.650705214688323, 50.90052333947279], [-3.653854842964072, 50.91231708684223], [-3.6538434335423777, 50.91238078749876]]]}}, {"type": "Feature", "properties": {"type": "postcode-cell", "postcode": "EX17 4AQ", "postcodes": ["EX17 4AQ"]}, "geometry": {"type": "MultiPolygon", "coordinates": [[[[-3.6179511840365173, 50.830873047784436], [-3.6190199897541473, 50.83073999482721], [-3.619162663332215, 50.831002216557074], [-3.6179511840365173, 50.830873047784436]]], [[[-3.6019989467199003, 50.82917096572345], [-3.6019073294228536, 50.829108142257994], [-3.602489989746719, 50.823899994821986], [-3.6079299897499095, 50.824549994822426], [-3.6074499897502923, 50.82307999482125], [-3.607549989751325, 50.821019994819636], [-3.6081099897520317, 50.82027999481904], [-3.6076599897518222, 50.820109994818914], [-3.6077999897525124, 50.818829994817875], [-3.609789989754449, 50.81742999481675], [-3.6138699897571582, 50.81724999481655], [-3.614639989757814, 50.81690999481627], [-3.61875998976056, 50.81670999481605], [-3.620029989761187, 50.817119994816366], [-3.620099989759692, 50.82039999481897], [-3.6208199897590876, 50.82267999482078], [-3.621489989759208, 50.8233399948213], [-3.6192999897576477, 50.82365999482159], [-3.616718758983419, 50.83074163208383], [-3.6019989467199003, 50.82917096572345]]]]}}, {"type": "Feature", "properties": {"type": "postcode-cell", "postcode": "EX17 4FB", "postcodes": ["EX17 4FB"]}, "geometry": {"type": "Polygon", "coordinates": [[[-3.6476614244638172, 50.8740355711313], [-3.644491356572441, 50.87424584930596], [-3.6337598728987213, 50.86537357530727], [-3.6343344415930185, 50.86213231385163], [-3.6428698688531003, 50.86163088900847], [-3.6476614244638172, 50.8740355711313]]]}}, {"type": "Feature", "properties": {"type": "postcode-cell", "postcode": "EX16 8NL", "postcodes": ["EX16 8NL"]}, "geometry": {"type": "Polygon", "coordinates": [[[-3.6469886722292744, 50.9155326002657], [-3.641619158895909, 50.919187760132736], [-3.640869989727508, 50.91799999489682], [-3.6341999897228123, 50.91878999489751], [-3.632569989721248, 50.91987999489839], [-3.6279142640979565, 50.91961422389666], [-3.6305437787250834, 50.913053529819635], [-3.6437799456570086, 50.90265313410378], [-3.6469886722292744, 50.9155326002657]]]}}, {"type": "Feature", "properties": {"type": "postcode-cell", "postcode": "EX17 4DE", "postcodes": ["EX17 4DE"]}, "geometry": {"type": "Polygon", "coordinates": [[[-3.6535628483194253, 50.85801116856283], [-3.6452026239239017, 50.85951892791006], [-3.6351592045831236, 50.85199571453413], [-3.6353279405437346, 50.851615561618345], [-3.6403456359104283, 50.84953984542446], [-3.6548906005327284, 50.852757418538324], [-3.6535628483194253, 50.85801116856283]]]}}, {"type": "Feature", "properties": {"type": "postcode-cell", "postcode": "EX17 4DF", "postcodes": ["EX17 4DF"]}, "geometry": {"type": "Polygon", "coordinates": [[[-3.6452026239239017, 50.85951892791006], [-3.6428698688531003, 50.86163088900847], [-3.6343344415930185, 50.86213231385163], [-3.6326315067737625, 50.8610734647489], [-3.6314812451371083, 50.85463983900425], [-3.6351592045831236, 50.85199571453413], [-3.6452026239239017, 50.85951892791006]]]}}, {"type": "Feature", "properties": {"type": "postcode-cell", "postcode": "EX16 8QS", "postcodes": ["EX16 8QS"]}, "geometry": {"type": "Polygon", "coordinates": [[[-3.615844013417085, 50.90608261417883], [-3.6222633743305814, 50.90629620886401], [-3.6305437787250834, 50.913053529819635], [-3.6279142640979565, 50.91961422389666], [-3.6274899897180877, 50.91958999489822], [-3.6253599897157947, 50.921549994899834], [-3.624029989714802, 50.921829994900065], [-3.6235499897171333, 50.91615999489551], [-3.622549989716581, 50.91595999489537], [-3.623019989717112, 50.91546999489496], [-3.62330998971808, 50.91379999489362], [-3.6200199897159937, 50.9137099948936], [-3.6157899897130608, 50.91411999489396], [-3.6150299897127427, 50.91374999489368], [-3.6129599897113978, 50.913759994893695], [-3.6097242414904507, 50.912894507035254], [-3.615844013417085, 50.90608261417883]]]}}, {"type": "Feature", "properties": {"type": "postcode-cell", "postcode": "EX16 8PQ", "postcodes": ["EX16 8PQ"]}, "geometry": {"type": "Polygon", "coordinates": [[[-3.631126739515908, 50.89802294714572], [-3.6154663532830837, 50.89779378989263], [-3.6149312748326463, 50.897031983102174], [-3.621335431858823, 50.89047423521729], [-3.6242537380857285, 50.88883946299996], [-3.6302010787180703, 50.89249666547452], [-3.631126739515908, 50.89802294714572]]]}}, {"type": "Feature", "properties": {"type": "postcode-cell", "postcode": "EX16 8LR", "postcodes": ["EX16 8LR"]}, "geometry": {"type": "Polygon", "coordinates": [[[-3.624208867238991, 50.8813759980728], [-3.6144197837098586, 50.87403041740041], [-3.620258115882355, 50.8703535700942], [-3.6218151145007416, 50.870123971543116], [-3.6280243315203986, 50.870709523841406], [-3.642492979521304, 50.874511091827486], [-3.642329989748689, 50.874599994861995], [-3.639489989747022, 50.87422999486173], [-3.6357099897444454, 50.874509994862], [-3.633589989742863, 50.87495999486237], [-3.6294199897400903, 50.87511999486253], [-3.6304999897403945, 50.87596999486322], [-3.631809989740344, 50.87788999486474], [-3.6332499897408135, 50.87887999486552], [-3.632879989740187, 50.87970999486618], [-3.6340699897407305, 50.88019999486657], [-3.6339368214550727, 50.88052552123436], [-3.624208867238991, 50.8813759980728]]]}}, {"type": "Feature", "properties": {"type": "postcode-cell", "postcode": "EX17 4DH", "postcodes": ["EX17 4DH"]}, "geometry": {"type": "Polygon", "coordinates": [[[-3.6337598728987213, 50.86537357530727], [-3.644491356572441, 50.87424584930596], [-3.642769989749085, 50.8743599948618], [-3.642492979521304, 50.874511091827486], [-3.6280243315203986, 50.870709523841406], [-3.63373274366661, 50.865382306207465], [-3.6337598728987213, 50.86537357530727]]]}}, {"type": "Feature", "properties": {"type": "postcode-cell", "postcode": "EX17 4DG", "postcodes": ["EX17 4DG"]}, "geometry": {"type": "Polygon", "coordinates": [[[-3.63373274366661, 50.865382306207465], [-3.627127679246715, 50.866255082510925], [-3.627059667932786, 50.865820261650526], [-3.63009910299613, 50.86152785253995], [-3.6326315067737625, 50.8610734647489], [-3.6343344415930185, 50.86213231385163], [-3.6337598728987213, 50.86537357530727], [-3.63373274366661, 50.865382306207465]]]}}, {"type": "Feature", "properties": {"type": "postcode-cell", "postcode": "EX17 4DD", "postcodes": ["EX17 4DD"]}, "geometry": {"type": "Polygon", "coordinates": [[[-3.6353279405437346, 50.851615561618345], [-3.6236942748593717, 50.84420591960191], [-3.6236273074129506, 50.83947652602867], [-3.6253227234293135, 50.837737449726504], [-3.627429989756436, 50.837429994832455], [-3.628439989756684, 50.83828999483314], [-3.628549989756519, 50.83879999483353], [-3.628139989756252, 50.83879999483353], [-3.6278999897558437, 50.839339994833985], [-3.626629989754656, 50.84012999483463], [-3.629089989756036, 50.840569994834944], [-3.632219989758378, 50.83987999483434], [-3.6357199897605645, 50.84003999483444], [-3.6368699897606533, 50.84143999483553], [-3.636709989760358, 50.84184999483587], [-3.6397399897616673, 50.84322999483693], [-3.6423499897629905, 50.84400999483751], [-3.642765544949901, 50.844078467707604], [-3.6403456359104283, 50.84953984542446], [-3.6353279405437346, 50.851615561618345]]]}}, {"type": "Feature", "properties": {"type": "postcode-cell", "postcode": "EX16 8LL", "postcodes": ["EX16 8LL"]}, "geometry": {"type": "Polygon", "coordinates": [[[-3.6302010787180703, 50.89249666547452], [-3.6242537380857285, 50.88883946299996], [-3.6226830232713922, 50.88374136170941], [-3.624208867238991, 50.8813759980728], [-3.6339368214550727, 50.88052552123436], [-3.6337099897400833, 50.88107999486727], [-3.6342099897404134, 50.88106999486726], [-3.6352099897398, 50.88376999486941], [-3.641599989744365, 50.8828499948686], [-3.6410699897434244, 50.88412999486964], [-3.642189989743889, 50.88468999487009], [-3.642304804108259, 50.885510110510324], [-3.6302010787180703, 50.89249666547452]]]}}, {"type": "Feature", "properties": {"type": "postcode-cell", "postcode": "EX16 8NJ", "postcodes": ["EX16 8NJ"]}, "geometry": {"type": "Polygon", "coordinates": [[[-3.6437799456570086, 50.90265313410378], [-3.6305437787250834, 50.913053529819635], [-3.6222633743305814, 50.90629620886401], [-3.6339610161550184, 50.899773221941565], [-3.6439020918970884, 50.90243227839509], [-3.6437799456570086, 50.90265313410378]]]}}, {"type": "Feature", "properties": {"type": "postcode-cell", "postcode": "EX17 4JE", "postcodes": ["EX17 4JE"]}, "geometry": {"type": "Polygon", "coordinates": [[[-3.6236942748593717, 50.84420591960191], [-3.61950527172077, 50.84729368426402], [-3.6116077676596774, 50.84630472852762], [-3.6117473958634494, 50.84431507880767], [-3.6169813015287384, 50.83989321772079], [-3.6236273074129506, 50.83947652602867], [-3.6236942748593717, 50.84420591960191]]]}}, {"type": "Feature", "properties": {"type": "postcode-cell", "postcode": "EX17 4BE", "postcodes": ["EX17 4BE"]}, "geometry": {"type": "Polygon", "coordinates": [[[-3.6351592045831236, 50.85199571453413], [-3.6314812451371083, 50.85463983900425], [-3.619312852956144, 50.85596659888863], [-3.616116815885477, 50.852703053727836], [-3.61950527172077, 50.84729368426402], [-3.6236942748593717, 50.84420591960191], [-3.6353279405437346, 50.851615561618345], [-3.6351592045831236, 50.85199571453413]]]}}, {"type": "Feature", "properties": {"type": "postcode-cell", "postcode": "EX17 4DQ", "postcodes": ["EX17 4DQ"]}, "geometry": {"type": "Polygon", "coordinates": [[[-3.6218151145007416, 50.870123971543116], [-3.627127679246715, 50.866255082510925], [-3.63373274366661, 50.865382306207465], [-3.6280243315203986, 50.870709523841406], [-3.6218151145007416, 50.870123971543116]]]}}, {"type": "Feature", "properties": {"type": "postcode-cell", "postcode": "EX17 4LE", "postcodes": ["EX17 4LE"]}, "geometry": {"type": "Polygon", "coordinates": [[[-3.6326315067737625, 50.8610734647489], [-3.63009910299613, 50.86152785253995], [-3.625442906242069, 50.861858583644114], [-3.618093006684326, 50.860302474262134], [-3.6176555814870737, 50.85992799656692], [-3.619312852956144, 50.85596659888863], [-3.6314812451371083, 50.85463983900425], [-3.6326315067737625, 50.8610734647489]]]}}, {"type": "Feature", "properties": {"type": "postcode-cell", "postcode": "EX17 4LA", "postcodes": ["EX17 4LA"]}, "geometry": {"type": "Polygon", "coordinates": [[[-3.6257252280775267, 50.863677632570116], [-3.625442906242069, 50.861858583644114], [-3.63009910299613, 50.86152785253995], [-3.627059667932786, 50.865820261650526], [-3.6257252280775267, 50.863677632570116]]]}}, {"type": "Feature", "properties": {"type": "postcode-cell", "postcode": "EX17 4LB", "postcodes": ["EX17 4LB"]}, "geometry": {"type": "Polygon", "coordinates": [[[-3.627059667932786, 50.865820261650526], [-3.627127679246715, 50.866255082510925], [-3.6218151145007416, 50.870123971543116], [-3.620258115882355, 50.8703535700942], [-3.6198776684609877, 50.86739112374721], [-3.6257252280775267, 50.863677632570116], [-3.627059667932786, 50.865820261650526]]]}}, {"type": "Feature", "properties": {"type": "postcode-cell", "postcode": "EX17 4LD", "postcodes": ["EX17 4LD"]}, "geometry": {"type": "Polygon", "coordinates": [[[-3.6257252280775267, 50.863677632570116], [-3.6198776684609877, 50.86739112374721], [-3.618093006684326, 50.860302474262134], [-3.625442906242069, 50.861858583644114], [-3.6257252280775267, 50.863677632570116]]]}}, {"type": "Feature", "properties": {"type": "postcode-cell", "postcode": "EX16 8LF", "postcodes": ["EX16 8LF"]}, "geometry": {"type": "Polygon", "coordinates": [[[-3.6161412212907926, 50.889712297912745], [-3.6136482930414506, 50.89083898655773], [-3.6132072496575565, 50.886160142362456], [-3.6159525798721295, 50.885674292936685], [-3.6161412212907926, 50.889712297912745]]]}}, {"type": "Feature", "properties": {"type": "postcode-cell", "postcode": "EX16 8LJ", "postcodes": ["EX16 8LJ"]}, "geometry": {"type": "Polygon", "coordinates": [[[-3.6159525798721295, 50.885674292936685], [-3.6226830232713922, 50.88374136170941], [-3.6242537380857285, 50.88883946299996], [-3.621335431858823, 50.89047423521729], [-3.6180223656892183, 50.890285532252896], [-3.6161412212907926, 50.889712297912745], [-3.6159525798721295, 50.885674292936685]]]}}, {"type": "Feature", "properties": {"type": "postcode-cell", "postcode": "EX17 4LF", "postcodes": ["EX17 4LF"]}, "geometry": {"type": "Polygon", "coordinates": [[[-3.620258115882355, 50.8703535700942], [-3.6144197837098586, 50.87403041740041], [-3.613307619930348, 50.87397847331336], [-3.602411638986241, 50.8635266743988], [-3.602415965376374, 50.86350636790145], [-3.6026449007844605, 50.86280625522967], [-3.6176555814870737, 50.85992799656692], [-3.618093006684326, 50.860302474262134], [-3.6198776684609877, 50.86739112374721], [-3.620258115882355, 50.8703535700942]]]}}, {"type": "Feature", "properties": {"type": "postcode-cell", "postcode": "EX16 8LH", "postcodes": ["EX16 8LH"]}, "geometry": {"type": "Polygon", "coordinates": [[[-3.6159525798721295, 50.885674292936685], [-3.6132072496575565, 50.886160142362456], [-3.606036244018089, 50.885977901503914], [-3.6020897679343378, 50.88485392034526], [-3.603858036142009, 50.877903132465384], [-3.613307619930348, 50.87397847331336], [-3.6144197837098586, 50.87403041740041], [-3.624208867238991, 50.8813759980728], [-3.6226830232713922, 50.88374136170941], [-3.6159525798721295, 50.885674292936685]]]}}, {"type": "Feature", "properties": {"type": "postcode-cell", "postcode": "EX16 8QT", "postcodes": ["EX16 8QT"]}, "geometry": {"type": "Polygon", "coordinates": [[[-3.6339610161550184, 50.899773221941565], [-3.6222633743305814, 50.90629620886401], [-3.615844013417085, 50.90608261417883], [-3.6135368261787586, 50.9007397827444], [-3.6154663532830837, 50.89779378989263], [-3.631126739515908, 50.89802294714572], [-3.6339610161550184, 50.899773221941565]]]}}, {"type": "Feature", "properties": {"type": "postcode-cell", "postcode": "EX16 8LQ", "postcodes": ["EX16 8LQ"]}, "geometry": {"type": "Polygon", "coordinates": [[[-3.6149312748326463, 50.897031983102174], [-3.611566652771883, 50.89486449658327], [-3.6115622480081897, 50.89389184611914], [-3.613271960960817, 50.89165873436546], [-3.6180223656892183, 50.890285532252896], [-3.621335431858823, 50.89047423521729], [-3.6149312748326463, 50.897031983102174]]]}}, {"type": "Feature", "properties": {"type": "postcode-cell", "postcode": "EX16 8LB", "postcodes": ["EX16 8LB"]}, "geometry": {"type": "Polygon", "coordinates": [[[-3.5765550939073134, 50.89945792990461], [-3.5885551237356, 50.89764758650559], [-3.593041184035961, 50.899263853499136], [-3.5940064876160145, 50.90301422545901], [-3.592254451083219, 50.90730749228461], [-3.5920799897009625, 50.90720999488868], [-3.5910399897013043, 50.90503999488694], [-3.5887499897001858, 50.904269994886334], [-3.586169989698386, 50.904559994886576], [-3.5846099896975576, 50.90417999488631], [-3.5838399896969433, 50.904429994886534], [-3.5830399896965353, 50.90419999488635], [-3.582499989696111, 50.90435999488646], [-3.582299989696156, 50.90398999488618], [-3.5808899896953212, 50.90382999488608], [-3.5799599896947543, 50.903759994886016], [-3.5798399896945163, 50.90409999488629], [-3.578979989694043, 50.90392999488616], [-3.576699989692939, 50.903149994885574], [-3.576169989692879, 50.9025499948851], [-3.575269989692293, 50.90255999488512], [-3.574979989692326, 50.90208999488475], [-3.571879989690686, 50.90132999488415], [-3.571628873675049, 50.90113762571671], [-3.5765550939073134, 50.89945792990461]]]}}, {"type": "Feature", "properties": {"type": "postcode-cell", "postcode": "EX16 8LS", "postcodes": ["EX16 8LS"]}, "geometry": {"type": "Polygon", "coordinates": [[[-3.611566652771883, 50.89486449658327], [-3.5977542410432064, 50.89420299251874], [-3.5970339825595556, 50.887375366362335], [-3.6020897679343378, 50.88485392034526], [-3.606036244018089, 50.885977901503914], [-3.6115622480081897, 50.89389184611914], [-3.611566652771883, 50.89486449658327]]]}}, {"type": "Feature", "properties": {"type": "postcode-cell", "postcode": "EX16 8LG", "postcodes": ["EX16 8LG"]}, "geometry": {"type": "Polygon", "coordinates": [[[-3.6180223656892183, 50.890285532252896], [-3.613271960960817, 50.89165873436546], [-3.6136482930414506, 50.89083898655773], [-3.6161412212907926, 50.889712297912745], [-3.6180223656892183, 50.890285532252896]]]}}, {"type": "Feature", "properties": {"type": "postcode-cell", "postcode": "EX16 8LD", "postcodes": ["EX16 8LD"]}, "geometry": {"type": "Polygon", "coordinates": [[[-3.6154663532830837, 50.89779378989263], [-3.6135368261787586, 50.9007397827444], [-3.5940064876160145, 50.90301422545901], [-3.593041184035961, 50.899263853499136], [-3.5977542410432064, 50.89420299251874], [-3.611566652771883, 50.89486449658327], [-3.6149312748326463, 50.897031983102174], [-3.6154663532830837, 50.89779378989263]]]}}, {"type": "Feature", "properties": {"type": "postcode-cell", "postcode": "EX17 4BD", "postcodes": ["EX17 4BD"]}, "geometry": {"type": "Polygon", "coordinates": [[[-3.6176555814870737, 50.85992799656692], [-3.6026449007844605, 50.86280625522967], [-3.6005283989925707, 50.85970966040426], [-3.6027960016126137, 50.854467477200615], [-3.606459413941868, 50.85199854681546], [-3.616116815885477, 50.852703053727836], [-3.619312852956144, 50.85596659888863], [-3.6176555814870737, 50.85992799656692]]]}}, {"type": "Feature", "properties": {"type": "postcode-cell", "postcode": "EX16 8LE", "postcodes": ["EX16 8LE"]}, "geometry": {"type": "Polygon", "coordinates": [[[-3.613271960960817, 50.89165873436546], [-3.6115622480081897, 50.89389184611914], [-3.606036244018089, 50.885977901503914], [-3.6132072496575565, 50.886160142362456], [-3.6136482930414506, 50.89083898655773], [-3.613271960960817, 50.89165873436546]]]}}, {"type": "Feature", "properties": {"type": "postcode-cell", "postcode": "EX17 4BQ", "postcodes": ["EX17 4BQ"]}, "geometry": {"type": "Polygon", "coordinates": [[[-3.6169813015287384, 50.83989321772079], [-3.61081083983843, 50.83970147558546], [-3.6087871699360172, 50.83937584446209], [-3.6027685850793914, 50.83478835782685], [-3.6019989467199003, 50.82917096572345], [-3.616718758983419, 50.83074163208383], [-3.616609989752455, 50.83103999482749], [-3.6179511840365173, 50.830873047784436], [-3.619162663332215, 50.831002216557074], [-3.6201299897539068, 50.83277999482885], [-3.621449989754573, 50.83317999482914], [-3.621589989754089, 50.83439999483011], [-3.6227799897543607, 50.83545999483093], [-3.622789989754072, 50.83608999483144], [-3.6241399897550597, 50.83583999483124], [-3.624139989754089, 50.83790999483289], [-3.6253227234293135, 50.837737449726504], [-3.6236273074129506, 50.83947652602867], [-3.6169813015287384, 50.83989321772079]]]}}, {"type": "Feature", "properties": {"type": "postcode-cell", "postcode": "EX17 4BG", "postcodes": ["EX17 4BG"]}, "geometry": {"type": "Polygon", "coordinates": [[[-3.616116815885477, 50.852703053727836], [-3.606459413941868, 50.85199854681546], [-3.6064195917117496, 50.85189286508718], [-3.6082850438586074, 50.847189291528515], [-3.6099138206751276, 50.846547387067844], [-3.6116077676596774, 50.84630472852762], [-3.61950527172077, 50.84729368426402], [-3.616116815885477, 50.852703053727836]]]}}, {"type": "Feature", "properties": {"type": "postcode-cell", "postcode": "EX17 4JF", "postcodes": ["EX17 4JF"]}, "geometry": {"type": "Polygon", "coordinates": [[[-3.6116077676596774, 50.84630472852762], [-3.6099138206751276, 50.846547387067844], [-3.60973330727795, 50.84513427735812], [-3.6099597631269065, 50.844730341272495], [-3.6107427093173463, 50.84429205829061], [-3.6117473958634494, 50.84431507880767], [-3.6116077676596774, 50.84630472852762]]]}}, {"type": "Feature", "properties": {"type": "postcode-cell", "postcode": "EX17 4HT", "postcodes": ["EX17 4HT"]}, "geometry": {"type": "Polygon", "coordinates": [[[-3.61081083983843, 50.83970147558546], [-3.60947673848992, 50.843539522407454], [-3.6092383812362856, 50.843752991201384], [-3.6089537579157263, 50.843893124680044], [-3.6074445718567363, 50.843859893618756], [-3.6063011742358873, 50.84115990238912], [-3.6087871699360172, 50.83937584446209], [-3.61081083983843, 50.83970147558546]]]}}, {"type": "Feature", "properties": {"type": "postcode-cell", "postcode": "EX17 4JB", "postcodes": ["EX17 4JB"]}, "geometry": {"type": "Polygon", "coordinates": [[[-3.6117473958634494, 50.84431507880767], [-3.6107427093173463, 50.84429205829061], [-3.60947673848992, 50.843539522407454], [-3.61081083983843, 50.83970147558546], [-3.6169813015287384, 50.83989321772079], [-3.6117473958634494, 50.84431507880767]]]}}, {"type": "Feature", "properties": {"type": "postcode-cell", "postcode": "EX17 4JQ", "postcodes": ["EX17 4JQ"]}, "geometry": {"type": "Polygon", "coordinates": [[[-3.60973330727795, 50.84513427735812], [-3.608743808992975, 50.844433353438525], [-3.6089537579157263, 50.843893124680044], [-3.6092383812362856, 50.843752991201384], [-3.6099597631269065, 50.844730341272495], [-3.60973330727795, 50.84513427735812]]]}}, {"type": "Feature", "properties": {"type": "postcode-cell", "postcode": "EX17 4JG", "postcodes": ["EX17 4JG"]}, "geometry": {"type": "Polygon", "coordinates": [[[-3.60947673848992, 50.843539522407454], [-3.6107427093173463, 50.84429205829061], [-3.6099597631269065, 50.844730341272495], [-3.6092383812362856, 50.843752991201384], [-3.60947673848992, 50.843539522407454]]]}}, {"type": "Feature", "properties": {"type": "postcode-cell", "postcode": "EX17 4LG", "postcodes": ["EX17 4LG"]}, "geometry": {"type": "Polygon", "coordinates": [[[-3.613307619930348, 50.87397847331336], [-3.603858036142009, 50.877903132465384], [-3.596243651455019, 50.87579122282312], [-3.593373690367863, 50.87192898792157], [-3.5985942669605606, 50.865450303073246], [-3.602411638986241, 50.8635266743988], [-3.613307619930348, 50.87397847331336]]]}}, {"type": "Feature", "properties": {"type": "postcode-cell", "postcode": "EX16 8PH", "postcodes": ["EX16 8PH"]}, "geometry": {"type": "Polygon", "coordinates": [[[-3.615844013417085, 50.90608261417883], [-3.6097242414904507, 50.912894507035254], [-3.6096699897096767, 50.91287999489301], [-3.608089989708649, 50.91289999489307], [-3.6031699897047176, 50.91449999489439], [-3.598629989701918, 50.914209994894215], [-3.5972099897017262, 50.912659994892984], [-3.5970299897020586, 50.91169999489224], [-3.597859989703332, 50.910119994890934], [-3.597459989703439, 50.90933999489032], [-3.5962799897030027, 50.90863999488977], [-3.594459989701874, 50.90853999488969], [-3.592254451083219, 50.90730749228461], [-3.5940064876160145, 50.90301422545901], [-3.6135368261787586, 50.9007397827444], [-3.615844013417085, 50.90608261417883]]]}}, {"type": "Feature", "properties": {"type": "postcode-cell", "postcode": "EX17 4HZ", "postcodes": ["EX17 4HZ"]}, "geometry": {"type": "Polygon", "coordinates": [[[-3.607533884110239, 50.84494107379654], [-3.608743808992975, 50.844433353438525], [-3.60973330727795, 50.84513427735812], [-3.6099138206751276, 50.846547387067844], [-3.6082850438586074, 50.847189291528515], [-3.608118603294058, 50.84704981956407], [-3.607497288623321, 50.845057546434674], [-3.607533884110239, 50.84494107379654]]]}}, {"type": "Feature", "properties": {"type": "postcode-cell", "postcode": "EX17 4JH", "postcodes": ["EX17 4JH"]}, "geometry": {"type": "Polygon", "coordinates": [[[-3.607497288623321, 50.845057546434674], [-3.6057325961785476, 50.84476252202299], [-3.6057471822929488, 50.84464249687295], [-3.60616079837693, 50.84415821976172], [-3.607195224364841, 50.844173063667476], [-3.607533884110239, 50.84494107379654], [-3.607497288623321, 50.845057546434674]]]}}, {"type": "Feature", "properties": {"type": "postcode-cell", "postcode": "EX17 4BB", "postcodes": ["EX17 4BB"]}, "geometry": {"type": "Polygon", "coordinates": [[[-3.6082850438586074, 50.847189291528515], [-3.6064195917117496, 50.85189286508718], [-3.601454287005706, 50.84817828185917], [-3.6033614550195026, 50.84633865559549], [-3.603697650951871, 50.84615149962634], [-3.6055823353307774, 50.846057798657675], [-3.608118603294058, 50.84704981956407], [-3.6082850438586074, 50.847189291528515]]]}}, {"type": "Feature", "properties": {"type": "postcode-cell", "postcode": "EX17 4JA", "postcodes": ["EX17 4JA"]}, "geometry": {"type": "Polygon", "coordinates": [[[-3.607195224364841, 50.844173063667476], [-3.6074445718567363, 50.843859893618756], [-3.6089537579157263, 50.843893124680044], [-3.608743808992975, 50.844433353438525], [-3.607533884110239, 50.84494107379654], [-3.607195224364841, 50.844173063667476]]]}}, {"type": "Feature", "properties": {"type": "postcode-cell", "postcode": "EX17 4JP", "postcodes": ["EX17 4JP"]}, "geometry": {"type": "Polygon", "coordinates": [[[-3.605690940115913, 50.84371916022821], [-3.604945497869943, 50.84418649306227], [-3.604772566208813, 50.844201394452696], [-3.6043533377582104, 50.84402555096758], [-3.603950044332593, 50.84291684844985], [-3.6039179488874593, 50.84200331212975], [-3.6053240799682045, 50.841616897482275], [-3.605690940115913, 50.84371916022821]]]}}, {"type": "Feature", "properties": {"type": "postcode-cell", "postcode": "EX17 4HU", "postcodes": ["EX17 4HU"]}, "geometry": {"type": "Polygon", "coordinates": [[[-3.6053240799682045, 50.841616897482275], [-3.6063011742358873, 50.84115990238912], [-3.6074445718567363, 50.843859893618756], [-3.607195224364841, 50.844173063667476], [-3.60616079837693, 50.84415821976172], [-3.605690940115913, 50.84371916022821], [-3.6053240799682045, 50.841616897482275]]]}}, {"type": "Feature", "properties": {"type": "postcode-cell", "postcode": "EX17 4JR", "postcodes": ["EX17 4JR"]}, "geometry": {"type": "Polygon", "coordinates": [[[-3.6063011742358873, 50.84115990238912], [-3.6053240799682045, 50.841616897482275], [-3.6039179488874593, 50.84200331212975], [-3.6006409075567696, 50.84222835333401], [-3.5966908221752423, 50.83990812153367], [-3.6027685850793914, 50.83478835782685], [-3.6087871699360172, 50.83937584446209], [-3.6063011742358873, 50.84115990238912]]]}}, {"type": "Feature", "properties": {"type": "postcode-cell", "postcode": "EX17 4JY", "postcodes": ["EX17 4JY"]}, "geometry": {"type": "Polygon", "coordinates": [[[-3.608118603294058, 50.84704981956407], [-3.6055823353307774, 50.846057798657675], [-3.605325735442365, 50.84526158406856], [-3.6054092220405636, 50.84499339116969], [-3.6057325961785476, 50.84476252202299], [-3.607497288623321, 50.845057546434674], [-3.608118603294058, 50.84704981956407]]]}}, {"type": "Feature", "properties": {"type": "postcode-cell", "postcode": "EX17 4JW", "postcodes": ["EX17 4JW"]}, "geometry": {"type": "Polygon", "coordinates": [[[-3.605690940115913, 50.84371916022821], [-3.60616079837693, 50.84415821976172], [-3.6057471822929488, 50.84464249687295], [-3.604945497869943, 50.84418649306227], [-3.605690940115913, 50.84371916022821]]]}}, {"type": "Feature", "properties": {"type": "postcode-cell", "postcode": "EX17 4JJ", "postcodes": ["EX17 4JJ"]}, "geometry": {"type": "Polygon", "coordinates": [[[-3.6054092220405636, 50.84499339116969], [-3.6046286455065357, 50.84465448936108], [-3.604772566208813, 50.844201394452696], [-3.604945497869943, 50.84418649306227], [-3.6057471822929488, 50.84464249687295], [-3.6057325961785476, 50.84476252202299], [-3.6054092220405636, 50.84499339116969]]]}}, {"type": "Feature", "properties": {"type": "postcode-cell", "postcode": "EX17 4HX", "postcodes": ["EX17 4HX"]}, "geometry": {"type": "Polygon", "coordinates": [[[-3.605325735442365, 50.84526158406856], [-3.603843811114844, 50.84510972408764], [-3.6036481256404347, 50.84480133446493], [-3.6046286455065357, 50.84465448936108], [-3.6054092220405636, 50.84499339116969], [-3.605325735442365, 50.84526158406856]]]}}, {"type": "Feature", "properties": {"type": "postcode-cell", "postcode": "EX17 4HY", "postcodes": ["EX17 4HY"]}, "geometry": {"type": "Polygon", "coordinates": [[[-3.6043533377582104, 50.84402555096758], [-3.6033849639209374, 50.844649771072994], [-3.603134317891284, 50.84448778158915], [-3.603950044332593, 50.84291684844985], [-3.6043533377582104, 50.84402555096758]]]}}, {"type": "Feature", "properties": {"type": "postcode-cell", "postcode": "EX17 4JN", "postcodes": ["EX17 4JN"]}, "geometry": {"type": "Polygon", "coordinates": [[[-3.603950044332593, 50.84291684844985], [-3.603134317891284, 50.84448778158915], [-3.6003690198377303, 50.84374801268705], [-3.6006409075567696, 50.84222835333401], [-3.6039179488874593, 50.84200331212975], [-3.603950044332593, 50.84291684844985]]]}}, {"type": "Feature", "properties": {"type": "postcode-cell", "postcode": "EX17 4AN", "postcodes": ["EX17 4AN"]}, "geometry": {"type": "Polygon", "coordinates": [[[-3.601454287005706, 50.84817828185917], [-3.600493041500644, 50.84786598698126], [-3.6009974034121552, 50.845197764658465], [-3.6020147461833902, 50.84530720883472], [-3.6033614550195026, 50.84633865559549], [-3.601454287005706, 50.84817828185917]]]}}, {"type": "Feature", "properties": {"type": "postcode-cell", "postcode": "EX17 4JL", "postcodes": ["EX17 4JL"]}, "geometry": {"type": "Polygon", "coordinates": [[[-3.6033963650025127, 50.84466902912124], [-3.6033849639209374, 50.844649771072994], [-3.6043533377582104, 50.84402555096758], [-3.604772566208813, 50.844201394452696], [-3.6046286455065357, 50.84465448936108], [-3.6036481256404347, 50.84480133446493], [-3.6033963650025127, 50.84466902912124]]]}}, {"type": "Feature", "properties": {"type": "postcode-cell", "postcode": "EX17 4BP", "postcodes": ["EX17 4BP"]}, "geometry": {"type": "Polygon", "coordinates": [[[-3.6036481256404347, 50.84480133446493], [-3.603843811114844, 50.84510972408764], [-3.6036797630553683, 50.846025235984015], [-3.6026874805609035, 50.84515706668112], [-3.6033963650025127, 50.84466902912124], [-3.6036481256404347, 50.84480133446493]]]}}, {"type": "Feature", "properties": {"type": "postcode-cell", "postcode": "EX17 4AL", "postcodes": ["EX17 4AL"]}, "geometry": {"type": "Polygon", "coordinates": [[[-3.606459413941868, 50.85199854681546], [-3.6027960016126137, 50.854467477200615], [-3.5973423245362666, 50.852214716023134], [-3.5983615623657004, 50.84778101887996], [-3.598868846841858, 50.84774244697686], [-3.600493041500644, 50.84786598698126], [-3.601454287005706, 50.84817828185917], [-3.6064195917117496, 50.85189286508718], [-3.606459413941868, 50.85199854681546]]]}}, {"type": "Feature", "properties": {"type": "postcode-cell", "postcode": "EX17 4LJ", "postcodes": ["EX17 4LJ"]}, "geometry": {"type": "Polygon", "coordinates": [[[-3.603843811114844, 50.84510972408764], [-3.605325735442365, 50.84526158406856], [-3.6055823353307774, 50.846057798657675], [-3.603697650951871, 50.84615149962634], [-3.6036797630553683, 50.846025235984015], [-3.603843811114844, 50.84510972408764]]]}}, {"type": "Feature", "properties": {"type": "postcode-cell", "postcode": "EX17 4BW", "postcodes": ["EX17 4BW"]}, "geometry": {"type": "Polygon", "coordinates": [[[-3.6033614550195026, 50.84633865559549], [-3.6020147461833902, 50.84530720883472], [-3.6026874805609035, 50.84515706668112], [-3.6036797630553683, 50.846025235984015], [-3.603697650951871, 50.84615149962634], [-3.6033614550195026, 50.84633865559549]]]}}, {"type": "Feature", "properties": {"type": "postcode-cell", "postcode": "EX16 8LT", "postcodes": ["EX16 8LT"]}, "geometry": {"type": "Polygon", "coordinates": [[[-3.593041184035961, 50.899263853499136], [-3.5885551237356, 50.89764758650559], [-3.5812691927385574, 50.89264552328717], [-3.5797300631470783, 50.891183442804476], [-3.5916355829079656, 50.88642106165187], [-3.5970339825595556, 50.887375366362335], [-3.5977542410432064, 50.89420299251874], [-3.593041184035961, 50.899263853499136]]]}}, {"type": "Feature", "properties": {"type": "postcode-cell", "postcode": "EX17 4JX", "postcodes": ["EX17 4JX"]}, "geometry": {"type": "Polygon", "coordinates": [[[-3.6033963650025127, 50.84466902912124], [-3.6026874805609035, 50.84515706668112], [-3.6020147461833902, 50.84530720883472], [-3.6009974034121552, 50.845197764658465], [-3.6004639150092643, 50.84440499706084], [-3.600272561792355, 50.84388260229894], [-3.6003690198377303, 50.84374801268705], [-3.603134317891284, 50.84448778158915], [-3.6033849639209374, 50.844649771072994], [-3.6033963650025127, 50.84466902912124]]]}}, {"type": "Feature", "properties": {"type": "postcode-cell", "postcode": "EX17 4HE", "postcodes": ["EX17 4HE"]}, "geometry": {"type": "Polygon", "coordinates": [[[-3.6006409075567696, 50.84222835333401], [-3.6003690198377303, 50.84374801268705], [-3.600272561792355, 50.84388260229894], [-3.5979205188969616, 50.84456580352278], [-3.5956380623731814, 50.84470142052244], [-3.5894770879055455, 50.84266023054709], [-3.5894340185370166, 50.84245219996649], [-3.5917771039828725, 50.840794667338976], [-3.5966908221752423, 50.83990812153367], [-3.6006409075567696, 50.84222835333401]]]}}, {"type": "Feature", "properties": {"type": "postcode-cell", "postcode": "EX17 4BA", "postcodes": ["EX17 4BA"]}, "geometry": {"type": "Polygon", "coordinates": [[[-3.6027685850793914, 50.83478835782685], [-3.5966908221752423, 50.83990812153367], [-3.5917771039828725, 50.840794667338976], [-3.5896520256498152, 50.833182203287876], [-3.589999989734321, 50.833199994829535], [-3.594299989737151, 50.833059994829384], [-3.5970999897391573, 50.83261999482899], [-3.598499989739791, 50.833189994829425], [-3.600089989740712, 50.833399994829556], [-3.6022799897421907, 50.83325999482945], [-3.6018399897435716, 50.8297099948266], [-3.6019073294228536, 50.829108142257994], [-3.6019989467199003, 50.82917096572345], [-3.6027685850793914, 50.83478835782685]]]}}, {"type": "Feature", "properties": {"type": "postcode-cell", "postcode": "EX17 4BL", "postcodes": ["EX17 4BL"]}, "geometry": {"type": "Polygon", "coordinates": [[[-3.6009974034121552, 50.845197764658465], [-3.600493041500644, 50.84786598698126], [-3.598868846841858, 50.84774244697686], [-3.598831068544623, 50.845976321091435], [-3.6004639150092643, 50.84440499706084], [-3.6009974034121552, 50.845197764658465]]]}}, {"type": "Feature", "properties": {"type": "postcode-cell", "postcode": "EX17 4HA", "postcodes": ["EX17 4HA"]}, "geometry": {"type": "Polygon", "coordinates": [[[-3.6004639150092643, 50.84440499706084], [-3.598831068544623, 50.845976321091435], [-3.5979205188969616, 50.84456580352278], [-3.600272561792355, 50.84388260229894], [-3.6004639150092643, 50.84440499706084]]]}}, {"type": "Feature", "properties": {"type": "postcode-cell", "postcode": "EX17 4HH", "postcodes": ["EX17 4HH"]}, "geometry": {"type": "Polygon", "coordinates": [[[-3.602415965376374, 50.86350636790145], [-3.58840623481605, 50.86250814228834], [-3.5867400348381566, 50.86048623226701], [-3.5929602253656583, 50.85814117776103], [-3.6005283989925707, 50.85970966040426], [-3.6026449007844605, 50.86280625522967], [-3.602415965376374, 50.86350636790145]]]}}, {"type": "Feature", "properties": {"type": "postcode-cell", "postcode": "EX16 8LX", "postcodes": ["EX16 8LX"]}, "geometry": {"type": "Polygon", "coordinates": [[[-3.6020897679343378, 50.88485392034526], [-3.5970339825595556, 50.887375366362335], [-3.5916355829079656, 50.88642106165187], [-3.5849917938054365, 50.88065411683164], [-3.5853011608145207, 50.87974741380323], [-3.596243651455019, 50.87579122282312], [-3.603858036142009, 50.877903132465384], [-3.6020897679343378, 50.88485392034526]]]}}, {"type": "Feature", "properties": {"type": "postcode-cell", "postcode": "EX17 4HF", "postcodes": ["EX17 4HF"]}, "geometry": {"type": "Polygon", "coordinates": [[[-3.5973423245362666, 50.852214716023134], [-3.5872166381187394, 50.84998703651195], [-3.58727869539946, 50.84991101632474], [-3.5979006151717767, 50.84773389500781], [-3.5983615623657004, 50.84778101887996], [-3.5973423245362666, 50.852214716023134]]]}}, {"type": "Feature", "properties": {"type": "postcode-cell", "postcode": "EX17 4HG", "postcodes": ["EX17 4HG"]}, "geometry": {"type": "Polygon", "coordinates": [[[-3.6027960016126137, 50.854467477200615], [-3.6005283989925707, 50.85970966040426], [-3.5929602253656583, 50.85814117776103], [-3.586797568563718, 50.852495223130745], [-3.5866842546406175, 50.85028345747386], [-3.5872166381187394, 50.84998703651195], [-3.5973423245362666, 50.852214716023134], [-3.6027960016126137, 50.854467477200615]]]}}, {"type": "Feature", "properties": {"type": "postcode-cell", "postcode": "EX17 4HB", "postcodes": ["EX17 4HB"]}, "geometry": {"type": "Polygon", "coordinates": [[[-3.598868846841858, 50.84774244697686], [-3.5983615623657004, 50.84778101887996], [-3.5979006151717767, 50.84773389500781], [-3.5956380623731814, 50.84470142052244], [-3.5979205188969616, 50.84456580352278], [-3.598831068544623, 50.845976321091435], [-3.598868846841858, 50.84774244697686]]]}}, {"type": "Feature", "properties": {"type": "postcode-cell", "postcode": "EX17 4JS", "postcodes": ["EX17 4JS"]}, "geometry": {"type": "Polygon", "coordinates": [[[-3.5917771039828725, 50.840794667338976], [-3.5894340185370166, 50.84245219996649], [-3.57727918885689, 50.839198422975535], [-3.5711550530465237, 50.83296672084133], [-3.5772799897265974, 50.83224999482895], [-3.5810099897287615, 50.83273999482928], [-3.5896520256498152, 50.833182203287876], [-3.5917771039828725, 50.840794667338976]]]}}, {"type": "Feature", "properties": {"type": "postcode-cell", "postcode": "EX17 4HD", "postcodes": ["EX17 4HD"]}, "geometry": {"type": "Polygon", "coordinates": [[[-3.5979006151717767, 50.84773389500781], [-3.58727869539946, 50.84991101632474], [-3.5894770879055455, 50.84266023054709], [-3.5956380623731814, 50.84470142052244], [-3.5979006151717767, 50.84773389500781]]]}}, {"type": "Feature", "properties": {"type": "postcode-cell", "postcode": "EX17 4JU", "postcodes": ["EX17 4JU"]}, "geometry": {"type": "Polygon", "coordinates": [[[-3.5866842546406175, 50.85028345747386], [-3.575175817043853, 50.84894832992184], [-3.57727918885689, 50.839198422975535], [-3.5894340185370166, 50.84245219996649], [-3.5894770879055455, 50.84266023054709], [-3.58727869539946, 50.84991101632474], [-3.5872166381187394, 50.84998703651195], [-3.5866842546406175, 50.85028345747386]]]}}, {"type": "Feature", "properties": {"type": "postcode-cell", "postcode": "EX16 8LZ", "postcodes": ["EX16 8LZ"]}, "geometry": {"type": "Polygon", "coordinates": [[[-3.5853011608145207, 50.87974741380323], [-3.57821954588065, 50.87170872652991], [-3.582710232393437, 50.87043116757101], [-3.593373690367863, 50.87192898792157], [-3.596243651455019, 50.87579122282312], [-3.5853011608145207, 50.87974741380323]]]}}, {"type": "Feature", "properties": {"type": "postcode-cell", "postcode": "EX17 4HJ", "postcodes": ["EX17 4HJ"]}, "geometry": {"type": "Polygon", "coordinates": [[[-3.602411638986241, 50.8635266743988], [-3.5985942669605606, 50.865450303073246], [-3.588728516548971, 50.86558577103629], [-3.58840623481605, 50.86250814228834], [-3.602415965376374, 50.86350636790145], [-3.602411638986241, 50.8635266743988]]]}}, {"type": "Feature", "properties": {"type": "postcode-cell", "postcode": "EX17 4HQ", "postcodes": ["EX17 4HQ"]}, "geometry": {"type": "Polygon", "coordinates": [[[-3.5867400348381566, 50.86048623226701], [-3.582739441364619, 50.86062470994843], [-3.5787654786414955, 50.85932144765818], [-3.586797568563718, 50.852495223130745], [-3.5929602253656583, 50.85814117776103], [-3.5867400348381566, 50.86048623226701]]]}}, {"type": "Feature", "properties": {"type": "postcode-cell", "postcode": "EX17 4HL", "postcodes": ["EX17 4HL"]}, "geometry": {"type": "Polygon", "coordinates": [[[-3.593373690367863, 50.87192898792157], [-3.582710232393437, 50.87043116757101], [-3.5857412173054017, 50.86653617113824], [-3.588728516548971, 50.86558577103629], [-3.5985942669605606, 50.865450303073246], [-3.593373690367863, 50.87192898792157]]]}}, {"type": "Feature", "properties": {"type": "postcode-cell", "postcode": "EX17 4HN", "postcodes": ["EX17 4HN"]}, "geometry": {"type": "Polygon", "coordinates": [[[-3.5857412173054017, 50.86653617113824], [-3.5840438127013887, 50.86433690955431], [-3.582739441364619, 50.86062470994843], [-3.5867400348381566, 50.86048623226701], [-3.58840623481605, 50.86250814228834], [-3.588728516548971, 50.86558577103629], [-3.5857412173054017, 50.86653617113824]]]}}, {"type": "Feature", "properties": {"type": "postcode-cell", "postcode": "EX17 4JT", "postcodes": ["EX17 4JT"]}, "geometry": {"type": "Polygon", "coordinates": [[[-3.57727918885689, 50.839198422975535], [-3.575175817043853, 50.84894832992184], [-3.5704315388756567, 50.85052307452153], [-3.5614365892841207, 50.847957573091335], [-3.5615099897095526, 50.846969994840876], [-3.56251998971126, 50.84471999483905], [-3.5634899897122905, 50.84384999483836], [-3.563439989712707, 50.842899994837595], [-3.563759989712913, 50.84289999483761], [-3.5653799897154954, 50.83961999483498], [-3.5670599897172446, 50.8381899948338], [-3.568319989718331, 50.837599994833326], [-3.5680299897197583, 50.83416999483059], [-3.5672799897196312, 50.833419994829995], [-3.5711550530465237, 50.83296672084133], [-3.57727918885689, 50.839198422975535]]]}}, {"type": "Feature", "properties": {"type": "postcode-cell", "postcode": "EX16 8LU", "postcodes": ["EX16 8LU"]}, "geometry": {"type": "Polygon", "coordinates": [[[-3.5916355829079656, 50.88642106165187], [-3.5797300631470783, 50.891183442804476], [-3.5757728639506254, 50.89039513482126], [-3.572089678166529, 50.884555453975544], [-3.5849917938054365, 50.88065411683164], [-3.5916355829079656, 50.88642106165187]]]}}, {"type": "Feature", "properties": {"type": "postcode-cell", "postcode": "EX17 4HP", "postcodes": ["EX17 4HP"]}, "geometry": {"type": "Polygon", "coordinates": [[[-3.57821954588065, 50.87170872652991], [-3.5724472376626464, 50.8710261594855], [-3.5725299897053966, 50.87086999485981], [-3.5686599897039777, 50.868589994858034], [-3.5687399897048837, 50.86676999485656], [-3.5681999897049574, 50.865879994855874], [-3.5681865469937546, 50.865732839407386], [-3.5840438127013887, 50.86433690955431], [-3.5857412173054017, 50.86653617113824], [-3.582710232393437, 50.87043116757101], [-3.57821954588065, 50.87170872652991]]]}}, {"type": "Feature", "properties": {"type": "postcode-cell", "postcode": "EX17 4HW", "postcodes": ["EX17 4HW"]}, "geometry": {"type": "Polygon", "coordinates": [[[-3.5840438127013887, 50.86433690955431], [-3.5681865469937546, 50.865732839407386], [-3.5680099897058124, 50.86379999485421], [-3.567440075142385, 50.86300524006662], [-3.5713527520294166, 50.85986349886997], [-3.5787654786414955, 50.85932144765818], [-3.582739441364619, 50.86062470994843], [-3.5840438127013887, 50.86433690955431]]]}}, {"type": "Feature", "properties": {"type": "postcode-cell", "postcode": "EX16 8LY", "postcodes": ["EX16 8LY"]}, "geometry": {"type": "Polygon", "coordinates": [[[-3.5849917938054365, 50.88065411683164], [-3.572089678166529, 50.884555453975544], [-3.565060809648986, 50.88178411742183], [-3.563560763057889, 50.87934179177165], [-3.5639699896958814, 50.879409994866734], [-3.5644999896964555, 50.87890999486631], [-3.5644699896971184, 50.87745999486516], [-3.5659899896986786, 50.87621999486416], [-3.569679989701477, 50.87530999486338], [-3.571369989702899, 50.87459999486278], [-3.572019989703706, 50.873769994862116], [-3.574989989706187, 50.87254999486109], [-3.5732999897055757, 50.87153999486033], [-3.5719099897044475, 50.87203999486075], [-3.5724472376626464, 50.8710261594855], [-3.57821954588065, 50.87170872652991], [-3.5853011608145207, 50.87974741380323], [-3.5849917938054365, 50.88065411683164]]]}}, {"type": "Feature", "properties": {"type": "postcode-cell", "postcode": "EX17 4HR", "postcodes": ["EX17 4HR"]}, "geometry": {"type": "Polygon", "coordinates": [[[-3.586797568563718, 50.852495223130745], [-3.5787654786414955, 50.85932144765818], [-3.5713527520294166, 50.85986349886997], [-3.5704315388756567, 50.85052307452153], [-3.575175817043853, 50.84894832992184], [-3.5866842546406175, 50.85028345747386], [-3.586797568563718, 50.852495223130745]]]}}, {"type": "Feature", "properties": {"type": "postcode-cell", "postcode": "EX16 8NB", "postcodes": ["EX16 8NB"]}, "geometry": {"type": "Polygon", "coordinates": [[[-3.5812691927385574, 50.89264552328717], [-3.5765550939073134, 50.89945792990461], [-3.571628873675049, 50.90113762571671], [-3.5701699896901986, 50.90001999488314], [-3.5699699896905472, 50.89899999488232], [-3.5694999896903776, 50.89871999488209], [-3.569299989690134, 50.89895999488228], [-3.568829989690136, 50.898309994881785], [-3.5679099896895208, 50.89835999488183], [-3.5674999896894497, 50.8979499948815], [-3.5658999896885004, 50.89777999488139], [-3.565889989688613, 50.89751999488117], [-3.5655387547911435, 50.89751201572433], [-3.5757728639506254, 50.89039513482126], [-3.5797300631470783, 50.891183442804476], [-3.5812691927385574, 50.89264552328717]]]}}, {"type": "Feature", "properties": {"type": "postcode-cell", "postcode": "EX16 8HS", "postcodes": ["EX16 8HS"]}, "geometry": {"type": "Polygon", "coordinates": [[[-3.5704315388756567, 50.85052307452153], [-3.5713527520294166, 50.85986349886997], [-3.567440075142385, 50.86300524006662], [-3.5665399897058316, 50.86174999485261], [-3.565409989705386, 50.86114999485215], [-3.5612399897029587, 50.86061999485174], [-3.560829989703005, 50.85995999485122], [-3.5590799897018854, 50.85994999485125], [-3.5578599897015164, 50.85906999485056], [-3.5549099897012244, 50.855669994847894], [-3.5563099897023633, 50.855159994847455], [-3.555569989702877, 50.85305999484581], [-3.5574999897037274, 50.853879994846416], [-3.5589799897047776, 50.85366999484625], [-3.558319989705139, 50.851999994844924], [-3.559309989705934, 50.85165999484464], [-3.559929989707612, 50.84893999484247], [-3.5606899897082553, 50.848609994842185], [-3.560439989708227, 50.84832999484197], [-3.5613999897087845, 50.84844999484204], [-3.5614365892841207, 50.847957573091335], [-3.5704315388756567, 50.85052307452153]]]}}, {"type": "Feature", "properties": {"type": "postcode-cell", "postcode": "EX16 8NF", "postcodes": ["EX16 8NF"]}, "geometry": {"type": "Polygon", "coordinates": [[[-3.5885551237356, 50.89764758650559], [-3.5765550939073134, 50.89945792990461], [-3.5812691927385574, 50.89264552328717], [-3.5885551237356, 50.89764758650559]]]}}, {"type": "Feature", "properties": {"type": "postcode-cell", "postcode": "EX16 8NA", "postcodes": ["EX16 8NA"]}, "geometry": {"type": "Polygon", "coordinates": [[[-3.565060809648986, 50.88178411742183], [-3.572089678166529, 50.884555453975544], [-3.5757728639506254, 50.89039513482126], [-3.5655387547911435, 50.89751201572433], [-3.563249989686944, 50.897459994881174], [-3.562739989686688, 50.89730999488105], [-3.56294998968697, 50.89698999488079], [-3.5605199896859516, 50.895829994879875], [-3.560379989686085, 50.895359994879534], [-3.5598799896857347, 50.89541999487956], [-3.558909989685343, 50.89491999487918], [-3.558409989684925, 50.89512999487936], [-3.5573499896845373, 50.89449999487885], [-3.5558199896835676, 50.89446999487886], [-3.5551599896833537, 50.89401999487851], [-3.5527102494385323, 50.89360084186922], [-3.565060809648986, 50.88178411742183]]]}}, {"type": "Feature", "properties": {"type": "postcode-cell", "postcode": "EX16 8HX", "postcodes": ["EX16 8HX"]}, "geometry": {"type": "Polygon", "coordinates": [[[-3.565060809648986, 50.88178411742183], [-3.5527102494385323, 50.89360084186922], [-3.550659989680824, 50.893249994877934], [-3.5507699896809966, 50.89302999487775], [-3.549799989680543, 50.89266999487749], [-3.549719989680718, 50.892189994877086], [-3.5491299896804747, 50.89189999487686], [-3.549389989681351, 50.89038999487566], [-3.54907998968117, 50.89034999487563], [-3.5494499896815452, 50.890059994875394], [-3.5485299896810196, 50.88991999487529], [-3.548289989681001, 50.88962999487507], [-3.5486099896813137, 50.88939999487488], [-3.5482299896810297, 50.88948999487496], [-3.5470999896806887, 50.88866999487431], [-3.545399989679786, 50.888269994874015], [-3.5447599896796333, 50.88771999487358], [-3.541369989677808, 50.886969994873006], [-3.5410399896779023, 50.88631999487251], [-3.5420399896790205, 50.88530999487169], [-3.5441599896800855, 50.885939994872174], [-3.545129989681084, 50.88513999487152], [-3.545539989681298, 50.8852399948716], [-3.5476999896830157, 50.884539994871005], [-3.5487799896836525, 50.88465999487109], [-3.5516499896859575, 50.88367999487026], [-3.5543599896877636, 50.88353999487014], [-3.555259989688551, 50.883099994869795], [-3.55606998968898, 50.883289994869926], [-3.556619989690005, 50.881859994868755], [-3.557449989690764, 50.88137999486837], [-3.5600499896926747, 50.88086999486794], [-3.5609599896938335, 50.87964999486695], [-3.5628899896952704, 50.87922999486658], [-3.563560763057889, 50.87934179177165], [-3.565060809648986, 50.88178411742183]]]}}]}