{"type": "FeatureCollection", "features": [{"type": "Feature", "properties": {"type": "ward-outline", "name": "Westward Ho!"}, "geometry": {"type": "Polygon", "coordinates": [[[-4.21769, 51.04433], [-4.22399, 51.04369], [-4.22273, 51.04222], [-4.22321, 51.04204], [-4.22204, 51.04048], [-4.21953, 51.04079], [-4.2192, 51.04043], [-4.22004, 51.04049], [-4.22142, 51.03969], [-4.22217, 51.03979], [-4.22513, 51.03882], [-4.22895, 51.03851], [-4.22888, 51.03806], [-4.22939, 51.03805], [-4.22947, 51.03739], [-4.22874, 51.03739], [-4.22833, 51.03577], [-4.22641, 51.03594], [-4.22566, 51.0345], [-4.22385, 51.03477], [-4.22295, 51.03459], [-4.2263, 51.03354], [-4.23174, 51.03242], [-4.23295, 51.03147], [-4.24155, 51.03207], [-4.24671, 51.03198], [-4.24904, 51.03299], [-4.24827, 51.03496], [-4.24856, 51.03622], [-4.24826, 51.03768], [-4.25558, 51.03768], [-4.25661, 51.03837], [-4.25661, 51.03837], [-4.25599, 51.03893], [-4.25543, 51.03883], [-4.25271, 51.0396], [-4.24506, 51.04055], [-4.24453, 51.04086], [-4.24278, 51.04061], [-4.23869, 51.04118], [-4.2371, 51.04284], [-4.23647, 51.04293], [-4.23076, 51.05324], [-4.22943, 51.05243], [-4.22804, 51.05107], [-4.21939, 51.04636], [-4.21769, 51.04433]]]}}, {"type": "Feature", "properties": {"type": "postcode-cell", "postcode": "EX39 1JU", "postcodes": ["EX39 1JU"]}, "geometry": {"type": "Polygon", "coordinates": [[[-4.246338135519118, 51.039699722155895], [-4.248909254913375, 51.03840113285903], [-4.256331656688634, 51.03818354160316], [-4.256609990085219, 51.03836999499043], [-4.255989990084546, 51.0389299949909], [-4.255429990084203, 51.038829994990806], [-4.252709990081993, 51.039599994991484], [-4.246696559579995, 51.040346806106996], [-4.246338135519118, 51.039699722155895]]]}}, {"type": "Feature", "properties": {"type": "postcode-cell", "postcode": "EX39 1XL", "postcodes": ["EX39 1XL"]}, "geometry": {"type": "Polygon", "coordinates": [[[-4.247179271073229, 51.03661540210545], [-4.2467920679468865, 51.036129942279125], [-4.248444076685224, 51.032731689304796], [-4.2490399900823626, 51.032989994986], [-4.248269990080968, 51.03495999498764], [-4.248559990080616, 51.03621999498869], [-4.248463628250646, 51.03668896523885], [-4.247179271073229, 51.03661540210545]]]}}, {"type": "Feature", "properties": {"type": "postcode-cell", "postcode": "EX39 1GR", "postcodes": ["EX39 1GR"]}, "geometry": {"type": "Polygon", "coordinates": [[[-4.246118256293274, 51.03236991034173], [-4.241346921339961, 51.03362436390886], [-4.240126401715971, 51.03372028679086], [-4.23836445990862, 51.03206534875543], [-4.238422202316371, 51.03185185246984], [-4.241549990077611, 51.03206999498531], [-4.246598143003677, 51.03198194822579], [-4.246118256293274, 51.03236991034173]]]}}, {"type": "Feature", "properties": {"type": "postcode-cell", "postcode": "EX39 1XH", "postcodes": ["EX39 1XH"]}, "geometry": {"type": "Polygon", "coordinates": [[[-4.246598143003677, 51.03198194822579], [-4.246709990081201, 51.03197999498519], [-4.248444076685224, 51.032731689304796], [-4.2467920679468865, 51.036129942279125], [-4.245180186065434, 51.03653055916425], [-4.244712115823059, 51.03393931561301], [-4.246118256293274, 51.03236991034173], [-4.246598143003677, 51.03198194822579]]]}}, {"type": "Feature", "properties": {"type": "postcode-cell", "postcode": "EX39 1GZ", "postcodes": ["EX39 1GZ"]}, "geometry": {"type": "Polygon", "coordinates": [[[-4.244853740247734, 51.03957958603775], [-4.245280552271437, 51.039437139832344], [-4.246338135519118, 51.039699722155895], [-4.246696559579995, 51.040346806106996], [-4.245059990076304, 51.0405499949923], [-4.2445299900758044, 51.04085999499254], [-4.244507827135385, 51.0408568290398], [-4.244853740247734, 51.03957958603775]]]}}, {"type": "Feature", "properties": {"type": "postcode-cell", "postcode": "EX39 1XQ", "postcodes": ["EX39 1XQ"]}, "geometry": {"type": "Polygon", "coordinates": [[[-4.247179271073229, 51.03661540210545], [-4.245705125271698, 51.03770798406686], [-4.2453994776179025, 51.0377027398441], [-4.2452752368406825, 51.03765452087479], [-4.245227944714464, 51.03762816255919], [-4.245111847334312, 51.03667724706372], [-4.245180186065434, 51.03653055916425], [-4.2467920679468865, 51.036129942279125], [-4.247179271073229, 51.03661540210545]]]}}, {"type": "Feature", "properties": {"type": "postcode-cell", "postcode": "EX39 1XJ", "postcodes": ["EX39 1XJ"]}, "geometry": {"type": "Polygon", "coordinates": [[[-4.248909254913375, 51.03840113285903], [-4.245705125271698, 51.03770798406686], [-4.247179271073229, 51.03661540210545], [-4.248463628250646, 51.03668896523885], [-4.2482599900797675, 51.0376799949899], [-4.2555799900848115, 51.037679994989865], [-4.256331656688634, 51.03818354160316], [-4.248909254913375, 51.03840113285903]]]}}, {"type": "Feature", "properties": {"type": "postcode-cell", "postcode": "EX39 1FP", "postcodes": ["EX39 1FP"]}, "geometry": {"type": "Polygon", "coordinates": [[[-4.2453994776179025, 51.0377027398441], [-4.245280552271437, 51.039437139832344], [-4.244853740247734, 51.03957958603775], [-4.243412254367869, 51.03940620227371], [-4.24339022000858, 51.03915048960976], [-4.2452752368406825, 51.03765452087479], [-4.2453994776179025, 51.0377027398441]]]}}, {"type": "Feature", "properties": {"type": "postcode-cell", "postcode": "EX39 1JS", "postcodes": ["EX39 1JS"]}, "geometry": {"type": "Polygon", "coordinates": [[[-4.248909254913375, 51.03840113285903], [-4.246338135519118, 51.039699722155895], [-4.245280552271437, 51.039437139832344], [-4.2453994776179025, 51.0377027398441], [-4.245705125271698, 51.03770798406686], [-4.248909254913375, 51.03840113285903]]]}}, {"type": "Feature", "properties": {"type": "postcode-cell", "postcode": "EX39 1GP", "postcodes": ["EX39 1GP"]}, "geometry": {"type": "Polygon", "coordinates": [[[-4.244712115823059, 51.03393931561301], [-4.243762284815688, 51.03450506204044], [-4.241200187761491, 51.03466982661099], [-4.24087536501107, 51.03438709823864], [-4.241346921339961, 51.03362436390886], [-4.246118256293274, 51.03236991034173], [-4.244712115823059, 51.03393931561301]]]}}, {"type": "Feature", "properties": {"type": "postcode-cell", "postcode": "EX39 1HN", "postcodes": ["EX39 1HN"]}, "geometry": {"type": "Polygon", "coordinates": [[[-4.2310341557399695, 51.05135157898993], [-4.232259328745027, 51.04483514821548], [-4.232773751788518, 51.04360405739569], [-4.23479280433182, 51.04255733329275], [-4.2361178884537845, 51.043565888012616], [-4.231429319039538, 51.05203169652231], [-4.2310341557399695, 51.05135157898993]]]}}, {"type": "Feature", "properties": {"type": "postcode-cell", "postcode": "EX39 1JX", "postcodes": ["EX39 1JX"]}, "geometry": {"type": "Polygon", "coordinates": [[[-4.244507827135385, 51.0408568290398], [-4.242779990074709, 51.04060999499235], [-4.242149943632085, 51.04069781117959], [-4.242107264637519, 51.04053449529292], [-4.242727279309441, 51.03971049564419], [-4.243412254367869, 51.03940620227371], [-4.244853740247734, 51.03957958603775], [-4.244507827135385, 51.0408568290398]]]}}, {"type": "Feature", "properties": {"type": "postcode-cell", "postcode": "EX39 1TZ", "postcodes": ["EX39 1TZ"]}, "geometry": {"type": "Polygon", "coordinates": [[[-4.24339022000858, 51.03915048960976], [-4.242592367700957, 51.038044602850825], [-4.244812467829057, 51.037624709846384], [-4.245227944714464, 51.03762816255919], [-4.2452752368406825, 51.03765452087479], [-4.24339022000858, 51.03915048960976]]]}}, {"type": "Feature", "properties": {"type": "postcode-cell", "postcode": "EX39 1XT", "postcodes": ["EX39 1XT"]}, "geometry": {"type": "Polygon", "coordinates": [[[-4.245111847334312, 51.03667724706372], [-4.243171447035844, 51.03622397085361], [-4.242939080515953, 51.03537898915899], [-4.243762284815688, 51.03450506204044], [-4.244712115823059, 51.03393931561301], [-4.245180186065434, 51.03653055916425], [-4.245111847334312, 51.03667724706372]]]}}, {"type": "Feature", "properties": {"type": "postcode-cell", "postcode": "EX39 1XB", "postcodes": ["EX39 1XB"]}, "geometry": {"type": "Polygon", "coordinates": [[[-4.245227944714464, 51.03762816255919], [-4.244812467829057, 51.037624709846384], [-4.242848591818581, 51.036710682873704], [-4.243171447035844, 51.03622397085361], [-4.245111847334312, 51.03667724706372], [-4.245227944714464, 51.03762816255919]]]}}, {"type": "Feature", "properties": {"type": "postcode-cell", "postcode": "EX39 1XA", "postcodes": ["EX39 1XA"]}, "geometry": {"type": "Polygon", "coordinates": [[[-4.242848591818581, 51.036710682873704], [-4.24221184513742, 51.03692504848662], [-4.241902603062912, 51.03674858017396], [-4.24163125021564, 51.03607421662461], [-4.241922882005571, 51.0356727117813], [-4.242939080515953, 51.03537898915899], [-4.243171447035844, 51.03622397085361], [-4.242848591818581, 51.036710682873704]]]}}, {"type": "Feature", "properties": {"type": "postcode-cell", "postcode": "EX39 1GX", "postcodes": ["EX39 1GX"]}, "geometry": {"type": "Polygon", "coordinates": [[[-4.239351950075879, 51.04085961041647], [-4.2398917760638515, 51.03995208381419], [-4.2409295840947605, 51.03999745012247], [-4.242107264637519, 51.04053449529292], [-4.242149943632085, 51.04069781117959], [-4.239348373057785, 51.041088250482], [-4.239351950075879, 51.04085961041647]]]}}, {"type": "Feature", "properties": {"type": "postcode-cell", "postcode": "EX39 1UQ", "postcodes": ["EX39 1UQ"]}, "geometry": {"type": "Polygon", "coordinates": [[[-4.241966928619575, 51.03914873548146], [-4.241916744803058, 51.03906164445005], [-4.242296229204448, 51.038002386910115], [-4.242592367700957, 51.038044602850825], [-4.24339022000858, 51.03915048960976], [-4.243412254367869, 51.03940620227371], [-4.242727279309441, 51.03971049564419], [-4.241966928619575, 51.03914873548146]]]}}, {"type": "Feature", "properties": {"type": "postcode-cell", "postcode": "EX39 1FL", "postcodes": ["EX39 1FL"]}, "geometry": {"type": "Polygon", "coordinates": [[[-4.242727279309441, 51.03971049564419], [-4.242107264637519, 51.04053449529292], [-4.2409295840947605, 51.03999745012247], [-4.24092437032212, 51.03941357777159], [-4.241966928619575, 51.03914873548146], [-4.242727279309441, 51.03971049564419]]]}}, {"type": "Feature", "properties": {"type": "postcode-cell", "postcode": "EX39 1XD", "postcodes": ["EX39 1XD"]}, "geometry": {"type": "Polygon", "coordinates": [[[-4.241924890159992, 51.037852239916475], [-4.24221184513742, 51.03692504848662], [-4.242848591818581, 51.036710682873704], [-4.244812467829057, 51.037624709846384], [-4.242592367700957, 51.038044602850825], [-4.242296229204448, 51.038002386910115], [-4.241924890159992, 51.037852239916475]]]}}, {"type": "Feature", "properties": {"type": "postcode-cell", "postcode": "EX39 1LT", "postcodes": ["EX39 1LT"]}, "geometry": {"type": "Polygon", "coordinates": [[[-4.242296229204448, 51.038002386910115], [-4.241916744803058, 51.03906164445005], [-4.2404935143509475, 51.03876605328809], [-4.240079419096036, 51.0384679013361], [-4.240670012391598, 51.03798427925094], [-4.240804474478993, 51.037928560279745], [-4.241924890159992, 51.037852239916475], [-4.242296229204448, 51.038002386910115]]]}}, {"type": "Feature", "properties": {"type": "postcode-cell", "postcode": "EX39 1FS", "postcodes": ["EX39 1FS"]}, "geometry": {"type": "Polygon", "coordinates": [[[-4.241902603062912, 51.03674858017396], [-4.240839160257213, 51.036736459600796], [-4.240699396286711, 51.03651685383286], [-4.240645788501931, 51.03628849314685], [-4.24163125021564, 51.03607421662461], [-4.241902603062912, 51.03674858017396]]]}}, {"type": "Feature", "properties": {"type": "postcode-cell", "postcode": "EX39 1XF", "postcodes": ["EX39 1XF"]}, "geometry": {"type": "Polygon", "coordinates": [[[-4.24221184513742, 51.03692504848662], [-4.241924890159992, 51.037852239916475], [-4.240804474478993, 51.037928560279745], [-4.2405554412401525, 51.03710033042067], [-4.240839160257213, 51.036736459600796], [-4.241902603062912, 51.03674858017396], [-4.24221184513742, 51.03692504848662]]]}}, {"type": "Feature", "properties": {"type": "postcode-cell", "postcode": "EX39 1AA", "postcodes": ["EX39 1AA"]}, "geometry": {"type": "Polygon", "coordinates": [[[-4.24163125021564, 51.03607421662461], [-4.240645788501931, 51.03628849314685], [-4.239990096997844, 51.035966806364215], [-4.240723273955814, 51.03541327415154], [-4.241922882005571, 51.0356727117813], [-4.24163125021564, 51.03607421662461]]]}}, {"type": "Feature", "properties": {"type": "postcode-cell", "postcode": "EX39 1GL", "postcodes": ["EX39 1GL"]}, "geometry": {"type": "Polygon", "coordinates": [[[-4.241922882005571, 51.0356727117813], [-4.240723273955814, 51.03541327415154], [-4.2405744821142, 51.03507612650052], [-4.241200187761491, 51.03466982661099], [-4.243762284815688, 51.03450506204044], [-4.242939080515953, 51.03537898915899], [-4.241922882005571, 51.0356727117813]]]}}, {"type": "Feature", "properties": {"type": "postcode-cell", "postcode": "EX39 1NA", "postcodes": ["EX39 1NA"]}, "geometry": {"type": "Polygon", "coordinates": [[[-4.241966928619575, 51.03914873548146], [-4.24092437032212, 51.03941357777159], [-4.240819387556684, 51.039265672361964], [-4.2404935143509475, 51.03876605328809], [-4.241916744803058, 51.03906164445005], [-4.241966928619575, 51.03914873548146]]]}}, {"type": "Feature", "properties": {"type": "postcode-cell", "postcode": "EX39 1LB", "postcodes": ["EX39 1LB"]}, "geometry": {"type": "Polygon", "coordinates": [[[-4.2409295840947605, 51.03999745012247], [-4.2398917760638515, 51.03995208381419], [-4.2397586659356445, 51.039864941968766], [-4.2396099406236205, 51.03966628037995], [-4.240819387556684, 51.039265672361964], [-4.24092437032212, 51.03941357777159], [-4.2409295840947605, 51.03999745012247]]]}}, {"type": "Feature", "properties": {"type": "postcode-cell", "postcode": "EX39 1XP", "postcodes": ["EX39 1XP"]}, "geometry": {"type": "Polygon", "coordinates": [[[-4.2405554412401525, 51.03710033042067], [-4.239566735802639, 51.03679416881429], [-4.240699396286711, 51.03651685383286], [-4.240839160257213, 51.036736459600796], [-4.2405554412401525, 51.03710033042067]]]}}, {"type": "Feature", "properties": {"type": "postcode-cell", "postcode": "EX39 1LD", "postcodes": ["EX39 1LD"]}, "geometry": {"type": "Polygon", "coordinates": [[[-4.2404935143509475, 51.03876605328809], [-4.240819387556684, 51.039265672361964], [-4.2396099406236205, 51.03966628037995], [-4.239246212916064, 51.039203640445685], [-4.239779609879348, 51.03854161073634], [-4.240079419096036, 51.0384679013361], [-4.2404935143509475, 51.03876605328809]]]}}, {"type": "Feature", "properties": {"type": "postcode-cell", "postcode": "EX39 1XE", "postcodes": ["EX39 1XE"]}, "geometry": {"type": "Polygon", "coordinates": [[[-4.240804474478993, 51.037928560279745], [-4.240670012391598, 51.03798427925094], [-4.238456830775976, 51.036847368184226], [-4.238309891385299, 51.036647757395386], [-4.238407512868932, 51.03659250148483], [-4.239566735802639, 51.03679416881429], [-4.2405554412401525, 51.03710033042067], [-4.240804474478993, 51.037928560279745]]]}}, {"type": "Feature", "properties": {"type": "postcode-cell", "postcode": "EX39 3FL", "postcodes": ["EX39 3FL"]}, "geometry": {"type": "Polygon", "coordinates": [[[-4.240723273955814, 51.03541327415154], [-4.239990096997844, 51.035966806364215], [-4.23892016847725, 51.03605824911321], [-4.238768260967699, 51.03549293990872], [-4.239962081085768, 51.034889056213856], [-4.2405744821142, 51.03507612650052], [-4.240723273955814, 51.03541327415154]]]}}, {"type": "Feature", "properties": {"type": "postcode-cell", "postcode": "EX39 1GN", "postcodes": ["EX39 1GN"]}, "geometry": {"type": "Polygon", "coordinates": [[[-4.241200187761491, 51.03466982661099], [-4.2405744821142, 51.03507612650052], [-4.239962081085768, 51.034889056213856], [-4.2396732818826885, 51.03433045596048], [-4.239916351311449, 51.03416587296038], [-4.24087536501107, 51.03438709823864], [-4.241200187761491, 51.03466982661099]]]}}, {"type": "Feature", "properties": {"type": "postcode-cell", "postcode": "EX39 1GT", "postcodes": ["EX39 1GT"]}, "geometry": {"type": "Polygon", "coordinates": [[[-4.239916351311449, 51.03416587296038], [-4.240126401715971, 51.03372028679086], [-4.241346921339961, 51.03362436390886], [-4.24087536501107, 51.03438709823864], [-4.239916351311449, 51.03416587296038]]]}}, {"type": "Feature", "properties": {"type": "postcode-cell", "postcode": "EX39 3HP", "postcodes": ["EX39 3HP"]}, "geometry": {"type": "Polygon", "coordinates": [[[-4.235417469727439, 51.03239366721667], [-4.233693157021204, 51.03152186950784], [-4.238005703635506, 51.03182279795198], [-4.235417469727439, 51.03239366721667]]]}}, {"type": "Feature", "properties": {"type": "postcode-cell", "postcode": "EX39 1AD", "postcodes": ["EX39 1AD"]}, "geometry": {"type": "Polygon", "coordinates": [[[-4.240699396286711, 51.03651685383286], [-4.239566735802639, 51.03679416881429], [-4.238407512868932, 51.03659250148483], [-4.23892016847725, 51.03605824911321], [-4.239990096997844, 51.035966806364215], [-4.240645788501931, 51.03628849314685], [-4.240699396286711, 51.03651685383286]]]}}, {"type": "Feature", "properties": {"type": "postcode-cell", "postcode": "EX39 1GS", "postcodes": ["EX39 1GS"]}, "geometry": {"type": "Polygon", "coordinates": [[[-4.239916351311449, 51.03416587296038], [-4.2396732818826885, 51.03433045596048], [-4.237434119098905, 51.0342977661777], [-4.237179534093204, 51.034056289242386], [-4.237014855410051, 51.03381641532603], [-4.23836445990862, 51.03206534875543], [-4.240126401715971, 51.03372028679086], [-4.239916351311449, 51.03416587296038]]]}}, {"type": "Feature", "properties": {"type": "postcode-cell", "postcode": "EX39 1XG", "postcodes": ["EX39 1XG"]}, "geometry": {"type": "Polygon", "coordinates": [[[-4.240079419096036, 51.0384679013361], [-4.239779609879348, 51.03854161073634], [-4.238681539747148, 51.03817419627302], [-4.238456830775976, 51.036847368184226], [-4.240670012391598, 51.03798427925094], [-4.240079419096036, 51.0384679013361]]]}}, {"type": "Feature", "properties": {"type": "postcode-cell", "postcode": "EX39 1SY", "postcodes": ["EX39 1SY"]}, "geometry": {"type": "Polygon", "coordinates": [[[-4.236941923474549, 51.04145789207496], [-4.237016185975026, 51.04082149206722], [-4.237404104840426, 51.04066688006416], [-4.238671733240281, 51.04119905636799], [-4.23786227424759, 51.04204416837287], [-4.236941923474549, 51.04145789207496]]]}}, {"type": "Feature", "properties": {"type": "postcode-cell", "postcode": "EX39 1LL", "postcodes": ["EX39 1LL"]}, "geometry": {"type": "Polygon", "coordinates": [[[-4.23479280433182, 51.04255733329275], [-4.234754381186899, 51.04247575029586], [-4.23503329668946, 51.04200587126743], [-4.235280042632033, 51.04185420883037], [-4.235762571174393, 51.041815733966374], [-4.237627419690197, 51.042289360512314], [-4.237099990069819, 51.04283999499422], [-4.2364699900693426, 51.042929994994296], [-4.2361178884537845, 51.043565888012616], [-4.23479280433182, 51.04255733329275]]]}}, {"type": "Feature", "properties": {"type": "postcode-cell", "postcode": "EX39 1LE", "postcodes": ["EX39 1LE"]}, "geometry": {"type": "Polygon", "coordinates": [[[-4.2398917760638515, 51.03995208381419], [-4.239351950075879, 51.04085961041647], [-4.238509452689934, 51.04015541880489], [-4.2397586659356445, 51.039864941968766], [-4.2398917760638515, 51.03995208381419]]]}}, {"type": "Feature", "properties": {"type": "postcode-cell", "postcode": "EX39 1LF", "postcodes": ["EX39 1LF"]}, "geometry": {"type": "Polygon", "coordinates": [[[-4.2396099406236205, 51.03966628037995], [-4.2397586659356445, 51.039864941968766], [-4.238509452689934, 51.04015541880489], [-4.238000352920891, 51.040034790638906], [-4.238498427923679, 51.03933959604906], [-4.239246212916064, 51.039203640445685], [-4.2396099406236205, 51.03966628037995]]]}}, {"type": "Feature", "properties": {"type": "postcode-cell", "postcode": "EX39 3FN", "postcodes": ["EX39 3FN"]}, "geometry": {"type": "Polygon", "coordinates": [[[-4.238768260967699, 51.03549293990872], [-4.237475576519573, 51.03445187455963], [-4.237434119098905, 51.0342977661777], [-4.2396732818826885, 51.03433045596048], [-4.239962081085768, 51.034889056213856], [-4.238768260967699, 51.03549293990872]]]}}, {"type": "Feature", "properties": {"type": "postcode-cell", "postcode": "EX39 1HE", "postcodes": ["EX39 1HE"]}, "geometry": {"type": "Polygon", "coordinates": [[[-4.238456830775976, 51.036847368184226], [-4.238681539747148, 51.03817419627302], [-4.238227762824971, 51.03824354607076], [-4.237356719427445, 51.037846597910445], [-4.237694239458307, 51.03668234619723], [-4.238309891385299, 51.036647757395386], [-4.238456830775976, 51.036847368184226]]]}}, {"type": "Feature", "properties": {"type": "postcode-cell", "postcode": "EX39 3FA", "postcodes": ["EX39 3FA"]}, "geometry": {"type": "Polygon", "coordinates": [[[-4.238407512868932, 51.03659250148483], [-4.238309891385299, 51.036647757395386], [-4.237694239458307, 51.03668234619723], [-4.2372873140445755, 51.03662044405119], [-4.2365544168273095, 51.03579688683858], [-4.237475576519573, 51.03445187455963], [-4.238768260967699, 51.03549293990872], [-4.23892016847725, 51.03605824911321], [-4.238407512868932, 51.03659250148483]]]}}, {"type": "Feature", "properties": {"type": "postcode-cell", "postcode": "EX39 3GX", "postcodes": ["EX39 3GX"]}, "geometry": {"type": "Polygon", "coordinates": [[[-4.237014855410051, 51.03381641532603], [-4.236712068616657, 51.03380852485136], [-4.235072074421436, 51.0327034749759], [-4.235417469727439, 51.03239366721667], [-4.238005703635506, 51.03182279795198], [-4.238422202316371, 51.03185185246984], [-4.23836445990862, 51.03206534875543], [-4.237014855410051, 51.03381641532603]]]}}, {"type": "Feature", "properties": {"type": "postcode-cell", "postcode": "EX39 1JB", "postcodes": ["EX39 1JB"]}, "geometry": {"type": "Polygon", "coordinates": [[[-4.239779609879348, 51.03854161073634], [-4.239246212916064, 51.039203640445685], [-4.238498427923679, 51.03933959604906], [-4.237524312195889, 51.03898462385897], [-4.237451440037284, 51.03878113784883], [-4.238227762824971, 51.03824354607076], [-4.238681539747148, 51.03817419627302], [-4.239779609879348, 51.03854161073634]]]}}, {"type": "Feature", "properties": {"type": "postcode-cell", "postcode": "EX39 1GW", "postcodes": ["EX39 1GW"]}, "geometry": {"type": "Polygon", "coordinates": [[[-4.239348373057785, 51.041088250482], [-4.238689990071642, 51.04117999499284], [-4.238671733240281, 51.04119905636799], [-4.237404104840426, 51.04066688006416], [-4.237446380306702, 51.040517688839856], [-4.237894435482305, 51.040071698083324], [-4.238000352920891, 51.040034790638906], [-4.238509452689934, 51.04015541880489], [-4.239351950075879, 51.04085961041647], [-4.239348373057785, 51.041088250482]]]}}, {"type": "Feature", "properties": {"type": "postcode-cell", "postcode": "EX39 1HU", "postcodes": ["EX39 1HU"]}, "geometry": {"type": "Polygon", "coordinates": [[[-4.238498427923679, 51.03933959604906], [-4.238000352920891, 51.040034790638906], [-4.237894435482305, 51.040071698083324], [-4.2369094898087925, 51.03947542739238], [-4.237486043911155, 51.03901283226046], [-4.237524312195889, 51.03898462385897], [-4.238498427923679, 51.03933959604906]]]}}, {"type": "Feature", "properties": {"type": "postcode-cell", "postcode": "EX39 1UL", "postcodes": ["EX39 1UL"]}, "geometry": {"type": "Polygon", "coordinates": [[[-4.238227762824971, 51.03824354607076], [-4.237451440037284, 51.03878113784883], [-4.237161063241253, 51.038670457181915], [-4.236799989679107, 51.03804069794748], [-4.237356719427445, 51.037846597910445], [-4.238227762824971, 51.03824354607076]]]}}, {"type": "Feature", "properties": {"type": "postcode-cell", "postcode": "EX39 3PU", "postcodes": ["EX39 3PU"]}, "geometry": {"type": "Polygon", "coordinates": [[[-4.237434119098905, 51.0342977661777], [-4.237475576519573, 51.03445187455963], [-4.2365544168273095, 51.03579688683858], [-4.2348574539069, 51.03561306262442], [-4.237179534093204, 51.034056289242386], [-4.237434119098905, 51.0342977661777]]]}}, {"type": "Feature", "properties": {"type": "postcode-cell", "postcode": "EX39 1JR", "postcodes": ["EX39 1JR"]}, "geometry": {"type": "Polygon", "coordinates": [[[-4.237524312195889, 51.03898462385897], [-4.237486043911155, 51.03901283226046], [-4.236373841349036, 51.03903292982125], [-4.236385081136951, 51.03873024331437], [-4.237161063241253, 51.038670457181915], [-4.237451440037284, 51.03878113784883], [-4.237524312195889, 51.03898462385897]]]}}, {"type": "Feature", "properties": {"type": "postcode-cell", "postcode": "EX39 1LG", "postcodes": ["EX39 1LG"]}, "geometry": {"type": "Polygon", "coordinates": [[[-4.237446380306702, 51.040517688839856], [-4.23605177226797, 51.03966732038787], [-4.236239238575853, 51.03959264665745], [-4.2369094898087925, 51.03947542739238], [-4.237894435482305, 51.040071698083324], [-4.237446380306702, 51.040517688839856]]]}}, {"type": "Feature", "properties": {"type": "postcode-cell", "postcode": "EX39 1LQ", "postcodes": ["EX39 1LQ"]}, "geometry": {"type": "Polygon", "coordinates": [[[-4.237446380306702, 51.040517688839856], [-4.237404104840426, 51.04066688006416], [-4.237016185975026, 51.04082149206722], [-4.236177182976939, 51.040772405831696], [-4.235706696359165, 51.04002646197272], [-4.235840099847435, 51.039692908844906], [-4.23605177226797, 51.03966732038787], [-4.237446380306702, 51.040517688839856]]]}}, {"type": "Feature", "properties": {"type": "postcode-cell", "postcode": "EX39 1AE", "postcodes": ["EX39 1AE"]}, "geometry": {"type": "Polygon", "coordinates": [[[-4.236799989679107, 51.03804069794748], [-4.236194529304369, 51.03794056687197], [-4.235820907248515, 51.03770778103438], [-4.235988718672001, 51.03705607253118], [-4.2372873140445755, 51.03662044405119], [-4.237694239458307, 51.03668234619723], [-4.237356719427445, 51.037846597910445], [-4.236799989679107, 51.03804069794748]]]}}, {"type": "Feature", "properties": {"type": "postcode-cell", "postcode": "EX39 1HX", "postcodes": ["EX39 1HX"]}, "geometry": {"type": "Polygon", "coordinates": [[[-4.236239238575853, 51.03959264665745], [-4.236373841349036, 51.03903292982125], [-4.237486043911155, 51.03901283226046], [-4.2369094898087925, 51.03947542739238], [-4.236239238575853, 51.03959264665745]]]}}, {"type": "Feature", "properties": {"type": "postcode-cell", "postcode": "EX39 1BL", "postcodes": ["EX39 1BL"]}, "geometry": {"type": "Polygon", "coordinates": [[[-4.2372873140445755, 51.03662044405119], [-4.235988718672001, 51.03705607253118], [-4.233978767978044, 51.03645523409002], [-4.233955501131797, 51.036402562535095], [-4.233856295459251, 51.03567966390937], [-4.2348574539069, 51.03561306262442], [-4.2365544168273095, 51.03579688683858], [-4.2372873140445755, 51.03662044405119]]]}}, {"type": "Feature", "properties": {"type": "postcode-cell", "postcode": "EX39 1JA", "postcodes": ["EX39 1JA"]}, "geometry": {"type": "Polygon", "coordinates": [[[-4.236373841349036, 51.03903292982125], [-4.236239238575853, 51.03959264665745], [-4.23605177226797, 51.03966732038787], [-4.235840099847435, 51.039692908844906], [-4.23501502396123, 51.03927957373687], [-4.235124609426148, 51.03887960615999], [-4.236076184983476, 51.03863863531695], [-4.236385081136951, 51.03873024331437], [-4.236373841349036, 51.03903292982125]]]}}, {"type": "Feature", "properties": {"type": "postcode-cell", "postcode": "EX39 1AG", "postcodes": ["EX39 1AG"]}, "geometry": {"type": "Polygon", "coordinates": [[[-4.237161063241253, 51.038670457181915], [-4.236385081136951, 51.03873024331437], [-4.236076184983476, 51.03863863531695], [-4.236194529304369, 51.03794056687197], [-4.236799989679107, 51.03804069794748], [-4.237161063241253, 51.038670457181915]]]}}, {"type": "Feature", "properties": {"type": "postcode-cell", "postcode": "EX39 1LJ", "postcodes": ["EX39 1LJ"]}, "geometry": {"type": "Polygon", "coordinates": [[[-4.23786227424759, 51.04204416837287], [-4.237627419690197, 51.042289360512314], [-4.235762571174393, 51.041815733966374], [-4.236941923474549, 51.04145789207496], [-4.23786227424759, 51.04204416837287]]]}}, {"type": "Feature", "properties": {"type": "postcode-cell", "postcode": "EX39 1LH", "postcodes": ["EX39 1LH"]}, "geometry": {"type": "Polygon", "coordinates": [[[-4.235762571174393, 51.041815733966374], [-4.235280042632033, 51.04185420883037], [-4.23556848838062, 51.041075221651376], [-4.236177182976939, 51.040772405831696], [-4.237016185975026, 51.04082149206722], [-4.236941923474549, 51.04145789207496], [-4.235762571174393, 51.041815733966374]]]}}, {"type": "Feature", "properties": {"type": "postcode-cell", "postcode": "EX39 1GY", "postcodes": ["EX39 1GY"]}, "geometry": {"type": "Polygon", "coordinates": [[[-4.234778190463605, 51.04064919687609], [-4.234767795818545, 51.04043091726896], [-4.235706696359165, 51.04002646197272], [-4.236177182976939, 51.040772405831696], [-4.23556848838062, 51.041075221651376], [-4.234778190463605, 51.04064919687609]]]}}, {"type": "Feature", "properties": {"type": "postcode-cell", "postcode": "EX39 1LP", "postcodes": ["EX39 1LP"]}, "geometry": {"type": "Polygon", "coordinates": [[[-4.23556848838062, 51.041075221651376], [-4.235280042632033, 51.04185420883037], [-4.23503329668946, 51.04200587126743], [-4.2339067433813, 51.04106354268985], [-4.234778190463605, 51.04064919687609], [-4.23556848838062, 51.041075221651376]]]}}, {"type": "Feature", "properties": {"type": "postcode-cell", "postcode": "EX39 1AQ", "postcodes": ["EX39 1AQ"]}, "geometry": {"type": "Polygon", "coordinates": [[[-4.235124609426148, 51.03887960615999], [-4.234619360714329, 51.03812683662262], [-4.235820907248515, 51.03770778103438], [-4.236194529304369, 51.03794056687197], [-4.236076184983476, 51.03863863531695], [-4.235124609426148, 51.03887960615999]]]}}, {"type": "Feature", "properties": {"type": "postcode-cell", "postcode": "EX39 3SF", "postcodes": ["EX39 3SF"]}, "geometry": {"type": "Polygon", "coordinates": [[[-4.236712068616657, 51.03380852485136], [-4.234432611080609, 51.03403269160266], [-4.232911311799099, 51.032924551231474], [-4.235072074421436, 51.0327034749759], [-4.236712068616657, 51.03380852485136]]]}}, {"type": "Feature", "properties": {"type": "postcode-cell", "postcode": "EX39 3FD", "postcodes": ["EX39 3FD"]}, "geometry": {"type": "Polygon", "coordinates": [[[-4.237179534093204, 51.034056289242386], [-4.2348574539069, 51.03561306262442], [-4.233856295459251, 51.03567966390937], [-4.233643638968912, 51.03550746605403], [-4.234432611080609, 51.03403269160266], [-4.236712068616657, 51.03380852485136], [-4.237014855410051, 51.03381641532603], [-4.237179534093204, 51.034056289242386]]]}}, {"type": "Feature", "properties": {"type": "postcode-cell", "postcode": "EX39 1HS", "postcodes": ["EX39 1HS"]}, "geometry": {"type": "Polygon", "coordinates": [[[-4.235706696359165, 51.04002646197272], [-4.234767795818545, 51.04043091726896], [-4.2344455277040565, 51.040274286702925], [-4.233938272587317, 51.03951901035212], [-4.23501502396123, 51.03927957373687], [-4.235840099847435, 51.039692908844906], [-4.235706696359165, 51.04002646197272]]]}}, {"type": "Feature", "properties": {"type": "postcode-cell", "postcode": "EX39 1AF", "postcodes": ["EX39 1AF"]}, "geometry": {"type": "Polygon", "coordinates": [[[-4.235820907248515, 51.03770778103438], [-4.234619360714329, 51.03812683662262], [-4.234096939100114, 51.038015157054524], [-4.233575968701768, 51.03720032090558], [-4.233978767978044, 51.03645523409002], [-4.235988718672001, 51.03705607253118], [-4.235820907248515, 51.03770778103438]]]}}, {"type": "Feature", "properties": {"type": "postcode-cell", "postcode": "EX39 1FX", "postcodes": ["EX39 1FX"]}, "geometry": {"type": "Polygon", "coordinates": [[[-4.233955501131797, 51.036402562535095], [-4.2311288121546, 51.03685540034158], [-4.231006058904316, 51.03638453114178], [-4.231377356824287, 51.03524676939791], [-4.233643638968912, 51.03550746605403], [-4.233856295459251, 51.03567966390937], [-4.233955501131797, 51.036402562535095]]]}}, {"type": "Feature", "properties": {"type": "postcode-cell", "postcode": "EX39 3HR", "postcodes": ["EX39 3HR"]}, "geometry": {"type": "Polygon", "coordinates": [[[-4.235072074421436, 51.0327034749759], [-4.232911311799099, 51.032924551231474], [-4.231740496647939, 51.032419597270334], [-4.232949990071958, 51.031469994984846], [-4.233693157021204, 51.03152186950784], [-4.235417469727439, 51.03239366721667], [-4.235072074421436, 51.0327034749759]]]}}, {"type": "Feature", "properties": {"type": "postcode-cell", "postcode": "EX39 3PX", "postcodes": ["EX39 3PX"]}, "geometry": {"type": "Polygon", "coordinates": [[[-4.233643638968912, 51.03550746605403], [-4.231377356824287, 51.03524676939791], [-4.231081586178116, 51.03506525500533], [-4.230188402489299, 51.032739470657425], [-4.231739990070709, 51.03241999498564], [-4.231740496647939, 51.032419597270334], [-4.232911311799099, 51.032924551231474], [-4.234432611080609, 51.03403269160266], [-4.233643638968912, 51.03550746605403]]]}}, {"type": "Feature", "properties": {"type": "postcode-cell", "postcode": "EX39 1WU", "postcodes": ["EX39 1WU"]}, "geometry": {"type": "Polygon", "coordinates": [[[-4.231081586178116, 51.03506525500533], [-4.228341509878102, 51.03581551395844], [-4.228329990066889, 51.03576999498842], [-4.226409990065494, 51.03593999498857], [-4.225659990065614, 51.03449999498738], [-4.223849990064249, 51.034769994987606], [-4.222949990063711, 51.03458999498746], [-4.226299990066475, 51.033539994986576], [-4.230188402489299, 51.032739470657425], [-4.231081586178116, 51.03506525500533]]]}}, {"type": "Feature", "properties": {"type": "postcode-cell", "postcode": "EX39 1HY", "postcodes": ["EX39 1HY"]}, "geometry": {"type": "Polygon", "coordinates": [[[-4.233938272587317, 51.03951901035212], [-4.232894869498661, 51.03944698740877], [-4.232750939962756, 51.03940237759617], [-4.232577502875154, 51.039297585640185], [-4.2323634581297025, 51.03902223027736], [-4.234096939100114, 51.038015157054524], [-4.234619360714329, 51.03812683662262], [-4.235124609426148, 51.03887960615999], [-4.23501502396123, 51.03927957373687], [-4.233938272587317, 51.03951901035212]]]}}, {"type": "Feature", "properties": {"type": "postcode-cell", "postcode": "EX39 1FU", "postcodes": ["EX39 1FU"]}, "geometry": {"type": "Polygon", "coordinates": [[[-4.233575968701768, 51.03720032090558], [-4.2309692853972, 51.037742095347625], [-4.2311288121546, 51.03685540034158], [-4.233955501131797, 51.036402562535095], [-4.233978767978044, 51.03645523409002], [-4.233575968701768, 51.03720032090558]]]}}, {"type": "Feature", "properties": {"type": "postcode-cell", "postcode": "EX39 1FH", "postcodes": ["EX39 1FH"]}, "geometry": {"type": "Polygon", "coordinates": [[[-4.234778190463605, 51.04064919687609], [-4.2339067433813, 51.04106354268985], [-4.233668781846233, 51.041018518812095], [-4.233425785900493, 51.04081218156422], [-4.233466441138138, 51.040599208626034], [-4.2344455277040565, 51.040274286702925], [-4.234767795818545, 51.04043091726896], [-4.234778190463605, 51.04064919687609]]]}}, {"type": "Feature", "properties": {"type": "postcode-cell", "postcode": "EX39 1LN", "postcodes": ["EX39 1LN"]}, "geometry": {"type": "Polygon", "coordinates": [[[-4.234754381186899, 51.04247575029586], [-4.234301876811656, 51.04239146830795], [-4.2331705624064835, 51.04144425647325], [-4.233668781846233, 51.041018518812095], [-4.2339067433813, 51.04106354268985], [-4.23503329668946, 51.04200587126743], [-4.234754381186899, 51.04247575029586]]]}}, {"type": "Feature", "properties": {"type": "postcode-cell", "postcode": "EX39 1LR", "postcodes": ["EX39 1LR"]}, "geometry": {"type": "Polygon", "coordinates": [[[-4.232894869498661, 51.03944698740877], [-4.233466441138138, 51.040599208626034], [-4.233425785900493, 51.04081218156422], [-4.232132344844204, 51.04083711522126], [-4.232750939962756, 51.03940237759617], [-4.232894869498661, 51.03944698740877]]]}}, {"type": "Feature", "properties": {"type": "postcode-cell", "postcode": "EX39 1UH", "postcodes": ["EX39 1UH"]}, "geometry": {"type": "Polygon", "coordinates": [[[-4.2344455277040565, 51.040274286702925], [-4.233466441138138, 51.040599208626034], [-4.232894869498661, 51.03944698740877], [-4.233938272587317, 51.03951901035212], [-4.2344455277040565, 51.040274286702925]]]}}, {"type": "Feature", "properties": {"type": "postcode-cell", "postcode": "EX39 1HW", "postcodes": ["EX39 1HW"]}, "geometry": {"type": "Polygon", "coordinates": [[[-4.2331705624064835, 51.04144425647325], [-4.232442467011641, 51.04160831552013], [-4.2317688457645115, 51.041007298796494], [-4.232132344844204, 51.04083711522126], [-4.233425785900493, 51.04081218156422], [-4.233668781846233, 51.041018518812095], [-4.2331705624064835, 51.04144425647325]]]}}, {"type": "Feature", "properties": {"type": "postcode-cell", "postcode": "EX39 1FN", "postcodes": ["EX39 1FN"]}, "geometry": {"type": "Polygon", "coordinates": [[[-4.232248613547432, 51.042793296742275], [-4.232771424941626, 51.042310189612834], [-4.234301876811656, 51.04239146830795], [-4.234754381186899, 51.04247575029586], [-4.23479280433182, 51.04255733329275], [-4.232773751788518, 51.04360405739569], [-4.232248613547432, 51.042793296742275]]]}}, {"type": "Feature", "properties": {"type": "postcode-cell", "postcode": "EX39 1HL", "postcodes": ["EX39 1HL"]}, "geometry": {"type": "Polygon", "coordinates": [[[-4.232773751788518, 51.04360405739569], [-4.232259328745027, 51.04483514821548], [-4.231144175784317, 51.04276304247264], [-4.232248613547432, 51.042793296742275], [-4.232773751788518, 51.04360405739569]]]}}, {"type": "Feature", "properties": {"type": "postcode-cell", "postcode": "EX39 1BJ", "postcodes": ["EX39 1BJ"]}, "geometry": {"type": "Polygon", "coordinates": [[[-4.234096939100114, 51.038015157054524], [-4.2323634581297025, 51.03902223027736], [-4.23045565272552, 51.03823371060455], [-4.2309692853972, 51.037742095347625], [-4.233575968701768, 51.03720032090558], [-4.234096939100114, 51.038015157054524]]]}}, {"type": "Feature", "properties": {"type": "postcode-cell", "postcode": "EX39 1LW", "postcodes": ["EX39 1LW"]}, "geometry": {"type": "Polygon", "coordinates": [[[-4.2331705624064835, 51.04144425647325], [-4.234301876811656, 51.04239146830795], [-4.232771424941626, 51.042310189612834], [-4.232402340172679, 51.041960083428556], [-4.232442467011641, 51.04160831552013], [-4.2331705624064835, 51.04144425647325]]]}}, {"type": "Feature", "properties": {"type": "postcode-cell", "postcode": "EX39 1FW", "postcodes": ["EX39 1FW"]}, "geometry": {"type": "Polygon", "coordinates": [[[-4.231377356824287, 51.03524676939791], [-4.231006058904316, 51.03638453114178], [-4.228517697807811, 51.036511684631805], [-4.228341509878102, 51.03581551395844], [-4.231081586178116, 51.03506525500533], [-4.231377356824287, 51.03524676939791]]]}}, {"type": "Feature", "properties": {"type": "postcode-cell", "postcode": "EX39 1FD", "postcodes": ["EX39 1FD"]}, "geometry": {"type": "Polygon", "coordinates": [[[-4.232750939962756, 51.03940237759617], [-4.232132344844204, 51.04083711522126], [-4.2317688457645115, 51.041007298796494], [-4.231595338330676, 51.040998715344294], [-4.231120405110123, 51.04020907403971], [-4.232577502875154, 51.039297585640185], [-4.232750939962756, 51.03940237759617]]]}}, {"type": "Feature", "properties": {"type": "postcode-cell", "postcode": "EX39 1HR", "postcodes": ["EX39 1HR"]}, "geometry": {"type": "Polygon", "coordinates": [[[-4.232442467011641, 51.04160831552013], [-4.232402340172679, 51.041960083428556], [-4.230403916769692, 51.0421746715943], [-4.2305907940947955, 51.04133947508956], [-4.231595338330676, 51.040998715344294], [-4.2317688457645115, 51.041007298796494], [-4.232442467011641, 51.04160831552013]]]}}, {"type": "Feature", "properties": {"type": "postcode-cell", "postcode": "EX39 1HH", "postcodes": ["EX39 1HH"]}, "geometry": {"type": "Polygon", "coordinates": [[[-4.232771424941626, 51.042310189612834], [-4.232248613547432, 51.042793296742275], [-4.231144175784317, 51.04276304247264], [-4.230800717343617, 51.04266093890597], [-4.230285633041368, 51.04230962955811], [-4.230403916769692, 51.0421746715943], [-4.232402340172679, 51.041960083428556], [-4.232771424941626, 51.042310189612834]]]}}, {"type": "Feature", "properties": {"type": "postcode-cell", "postcode": "EX39 1JD", "postcodes": ["EX39 1JD"]}, "geometry": {"type": "Polygon", "coordinates": [[[-4.2323634581297025, 51.03902223027736], [-4.232577502875154, 51.039297585640185], [-4.231120405110123, 51.04020907403971], [-4.22915792635406, 51.03993246410898], [-4.228506826674606, 51.03854596511444], [-4.228949990066115, 51.03850999499068], [-4.228938686446603, 51.03843732952085], [-4.23045565272552, 51.03823371060455], [-4.2323634581297025, 51.03902223027736]]]}}, {"type": "Feature", "properties": {"type": "postcode-cell", "postcode": "EX39 1FT", "postcodes": ["EX39 1FT"]}, "geometry": {"type": "Polygon", "coordinates": [[[-4.2311288121546, 51.03685540034158], [-4.2309692853972, 51.037742095347625], [-4.23045565272552, 51.03823371060455], [-4.228938686446603, 51.03843732952085], [-4.228879990066261, 51.0380599949903], [-4.229389990066616, 51.038049994990295], [-4.2294699900669634, 51.037389994989766], [-4.22873999006646, 51.037389994989766], [-4.228517697807811, 51.036511684631805], [-4.231006058904316, 51.03638453114178], [-4.2311288121546, 51.03685540034158]]]}}, {"type": "Feature", "properties": {"type": "postcode-cell", "postcode": "EX39 1HJ", "postcodes": ["EX39 1HJ"]}, "geometry": {"type": "Polygon", "coordinates": [[[-4.2310341557399695, 51.05135157898993], [-4.2293508835681015, 51.0492396355868], [-4.230800717343617, 51.04266093890597], [-4.231144175784317, 51.04276304247264], [-4.232259328745027, 51.04483514821548], [-4.2310341557399695, 51.05135157898993]]]}}, {"type": "Feature", "properties": {"type": "postcode-cell", "postcode": "EX39 1HP", "postcodes": ["EX39 1HP"]}, "geometry": {"type": "Polygon", "coordinates": [[[-4.2305907940947955, 51.04133947508956], [-4.2291874109392245, 51.040573047280176], [-4.229102868447636, 51.04036262066354], [-4.22915792635406, 51.03993246410898], [-4.231120405110123, 51.04020907403971], [-4.231595338330676, 51.040998715344294], [-4.2305907940947955, 51.04133947508956]]]}}, {"type": "Feature", "properties": {"type": "postcode-cell", "postcode": "EX39 1HG", "postcodes": ["EX39 1HG"]}, "geometry": {"type": "Polygon", "coordinates": [[[-4.230800717343617, 51.04266093890597], [-4.2293508835681015, 51.0492396355868], [-4.2291944754661435, 51.04906358809021], [-4.228668849610253, 51.04776487828736], [-4.230115558465731, 51.04234114044242], [-4.230285633041368, 51.04230962955811], [-4.230800717343617, 51.04266093890597]]]}}, {"type": "Feature", "properties": {"type": "postcode-cell", "postcode": "EX39 1XY", "postcodes": ["EX39 1XY"]}, "geometry": {"type": "Polygon", "coordinates": [[[-4.222202551418616, 51.045367965403386], [-4.2291944754661435, 51.04906358809021], [-4.2293508835681015, 51.0492396355868], [-4.2310341557399695, 51.05135157898993], [-4.231429319039538, 51.05203169652231], [-4.230759990060885, 51.05323999500285], [-4.229429990060323, 51.05242999500217], [-4.228039990059969, 51.05106999500106], [-4.219389990056086, 51.04635999499722], [-4.219241676389524, 51.046182899280005], [-4.222202551418616, 51.045367965403386]]]}}, {"type": "Feature", "properties": {"type": "postcode-cell", "postcode": "EX39 1HQ", "postcodes": ["EX39 1HQ"]}, "geometry": {"type": "Polygon", "coordinates": [[[-4.230403916769692, 51.0421746715943], [-4.230285633041368, 51.04230962955811], [-4.230115558465731, 51.04234114044242], [-4.2300790344108545, 51.04234208100388], [-4.228491818670886, 51.04145224334898], [-4.2291874109392245, 51.040573047280176], [-4.2305907940947955, 51.04133947508956], [-4.230403916769692, 51.0421746715943]]]}}, {"type": "Feature", "properties": {"type": "postcode-cell", "postcode": "EX39 1UW", "postcodes": ["EX39 1UW"]}, "geometry": {"type": "Polygon", "coordinates": [[[-4.2291874109392245, 51.040573047280176], [-4.228491818670886, 51.04145224334898], [-4.2280723602472285, 51.041589713197745], [-4.227089832427513, 51.041462950858296], [-4.226902608001642, 51.041353962897], [-4.226731059389023, 51.040956233370004], [-4.229102868447636, 51.04036262066354], [-4.2291874109392245, 51.040573047280176]]]}}, {"type": "Feature", "properties": {"type": "postcode-cell", "postcode": "EX39 1FG", "postcodes": ["EX39 1FG"]}, "geometry": {"type": "Polygon", "coordinates": [[[-4.2291944754661435, 51.04906358809021], [-4.222202551418616, 51.045367965403386], [-4.221705556798576, 51.04443719471926], [-4.221568455256317, 51.04393603434746], [-4.223944066568564, 51.043694661528065], [-4.224802212065686, 51.04390331386007], [-4.227837661360454, 51.046069529596146], [-4.228668849610253, 51.04776487828736], [-4.2291944754661435, 51.04906358809021]]]}}, {"type": "Feature", "properties": {"type": "postcode-cell", "postcode": "EX39 1US", "postcodes": ["EX39 1US"]}, "geometry": {"type": "Polygon", "coordinates": [[[-4.229102868447636, 51.04036262066354], [-4.226731059389023, 51.040956233370004], [-4.22644033952434, 51.040755606701104], [-4.227140408614505, 51.038656861892186], [-4.228506826674606, 51.03854596511444], [-4.22915792635406, 51.03993246410898], [-4.229102868447636, 51.04036262066354]]]}}, {"type": "Feature", "properties": {"type": "postcode-cell", "postcode": "EX39 1LY", "postcodes": ["EX39 1LY"]}, "geometry": {"type": "Polygon", "coordinates": [[[-4.227837661360454, 51.046069529596146], [-4.227606025425536, 51.04398031342112], [-4.228311135838909, 51.042831368191585], [-4.2300790344108545, 51.04234208100388], [-4.230115558465731, 51.04234114044242], [-4.228668849610253, 51.04776487828736], [-4.227837661360454, 51.046069529596146]]]}}, {"type": "Feature", "properties": {"type": "postcode-cell", "postcode": "EX39 1TQ", "postcodes": ["EX39 1TQ"]}, "geometry": {"type": "Polygon", "coordinates": [[[-4.2280723602472285, 51.041589713197745], [-4.228491818670886, 51.04145224334898], [-4.2300790344108545, 51.04234208100388], [-4.228311135838909, 51.042831368191585], [-4.22816628456773, 51.04266571379387], [-4.2280723602472285, 51.041589713197745]]]}}, {"type": "Feature", "properties": {"type": "postcode-cell", "postcode": "EX39 1TW", "postcodes": ["EX39 1TW"]}, "geometry": {"type": "Polygon", "coordinates": [[[-4.22816628456773, 51.04266571379387], [-4.2273860473917, 51.042369411023394], [-4.227089202782858, 51.04146679039387], [-4.227089832427513, 51.041462950858296], [-4.2280723602472285, 51.041589713197745], [-4.22816628456773, 51.04266571379387]]]}}, {"type": "Feature", "properties": {"type": "postcode-cell", "postcode": "EX39 1TN", "postcodes": ["EX39 1TN"]}, "geometry": {"type": "Polygon", "coordinates": [[[-4.228311135838909, 51.042831368191585], [-4.227606025425536, 51.04398031342112], [-4.226452908422653, 51.043118160942846], [-4.226336875063823, 51.04243954684626], [-4.2265916937754815, 51.04234690795734], [-4.2273860473917, 51.042369411023394], [-4.22816628456773, 51.04266571379387], [-4.228311135838909, 51.042831368191585]]]}}, {"type": "Feature", "properties": {"type": "postcode-cell", "postcode": "EX39 1UD", "postcodes": ["EX39 1UD"]}, "geometry": {"type": "Polygon", "coordinates": [[[-4.226731059389023, 51.040956233370004], [-4.226902608001642, 51.041353962897], [-4.225820695163848, 51.04181791176017], [-4.224833383316614, 51.041255080088504], [-4.226052504360106, 51.04076855011533], [-4.22644033952434, 51.040755606701104], [-4.226731059389023, 51.040956233370004]]]}}, {"type": "Feature", "properties": {"type": "postcode-cell", "postcode": "EX39 1JG", "postcodes": ["EX39 1JG"]}, "geometry": {"type": "Polygon", "coordinates": [[[-4.22644033952434, 51.040755606701104], [-4.226052504360106, 51.04076855011533], [-4.224863484836469, 51.04013240839868], [-4.225254693724955, 51.038809877093385], [-4.227140408614505, 51.038656861892186], [-4.22644033952434, 51.040755606701104]]]}}, {"type": "Feature", "properties": {"type": "postcode-cell", "postcode": "EX39 1TR", "postcodes": ["EX39 1TR"]}, "geometry": {"type": "Polygon", "coordinates": [[[-4.227089202782858, 51.04146679039387], [-4.2265916937754815, 51.04234690795734], [-4.226336875063823, 51.04243954684626], [-4.2257268325943915, 51.04218354998002], [-4.225820695163848, 51.04181791176017], [-4.226902608001642, 51.041353962897], [-4.227089832427513, 51.041462950858296], [-4.227089202782858, 51.04146679039387]]]}}, {"type": "Feature", "properties": {"type": "postcode-cell", "postcode": "EX39 1TP", "postcodes": ["EX39 1TP"]}, "geometry": {"type": "Polygon", "coordinates": [[[-4.2273860473917, 51.042369411023394], [-4.2265916937754815, 51.04234690795734], [-4.227089202782858, 51.04146679039387], [-4.2273860473917, 51.042369411023394]]]}}, {"type": "Feature", "properties": {"type": "postcode-cell", "postcode": "EX39 1HD", "postcodes": ["EX39 1HD"]}, "geometry": {"type": "Polygon", "coordinates": [[[-4.227606025425536, 51.04398031342112], [-4.227837661360454, 51.046069529596146], [-4.224802212065686, 51.04390331386007], [-4.225120278588491, 51.04312448307975], [-4.2256352136637645, 51.04303412072776], [-4.226452908422653, 51.043118160942846], [-4.227606025425536, 51.04398031342112]]]}}, {"type": "Feature", "properties": {"type": "postcode-cell", "postcode": "EX39 1XN", "postcodes": ["EX39 1XN"]}, "geometry": {"type": "Polygon", "coordinates": [[[-4.226336875063823, 51.04243954684626], [-4.226452908422653, 51.043118160942846], [-4.2256352136637645, 51.04303412072776], [-4.225309236422001, 51.042302154481064], [-4.2257268325943915, 51.04218354998002], [-4.226336875063823, 51.04243954684626]]]}}, {"type": "Feature", "properties": {"type": "postcode-cell", "postcode": "EX39 1XW", "postcodes": ["EX39 1XW"]}, "geometry": {"type": "Polygon", "coordinates": [[[-4.2256352136637645, 51.04303412072776], [-4.225120278588491, 51.04312448307975], [-4.224535780299898, 51.042756900463175], [-4.224433793700432, 51.0425084602639], [-4.224531089332945, 51.042350876255426], [-4.225309236422001, 51.042302154481064], [-4.2256352136637645, 51.04303412072776]]]}}, {"type": "Feature", "properties": {"type": "postcode-cell", "postcode": "EX39 1GU", "postcodes": ["EX39 1GU"]}, "geometry": {"type": "Polygon", "coordinates": [[[-4.224863484836469, 51.04013240839868], [-4.22384263314591, 51.04075232132064], [-4.220991524467959, 51.03993838549117], [-4.221419990060417, 51.03968999499168], [-4.222169990060889, 51.03978999499177], [-4.22512999006335, 51.03881999499096], [-4.225254693724955, 51.038809877093385], [-4.224863484836469, 51.04013240839868]]]}}, {"type": "Feature", "properties": {"type": "postcode-cell", "postcode": "EX39 1TX", "postcodes": ["EX39 1TX"]}, "geometry": {"type": "Polygon", "coordinates": [[[-4.2257268325943915, 51.04218354998002], [-4.225309236422001, 51.042302154481064], [-4.224531089332945, 51.042350876255426], [-4.22403427868272, 51.04170966670862], [-4.224300938260959, 51.04126527198162], [-4.224833383316614, 51.041255080088504], [-4.225820695163848, 51.04181791176017], [-4.2257268325943915, 51.04218354998002]]]}}, {"type": "Feature", "properties": {"type": "postcode-cell", "postcode": "EX39 1UN", "postcodes": ["EX39 1UN"]}, "geometry": {"type": "Polygon", "coordinates": [[[-4.225120278588491, 51.04312448307975], [-4.224802212065686, 51.04390331386007], [-4.223944066568564, 51.043694661528065], [-4.223989990060424, 51.04368999499497], [-4.223850284042249, 51.043527010024604], [-4.224535780299898, 51.042756900463175], [-4.225120278588491, 51.04312448307975]]]}}, {"type": "Feature", "properties": {"type": "postcode-cell", "postcode": "EX39 1UR", "postcodes": ["EX39 1UR"]}, "geometry": {"type": "Polygon", "coordinates": [[[-4.224535780299898, 51.042756900463175], [-4.223850284042249, 51.043527010024604], [-4.223208182411272, 51.04277789893177], [-4.224433793700432, 51.0425084602639], [-4.224535780299898, 51.042756900463175]]]}}, {"type": "Feature", "properties": {"type": "postcode-cell", "postcode": "EX39 1UJ", "postcodes": ["EX39 1UJ"]}, "geometry": {"type": "Polygon", "coordinates": [[[-4.22403427868272, 51.04170966670862], [-4.223097453734484, 51.041889951758435], [-4.222039990060496, 51.040479994992346], [-4.219529990058634, 51.04078999499261], [-4.219199990058565, 51.04042999499231], [-4.2200399900591155, 51.04048999499236], [-4.220991524467959, 51.03993838549117], [-4.22384263314591, 51.04075232132064], [-4.224300938260959, 51.04126527198162], [-4.22403427868272, 51.04170966670862]]]}}, {"type": "Feature", "properties": {"type": "postcode-cell", "postcode": "EX39 1UG", "postcodes": ["EX39 1UG"]}, "geometry": {"type": "Polygon", "coordinates": [[[-4.224833383316614, 51.041255080088504], [-4.224300938260959, 51.04126527198162], [-4.22384263314591, 51.04075232132064], [-4.224863484836469, 51.04013240839868], [-4.226052504360106, 51.04076855011533], [-4.224833383316614, 51.041255080088504]]]}}, {"type": "Feature", "properties": {"type": "postcode-cell", "postcode": "EX39 1UP", "postcodes": ["EX39 1UP"]}, "geometry": {"type": "Polygon", "coordinates": [[[-4.224433793700432, 51.0425084602639], [-4.223208182411272, 51.04277789893177], [-4.222729990060205, 51.04221999499377], [-4.223209990060615, 51.042039994993615], [-4.223097453734484, 51.041889951758435], [-4.22403427868272, 51.04170966670862], [-4.224531089332945, 51.042350876255426], [-4.224433793700432, 51.0425084602639]]]}}, {"type": "Feature", "properties": {"type": "postcode-cell", "postcode": "EX39 1TS", "postcodes": ["EX39 1TS"]}, "geometry": {"type": "Polygon", "coordinates": [[[-4.218886588939352, 51.04518497997593], [-4.218610131245912, 51.0454287775519], [-4.217689990055808, 51.04432999499553], [-4.219315292976058, 51.04416491896879], [-4.218886588939352, 51.04518497997593]]]}}, {"type": "Feature", "properties": {"type": "postcode-cell", "postcode": "EX39 1FZ", "postcodes": ["EX39 1FZ"]}, "geometry": {"type": "Polygon", "coordinates": [[[-4.221705556798576, 51.04443719471926], [-4.218886588939352, 51.04518497997593], [-4.219315292976058, 51.04416491896879], [-4.221568455256317, 51.04393603434746], [-4.221705556798576, 51.04443719471926]]]}}, {"type": "Feature", "properties": {"type": "postcode-cell", "postcode": "EX39 1XX", "postcodes": ["EX39 1XX"]}, "geometry": {"type": "Polygon", "coordinates": [[[-4.222202551418616, 51.045367965403386], [-4.219241676389524, 51.046182899280005], [-4.218610131245912, 51.0454287775519], [-4.218886588939352, 51.04518497997593], [-4.221705556798576, 51.04443719471926], [-4.222202551418616, 51.045367965403386]]]}}]}