{"type": "FeatureCollection", "features": [{"type": "Feature", "properties": {"type": "ward-outline", "name": "Whimple & Rockbeare"}, "geometry": {"type": "Polygon", "coordinates": [[[-3.34696, 50.78447], [-3.34593, 50.78128], [-3.34401, 50.7797], [-3.34487, 50.77912], [-3.34304, 50.77663], [-3.33266, 50.77753], [-3.32951, 50.7774], [-3.33139, 50.77486], [-3.33152, 50.77399], [-3.33011, 50.76939], [-3.32788, 50.76673], [-3.32792, 50.76515], [-3.32879, 50.76407], [-3.32806, 50.76226], [-3.32806, 50.76071], [-3.32708, 50.75933], [-3.32995, 50.75808], [-3.32888, 50.75409], [-3.32765, 50.75395], [-3.32597, 50.75294], [-3.32678, 50.75123], [-3.32646, 50.74893], [-3.32997, 50.74939], [-3.33154, 50.74929], [-3.33125, 50.7465], [-3.32998, 50.74427], [-3.32876, 50.73898], [-3.32971, 50.73692], [-3.33266, 50.73794], [-3.33558, 50.7379], [-3.34076, 50.73836], [-3.34457, 50.73697], [-3.34796, 50.73674], [-3.35319, 50.73343], [-3.357, 50.72698], [-3.35703, 50.72584], [-3.37057, 50.72833], [-3.37598, 50.72885], [-3.38136, 50.7303], [-3.38768, 50.73031], [-3.38914, 50.73056], [-3.39202, 50.73005], [-3.39944, 50.73004], [-3.39897, 50.73096], [-3.39948, 50.734], [-3.40089, 50.73623], [-3.39985, 50.73673], [-3.39978, 50.73707], [-3.40135, 50.73829], [-3.4001, 50.73909], [-3.40161, 50.74063], [-3.40058, 50.74116], [-3.40111, 50.74357], [-3.40073, 50.74411], [-3.40142, 50.74575], [-3.40096, 50.7474], [-3.4009, 50.74924], [-3.40269, 50.74922], [-3.40033, 50.74997], [-3.3985, 50.74992], [-3.39749, 50.75022], [-3.39733, 50.7498], [-3.39588, 50.74995], [-3.39576, 50.75019], [-3.39418, 50.75026], [-3.3943, 50.75076], [-3.39352, 50.75099], [-3.39292, 50.75048], [-3.39231, 50.7506], [-3.39265, 50.75128], [-3.39194, 50.75129], [-3.39139, 50.75042], [-3.39018, 50.75056], [-3.39031, 50.75133], [-3.38977, 50.75134], [-3.38963, 50.75062], [-3.38732, 50.75088], [-3.38748, 50.7515], [-3.38658, 50.75129], [-3.38643, 50.75158], [-3.38526, 50.75171], [-3.38528, 50.75113], [-3.38366, 50.75132], [-3.38406, 50.75221], [-3.38371, 50.75224], [-3.38257, 50.75227], [-3.38236, 50.75147], [-3.37023, 50.75286], [-3.36744, 50.7555], [-3.37049, 50.75639], [-3.37239, 50.7565], [-3.37403, 50.75699], [-3.3742, 50.75679], [-3.37566, 50.75719], [-3.3756, 50.75742], [-3.37698, 50.75765], [-3.37816, 50.7575], [-3.37974, 50.7581], [-3.38074, 50.75781], [-3.38097, 50.76032], [-3.38164, 50.76101], [-3.38187, 50.76205], [-3.38237, 50.76224], [-3.38172, 50.76304], [-3.38175, 50.76395], [-3.38102, 50.76473], [-3.37939, 50.76481], [-3.37832, 50.7654], [-3.38002, 50.76747], [-3.37823, 50.76836], [-3.37153, 50.7696], [-3.3687, 50.77069], [-3.36847, 50.77483], [-3.36991, 50.7773], [-3.37174, 50.77879], [-3.37099, 50.77918], [-3.3696, 50.77821], [-3.36839, 50.77923], [-3.36658, 50.77934], [-3.36632, 50.77885], [-3.36493, 50.77882], [-3.36445, 50.7799], [-3.36449, 50.78446], [-3.3612, 50.78533], [-3.3607, 50.7852], [-3.36041, 50.78548], [-3.35948, 50.78517], [-3.35925, 50.78468], [-3.35804, 50.78441], [-3.35591, 50.78528], [-3.35514, 50.78525], [-3.35458, 50.78566], [-3.35368, 50.78547], [-3.35181, 50.78584], [-3.34966, 50.78557], [-3.34696, 50.78447]]]}}, {"type": "Feature", "properties": {"type": "postcode-cell", "postcode": "EX5 2EB", "postcodes": ["EX5 2EB"]}, "geometry": {"type": "Polygon", "coordinates": [[[-3.3989584620751967, 50.74670852501722], [-3.395930568800325, 50.74988055425319], [-3.3935267077822893, 50.7482165725754], [-3.395891947727621, 50.746156430658864], [-3.401023339835195, 50.7431760012435], [-3.401109989656876, 50.7435699947613], [-3.400729989656378, 50.74410999476176], [-3.4007564220836177, 50.74417282190966], [-3.3989584620751967, 50.74670852501722]]]}}, {"type": "Feature", "properties": {"type": "postcode-cell", "postcode": "EX5 2DZ", "postcodes": ["EX5 2DZ"]}, "geometry": {"type": "Polygon", "coordinates": [[[-3.3989584620751967, 50.74670852501722], [-3.4007564220836177, 50.74417282190966], [-3.4014199896560253, 50.74574999476304], [-3.400959989654944, 50.74739999476432], [-3.4008999896540257, 50.74923999476577], [-3.402689989655159, 50.74921999476573], [-3.4003299896533172, 50.74996999476637], [-3.398499989652192, 50.749919994766366], [-3.397489989651414, 50.75021999476662], [-3.3973744303594793, 50.74991665242477], [-3.3989584620751967, 50.74670852501722]]]}}, {"type": "Feature", "properties": {"type": "postcode-cell", "postcode": "EX5 2LL", "postcodes": ["EX5 2LL"]}, "geometry": {"type": "Polygon", "coordinates": [[[-3.397636754379339, 50.738950158007306], [-3.3941153941975926, 50.7376094753474], [-3.393633230529822, 50.73707327522122], [-3.3921063771394717, 50.73004988104277], [-3.3994399896623197, 50.73003999475073], [-3.3989699896615835, 50.73095999475148], [-3.3994799896604446, 50.73399999475384], [-3.4008899896602602, 50.73622999475558], [-3.3998499896593675, 50.736729994755976], [-3.39977998965916, 50.73706999475623], [-3.401349989659559, 50.73828999475717], [-3.4000999896583903, 50.73908999475781], [-3.400599985987187, 50.73959993834565], [-3.397636754379339, 50.738950158007306]]]}}, {"type": "Feature", "properties": {"type": "postcode-cell", "postcode": "EX5 2ED", "postcodes": ["EX5 2ED"]}, "geometry": {"type": "Polygon", "coordinates": [[[-3.3924906108719033, 50.74926973703356], [-3.3928195532190273, 50.748541940904104], [-3.3935267077822893, 50.7482165725754], [-3.395930568800325, 50.74988055425319], [-3.3959560330245195, 50.74994212868149], [-3.3958799896505334, 50.74994999476642], [-3.3957599896503434, 50.7501899947666], [-3.394179989649318, 50.75025999476668], [-3.394239108200583, 50.750506323472784], [-3.3924906108719033, 50.74926973703356]]]}}, {"type": "Feature", "properties": {"type": "postcode-cell", "postcode": "EX5 2EA", "postcodes": ["EX5 2EA"]}, "geometry": {"type": "Polygon", "coordinates": [[[-3.3973744303594793, 50.74991665242477], [-3.3973299896515163, 50.74979999476628], [-3.3959560330245195, 50.74994212868149], [-3.395930568800325, 50.74988055425319], [-3.3989584620751967, 50.74670852501722], [-3.3973744303594793, 50.74991665242477]]]}}, {"type": "Feature", "properties": {"type": "postcode-cell", "postcode": "EX5 2EQ", "postcodes": ["EX5 2EQ"]}, "geometry": {"type": "Polygon", "coordinates": [[[-3.395891947727621, 50.746156430658864], [-3.391374902274725, 50.74640871551072], [-3.3904544315384393, 50.74579395206161], [-3.390445761969578, 50.74559791207457], [-3.4006469681147755, 50.73964785447699], [-3.4016099896585996, 50.74062999475899], [-3.400579989657699, 50.74115999475943], [-3.401023339835195, 50.7431760012435], [-3.395891947727621, 50.746156430658864]]]}}, {"type": "Feature", "properties": {"type": "postcode-cell", "postcode": "EX5 2HF", "postcodes": ["EX5 2HF"]}, "geometry": {"type": "Polygon", "coordinates": [[[-3.3935267077822893, 50.7482165725754], [-3.3928195532190273, 50.748541940904104], [-3.391548763205785, 50.74821061394116], [-3.3908226189461517, 50.746725376632746], [-3.391374902274725, 50.74640871551072], [-3.395891947727621, 50.746156430658864], [-3.3935267077822893, 50.7482165725754]]]}}, {"type": "Feature", "properties": {"type": "postcode-cell", "postcode": "EX5 2EE", "postcodes": ["EX5 2EE"]}, "geometry": {"type": "Polygon", "coordinates": [[[-3.3914307170129705, 50.7500330086662], [-3.3924906108719033, 50.74926973703356], [-3.394239108200583, 50.750506323472784], [-3.3942999896491526, 50.75075999476708], [-3.393519989648553, 50.75098999476727], [-3.392919989648421, 50.75047999476688], [-3.3923099896479827, 50.75059999476698], [-3.3926499896478677, 50.75127999476753], [-3.391939989647417, 50.751289994767546], [-3.391486782507345, 50.75057310605152], [-3.3914307170129705, 50.7500330086662]]]}}, {"type": "Feature", "properties": {"type": "postcode-cell", "postcode": "EX5 2UB", "postcodes": ["EX5 2UB"]}, "geometry": {"type": "MultiPolygon", "coordinates": [[[[-3.3655199847011277, 50.76879517040329], [-3.3651067375972836, 50.76808372331698], [-3.364611594405649, 50.76625700826458], [-3.3793166916383575, 50.76485041221233], [-3.3783199896321014, 50.765399994778825], [-3.380019989632175, 50.767469994780434], [-3.3782299896306243, 50.76835999478115], [-3.371529989625827, 50.769599994782226], [-3.3697871694277652, 50.770271271743155], [-3.3655199847011277, 50.76879517040329]]], [[[-3.381063818768358, 50.76468316450197], [-3.3810199896341167, 50.76472999477825], [-3.380106026992753, 50.764774854677476], [-3.381063818768358, 50.76468316450197]]]]}}, {"type": "Feature", "properties": {"type": "postcode-cell", "postcode": "EX5 2EF", "postcodes": ["EX5 2EF"]}, "geometry": {"type": "Polygon", "coordinates": [[[-3.3914307170129705, 50.7500330086662], [-3.3877803901429875, 50.74981743160451], [-3.389200685593919, 50.74854964677383], [-3.3910924061306664, 50.74816701897987], [-3.391548763205785, 50.74821061394116], [-3.3928195532190273, 50.748541940904104], [-3.3924906108719033, 50.74926973703356], [-3.3914307170129705, 50.7500330086662]]]}}, {"type": "Feature", "properties": {"type": "postcode-cell", "postcode": "EX5 2EW", "postcodes": ["EX5 2EW"]}, "geometry": {"type": "Polygon", "coordinates": [[[-3.3908226189461517, 50.746725376632746], [-3.3904428781023617, 50.74674258040312], [-3.3896553351985483, 50.746370576589335], [-3.3904544315384393, 50.74579395206161], [-3.391374902274725, 50.74640871551072], [-3.3908226189461517, 50.746725376632746]]]}}, {"type": "Feature", "properties": {"type": "postcode-cell", "postcode": "EX5 2LH", "postcodes": ["EX5 2LH"]}, "geometry": {"type": "Polygon", "coordinates": [[[-3.3904428781023617, 50.74674258040312], [-3.3898469331800127, 50.74737477877062], [-3.38933583040898, 50.747313145807674], [-3.3882511345724096, 50.74665849662019], [-3.3885714501185977, 50.746437957768755], [-3.3896553351985483, 50.746370576589335], [-3.3904428781023617, 50.74674258040312]]]}}, {"type": "Feature", "properties": {"type": "postcode-cell", "postcode": "EX5 2EG", "postcodes": ["EX5 2EG"]}, "geometry": {"type": "Polygon", "coordinates": [[[-3.391548763205785, 50.74821061394116], [-3.3910924061306664, 50.74816701897987], [-3.3898469331800127, 50.74737477877062], [-3.3904428781023617, 50.74674258040312], [-3.3908226189461517, 50.746725376632746], [-3.391548763205785, 50.74821061394116]]]}}, {"type": "Feature", "properties": {"type": "postcode-cell", "postcode": "EX5 2EH", "postcodes": ["EX5 2EH"]}, "geometry": {"type": "Polygon", "coordinates": [[[-3.390445761969578, 50.74559791207457], [-3.3896741926099616, 50.74539746294174], [-3.3897495632133157, 50.743622451750326], [-3.3898209981022283, 50.743148502139505], [-3.397636754379339, 50.738950158007306], [-3.400599985987187, 50.73959993834565], [-3.4006469681147755, 50.73964785447699], [-3.390445761969578, 50.74559791207457]]]}}, {"type": "Feature", "properties": {"type": "postcode-cell", "postcode": "EX5 2EJ", "postcodes": ["EX5 2EJ"]}, "geometry": {"type": "Polygon", "coordinates": [[[-3.3896741926099616, 50.74539746294174], [-3.3893911623285535, 50.74545639083261], [-3.3889697231241858, 50.74521878040932], [-3.3897495632133157, 50.743622451750326], [-3.3896741926099616, 50.74539746294174]]]}}, {"type": "Feature", "properties": {"type": "postcode-cell", "postcode": "EX5 2LG", "postcodes": ["EX5 2LG"]}, "geometry": {"type": "Polygon", "coordinates": [[[-3.3904544315384393, 50.74579395206161], [-3.3896553351985483, 50.746370576589335], [-3.3885714501185977, 50.746437957768755], [-3.3886519455854014, 50.74605609475827], [-3.3893911623285535, 50.74545639083261], [-3.3896741926099616, 50.74539746294174], [-3.390445761969578, 50.74559791207457], [-3.3904544315384393, 50.74579395206161]]]}}, {"type": "Feature", "properties": {"type": "postcode-cell", "postcode": "EX5 2PQ", "postcodes": ["EX5 2PQ"]}, "geometry": {"type": "Polygon", "coordinates": [[[-3.391486782507345, 50.75057310605152], [-3.391389989647492, 50.75041999476686], [-3.390179989646665, 50.75055999476699], [-3.390309989646374, 50.75132999476758], [-3.3897699896460316, 50.7513399947676], [-3.3896299896462896, 50.75061999476704], [-3.3879330277180193, 50.75081099954368], [-3.387704962771709, 50.74983592521922], [-3.3877803901429875, 50.74981743160451], [-3.3914307170129705, 50.7500330086662], [-3.391486782507345, 50.75057310605152]]]}}, {"type": "Feature", "properties": {"type": "postcode-cell", "postcode": "EX5 2UJ", "postcodes": ["EX5 2UJ"]}, "geometry": {"type": "Polygon", "coordinates": [[[-3.389200685593919, 50.74854964677383], [-3.3888995560624555, 50.74806371700555], [-3.38933583040898, 50.747313145807674], [-3.3898469331800127, 50.74737477877062], [-3.3910924061306664, 50.74816701897987], [-3.389200685593919, 50.74854964677383]]]}}, {"type": "Feature", "properties": {"type": "postcode-cell", "postcode": "EX5 2PH", "postcodes": ["EX5 2PH"]}, "geometry": {"type": "MultiPolygon", "coordinates": [[[[-3.378501113788755, 50.7576295387249], [-3.3797399896364952, 50.75809999477305], [-3.380739989637262, 50.757809994772835], [-3.3809214878936666, 50.75979071802767], [-3.378501113788755, 50.7576295387249]]], [[[-3.381627712662218, 50.74933110818969], [-3.384353687259775, 50.75123863810853], [-3.3836599896422084, 50.75131999476769], [-3.3840599896420316, 50.75220999476838], [-3.3837099896418, 50.75223999476841], [-3.382569989641069, 50.75226999476845], [-3.382359989641323, 50.75146999476781], [-3.374026547796759, 50.752425084119196], [-3.381627712662218, 50.74933110818969]]]]}}, {"type": "Feature", "properties": {"type": "postcode-cell", "postcode": "EX5 2FP", "postcodes": ["EX5 2FP"]}, "geometry": {"type": "Polygon", "coordinates": [[[-3.3879330277180193, 50.75081099954368], [-3.387319989644715, 50.75087999476728], [-3.387479989644519, 50.75149999476777], [-3.3865799896440554, 50.75128999476762], [-3.3864299896438217, 50.75157999476785], [-3.385259989643025, 50.75170999476796], [-3.385268363726922, 50.75146714759048], [-3.387386623641125, 50.74974964504909], [-3.387704962771709, 50.74983592521922], [-3.3879330277180193, 50.75081099954368]]]}}, {"type": "Feature", "properties": {"type": "postcode-cell", "postcode": "EX5 2LQ", "postcodes": ["EX5 2LQ"]}, "geometry": {"type": "Polygon", "coordinates": [[[-3.3893911623285535, 50.74545639083261], [-3.3886519455854014, 50.74605609475827], [-3.3878631777478216, 50.745056799807124], [-3.3879378464759764, 50.74501906766083], [-3.3889697231241858, 50.74521878040932], [-3.3893911623285535, 50.74545639083261]]]}}, {"type": "Feature", "properties": {"type": "postcode-cell", "postcode": "EX5 2FY", "postcodes": ["EX5 2FY"]}, "geometry": {"type": "Polygon", "coordinates": [[[-3.38933583040898, 50.747313145807674], [-3.3888995560624555, 50.74806371700555], [-3.3861433196180912, 50.74705109115685], [-3.3882511345724096, 50.74665849662019], [-3.38933583040898, 50.747313145807674]]]}}, {"type": "Feature", "properties": {"type": "postcode-cell", "postcode": "EX5 2EL", "postcodes": ["EX5 2EL"]}, "geometry": {"type": "Polygon", "coordinates": [[[-3.389200685593919, 50.74854964677383], [-3.3877803901429875, 50.74981743160451], [-3.387704962771709, 50.74983592521922], [-3.387386623641125, 50.74974964504909], [-3.383365943814111, 50.74811166205675], [-3.3835746560704902, 50.74737916915989], [-3.3848937409951723, 50.74713554447796], [-3.3861433196180912, 50.74705109115685], [-3.3888995560624555, 50.74806371700555], [-3.389200685593919, 50.74854964677383]]]}}, {"type": "Feature", "properties": {"type": "postcode-cell", "postcode": "EX5 2LP", "postcodes": ["EX5 2LP"]}, "geometry": {"type": "Polygon", "coordinates": [[[-3.397636754379339, 50.738950158007306], [-3.3898209981022283, 50.743148502139505], [-3.389665422566262, 50.7432018989788], [-3.384880439703838, 50.743856684031776], [-3.3839569534096348, 50.74384254636923], [-3.383055133101384, 50.73993190803785], [-3.3941153941975926, 50.7376094753474], [-3.397636754379339, 50.738950158007306]]]}}, {"type": "Feature", "properties": {"type": "postcode-cell", "postcode": "EX5 2DW", "postcodes": ["EX5 2DW"]}, "geometry": {"type": "Polygon", "coordinates": [[[-3.3897495632133157, 50.743622451750326], [-3.3889697231241858, 50.74521878040932], [-3.3879378464759764, 50.74501906766083], [-3.389665422566262, 50.7432018989788], [-3.3898209981022283, 50.743148502139505], [-3.3897495632133157, 50.743622451750326]]]}}, {"type": "Feature", "properties": {"type": "postcode-cell", "postcode": "EX5 2HG", "postcodes": ["EX5 2HG"]}, "geometry": {"type": "Polygon", "coordinates": [[[-3.3885714501185977, 50.746437957768755], [-3.3882511345724096, 50.74665849662019], [-3.3861433196180912, 50.74705109115685], [-3.3848937409951723, 50.74713554447796], [-3.387806106727458, 50.74506138747722], [-3.3878631777478216, 50.745056799807124], [-3.3886519455854014, 50.74605609475827], [-3.3885714501185977, 50.746437957768755]]]}}, {"type": "Feature", "properties": {"type": "postcode-cell", "postcode": "EX5 2LR", "postcodes": ["EX5 2LR"]}, "geometry": {"type": "Polygon", "coordinates": [[[-3.3878631777478216, 50.745056799807124], [-3.387806106727458, 50.74506138747722], [-3.384880439703838, 50.743856684031776], [-3.389665422566262, 50.7432018989788], [-3.3879378464759764, 50.74501906766083], [-3.3878631777478216, 50.745056799807124]]]}}, {"type": "Feature", "properties": {"type": "postcode-cell", "postcode": "EX5 2EN", "postcodes": ["EX5 2EN"]}, "geometry": {"type": "Polygon", "coordinates": [[[-3.387386623641125, 50.74974964504909], [-3.385268363726922, 50.75146714759048], [-3.385279989643315, 50.75112999476751], [-3.384353687259775, 50.75123863810853], [-3.381627712662218, 50.74933110818969], [-3.383365943814111, 50.74811166205675], [-3.387386623641125, 50.74974964504909]]]}}, {"type": "Feature", "properties": {"type": "postcode-cell", "postcode": "EX5 2HH", "postcodes": ["EX5 2HH"]}, "geometry": {"type": "Polygon", "coordinates": [[[-3.387806106727458, 50.74506138747722], [-3.3848937409951723, 50.74713554447796], [-3.3835746560704902, 50.74737916915989], [-3.382547541853327, 50.74566665970381], [-3.3839569534096348, 50.74384254636923], [-3.384880439703838, 50.743856684031776], [-3.387806106727458, 50.74506138747722]]]}}, {"type": "Feature", "properties": {"type": "postcode-cell", "postcode": "EX5 2LU", "postcodes": ["EX5 2LU"]}, "geometry": {"type": "Polygon", "coordinates": [[[-3.381121771669264, 50.73273017772655], [-3.378184699092341, 50.73504405641862], [-3.3677938051946485, 50.73292384914229], [-3.366880795991233, 50.727651736410614], [-3.370569989645062, 50.72832999474985], [-3.375979989648195, 50.72884999475018], [-3.381217117407908, 50.730261492682686], [-3.381121771669264, 50.73273017772655]]]}}, {"type": "Feature", "properties": {"type": "postcode-cell", "postcode": "EX5 2LN", "postcodes": ["EX5 2LN"]}, "geometry": {"type": "Polygon", "coordinates": [[[-3.393633230529822, 50.73707327522122], [-3.381121771669264, 50.73273017772655], [-3.381217117407908, 50.730261492682686], [-3.3813599896508646, 50.73029999475123], [-3.3876799896548193, 50.73030999475114], [-3.3891399896556127, 50.730559994751296], [-3.3920199896576633, 50.730049994750864], [-3.3921063771394717, 50.73004988104277], [-3.393633230529822, 50.73707327522122]]]}}, {"type": "Feature", "properties": {"type": "postcode-cell", "postcode": "EX5 2EP", "postcodes": ["EX5 2EP"]}, "geometry": {"type": "Polygon", "coordinates": [[[-3.383365943814111, 50.74811166205675], [-3.381627712662218, 50.74933110818969], [-3.374026547796759, 50.752425084119196], [-3.373673853957148, 50.752465492121345], [-3.3719249313738224, 50.7469546615287], [-3.3786032625400106, 50.74494581571413], [-3.382547541853327, 50.74566665970381], [-3.3835746560704902, 50.74737916915989], [-3.383365943814111, 50.74811166205675]]]}}, {"type": "Feature", "properties": {"type": "postcode-cell", "postcode": "EX5 2LW", "postcodes": ["EX5 2LW"]}, "geometry": {"type": "Polygon", "coordinates": [[[-3.3941153941975926, 50.7376094753474], [-3.383055133101384, 50.73993190803785], [-3.378277485395469, 50.73908319298007], [-3.378184699092341, 50.73504405641862], [-3.381121771669264, 50.73273017772655], [-3.393633230529822, 50.73707327522122], [-3.3941153941975926, 50.7376094753474]]]}}, {"type": "Feature", "properties": {"type": "postcode-cell", "postcode": "EX5 2LT", "postcodes": ["EX5 2LT"]}, "geometry": {"type": "Polygon", "coordinates": [[[-3.3839569534096348, 50.74384254636923], [-3.382547541853327, 50.74566665970381], [-3.3786032625400106, 50.74494581571413], [-3.3777339598333964, 50.73933325459369], [-3.378277485395469, 50.73908319298007], [-3.383055133101384, 50.73993190803785], [-3.3839569534096348, 50.74384254636923]]]}}, {"type": "Feature", "properties": {"type": "postcode-cell", "postcode": "EX5 2PZ", "postcodes": ["EX5 2PZ"]}, "geometry": {"type": "Polygon", "coordinates": [[[-3.3809214878936666, 50.75979071802767], [-3.3809699896362018, 50.76031999477479], [-3.381639989636292, 50.761009994775335], [-3.381849966652813, 50.76195945801059], [-3.363500172812785, 50.761957786264404], [-3.3624911778366693, 50.7611691276385], [-3.3617092947691845, 50.7579009074674], [-3.3677685819705343, 50.755595884583826], [-3.37048998963152, 50.75638999477186], [-3.372389989632657, 50.75649999477193], [-3.37402998963345, 50.75698999477229], [-3.3741999896336528, 50.75678999477213], [-3.375659989634376, 50.75718999477241], [-3.375599989634226, 50.75741999477258], [-3.376979989634982, 50.75764999477277], [-3.3781599896357952, 50.757499994772616], [-3.378501113788755, 50.7576295387249], [-3.3809214878936666, 50.75979071802767]]]}}, {"type": "Feature", "properties": {"type": "postcode-cell", "postcode": "EX5 2ER", "postcodes": ["EX5 2ER"]}, "geometry": {"type": "Polygon", "coordinates": [[[-3.3786032625400106, 50.74494581571413], [-3.3719249313738224, 50.7469546615287], [-3.3684465189797104, 50.74417031997287], [-3.3751464845184627, 50.73982294043644], [-3.3777339598333964, 50.73933325459369], [-3.3786032625400106, 50.74494581571413]]]}}, {"type": "Feature", "properties": {"type": "postcode-cell", "postcode": "EX5 2PL", "postcodes": ["EX5 2PL"]}, "geometry": {"type": "Polygon", "coordinates": [[[-3.373673853957148, 50.752465492121345], [-3.372311223365573, 50.75262159754579], [-3.3617440201306628, 50.75079401953092], [-3.3596240721767856, 50.74496766429625], [-3.363165090684523, 50.7433395638928], [-3.3684465189797104, 50.74417031997287], [-3.3719249313738224, 50.7469546615287], [-3.373673853957148, 50.752465492121345]]]}}, {"type": "Feature", "properties": {"type": "postcode-cell", "postcode": "EX5 2FE", "postcodes": ["EX5 2FE"]}, "geometry": {"type": "Polygon", "coordinates": [[[-3.3777339598333964, 50.73933325459369], [-3.3751464845184627, 50.73982294043644], [-3.366471517818772, 50.735604093844884], [-3.3669629386222595, 50.73413506262258], [-3.3677938051946485, 50.73292384914229], [-3.378184699092341, 50.73504405641862], [-3.378277485395469, 50.73908319298007], [-3.3777339598333964, 50.73933325459369]]]}}, {"type": "Feature", "properties": {"type": "postcode-cell", "postcode": "EX5 2EU", "postcodes": ["EX5 2EU"]}, "geometry": {"type": "Polygon", "coordinates": [[[-3.3677938051946485, 50.73292384914229], [-3.3669629386222595, 50.73413506262258], [-3.362235079068036, 50.73392707303517], [-3.358141570450943, 50.73345073042761], [-3.354264147299155, 50.73161172816279], [-3.3569999896372322, 50.72697999474901], [-3.3570299896377986, 50.72583999474812], [-3.366880795991233, 50.727651736410614], [-3.3677938051946485, 50.73292384914229]]]}}, {"type": "Feature", "properties": {"type": "postcode-cell", "postcode": "EX5 2ES", "postcodes": ["EX5 2ES"]}, "geometry": {"type": "Polygon", "coordinates": [[[-3.359949945275154, 50.73806342042826], [-3.359103537572788, 50.73482449997726], [-3.362235079068036, 50.73392707303517], [-3.3669629386222595, 50.73413506262258], [-3.366471517818772, 50.735604093844884], [-3.362444340965956, 50.73886531693853], [-3.359949945275154, 50.73806342042826]]]}}, {"type": "Feature", "properties": {"type": "postcode-cell", "postcode": "EX5 2HE", "postcodes": ["EX5 2HE"]}, "geometry": {"type": "Polygon", "coordinates": [[[-3.362444340965956, 50.73886531693853], [-3.363165090684523, 50.7433395638928], [-3.3596240721767856, 50.74496766429625], [-3.3546852817986763, 50.745173186231185], [-3.350372759423042, 50.74264162310586], [-3.3499169959546533, 50.741958268520364], [-3.355009884569047, 50.73721424831046], [-3.359949945275154, 50.73806342042826], [-3.362444340965956, 50.73886531693853]]]}}, {"type": "Feature", "properties": {"type": "postcode-cell", "postcode": "EX5 2LS", "postcodes": ["EX5 2LS"]}, "geometry": {"type": "Polygon", "coordinates": [[[-3.3684465189797104, 50.74417031997287], [-3.363165090684523, 50.7433395638928], [-3.362444340965956, 50.73886531693853], [-3.366471517818772, 50.735604093844884], [-3.3751464845184627, 50.73982294043644], [-3.3684465189797104, 50.74417031997287]]]}}, {"type": "Feature", "properties": {"type": "postcode-cell", "postcode": "EX5 2NZ", "postcodes": ["EX5 2NZ"]}, "geometry": {"type": "Polygon", "coordinates": [[[-3.363263845552046, 50.775604713584485], [-3.3629510325900824, 50.77450187591121], [-3.363529744347586, 50.76967924702016], [-3.3655199847011277, 50.76879517040329], [-3.3697871694277652, 50.770271271743155], [-3.3686999896235306, 50.77068999478314], [-3.3684699896213983, 50.774829994786415], [-3.369909989621116, 50.777299994788315], [-3.37079359922838, 50.77801945209846], [-3.363263845552046, 50.775604713584485]]]}}, {"type": "Feature", "properties": {"type": "postcode-cell", "postcode": "EX5 2TY", "postcodes": ["EX5 2TY"]}, "geometry": {"type": "Polygon", "coordinates": [[[-3.3655199847011277, 50.76879517040329], [-3.363529744347586, 50.76967924702016], [-3.3634970124050976, 50.76968437179668], [-3.3605993055124515, 50.768899664939525], [-3.3612144212827837, 50.76801323816361], [-3.3651067375972836, 50.76808372331698], [-3.3655199847011277, 50.76879517040329]]]}}, {"type": "Feature", "properties": {"type": "postcode-cell", "postcode": "EX5 2UD", "postcodes": ["EX5 2UD"]}, "geometry": {"type": "Polygon", "coordinates": [[[-3.363154266380557, 50.76376235680227], [-3.363500172812785, 50.761957786264404], [-3.381849966652813, 50.76195945801059], [-3.3818699896359363, 50.76204999477615], [-3.382369989636159, 50.76223999477627], [-3.3817199896353674, 50.76303999477692], [-3.3817499896349497, 50.76394999477763], [-3.381063818768358, 50.76468316450197], [-3.380106026992753, 50.764774854677476], [-3.379389989633057, 50.76480999477834], [-3.3793166916383575, 50.76485041221233], [-3.364611594405649, 50.76625700826458], [-3.3635682889340464, 50.765029706658275], [-3.363154266380557, 50.76376235680227]]]}}, {"type": "Feature", "properties": {"type": "postcode-cell", "postcode": "EX5 2SQ", "postcodes": ["EX5 2SQ"]}, "geometry": {"type": "Polygon", "coordinates": [[[-3.3635682889340464, 50.765029706658275], [-3.360120845532477, 50.76692426716568], [-3.3587626532423958, 50.766643069552075], [-3.35873855482717, 50.76628852135682], [-3.3602604630151323, 50.76469327051892], [-3.363154266380557, 50.76376235680227], [-3.3635682889340464, 50.765029706658275]]]}}, {"type": "Feature", "properties": {"type": "postcode-cell", "postcode": "EX5 2PY", "postcodes": ["EX5 2PY"]}, "geometry": {"type": "Polygon", "coordinates": [[[-3.3617092947691845, 50.7579009074674], [-3.3612801165527713, 50.75769099103267], [-3.3592288215925334, 50.75258984180438], [-3.3617440201306628, 50.75079401953092], [-3.372311223365573, 50.75262159754579], [-3.3702299896330534, 50.7528599947691], [-3.367439989630037, 50.75549999477122], [-3.3677685819705343, 50.755595884583826], [-3.3617092947691845, 50.7579009074674]]]}}, {"type": "Feature", "properties": {"type": "postcode-cell", "postcode": "EX5 2NX", "postcodes": ["EX5 2NX"]}, "geometry": {"type": "Polygon", "coordinates": [[[-3.351326696059689, 50.77900833016595], [-3.356579469312832, 50.775147870608464], [-3.363263845552046, 50.775604713584485], [-3.37079359922838, 50.77801945209846], [-3.371739989621548, 50.77878999478946], [-3.3709899896208904, 50.77917999478977], [-3.3695999896204842, 50.77820999478904], [-3.368389989619235, 50.77922999478986], [-3.3665799896180473, 50.77933999478998], [-3.366319989618119, 50.77884999478958], [-3.3649299896172624, 50.778819994789586], [-3.3644499896164426, 50.77989999479043], [-3.3644899896142806, 50.784459994794034], [-3.3611999896117974, 50.78532999479478], [-3.3606999896115464, 50.78519999479468], [-3.3604099896112305, 50.7854799947949], [-3.359479989610797, 50.785169994794664], [-3.3592499896108894, 50.78467999479428], [-3.358039989610259, 50.78440999479411], [-3.3559099896085067, 50.78527999479481], [-3.3551399896080376, 50.785249994794796], [-3.3545799896074904, 50.785659994795125], [-3.3536799896070173, 50.78546999479498], [-3.351809989605669, 50.785839994795296], [-3.3496599896044517, 50.785569994795125], [-3.346959989603288, 50.784469994794286], [-3.346562706595121, 50.783239628911325], [-3.351326696059689, 50.77900833016595]]]}}, {"type": "Feature", "properties": {"type": "postcode-cell", "postcode": "EX5 2UA", "postcodes": ["EX5 2UA"]}, "geometry": {"type": "Polygon", "coordinates": [[[-3.364611594405649, 50.76625700826458], [-3.3651067375972836, 50.76808372331698], [-3.3612144212827837, 50.76801323816361], [-3.360123531974282, 50.767886624828016], [-3.359884528997293, 50.767495290594894], [-3.360120845532477, 50.76692426716568], [-3.3635682889340464, 50.765029706658275], [-3.364611594405649, 50.76625700826458]]]}}, {"type": "Feature", "properties": {"type": "postcode-cell", "postcode": "EX5 2NU", "postcodes": ["EX5 2NU"]}, "geometry": {"type": "Polygon", "coordinates": [[[-3.363263845552046, 50.775604713584485], [-3.356579469312832, 50.775147870608464], [-3.3550789457161083, 50.77257707826203], [-3.357621628221764, 50.77103006452677], [-3.3598293599844804, 50.77071175910707], [-3.3603452065645993, 50.770746814274794], [-3.3629510325900824, 50.77450187591121], [-3.363263845552046, 50.775604713584485]]]}}, {"type": "Feature", "properties": {"type": "postcode-cell", "postcode": "EX5 2NT", "postcodes": ["EX5 2NT"]}, "geometry": {"type": "Polygon", "coordinates": [[[-3.3629510325900824, 50.77450187591121], [-3.3603452065645993, 50.770746814274794], [-3.3634970124050976, 50.76968437179668], [-3.363529744347586, 50.76967924702016], [-3.3629510325900824, 50.77450187591121]]]}}, {"type": "Feature", "properties": {"type": "postcode-cell", "postcode": "EX5 2TZ", "postcodes": ["EX5 2TZ"]}, "geometry": {"type": "Polygon", "coordinates": [[[-3.3612144212827837, 50.76801323816361], [-3.3605993055124515, 50.768899664939525], [-3.359646416183641, 50.768744841751385], [-3.3596345143855784, 50.76873623486923], [-3.360123531974282, 50.767886624828016], [-3.3612144212827837, 50.76801323816361]]]}}, {"type": "Feature", "properties": {"type": "postcode-cell", "postcode": "EX5 2SJ", "postcodes": ["EX5 2SJ"]}, "geometry": {"type": "Polygon", "coordinates": [[[-3.3602604630151323, 50.76469327051892], [-3.358388953540644, 50.765056308072616], [-3.35724039377487, 50.764811271579134], [-3.356934989686404, 50.76454824924058], [-3.3569349897025305, 50.763864444390926], [-3.35979169004486, 50.76163357396376], [-3.3624911778366693, 50.7611691276385], [-3.363500172812785, 50.761957786264404], [-3.363154266380557, 50.76376235680227], [-3.3602604630151323, 50.76469327051892]]]}}, {"type": "Feature", "properties": {"type": "postcode-cell", "postcode": "EX5 2EX", "postcodes": ["EX5 2EX"]}, "geometry": {"type": "Polygon", "coordinates": [[[-3.359949945275154, 50.73806342042826], [-3.355009884569047, 50.73721424831046], [-3.3521055544817644, 50.73411637718164], [-3.3531899896317445, 50.73342999475414], [-3.354264147299155, 50.73161172816279], [-3.358141570450943, 50.73345073042761], [-3.359103537572788, 50.73482449997726], [-3.359949945275154, 50.73806342042826]]]}}, {"type": "Feature", "properties": {"type": "postcode-cell", "postcode": "EX5 2UG", "postcodes": ["EX5 2UG"]}, "geometry": {"type": "Polygon", "coordinates": [[[-3.360123531974282, 50.767886624828016], [-3.3596345143855784, 50.76873623486923], [-3.3592146769347764, 50.76872914117616], [-3.35851821484181, 50.768159261258745], [-3.358510283857884, 50.76800094238561], [-3.3592243527751413, 50.76756436902234], [-3.359884528997293, 50.767495290594894], [-3.360123531974282, 50.767886624828016]]]}}, {"type": "Feature", "properties": {"type": "postcode-cell", "postcode": "EX5 2ET", "postcodes": ["EX5 2ET"]}, "geometry": {"type": "Polygon", "coordinates": [[[-3.359103537572788, 50.73482449997726], [-3.358141570450943, 50.73345073042761], [-3.362235079068036, 50.73392707303517], [-3.359103537572788, 50.73482449997726]]]}}, {"type": "Feature", "properties": {"type": "postcode-cell", "postcode": "EX5 2TX", "postcodes": ["EX5 2TX"]}, "geometry": {"type": "Polygon", "coordinates": [[[-3.3634970124050976, 50.76968437179668], [-3.3603452065645993, 50.770746814274794], [-3.3598293599844804, 50.77071175910707], [-3.359646416183641, 50.768744841751385], [-3.3605993055124515, 50.768899664939525], [-3.3634970124050976, 50.76968437179668]]]}}, {"type": "Feature", "properties": {"type": "postcode-cell", "postcode": "EX5 2AS", "postcodes": ["EX5 2AS"]}, "geometry": {"type": "Polygon", "coordinates": [[[-3.3574938573780635, 50.768719505585416], [-3.3578794659151097, 50.76829114043101], [-3.35851821484181, 50.768159261258745], [-3.3592146769347764, 50.76872914117616], [-3.3575380915882143, 50.769299915384536], [-3.3574938573780635, 50.768719505585416]]]}}, {"type": "Feature", "properties": {"type": "postcode-cell", "postcode": "EX5 2TS", "postcodes": ["EX5 2TS"]}, "geometry": {"type": "Polygon", "coordinates": [[[-3.3575380915882143, 50.769299915384536], [-3.3575087523204385, 50.7693282040725], [-3.3566387352474556, 50.769072143799534], [-3.3563866877296826, 50.76889718774063], [-3.356024282508724, 50.76857415787528], [-3.3561143012549857, 50.767725413569664], [-3.3564894891166905, 50.767693516751876], [-3.3574938573780635, 50.768719505585416], [-3.3575380915882143, 50.769299915384536]]]}}, {"type": "Feature", "properties": {"type": "postcode-cell", "postcode": "EX5 2TT", "postcodes": ["EX5 2TT"]}, "geometry": {"type": "Polygon", "coordinates": [[[-3.359646416183641, 50.768744841751385], [-3.3598293599844804, 50.77071175910707], [-3.357621628221764, 50.77103006452677], [-3.3575087523204385, 50.7693282040725], [-3.3575380915882143, 50.769299915384536], [-3.3592146769347764, 50.76872914117616], [-3.3596345143855784, 50.76873623486923], [-3.359646416183641, 50.768744841751385]]]}}, {"type": "Feature", "properties": {"type": "postcode-cell", "postcode": "EX5 2PN", "postcodes": ["EX5 2PN"]}, "geometry": {"type": "Polygon", "coordinates": [[[-3.3617440201306628, 50.75079401953092], [-3.3592288215925334, 50.75258984180438], [-3.358005049643752, 50.75254695009432], [-3.3570724047653893, 50.75238891076888], [-3.3537641229619846, 50.74929283149972], [-3.353191961516497, 50.746755921108495], [-3.3546852817986763, 50.745173186231185], [-3.3596240721767856, 50.74496766429625], [-3.3617440201306628, 50.75079401953092]]]}}, {"type": "Feature", "properties": {"type": "postcode-cell", "postcode": "EX5 2GF", "postcodes": ["EX5 2GF"]}, "geometry": {"type": "Polygon", "coordinates": [[[-3.3592243527751413, 50.76756436902234], [-3.357728567580363, 50.7671469483777], [-3.357819827801297, 50.767084645607035], [-3.35846254491918, 50.766733937491026], [-3.3587626532423958, 50.766643069552075], [-3.360120845532477, 50.76692426716568], [-3.359884528997293, 50.767495290594894], [-3.3592243527751413, 50.76756436902234]]]}}, {"type": "Feature", "properties": {"type": "postcode-cell", "postcode": "EX5 2EY", "postcodes": ["EX5 2EY"]}, "geometry": {"type": "Polygon", "coordinates": [[[-3.355009884569047, 50.73721424831046], [-3.3499169959546533, 50.741958268520364], [-3.345710331541116, 50.73994324064823], [-3.345243690771459, 50.73692429443741], [-3.3479599896268843, 50.73673999475679], [-3.3521055544817644, 50.73411637718164], [-3.355009884569047, 50.73721424831046]]]}}, {"type": "Feature", "properties": {"type": "postcode-cell", "postcode": "EX5 2UT", "postcodes": ["EX5 2UT"]}, "geometry": {"type": "Polygon", "coordinates": [[[-3.3592243527751413, 50.76756436902234], [-3.358510283857884, 50.76800094238561], [-3.357352773201421, 50.767375508241145], [-3.3574757225016776, 50.76724543244399], [-3.3576871529583774, 50.76715901157376], [-3.357728567580363, 50.7671469483777], [-3.3592243527751413, 50.76756436902234]]]}}, {"type": "Feature", "properties": {"type": "postcode-cell", "postcode": "EX5 2SW", "postcodes": ["EX5 2SW"]}, "geometry": {"type": "Polygon", "coordinates": [[[-3.35873855482717, 50.76628852135682], [-3.358046955266638, 50.76598322254661], [-3.3583108295302373, 50.76514246596396], [-3.358388953540644, 50.765056308072616], [-3.3602604630151323, 50.76469327051892], [-3.35873855482717, 50.76628852135682]]]}}, {"type": "Feature", "properties": {"type": "postcode-cell", "postcode": "EX5 2SP", "postcodes": ["EX5 2SP"]}, "geometry": {"type": "Polygon", "coordinates": [[[-3.35873855482717, 50.76628852135682], [-3.3587626532423958, 50.766643069552075], [-3.35846254491918, 50.766733937491026], [-3.3577653799493934, 50.7661569693425], [-3.3577800122710024, 50.766116762202785], [-3.358046955266638, 50.76598322254661], [-3.35873855482717, 50.76628852135682]]]}}, {"type": "Feature", "properties": {"type": "postcode-cell", "postcode": "EX5 2UU", "postcodes": ["EX5 2UU"]}, "geometry": {"type": "Polygon", "coordinates": [[[-3.3577800122710024, 50.766116762202785], [-3.3571763042886857, 50.76588540290995], [-3.3571840855181394, 50.765723397255584], [-3.3583108295302373, 50.76514246596396], [-3.358046955266638, 50.76598322254661], [-3.3577800122710024, 50.766116762202785]]]}}, {"type": "Feature", "properties": {"type": "postcode-cell", "postcode": "EX5 2QL", "postcodes": ["EX5 2QL"]}, "geometry": {"type": "Polygon", "coordinates": [[[-3.353113923475864, 50.77102407212829], [-3.3530638269991786, 50.77169229743244], [-3.352386550270345, 50.77171754838353], [-3.3504143122800074, 50.770743933892845], [-3.3485873389739513, 50.768513166186665], [-3.3486728965986488, 50.76720943135161], [-3.350422422945053, 50.7672843200173], [-3.3522923080024722, 50.769601494593694], [-3.353113923475864, 50.77102407212829]]]}}, {"type": "Feature", "properties": {"type": "postcode-cell", "postcode": "EX5 2QJ", "postcodes": ["EX5 2QJ"]}, "geometry": {"type": "Polygon", "coordinates": [[[-3.3522923080024722, 50.769601494593694], [-3.353637874704364, 50.768135345490975], [-3.354360345155517, 50.769304220726795], [-3.354338171884263, 50.769359129843146], [-3.3540803369004597, 50.76986492975464], [-3.353113923475864, 50.77102407212829], [-3.3522923080024722, 50.769601494593694]]]}}, {"type": "Feature", "properties": {"type": "postcode-cell", "postcode": "EX5 2UE", "postcodes": ["EX5 2UE"]}, "geometry": {"type": "Polygon", "coordinates": [[[-3.35851821484181, 50.768159261258745], [-3.3578794659151097, 50.76829114043101], [-3.357152516223813, 50.76748059176008], [-3.357352773201421, 50.767375508241145], [-3.358510283857884, 50.76800094238561], [-3.35851821484181, 50.768159261258745]]]}}, {"type": "Feature", "properties": {"type": "postcode-cell", "postcode": "EX5 2SR", "postcodes": ["EX5 2SR"]}, "geometry": {"type": "Polygon", "coordinates": [[[-3.35846254491918, 50.766733937491026], [-3.357819827801297, 50.767084645607035], [-3.3577040455140272, 50.76620376087269], [-3.3577653799493934, 50.7661569693425], [-3.35846254491918, 50.766733937491026]]]}}, {"type": "Feature", "properties": {"type": "postcode-cell", "postcode": "EX5 2TU", "postcodes": ["EX5 2TU"]}, "geometry": {"type": "Polygon", "coordinates": [[[-3.3574938573780635, 50.768719505585416], [-3.3564894891166905, 50.767693516751876], [-3.357152516223813, 50.76748059176008], [-3.3578794659151097, 50.76829114043101], [-3.3574938573780635, 50.768719505585416]]]}}, {"type": "Feature", "properties": {"type": "postcode-cell", "postcode": "EX5 2ST", "postcodes": ["EX5 2ST"]}, "geometry": {"type": "Polygon", "coordinates": [[[-3.3574757225016776, 50.76724543244399], [-3.356857976928179, 50.76666725042138], [-3.3568573049081722, 50.76642210690898], [-3.3569707855776922, 50.7663204246917], [-3.3574198460792375, 50.76632313701937], [-3.3576871529583774, 50.76715901157376], [-3.3574757225016776, 50.76724543244399]]]}}, {"type": "Feature", "properties": {"type": "postcode-cell", "postcode": "EX5 2SS", "postcodes": ["EX5 2SS"]}, "geometry": {"type": "Polygon", "coordinates": [[[-3.357728567580363, 50.7671469483777], [-3.3576871529583774, 50.76715901157376], [-3.3574198460792375, 50.76632313701937], [-3.3577040455140272, 50.76620376087269], [-3.357819827801297, 50.767084645607035], [-3.357728567580363, 50.7671469483777]]]}}, {"type": "Feature", "properties": {"type": "postcode-cell", "postcode": "EX5 2TF", "postcodes": ["EX5 2TF"]}, "geometry": {"type": "Polygon", "coordinates": [[[-3.3617092947691845, 50.7579009074674], [-3.3624911778366693, 50.7611691276385], [-3.35979169004486, 50.76163357396376], [-3.35511272782029, 50.76177348244251], [-3.3553135174911386, 50.75786264473787], [-3.357314274669997, 50.757532693866715], [-3.3612801165527713, 50.75769099103267], [-3.3617092947691845, 50.7579009074674]]]}}, {"type": "Feature", "properties": {"type": "postcode-cell", "postcode": "EX5 2TA", "postcodes": ["EX5 2TA"]}, "geometry": {"type": "Polygon", "coordinates": [[[-3.3571840855181394, 50.765723397255584], [-3.3566816257948116, 50.76553887698296], [-3.356602676922839, 50.76523808383428], [-3.35724039377487, 50.764811271579134], [-3.358388953540644, 50.765056308072616], [-3.3583108295302373, 50.76514246596396], [-3.3571840855181394, 50.765723397255584]]]}}, {"type": "Feature", "properties": {"type": "postcode-cell", "postcode": "EX5 2SN", "postcodes": ["EX5 2SN"]}, "geometry": {"type": "Polygon", "coordinates": [[[-3.3577800122710024, 50.766116762202785], [-3.3577653799493934, 50.7661569693425], [-3.3577040455140272, 50.76620376087269], [-3.3574198460792375, 50.76632313701937], [-3.3569707855776922, 50.7663204246917], [-3.3569540310327732, 50.766039382713004], [-3.3571763042886857, 50.76588540290995], [-3.3577800122710024, 50.766116762202785]]]}}, {"type": "Feature", "properties": {"type": "postcode-cell", "postcode": "EX5 2TR", "postcodes": ["EX5 2TR"]}, "geometry": {"type": "Polygon", "coordinates": [[[-3.3564894891166905, 50.767693516751876], [-3.3561143012549857, 50.767725413569664], [-3.3548509782644387, 50.76735884210797], [-3.3548139398156294, 50.76733859361193], [-3.354960375437048, 50.76710679588041], [-3.3556312766458167, 50.7666998787261], [-3.356857976928179, 50.76666725042138], [-3.3574757225016776, 50.76724543244399], [-3.357352773201421, 50.767375508241145], [-3.357152516223813, 50.76748059176008], [-3.3564894891166905, 50.767693516751876]]]}}, {"type": "Feature", "properties": {"type": "postcode-cell", "postcode": "EX5 2QA", "postcodes": ["EX5 2QA"]}, "geometry": {"type": "Polygon", "coordinates": [[[-3.357621628221764, 50.77103006452677], [-3.3550789457161083, 50.77257707826203], [-3.3530638269991786, 50.77169229743244], [-3.353113923475864, 50.77102407212829], [-3.3540803369004597, 50.76986492975464], [-3.3566387352474556, 50.769072143799534], [-3.3575087523204385, 50.7693282040725], [-3.357621628221764, 50.77103006452677]]]}}, {"type": "Feature", "properties": {"type": "postcode-cell", "postcode": "EX5 2SU", "postcodes": ["EX5 2SU"]}, "geometry": {"type": "Polygon", "coordinates": [[[-3.3571763042886857, 50.76588540290995], [-3.3569540310327732, 50.766039382713004], [-3.356126687507996, 50.765914596817716], [-3.3566816257948116, 50.76553887698296], [-3.3571840855181394, 50.765723397255584], [-3.3571763042886857, 50.76588540290995]]]}}, {"type": "Feature", "properties": {"type": "postcode-cell", "postcode": "EX5 2QB", "postcodes": ["EX5 2QB"]}, "geometry": {"type": "Polygon", "coordinates": [[[-3.3612801165527713, 50.75769099103267], [-3.357314274669997, 50.757532693866715], [-3.35543271835455, 50.75551982688461], [-3.355551095676807, 50.75479620641654], [-3.358005049643752, 50.75254695009432], [-3.3592288215925334, 50.75258984180438], [-3.3612801165527713, 50.75769099103267]]]}}, {"type": "Feature", "properties": {"type": "postcode-cell", "postcode": "EX5 2PX", "postcodes": ["EX5 2PX"]}, "geometry": {"type": "Polygon", "coordinates": [[[-3.358005049643752, 50.75254695009432], [-3.355551095676807, 50.75479620641654], [-3.3541409834229814, 50.75436889775065], [-3.35277362655202, 50.753145239719416], [-3.3570724047653893, 50.75238891076888], [-3.358005049643752, 50.75254695009432]]]}}, {"type": "Feature", "properties": {"type": "postcode-cell", "postcode": "EX5 2SL", "postcodes": ["EX5 2SL"]}, "geometry": {"type": "Polygon", "coordinates": [[[-3.3569707855776922, 50.7663204246917], [-3.3568573049081722, 50.76642210690898], [-3.356005143410456, 50.76620262507612], [-3.3559976806958955, 50.76594428024734], [-3.356126687507996, 50.765914596817716], [-3.3569540310327732, 50.766039382713004], [-3.3569707855776922, 50.7663204246917]]]}}, {"type": "Feature", "properties": {"type": "postcode-cell", "postcode": "EX5 2SY", "postcodes": ["EX5 2SY"]}, "geometry": {"type": "Polygon", "coordinates": [[[-3.356602676922839, 50.76523808383428], [-3.355378633530942, 50.76520441750254], [-3.3557943343515517, 50.76462937619448], [-3.356934989686404, 50.76454824924058], [-3.35724039377487, 50.764811271579134], [-3.356602676922839, 50.76523808383428]]]}}, {"type": "Feature", "properties": {"type": "postcode-cell", "postcode": "EX5 2YF", "postcodes": ["EX5 2YF"]}, "geometry": {"type": "Polygon", "coordinates": [[[-3.3568573049081722, 50.76642210690898], [-3.356857976928179, 50.76666725042138], [-3.3556312766458167, 50.7666998787261], [-3.356005143410456, 50.76620262507612], [-3.3568573049081722, 50.76642210690898]]]}}, {"type": "Feature", "properties": {"type": "postcode-cell", "postcode": "EX5 2QE", "postcodes": ["EX5 2QE"]}, "geometry": {"type": "Polygon", "coordinates": [[[-3.3566387352474556, 50.769072143799534], [-3.3540803369004597, 50.76986492975464], [-3.354338171884263, 50.769359129843146], [-3.3563866877296826, 50.76889718774063], [-3.3566387352474556, 50.769072143799534]]]}}, {"type": "Feature", "properties": {"type": "postcode-cell", "postcode": "EX5 2SX", "postcodes": ["EX5 2SX"]}, "geometry": {"type": "Polygon", "coordinates": [[[-3.3566816257948116, 50.76553887698296], [-3.356126687507996, 50.765914596817716], [-3.3559976806958955, 50.76594428024734], [-3.3549690724805394, 50.76542744502604], [-3.354975294720802, 50.765401307255885], [-3.355378633530942, 50.76520441750254], [-3.356602676922839, 50.76523808383428], [-3.3566816257948116, 50.76553887698296]]]}}, {"type": "Feature", "properties": {"type": "postcode-cell", "postcode": "EX5 2QQ", "postcodes": ["EX5 2QQ"]}, "geometry": {"type": "Polygon", "coordinates": [[[-3.3563866877296826, 50.76889718774063], [-3.354338171884263, 50.769359129843146], [-3.354360345155517, 50.769304220726795], [-3.3547882551346406, 50.76890229710638], [-3.356024282508724, 50.76857415787528], [-3.3563866877296826, 50.76889718774063]]]}}, {"type": "Feature", "properties": {"type": "postcode-cell", "postcode": "EX5 2UF", "postcodes": ["EX5 2UF"]}, "geometry": {"type": "Polygon", "coordinates": [[[-3.356005143410456, 50.76620262507612], [-3.3556312766458167, 50.7666998787261], [-3.354960375437048, 50.76710679588041], [-3.354659399664245, 50.76565883795696], [-3.3549690724805394, 50.76542744502604], [-3.3559976806958955, 50.76594428024734], [-3.356005143410456, 50.76620262507612]]]}}, {"type": "Feature", "properties": {"type": "postcode-cell", "postcode": "EX5 2TB", "postcodes": ["EX5 2TB"]}, "geometry": {"type": "Polygon", "coordinates": [[[-3.3569349897025305, 50.763864444390926], [-3.355689340064798, 50.76386131839474], [-3.3545246361305745, 50.761886879676354], [-3.35511272782029, 50.76177348244251], [-3.35979169004486, 50.76163357396376], [-3.3569349897025305, 50.763864444390926]]]}}, {"type": "Feature", "properties": {"type": "postcode-cell", "postcode": "EX5 2SZ", "postcodes": ["EX5 2SZ"]}, "geometry": {"type": "Polygon", "coordinates": [[[-3.356934989686404, 50.76454824924058], [-3.3557943343515517, 50.76462937619448], [-3.355402768047051, 50.76414187658716], [-3.355689340064798, 50.76386131839474], [-3.3569349897025305, 50.763864444390926], [-3.356934989686404, 50.76454824924058]]]}}, {"type": "Feature", "properties": {"type": "postcode-cell", "postcode": "EX5 2TL", "postcodes": ["EX5 2TL"]}, "geometry": {"type": "Polygon", "coordinates": [[[-3.356024282508724, 50.76857415787528], [-3.3547882551346406, 50.76890229710638], [-3.3548509782644387, 50.76735884210797], [-3.3561143012549857, 50.767725413569664], [-3.356024282508724, 50.76857415787528]]]}}, {"type": "Feature", "properties": {"type": "postcode-cell", "postcode": "EX5 2TE", "postcodes": ["EX5 2TE"]}, "geometry": {"type": "Polygon", "coordinates": [[[-3.354975294720802, 50.765401307255885], [-3.3536468588423283, 50.76430440684227], [-3.355402768047051, 50.76414187658716], [-3.3557943343515517, 50.76462937619448], [-3.355378633530942, 50.76520441750254], [-3.354975294720802, 50.765401307255885]]]}}, {"type": "Feature", "properties": {"type": "postcode-cell", "postcode": "EX5 2QZ", "postcodes": ["EX5 2QZ"]}, "geometry": {"type": "Polygon", "coordinates": [[[-3.356579469312832, 50.775147870608464], [-3.351326696059689, 50.77900833016595], [-3.349790829735679, 50.772590415404906], [-3.352386550270345, 50.77171754838353], [-3.3530638269991786, 50.77169229743244], [-3.3550789457161083, 50.77257707826203], [-3.356579469312832, 50.775147870608464]]]}}, {"type": "Feature", "properties": {"type": "postcode-cell", "postcode": "EX5 2QH", "postcodes": ["EX5 2QH"]}, "geometry": {"type": "Polygon", "coordinates": [[[-3.354360345155517, 50.769304220726795], [-3.353637874704364, 50.768135345490975], [-3.353535777133868, 50.767377207011016], [-3.3548139398156294, 50.76733859361193], [-3.3548509782644387, 50.76735884210797], [-3.3547882551346406, 50.76890229710638], [-3.354360345155517, 50.769304220726795]]]}}, {"type": "Feature", "properties": {"type": "postcode-cell", "postcode": "EX5 2TD", "postcodes": ["EX5 2TD"]}, "geometry": {"type": "Polygon", "coordinates": [[[-3.355402768047051, 50.76414187658716], [-3.3536468588423283, 50.76430440684227], [-3.3523275877230816, 50.76388515838063], [-3.3520969348306195, 50.763633339610976], [-3.3544044807792535, 50.76189228576853], [-3.3545246361305745, 50.761886879676354], [-3.355689340064798, 50.76386131839474], [-3.355402768047051, 50.76414187658716]]]}}, {"type": "Feature", "properties": {"type": "postcode-cell", "postcode": "EX5 2TW", "postcodes": ["EX5 2TW"]}, "geometry": {"type": "Polygon", "coordinates": [[[-3.3549690724805394, 50.76542744502604], [-3.354659399664245, 50.76565883795696], [-3.3522702199535708, 50.766077991712926], [-3.3523275877230816, 50.76388515838063], [-3.3536468588423283, 50.76430440684227], [-3.354975294720802, 50.765401307255885], [-3.3549690724805394, 50.76542744502604]]]}}, {"type": "Feature", "properties": {"type": "postcode-cell", "postcode": "EX5 2FX", "postcodes": ["EX5 2FX"]}, "geometry": {"type": "Polygon", "coordinates": [[[-3.35543271835455, 50.75551982688461], [-3.354309945179905, 50.755285693131306], [-3.3541409834229814, 50.75436889775065], [-3.355551095676807, 50.75479620641654], [-3.35543271835455, 50.75551982688461]]]}}, {"type": "Feature", "properties": {"type": "postcode-cell", "postcode": "EX5 2PW", "postcodes": ["EX5 2PW"]}, "geometry": {"type": "Polygon", "coordinates": [[[-3.3570724047653893, 50.75238891076888], [-3.35277362655202, 50.753145239719416], [-3.3507401122613913, 50.75315897187806], [-3.3537641229619846, 50.74929283149972], [-3.3570724047653893, 50.75238891076888]]]}}, {"type": "Feature", "properties": {"type": "postcode-cell", "postcode": "EX5 2TP", "postcodes": ["EX5 2TP"]}, "geometry": {"type": "Polygon", "coordinates": [[[-3.354960375437048, 50.76710679588041], [-3.3548139398156294, 50.76733859361193], [-3.353535777133868, 50.767377207011016], [-3.3515645134524443, 50.76697555805164], [-3.3522702199535708, 50.766077991712926], [-3.354659399664245, 50.76565883795696], [-3.354960375437048, 50.76710679588041]]]}}, {"type": "Feature", "properties": {"type": "postcode-cell", "postcode": "EX5 2GH", "postcodes": ["EX5 2GH", "EX5 2GL"]}, "geometry": {"type": "Polygon", "coordinates": [[[-3.3545246361305745, 50.761886879676354], [-3.3544044807792535, 50.76189228576853], [-3.3498341425266274, 50.758894357415485], [-3.3499045021362197, 50.758844305621295], [-3.3516987299490157, 50.75797823791203], [-3.3553135174911386, 50.75786264473787], [-3.35511272782029, 50.76177348244251], [-3.3545246361305745, 50.761886879676354]]]}}, {"type": "Feature", "properties": {"type": "postcode-cell", "postcode": "EX5 2TG", "postcodes": ["EX5 2TG"]}, "geometry": {"type": "Polygon", "coordinates": [[[-3.3553135174911386, 50.75786264473787], [-3.3516987299490157, 50.75797823791203], [-3.35177066475842, 50.75570351209989], [-3.354309945179905, 50.755285693131306], [-3.35543271835455, 50.75551982688461], [-3.357314274669997, 50.757532693866715], [-3.3553135174911386, 50.75786264473787]]]}}, {"type": "Feature", "properties": {"type": "postcode-cell", "postcode": "EX5 2PU", "postcodes": ["EX5 2PU"]}, "geometry": {"type": "Polygon", "coordinates": [[[-3.3541409834229814, 50.75436889775065], [-3.354309945179905, 50.755285693131306], [-3.35177066475842, 50.75570351209989], [-3.3505962769096915, 50.75319443326095], [-3.3507401122613913, 50.75315897187806], [-3.35277362655202, 50.753145239719416], [-3.3541409834229814, 50.75436889775065]]]}}, {"type": "Feature", "properties": {"type": "postcode-cell", "postcode": "EX5 2NP", "postcodes": ["EX5 2NP"]}, "geometry": {"type": "Polygon", "coordinates": [[[-3.3499045021362197, 50.758844305621295], [-3.347458752021892, 50.75382931870228], [-3.3499640117107905, 50.75310659366877], [-3.3505962769096915, 50.75319443326095], [-3.35177066475842, 50.75570351209989], [-3.3516987299490157, 50.75797823791203], [-3.3499045021362197, 50.758844305621295]]]}}, {"type": "Feature", "properties": {"type": "postcode-cell", "postcode": "EX5 2QD", "postcodes": ["EX5 2QD"]}, "geometry": {"type": "Polygon", "coordinates": [[[-3.353535777133868, 50.767377207011016], [-3.353637874704364, 50.768135345490975], [-3.3522923080024722, 50.769601494593694], [-3.350422422945053, 50.7672843200173], [-3.3515645134524443, 50.76697555805164], [-3.353535777133868, 50.767377207011016]]]}}, {"type": "Feature", "properties": {"type": "postcode-cell", "postcode": "EX5 2PR", "postcodes": ["EX5 2PR"]}, "geometry": {"type": "Polygon", "coordinates": [[[-3.353191961516497, 50.746755921108495], [-3.347574996697197, 50.749000579743395], [-3.340756295185914, 50.7487835999083], [-3.339983469664839, 50.74826865341981], [-3.3397152730171764, 50.74791451839775], [-3.3396819404000095, 50.747286735345675], [-3.350372759423042, 50.74264162310586], [-3.3546852817986763, 50.745173186231185], [-3.353191961516497, 50.746755921108495]]]}}, {"type": "Feature", "properties": {"type": "postcode-cell", "postcode": "EX5 2PP", "postcodes": ["EX5 2PP"]}, "geometry": {"type": "Polygon", "coordinates": [[[-3.3537641229619846, 50.74929283149972], [-3.3507401122613913, 50.75315897187806], [-3.3505962769096915, 50.75319443326095], [-3.3499640117107905, 50.75310659366877], [-3.347574996697197, 50.749000579743395], [-3.353191961516497, 50.746755921108495], [-3.3537641229619846, 50.74929283149972]]]}}, {"type": "Feature", "properties": {"type": "postcode-cell", "postcode": "EX5 2UH", "postcodes": ["EX5 2UH"]}, "geometry": {"type": "Polygon", "coordinates": [[[-3.3515645134524443, 50.76697555805164], [-3.350422422945053, 50.7672843200173], [-3.3486728965986488, 50.76720943135161], [-3.3484039143321, 50.76709484907424], [-3.346718103651726, 50.76493861432096], [-3.34778050900233, 50.763346501343605], [-3.3520969348306195, 50.763633339610976], [-3.3523275877230816, 50.76388515838063], [-3.3522702199535708, 50.766077991712926], [-3.3515645134524443, 50.76697555805164]]]}}, {"type": "Feature", "properties": {"type": "postcode-cell", "postcode": "EX5 2TQ", "postcodes": ["EX5 2TQ"]}, "geometry": {"type": "Polygon", "coordinates": [[[-3.3520969348306195, 50.763633339610976], [-3.34778050900233, 50.763346501343605], [-3.346271487627155, 50.75984484192603], [-3.3498341425266274, 50.758894357415485], [-3.3544044807792535, 50.76189228576853], [-3.3520969348306195, 50.763633339610976]]]}}, {"type": "Feature", "properties": {"type": "postcode-cell", "postcode": "EX5 2NL", "postcodes": ["EX5 2NL"]}, "geometry": {"type": "Polygon", "coordinates": [[[-3.3498341425266274, 50.758894357415485], [-3.346271487627155, 50.75984484192603], [-3.3416167964571, 50.75877907612258], [-3.339540845842294, 50.75745883596693], [-3.3419843439783765, 50.75438094626532], [-3.347458752021892, 50.75382931870228], [-3.3499045021362197, 50.758844305621295], [-3.3498341425266274, 50.758894357415485]]]}}, {"type": "Feature", "properties": {"type": "postcode-cell", "postcode": "EX5 2EZ", "postcodes": ["EX5 2EZ"]}, "geometry": {"type": "Polygon", "coordinates": [[[-3.345710331541116, 50.73994324064823], [-3.3400266409820487, 50.74147539823966], [-3.3373746065903758, 50.740019075676656], [-3.3370038953241656, 50.73802646586083], [-3.3407599896216094, 50.7383599947582], [-3.3445699896246577, 50.73696999475705], [-3.345243690771459, 50.73692429443741], [-3.345710331541116, 50.73994324064823]]]}}, {"type": "Feature", "properties": {"type": "postcode-cell", "postcode": "EX5 2QG", "postcodes": ["EX5 2QG"]}, "geometry": {"type": "Polygon", "coordinates": [[[-3.3405348262937937, 50.774009565861526], [-3.349790829735679, 50.772590415404906], [-3.351326696059689, 50.77900833016595], [-3.346562706595121, 50.783239628911325], [-3.345929989604178, 50.78127999479181], [-3.344009989603737, 50.77969999479059], [-3.3448699896045535, 50.77911999479012], [-3.3430399896046055, 50.7766299947882], [-3.3373047827860107, 50.777127385361275], [-3.3405348262937937, 50.774009565861526]]]}}, {"type": "Feature", "properties": {"type": "postcode-cell", "postcode": "EX5 2QY", "postcodes": ["EX5 2QY"]}, "geometry": {"type": "Polygon", "coordinates": [[[-3.352386550270345, 50.77171754838353], [-3.349790829735679, 50.772590415404906], [-3.3405348262937937, 50.774009565861526], [-3.3413041313525946, 50.77233084531182], [-3.346929806814698, 50.7703533028801], [-3.3504143122800074, 50.770743933892845], [-3.352386550270345, 50.77171754838353]]]}}, {"type": "Feature", "properties": {"type": "postcode-cell", "postcode": "EX5 2QN", "postcodes": ["EX5 2QN"]}, "geometry": {"type": "Polygon", "coordinates": [[[-3.3504143122800074, 50.770743933892845], [-3.346929806814698, 50.7703533028801], [-3.3485873389739513, 50.768513166186665], [-3.3504143122800074, 50.770743933892845]]]}}, {"type": "Feature", "properties": {"type": "postcode-cell", "postcode": "EX5 2QW", "postcodes": ["EX5 2QW"]}, "geometry": {"type": "Polygon", "coordinates": [[[-3.3485873389739513, 50.768513166186665], [-3.346929806814698, 50.7703533028801], [-3.3413041313525946, 50.77233084531182], [-3.3414896750891403, 50.769912656065756], [-3.3484039143321, 50.76709484907424], [-3.3486728965986488, 50.76720943135161], [-3.3485873389739513, 50.768513166186665]]]}}, {"type": "Feature", "properties": {"type": "postcode-cell", "postcode": "EX5 2PT", "postcodes": ["EX5 2PT"]}, "geometry": {"type": "Polygon", "coordinates": [[[-3.347458752021892, 50.75382931870228], [-3.3419843439783765, 50.75438094626532], [-3.340756295185914, 50.7487835999083], [-3.347574996697197, 50.749000579743395], [-3.3499640117107905, 50.75310659366877], [-3.347458752021892, 50.75382931870228]]]}}, {"type": "Feature", "properties": {"type": "postcode-cell", "postcode": "EX5 2QX", "postcodes": ["EX5 2QX"]}, "geometry": {"type": "Polygon", "coordinates": [[[-3.3296785419934514, 50.76533369453721], [-3.3393865595254444, 50.76587333096917], [-3.3414896750891403, 50.769912656065756], [-3.3413041313525946, 50.77233084531182], [-3.3405348262937937, 50.774009565861526], [-3.3373047827860107, 50.777127385361275], [-3.3326599895976816, 50.777529994789056], [-3.3295099895957754, 50.77739999478898], [-3.3313899895981725, 50.77485999478698], [-3.3315199895986742, 50.773989994786305], [-3.3301099896000084, 50.769389994782706], [-3.3278799895998956, 50.76672999478065], [-3.32790407704958, 50.765778548572], [-3.3296785419934514, 50.76533369453721]]]}}, {"type": "Feature", "properties": {"type": "postcode-cell", "postcode": "EX5 2QP", "postcodes": ["EX5 2QP"]}, "geometry": {"type": "Polygon", "coordinates": [[[-3.3484039143321, 50.76709484907424], [-3.3414896750891403, 50.769912656065756], [-3.3393865595254444, 50.76587333096917], [-3.33958159366819, 50.76575162292744], [-3.346718103651726, 50.76493861432096], [-3.3484039143321, 50.76709484907424]]]}}, {"type": "Feature", "properties": {"type": "postcode-cell", "postcode": "EX5 2QR", "postcodes": ["EX5 2QR"]}, "geometry": {"type": "Polygon", "coordinates": [[[-3.3416167964571, 50.75877907612258], [-3.33958159366819, 50.76575162292744], [-3.3393865595254444, 50.76587333096917], [-3.3296785419934514, 50.76533369453721], [-3.337869312774257, 50.75751522033827], [-3.339540845842294, 50.75745883596693], [-3.3416167964571, 50.75877907612258]]]}}, {"type": "Feature", "properties": {"type": "postcode-cell", "postcode": "EX5 2HD", "postcodes": ["EX5 2HD"]}, "geometry": {"type": "Polygon", "coordinates": [[[-3.350372759423042, 50.74264162310586], [-3.3396819404000095, 50.747286735345675], [-3.3385409083965083, 50.74565049600228], [-3.3400266409820487, 50.74147539823966], [-3.345710331541116, 50.73994324064823], [-3.3499169959546533, 50.741958268520364], [-3.350372759423042, 50.74264162310586]]]}}, {"type": "Feature", "properties": {"type": "postcode-cell", "postcode": "EX5 2PS", "postcodes": ["EX5 2PS"]}, "geometry": {"type": "Polygon", "coordinates": [[[-3.340756295185914, 50.7487835999083], [-3.3419843439783765, 50.75438094626532], [-3.339540845842294, 50.75745883596693], [-3.337869312774257, 50.75751522033827], [-3.33785617310233, 50.7575110135307], [-3.3330628355901197, 50.75449434137442], [-3.332495780831426, 50.75298610797278], [-3.339983469664839, 50.74826865341981], [-3.340756295185914, 50.7487835999083]]]}}, {"type": "Feature", "properties": {"type": "postcode-cell", "postcode": "EX5 2TJ", "postcodes": ["EX5 2TJ"]}, "geometry": {"type": "Polygon", "coordinates": [[[-3.346718103651726, 50.76493861432096], [-3.33958159366819, 50.76575162292744], [-3.3416167964571, 50.75877907612258], [-3.346271487627155, 50.75984484192603], [-3.34778050900233, 50.763346501343605], [-3.346718103651726, 50.76493861432096]]]}}, {"type": "Feature", "properties": {"type": "postcode-cell", "postcode": "EX11 1GN", "postcodes": ["EX11 1GN"]}, "geometry": {"type": "Polygon", "coordinates": [[[-3.339983469664839, 50.74826865341981], [-3.332495780831426, 50.75298610797278], [-3.330089622066249, 50.75163209453533], [-3.328442844581814, 50.749189870233614], [-3.329969989609559, 50.749389994767014], [-3.331539989610588, 50.74928999476692], [-3.3314714168035993, 50.74863030994296], [-3.3397152730171764, 50.74791451839775], [-3.339983469664839, 50.74826865341981]]]}}, {"type": "Feature", "properties": {"type": "postcode-cell", "postcode": "EX5 2HA", "postcodes": ["EX5 2HA"]}, "geometry": {"type": "Polygon", "coordinates": [[[-3.3373746065903758, 50.740019075676656], [-3.3293554931355813, 50.74156229446834], [-3.3287599896138262, 50.73897999475887], [-3.3297099896154116, 50.73691999475722], [-3.3326599896167606, 50.737939994757994], [-3.3355799896186, 50.73789999475791], [-3.3370038953241656, 50.73802646586083], [-3.3373746065903758, 50.740019075676656]]]}}, {"type": "Feature", "properties": {"type": "postcode-cell", "postcode": "EX5 2QS", "postcodes": ["EX5 2QS"]}, "geometry": {"type": "Polygon", "coordinates": [[[-3.33785617310233, 50.7575110135307], [-3.337869312774257, 50.75751522033827], [-3.3296785419934514, 50.76533369453721], [-3.32790407704958, 50.765778548572], [-3.3279199896006837, 50.76514999477943], [-3.3287899896017468, 50.76406999477853], [-3.328059989602163, 50.76225999477714], [-3.3280599896029104, 50.76070999477592], [-3.327079989602964, 50.75932999477484], [-3.3293731886796363, 50.758331225661514], [-3.33785617310233, 50.7575110135307]]]}}, {"type": "Feature", "properties": {"type": "postcode-cell", "postcode": "EX11 1LA", "postcodes": ["EX11 1LA"]}, "geometry": {"type": "Polygon", "coordinates": [[[-3.3396819404000095, 50.747286735345675], [-3.3397152730171764, 50.74791451839775], [-3.3314714168035993, 50.74863030994296], [-3.3312499896117536, 50.746499994764754], [-3.3299799896120366, 50.744269994763], [-3.3297489774914917, 50.74326840774279], [-3.3385409083965083, 50.74565049600228], [-3.3396819404000095, 50.747286735345675]]]}}, {"type": "Feature", "properties": {"type": "postcode-cell", "postcode": "EX5 2HB", "postcodes": ["EX5 2HB"]}, "geometry": {"type": "Polygon", "coordinates": [[[-3.3385409083965083, 50.74565049600228], [-3.3297489774914917, 50.74326840774279], [-3.3293554931355813, 50.74156229446834], [-3.3373746065903758, 50.740019075676656], [-3.3400266409820487, 50.74147539823966], [-3.3385409083965083, 50.74565049600228]]]}}, {"type": "Feature", "properties": {"type": "postcode-cell", "postcode": "EX5 2QT", "postcodes": ["EX5 2QT"]}, "geometry": {"type": "Polygon", "coordinates": [[[-3.33785617310233, 50.7575110135307], [-3.3293731886796363, 50.758331225661514], [-3.3299499896053586, 50.75807999477384], [-3.3291890745901678, 50.755242637530905], [-3.3330628355901197, 50.75449434137442], [-3.33785617310233, 50.7575110135307]]]}}, {"type": "Feature", "properties": {"type": "postcode-cell", "postcode": "EX11 1LE", "postcodes": ["EX11 1LE"]}, "geometry": {"type": "Polygon", "coordinates": [[[-3.330089622066249, 50.75163209453533], [-3.3267875066142905, 50.75343148675114], [-3.3259699896053534, 50.752939994769854], [-3.326779989606683, 50.751229994768515], [-3.326459989607594, 50.74892999476672], [-3.328442844581814, 50.749189870233614], [-3.330089622066249, 50.75163209453533]]]}}, {"type": "Feature", "properties": {"type": "postcode-cell", "postcode": "EX11 1LF", "postcodes": ["EX11 1LF"]}, "geometry": {"type": "Polygon", "coordinates": [[[-3.3330628355901197, 50.75449434137442], [-3.3291890745901678, 50.755242637530905], [-3.3288799896066146, 50.75408999477072], [-3.3276499896059137, 50.75394999477064], [-3.3267875066142905, 50.75343148675114], [-3.330089622066249, 50.75163209453533], [-3.332495780831426, 50.75298610797278], [-3.3330628355901197, 50.75449434137442]]]}}]}