{"type": "FeatureCollection", "features": [{"type": "Feature", "properties": {"type": "ward-outline", "name": "Yarty"}, "geometry": {"type": "Polygon", "coordinates": [[[-2.97359, 50.85566], [-2.97385, 50.85386], [-2.97463, 50.85234], [-2.97205, 50.85189], [-2.97115, 50.85145], [-2.96805, 50.8513], [-2.9701, 50.84961], [-2.971, 50.84772], [-2.97257, 50.84603], [-2.97242, 50.84435], [-2.97118, 50.84289], [-2.9694, 50.84173], [-2.96854, 50.84051], [-2.96983, 50.8342], [-2.96633, 50.83364], [-2.96558, 50.83179], [-2.96169, 50.8298], [-2.9626, 50.82883], [-2.96293, 50.82773], [-2.95905, 50.82608], [-2.95755, 50.82483], [-2.95767, 50.82429], [-2.95593, 50.82302], [-2.95432, 50.82117], [-2.95551, 50.82018], [-2.95684, 50.82049], [-2.95817, 50.81999], [-2.95878, 50.81853], [-2.95839, 50.81817], [-2.95763, 50.8183], [-2.95737, 50.81805], [-2.95772, 50.81776], [-2.95809, 50.81801], [-2.95863, 50.81776], [-2.95945, 50.81788], [-2.95918, 50.81725], [-2.95962, 50.8168], [-2.96123, 50.81657], [-2.9616, 50.81614], [-2.9613, 50.81555], [-2.96084, 50.8155], [-2.95999, 50.8164], [-2.95906, 50.81604], [-2.95843, 50.81634], [-2.95832, 50.81581], [-2.95661, 50.81586], [-2.95473, 50.81537], [-2.95411, 50.81553], [-2.95273, 50.81506], [-2.95175, 50.81545], [-2.95092, 50.81499], [-2.94983, 50.815], [-2.94945, 50.81542], [-2.94904, 50.81515], [-2.94796, 50.81543], [-2.94684, 50.81461], [-2.94721, 50.81431], [-2.94568, 50.81407], [-2.94481, 50.81337], [-2.94412, 50.8134], [-2.9432, 50.81239], [-2.94272, 50.8124], [-2.94259, 50.81194], [-2.94151, 50.81173], [-2.94163, 50.81111], [-2.94074, 50.81111], [-2.93979, 50.81048], [-2.93901, 50.81044], [-2.93904, 50.81008], [-2.9384, 50.80983], [-2.93674, 50.81008], [-2.93627, 50.80973], [-2.93552, 50.80983], [-2.93446, 50.80918], [-2.93159, 50.80914], [-2.93128, 50.80864], [-2.93073, 50.80901], [-2.92978, 50.80907], [-2.92896, 50.80842], [-2.92755, 50.8084], [-2.92659, 50.80786], [-2.92625, 50.80826], [-2.92528, 50.80798], [-2.9249, 50.80829], [-2.92272, 50.80759], [-2.92192, 50.80691], [-2.92017, 50.80668], [-2.91856, 50.80563], [-2.91762, 50.80592], [-2.91531, 50.80529], [-2.91359, 50.8053], [-2.9133, 50.80501], [-2.91209, 50.80525], [-2.9113, 50.80462], [-2.90735, 50.80467], [-2.90543, 50.80527], [-2.90261, 50.80462], [-2.90066, 50.80474], [-2.89981, 50.80517], [-2.89719, 50.80452], [-2.89572, 50.80495], [-2.89501, 50.80463], [-2.89423, 50.80494], [-2.89287, 50.80479], [-2.89156, 50.80378], [-2.89023, 50.80345], [-2.89042, 50.80257], [-2.88988, 50.80219], [-2.8902, 50.80161], [-2.88969, 50.80113], [-2.88981, 50.80068], [-2.88876, 50.79972], [-2.88881, 50.79841], [-2.88703, 50.79618], [-2.88668, 50.7947], [-2.88931, 50.79393], [-2.88776, 50.79344], [-2.88782, 50.79292], [-2.88704, 50.79252], [-2.89058, 50.79052], [-2.89375, 50.78986], [-2.89564, 50.78754], [-2.89746, 50.78614], [-2.91356, 50.78449], [-2.91873, 50.78362], [-2.92965, 50.78243], [-2.93272, 50.78148], [-2.94096, 50.77745], [-2.94148, 50.77816], [-2.94907, 50.77854], [-2.94735, 50.78024], [-2.94786, 50.7829], [-2.94921, 50.78504], [-2.94983, 50.78725], [-2.94983, 50.78856], [-2.95024, 50.78908], [-2.94975, 50.79009], [-2.94997, 50.79085], [-2.95256, 50.7918], [-2.95406, 50.79197], [-2.95573, 50.79279], [-2.95633, 50.79346], [-2.95597, 50.79427], [-2.95643, 50.79559], [-2.95701, 50.79662], [-2.95841, 50.79775], [-2.95852, 50.79865], [-2.96101, 50.80022], [-2.96172, 50.80031], [-2.96248, 50.80121], [-2.96324, 50.80133], [-2.96425, 50.80215], [-2.96435, 50.80346], [-2.96523, 50.80416], [-2.96662, 50.80476], [-2.96739, 50.80473], [-2.96738, 50.80498], [-2.96875, 50.80488], [-2.96852, 50.80436], [-2.96963, 50.80382], [-2.97038, 50.80382], [-2.97051, 50.80339], [-2.97289, 50.80342], [-2.97173, 50.80271], [-2.97169, 50.80235], [-2.97438, 50.80134], [-2.9744, 50.8003], [-2.97767, 50.7987], [-2.97896, 50.79868], [-2.98018, 50.79743], [-2.98199, 50.79641], [-2.98314, 50.79626], [-2.98386, 50.79555], [-2.98489, 50.79533], [-2.98636, 50.7941], [-2.98841, 50.79475], [-2.98775, 50.79595], [-2.98807, 50.79758], [-2.99263, 50.79827], [-2.99434, 50.7981], [-2.99517, 50.79829], [-2.99739, 50.7997], [-2.99809, 50.80061], [-2.99847, 50.80059], [-2.99867, 50.80239], [-2.99922, 50.80265], [-3.00132, 50.80638], [-3.0028, 50.80623], [-3.00341, 50.80721], [-3.004, 50.80707], [-3.00424, 50.80788], [-3.00555, 50.80889], [-3.00525, 50.80986], [-3.00624, 50.81032], [-3.00662, 50.81097], [-3.00828, 50.81063], [-3.01036, 50.80965], [-3.01201, 50.80798], [-3.0161, 50.80714], [-3.01723, 50.80647], [-3.01701, 50.80552], [-3.01462, 50.80491], [-3.01324, 50.80213], [-3.01614, 50.80253], [-3.01947, 50.80389], [-3.02046, 50.80466], [-3.02123, 50.8047], [-3.02182, 50.80544], [-3.02266, 50.80513], [-3.02284, 50.80542], [-3.02417, 50.80545], [-3.02665, 50.80498], [-3.02721, 50.80726], [-3.02813, 50.8081], [-3.02909, 50.80804], [-3.02984, 50.80835], [-3.03263, 50.80806], [-3.03167, 50.80629], [-3.03397, 50.80604], [-3.03346, 50.80458], [-3.03375, 50.80439], [-3.03426, 50.80481], [-3.03623, 50.80541], [-3.03735, 50.8053], [-3.03761, 50.80577], [-3.03837, 50.8057], [-3.03938, 50.80624], [-3.04008, 50.80603], [-3.04102, 50.80761], [-3.04238, 50.80697], [-3.04286, 50.80635], [-3.04325, 50.80753], [-3.04427, 50.80822], [-3.04466, 50.80968], [-3.04546, 50.81028], [-3.04625, 50.81029], [-3.04643, 50.81066], [-3.04609, 50.81098], [-3.04516, 50.81095], [-3.04536, 50.81253], [-3.04627, 50.81318], [-3.04634, 50.8141], [-3.04714, 50.81488], [-3.04792, 50.81503], [-3.04772, 50.81547], [-3.04822, 50.81635], [-3.04947, 50.81687], [-3.04925, 50.81759], [-3.04992, 50.81815], [-3.0498, 50.8193], [-3.05018, 50.82033], [-3.05076, 50.82067], [-3.0502, 50.82227], [-3.05128, 50.82298], [-3.05101, 50.82385], [-3.05169, 50.82539], [-3.05237, 50.82555], [-3.05314, 50.82635], [-3.0537, 50.82632], [-3.05326, 50.82746], [-3.05357, 50.82808], [-3.05495, 50.82815], [-3.05484, 50.82851], [-3.05551, 50.82881], [-3.05561, 50.82927], [-3.0561, 50.82927], [-3.05607, 50.82981], [-3.05873, 50.83061], [-3.05766, 50.83163], [-3.05798, 50.83235], [-3.05882, 50.83262], [-3.05991, 50.83252], [-3.06035, 50.83322], [-3.05989, 50.83364], [-3.06074, 50.8346], [-3.06017, 50.83511], [-3.05944, 50.83513], [-3.06014, 50.83673], [-3.05883, 50.83803], [-3.05941, 50.83898], [-3.06066, 50.83945], [-3.06102, 50.83996], [-3.06051, 50.84177], [-3.05911, 50.8433], [-3.05883, 50.84541], [-3.06011, 50.84647], [-3.05969, 50.8484], [-3.05885, 50.84882], [-3.05891, 50.84938], [-3.05958, 50.84971], [-3.05896, 50.8504], [-3.05909, 50.8511], [-3.05829, 50.85195], [-3.05881, 50.85306], [-3.05728, 50.85385], [-3.05764, 50.85482], [-3.05826, 50.85498], [-3.058, 50.85556], [-3.05886, 50.85622], [-3.05889, 50.85696], [-3.05788, 50.85819], [-3.05828, 50.86098], [-3.05706, 50.86244], [-3.05696, 50.86339], [-3.05725, 50.86407], [-3.05799, 50.86393], [-3.05941, 50.86491], [-3.05915, 50.86585], [-3.05995, 50.86644], [-3.05888, 50.86668], [-3.05803, 50.86757], [-3.05698, 50.86788], [-3.05709, 50.86831], [-3.05594, 50.869], [-3.05606, 50.86936], [-3.05495, 50.86979], [-3.05472, 50.87058], [-3.0542, 50.87062], [-3.05405, 50.87114], [-3.0547, 50.87171], [-3.05378, 50.8723], [-3.05406, 50.87304], [-3.05158, 50.87277], [-3.04676, 50.87138], [-3.04611, 50.87187], [-3.04533, 50.86958], [-3.04373, 50.8681], [-3.04203, 50.86886], [-3.03928, 50.8687], [-3.03844, 50.86832], [-3.03698, 50.86678], [-3.03665, 50.86518], [-3.03459, 50.864], [-3.03473, 50.86244], [-3.03263, 50.86164], [-3.03331, 50.86116], [-3.03459, 50.85905], [-3.03637, 50.85825], [-3.03573, 50.85625], [-3.03709, 50.85439], [-3.03608, 50.85285], [-3.03681, 50.85107], [-3.03478, 50.85095], [-3.03182, 50.85174], [-3.02111, 50.85551], [-3.01849, 50.85579], [-3.0141, 50.85513], [-3.01293, 50.85572], [-3.0126, 50.85691], [-3.01144, 50.85721], [-3.00624, 50.85385], [-3.00364, 50.85339], [-3.00164, 50.85167], [-3.00049, 50.85169], [-2.99855, 50.85097], [-2.99626, 50.85467], [-2.99444, 50.85515], [-2.99347, 50.85492], [-2.99057, 50.85568], [-2.98759, 50.85593], [-2.98436, 50.85496], [-2.97984, 50.85481], [-2.97696, 50.85556], [-2.97359, 50.85566]]]}}, {"type": "Feature", "properties": {"type": "postcode-cell", "postcode": "EX14 9AX", "postcodes": ["EX14 9AX"]}, "geometry": {"type": "Polygon", "coordinates": [[[-3.0512376930629688, 50.86448913326971], [-3.0528286497966373, 50.86188214552976], [-3.0577951252592057, 50.86156025445894], [-3.0570599893860373, 50.86243999485981], [-3.056959989385509, 50.863389994860604], [-3.0572499893853524, 50.86406999486109], [-3.057989989385875, 50.863929994861], [-3.059409989386265, 50.864909994861726], [-3.059149989385644, 50.86584999486247], [-3.059949989385844, 50.86643999486292], [-3.058879989385072, 50.866679994863134], [-3.058029989384117, 50.86756999486385], [-3.0569799893833225, 50.86787999486412], [-3.0570899893831793, 50.86830999486444], [-3.055939989382136, 50.868999994864986], [-3.056059989382034, 50.86935999486528], [-3.0549499893811447, 50.869789994865656], [-3.0547199893806174, 50.87057999486627], [-3.0541999893802796, 50.8706199948663], [-3.054049989379932, 50.8711399948667], [-3.05469998938005, 50.87170999486715], [-3.0537799893791995, 50.872299994867625], [-3.054059989379008, 50.8730399948682], [-3.0531238450817293, 50.87293808250253], [-3.0512376930629688, 50.86448913326971]]]}}, {"type": "Feature", "properties": {"type": "postcode-cell", "postcode": "EX13 7TY", "postcodes": ["EX13 7TY"]}, "geometry": {"type": "Polygon", "coordinates": [[[-3.054327990361306, 50.84723975270326], [-3.0542485488706688, 50.84316233535183], [-3.0546428599324704, 50.84283505048253], [-3.0600454352569226, 50.842277699034526], [-3.059109989396675, 50.84329999484479], [-3.0588299893954676, 50.84540999484646], [-3.060109989395731, 50.84646999484725], [-3.0596899893945277, 50.84839999484876], [-3.058849989393808, 50.848819994849116], [-3.058882646696506, 50.84912479813342], [-3.054327990361306, 50.84723975270326]]]}}, {"type": "Feature", "properties": {"type": "postcode-cell", "postcode": "EX13 7UE", "postcodes": ["EX13 7UE"]}, "geometry": {"type": "Polygon", "coordinates": [[[-3.0542485488706688, 50.84316233535183], [-3.0447886152899977, 50.841943433264866], [-3.0448437998393296, 50.841235379344326], [-3.0519253461918954, 50.838400994422734], [-3.0540853273596675, 50.83935439211916], [-3.0546428599324704, 50.84283505048253], [-3.0542485488706688, 50.84316233535183]]]}}, {"type": "Feature", "properties": {"type": "postcode-cell", "postcode": "EX14 9BB", "postcodes": ["EX14 9BB"]}, "geometry": {"type": "Polygon", "coordinates": [[[-3.0528286497966373, 50.86188214552976], [-3.050130331195775, 50.86005734239754], [-3.050733213734212, 50.85464530841357], [-3.0510590311038452, 50.85441540070674], [-3.058523194632348, 50.852447805289614], [-3.0588099893917042, 50.85305999485246], [-3.057279989390383, 50.853849994853086], [-3.0576399893901276, 50.85481999485384], [-3.058259989390427, 50.85497999485394], [-3.0579999893899834, 50.855559994854424], [-3.058859989390187, 50.856219994854925], [-3.0588899893898414, 50.856959994855494], [-3.057879989388621, 50.85818999485649], [-3.058279989387499, 50.86097999485867], [-3.0577951252592057, 50.86156025445894], [-3.0528286497966373, 50.86188214552976]]]}}, {"type": "Feature", "properties": {"type": "postcode-cell", "postcode": "EX13 7TX", "postcodes": ["EX13 7TX"]}, "geometry": {"type": "Polygon", "coordinates": [[[-3.0546428599324704, 50.84283505048253], [-3.0540853273596675, 50.83935439211916], [-3.05914350475203, 50.83854351660337], [-3.0594099893989775, 50.8389799948414], [-3.0606599893995092, 50.839449994841736], [-3.0610199893994796, 50.83995999484214], [-3.060509989398281, 50.84176999484358], [-3.0600454352569226, 50.842277699034526], [-3.0546428599324704, 50.84283505048253]]]}}, {"type": "Feature", "properties": {"type": "postcode-cell", "postcode": "EX14 9AY", "postcodes": ["EX14 9AY"]}, "geometry": {"type": "Polygon", "coordinates": [[[-3.0512376930629688, 50.86448913326971], [-3.0531238450817293, 50.87293808250253], [-3.0515799893776228, 50.872769994868015], [-3.046759989375358, 50.871379994867], [-3.0461099893747208, 50.87186999486739], [-3.0453299893753654, 50.8695799948656], [-3.043729989375115, 50.86809999486446], [-3.0420299893737033, 50.86885999486511], [-3.039279989372102, 50.86869999486499], [-3.0384399893717773, 50.86831999486471], [-3.03697998937164, 50.86677999486351], [-3.036972102737043, 50.866741757975106], [-3.0512376930629688, 50.86448913326971]]]}}, {"type": "Feature", "properties": {"type": "postcode-cell", "postcode": "EX13 7TW", "postcodes": ["EX13 7TW"]}, "geometry": {"type": "Polygon", "coordinates": [[[-3.0519253461918954, 50.838400994422734], [-3.051569455662759, 50.83459033542011], [-3.059905124283274, 50.83365708875412], [-3.060739989401939, 50.834599994837944], [-3.060169989401339, 50.835109994838376], [-3.059439989400885, 50.83512999483839], [-3.060139989400527, 50.83672999483964], [-3.0588299893990896, 50.83802999484068], [-3.05914350475203, 50.83854351660337], [-3.0540853273596675, 50.83935439211916], [-3.0519253461918954, 50.838400994422734]]]}}, {"type": "Feature", "properties": {"type": "postcode-cell", "postcode": "EX13 7TN", "postcodes": ["EX13 7TN"]}, "geometry": {"type": "Polygon", "coordinates": [[[-3.051569455662759, 50.83459033542011], [-3.0480182898066803, 50.83317412556979], [-3.052659265466307, 50.82663931219217], [-3.0536714794611424, 50.826393863200614], [-3.0532599894008787, 50.82745999483248], [-3.0535699894007635, 50.82807999483297], [-3.0549499894015715, 50.828149994832984], [-3.0548399894013265, 50.828509994833276], [-3.0555099894015885, 50.8288099948335], [-3.055609989401423, 50.82926999483385], [-3.0560999894017202, 50.82926999483383], [-3.056069989401439, 50.82980999483427], [-3.05872998940267, 50.830609994834866], [-3.0576599894015155, 50.83162999483568], [-3.0579799894013586, 50.83234999483623], [-3.0588199894017367, 50.83261999483642], [-3.0599099894024517, 50.83251999483634], [-3.0603499894023773, 50.833219994836874], [-3.0598899894018903, 50.83363999483721], [-3.059905124283274, 50.83365708875412], [-3.051569455662759, 50.83459033542011]]]}}, {"type": "Feature", "properties": {"type": "postcode-cell", "postcode": "EX13 7TZ", "postcodes": ["EX13 7TZ"]}, "geometry": {"type": "Polygon", "coordinates": [[[-3.0510590311038452, 50.85441540070674], [-3.0471834760009733, 50.847779850907706], [-3.054327990361306, 50.84723975270326], [-3.058882646696506, 50.84912479813342], [-3.058909989393569, 50.84937999484956], [-3.0595799893938174, 50.84970999484982], [-3.0589599893931005, 50.85039999485037], [-3.0590899893928363, 50.85109999485093], [-3.0582899893919304, 50.85194999485159], [-3.058523194632348, 50.852447805289614], [-3.0510590311038452, 50.85441540070674]]]}}, {"type": "Feature", "properties": {"type": "postcode-cell", "postcode": "EX13 7TP", "postcodes": ["EX13 7TP"]}, "geometry": {"type": "Polygon", "coordinates": [[[-3.0448437998393296, 50.841235379344326], [-3.041723540066199, 50.83747332350471], [-3.0429123935214206, 50.83481831696428], [-3.0438756657388777, 50.833485955600324], [-3.0480182898066803, 50.83317412556979], [-3.051569455662759, 50.83459033542011], [-3.0519253461918954, 50.838400994422734], [-3.0448437998393296, 50.841235379344326]]]}}, {"type": "Feature", "properties": {"type": "postcode-cell", "postcode": "EX13 7UD", "postcodes": ["EX13 7UD"]}, "geometry": {"type": "Polygon", "coordinates": [[[-3.0447886152899977, 50.841943433264866], [-3.0542485488706688, 50.84316233535183], [-3.054327990361306, 50.84723975270326], [-3.0471834760009733, 50.847779850907706], [-3.041282480843059, 50.8465946694641], [-3.0447886152899977, 50.841943433264866]]]}}, {"type": "Feature", "properties": {"type": "postcode-cell", "postcode": "EX13 7TU", "postcodes": ["EX13 7TU"]}, "geometry": {"type": "Polygon", "coordinates": [[[-3.041282480843059, 50.8465946694641], [-3.0299062284559932, 50.85008671402132], [-3.0301320326335266, 50.8390610932681], [-3.041723540066199, 50.83747332350471], [-3.0448437998393296, 50.841235379344326], [-3.0447886152899977, 50.841943433264866], [-3.041282480843059, 50.8465946694641]]]}}, {"type": "Feature", "properties": {"type": "postcode-cell", "postcode": "EX13 7UA", "postcodes": ["EX13 7UA"]}, "geometry": {"type": "Polygon", "coordinates": [[[-3.050733213734212, 50.85464530841357], [-3.036079998492165, 50.85285000875007], [-3.036079989377931, 50.85284999485262], [-3.0368099893792495, 50.851069994851215], [-3.03477998937807, 50.85094999485113], [-3.0318199893758804, 50.85173999485182], [-3.0305819372232228, 50.85217587956429], [-3.0279204502679553, 50.85184944865992], [-3.0299062284559932, 50.85008671402132], [-3.041282480843059, 50.8465946694641], [-3.0471834760009733, 50.847779850907706], [-3.0510590311038452, 50.85441540070674], [-3.050733213734212, 50.85464530841357]]]}}, {"type": "Feature", "properties": {"type": "postcode-cell", "postcode": "EX13 7TJ", "postcodes": ["EX13 7TJ"]}, "geometry": {"type": "Polygon", "coordinates": [[[-3.052659265466307, 50.82663931219217], [-3.0443857038142794, 50.825273679922944], [-3.0441903047559222, 50.82193132871551], [-3.0500128957659314, 50.819877089003874], [-3.050179989402505, 50.82032999482695], [-3.0507599894026898, 50.82066999482721], [-3.050199989401563, 50.82226999482846], [-3.0512799894018743, 50.82297999482901], [-3.051009989401282, 50.82384999482968], [-3.0516899894009377, 50.825389994830886], [-3.0523699894012744, 50.82554999483099], [-3.0531399894013505, 50.82634999483161], [-3.0536999894017067, 50.826319994831586], [-3.0536714794611424, 50.826393863200614], [-3.052659265466307, 50.82663931219217]]]}}, {"type": "Feature", "properties": {"type": "postcode-cell", "postcode": "EX13 7TQ", "postcodes": ["EX13 7TQ"]}, "geometry": {"type": "Polygon", "coordinates": [[[-3.0443857038142794, 50.825273679922944], [-3.0376393614901525, 50.82822052264707], [-3.034856337011525, 50.827648785870366], [-3.0337393168632807, 50.825033965484316], [-3.033588664817146, 50.82117143969207], [-3.0377076125050437, 50.81768977675032], [-3.0441903047559222, 50.82193132871551], [-3.0443857038142794, 50.825273679922944]]]}}, {"type": "Feature", "properties": {"type": "postcode-cell", "postcode": "EX13 7TR", "postcodes": ["EX13 7TR"]}, "geometry": {"type": "Polygon", "coordinates": [[[-3.0429123935214206, 50.83481831696428], [-3.034287082568391, 50.83481847447155], [-3.039117003226904, 50.82988195399305], [-3.0438756657388777, 50.833485955600324], [-3.0429123935214206, 50.83481831696428]]]}}, {"type": "Feature", "properties": {"type": "postcode-cell", "postcode": "EX13 7TL", "postcodes": ["EX13 7TL"]}, "geometry": {"type": "Polygon", "coordinates": [[[-3.0480182898066803, 50.83317412556979], [-3.0438756657388777, 50.833485955600324], [-3.039117003226904, 50.82988195399305], [-3.0376393614901525, 50.82822052264707], [-3.0443857038142794, 50.825273679922944], [-3.052659265466307, 50.82663931219217], [-3.0480182898066803, 50.83317412556979]]]}}, {"type": "Feature", "properties": {"type": "postcode-cell", "postcode": "EX14 9BA", "postcodes": ["EX14 9BA"]}, "geometry": {"type": "MultiPolygon", "coordinates": [[[[-3.0305819372232228, 50.85217587956429], [-3.026867515338232, 50.85348349991481], [-3.027627489793823, 50.8520228222221], [-3.0279204502679553, 50.85184944865992], [-3.0305819372232228, 50.85217587956429]]], [[[-3.050733213734212, 50.85464530841357], [-3.050130331195775, 50.86005734239754], [-3.0343153571730967, 50.859502725948786], [-3.034589989373978, 50.8590499948575], [-3.036369989375456, 50.85824999485686], [-3.0357299893760468, 50.856249994855276], [-3.037089989377791, 50.85438999485381], [-3.036079998492165, 50.85285000875007], [-3.050733213734212, 50.85464530841357]]]]}}, {"type": "Feature", "properties": {"type": "postcode-cell", "postcode": "EX14 9AZ", "postcodes": ["EX14 9AZ"]}, "geometry": {"type": "Polygon", "coordinates": [[[-3.0512376930629688, 50.86448913326971], [-3.036972102737043, 50.866741757975106], [-3.036649989372223, 50.86517999486227], [-3.034589989371546, 50.86399999486139], [-3.0347299893723982, 50.862439994860146], [-3.0326299893715087, 50.86163999485954], [-3.03330998937216, 50.86115999485915], [-3.0343153571730967, 50.859502725948786], [-3.050130331195775, 50.86005734239754], [-3.0528286497966373, 50.86188214552976], [-3.0512376930629688, 50.86448913326971]]]}}, {"type": "Feature", "properties": {"type": "postcode-cell", "postcode": "EX13 7TH", "postcodes": ["EX13 7TH"]}, "geometry": {"type": "Polygon", "coordinates": [[[-3.0441903047559222, 50.82193132871551], [-3.0377076125050437, 50.81768977675032], [-3.0378558217197456, 50.8167467041953], [-3.0386741810729783, 50.8162251495526], [-3.0457003890522896, 50.812773140399365], [-3.046269989403638, 50.81317999482142], [-3.0463399894032275, 50.81409999482215], [-3.047139989403332, 50.814879994822725], [-3.047919989403734, 50.815029994822844], [-3.0477199894033946, 50.81546999482318], [-3.048219989403267, 50.81634999482388], [-3.0494699894037716, 50.816869994824245], [-3.049249989403284, 50.817589994824814], [-3.049919989403418, 50.81814999482525], [-3.0497999894027803, 50.81929999482618], [-3.0500128957659314, 50.819877089003874], [-3.0441903047559222, 50.82193132871551]]]}}, {"type": "Feature", "properties": {"type": "postcode-cell", "postcode": "EX13 7AQ", "postcodes": ["EX13 7AQ"]}, "geometry": {"type": "Polygon", "coordinates": [[[-3.0378558217197456, 50.8167467041953], [-3.029780949536163, 50.81425605709548], [-3.0291182398467065, 50.81325469547956], [-3.0333460180787473, 50.80898705851154], [-3.0386741810729783, 50.8162251495526], [-3.0378558217197456, 50.8167467041953]]]}}, {"type": "Feature", "properties": {"type": "postcode-cell", "postcode": "EX13 7JX", "postcodes": ["EX13 7JX"]}, "geometry": {"type": "Polygon", "coordinates": [[[-3.0023598802655123, 50.84680973584628], [-3.0122029511903845, 50.84263729027582], [-3.027627489793823, 50.8520228222221], [-3.026867515338232, 50.85348349991481], [-3.0211099893675013, 50.85550999485493], [-3.0184899893657686, 50.85578999485518], [-3.0140999893634213, 50.85512999485474], [-3.012929989362416, 50.8557199948552], [-3.0125999893616315, 50.85690999485616], [-3.011439989360778, 50.8572099948564], [-3.0062399893592695, 50.85384999485385], [-3.0036399893579153, 50.85338999485352], [-3.0020185837090647, 50.85199559846409], [-3.0023598802655123, 50.84680973584628]]]}}, {"type": "Feature", "properties": {"type": "postcode-cell", "postcode": "EX13 7AD", "postcodes": ["EX13 7AD"]}, "geometry": {"type": "Polygon", "coordinates": [[[-3.025296562406917, 50.825860755584955], [-3.026279312105611, 50.82522106644915], [-3.032824614208503, 50.82836043499435], [-3.0265085217022243, 50.83105463680848], [-3.024747505965671, 50.82917295957176], [-3.025296562406917, 50.825860755584955]]]}}, {"type": "Feature", "properties": {"type": "postcode-cell", "postcode": "EX13 7AB", "postcodes": ["EX13 7AB"]}, "geometry": {"type": "Polygon", "coordinates": [[[-3.024747505965671, 50.82917295957176], [-3.020369941519394, 50.825704304925445], [-3.0226837191664493, 50.82471470292877], [-3.0243073631028556, 50.824298657018254], [-3.025296562406917, 50.825860755584955], [-3.024747505965671, 50.82917295957176]]]}}, {"type": "Feature", "properties": {"type": "postcode-cell", "postcode": "EX13 7TS", "postcodes": ["EX13 7TS"]}, "geometry": {"type": "Polygon", "coordinates": [[[-3.039117003226904, 50.82988195399305], [-3.034287082568391, 50.83481847447155], [-3.0289257184822724, 50.83708433277984], [-3.0264108316021807, 50.831170765238795], [-3.0265085217022243, 50.83105463680848], [-3.032824614208503, 50.82836043499435], [-3.034856337011525, 50.827648785870366], [-3.0376393614901525, 50.82822052264707], [-3.039117003226904, 50.82988195399305]]]}}, {"type": "Feature", "properties": {"type": "postcode-cell", "postcode": "EX13 7JU", "postcodes": ["EX13 7JU"]}, "geometry": {"type": "Polygon", "coordinates": [[[-3.0279204502679553, 50.85184944865992], [-3.027627489793823, 50.8520228222221], [-3.0122029511903845, 50.84263729027582], [-3.0116980192350202, 50.83974383481763], [-3.0148710277793196, 50.83833637818783], [-3.028930125333217, 50.837691090003936], [-3.0301320326335266, 50.8390610932681], [-3.0299062284559932, 50.85008671402132], [-3.0279204502679553, 50.85184944865992]]]}}, {"type": "Feature", "properties": {"type": "postcode-cell", "postcode": "EX13 7TT", "postcodes": ["EX13 7TT"]}, "geometry": {"type": "Polygon", "coordinates": [[[-3.028930125333217, 50.837691090003936], [-3.0289257184822724, 50.83708433277984], [-3.034287082568391, 50.83481847447155], [-3.0429123935214206, 50.83481831696428], [-3.041723540066199, 50.83747332350471], [-3.0301320326335266, 50.8390610932681], [-3.028930125333217, 50.837691090003936]]]}}, {"type": "Feature", "properties": {"type": "postcode-cell", "postcode": "EX13 7LW", "postcodes": ["EX13 7LW"]}, "geometry": {"type": "Polygon", "coordinates": [[[-2.9848117748427883, 50.799576694039665], [-2.9809001705382703, 50.79702415551735], [-2.9819899893729205, 50.79640999480939], [-2.9831399893736927, 50.79625999480923], [-2.9838599893744764, 50.795549994808674], [-2.984889989375207, 50.7953299948085], [-2.9863599893767057, 50.794099994807524], [-2.9884099893776233, 50.79474999480801], [-2.9877499893766313, 50.795949994808936], [-2.988069989376018, 50.797579994810185], [-2.9889786731525207, 50.79771750889457], [-2.9848117748427883, 50.799576694039665]]]}}, {"type": "Feature", "properties": {"type": "postcode-cell", "postcode": "EX13 7AH", "postcodes": ["EX13 7AH"]}, "geometry": {"type": "Polygon", "coordinates": [[[-3.0333460180787473, 50.80898705851154], [-3.0291182398467065, 50.81325469547956], [-3.0235045335713155, 50.810822223249254], [-3.025438750972567, 50.805209551782575], [-3.0266499893957435, 50.804979994815334], [-3.0272099893949607, 50.807259994817095], [-3.0281299893951052, 50.808099994817745], [-3.029089989395719, 50.80803999481769], [-3.0298399893960224, 50.808349994817895], [-3.0326299893978605, 50.80805999481763], [-3.0316699893981487, 50.80628999481626], [-3.03396998939967, 50.80603999481603], [-3.0334599894000784, 50.80457999481491], [-3.033749989400348, 50.80438999481475], [-3.0342599894004514, 50.8048099948151], [-3.0353373056295827, 50.80513811748999], [-3.0333460180787473, 50.80898705851154]]]}}, {"type": "Feature", "properties": {"type": "postcode-cell", "postcode": "EX13 7AJ", "postcodes": ["EX13 7AJ"]}, "geometry": {"type": "Polygon", "coordinates": [[[-3.0386741810729783, 50.8162251495526], [-3.0333460180787473, 50.80898705851154], [-3.0353373056295827, 50.80513811748999], [-3.0362299894013547, 50.80540999481553], [-3.0373499894020877, 50.805299994815414], [-3.0376099894020143, 50.805769994815776], [-3.038369989402512, 50.80569999481571], [-3.0393799894028595, 50.80623999481613], [-3.0400799894033876, 50.80602999481592], [-3.0410199894031833, 50.807609994817156], [-3.042379989404326, 50.80696999481664], [-3.042859989404921, 50.80634999481614], [-3.0432499894045795, 50.80752999481706], [-3.044269989404861, 50.8082199948176], [-3.044659989404379, 50.809679994818694], [-3.0454599894045713, 50.81027999481919], [-3.0462499894050477, 50.81028999481917], [-3.0464299894049747, 50.81065999481946], [-3.0460899894046105, 50.81097999481969], [-3.0451599894040595, 50.81094999481971], [-3.0453599894034036, 50.81252999482092], [-3.0457003890522896, 50.812773140399365], [-3.0386741810729783, 50.8162251495526]]]}}, {"type": "Feature", "properties": {"type": "postcode-cell", "postcode": "EX13 7AG", "postcodes": ["EX13 7AG"]}, "geometry": {"type": "Polygon", "coordinates": [[[-3.0377076125050437, 50.81768977675032], [-3.033588664817146, 50.82117143969207], [-3.028116118666267, 50.82044892739793], [-3.0250491150326946, 50.819065823867085], [-3.0245565272386656, 50.81756399640953], [-3.029780949536163, 50.81425605709548], [-3.0378558217197456, 50.8167467041953], [-3.0377076125050437, 50.81768977675032]]]}}, {"type": "Feature", "properties": {"type": "postcode-cell", "postcode": "EX13 7AE", "postcodes": ["EX13 7AE"]}, "geometry": {"type": "Polygon", "coordinates": [[[-3.032824614208503, 50.82836043499435], [-3.026279312105611, 50.82522106644915], [-3.0254668456562666, 50.82388607013258], [-3.0258865350090347, 50.82376883947731], [-3.0337393168632807, 50.825033965484316], [-3.034856337011525, 50.827648785870366], [-3.032824614208503, 50.82836043499435]]]}}, {"type": "Feature", "properties": {"type": "postcode-cell", "postcode": "EX13 7AW", "postcodes": ["EX13 7AW"]}, "geometry": {"type": "Polygon", "coordinates": [[[-3.0254668456562666, 50.82388607013258], [-3.0251351039122487, 50.823902678141025], [-3.0238356190919484, 50.82255819541225], [-3.027044837952919, 50.821678745045055], [-3.0258865350090347, 50.82376883947731], [-3.0254668456562666, 50.82388607013258]]]}}, {"type": "Feature", "properties": {"type": "postcode-cell", "postcode": "EX13 7AF", "postcodes": ["EX13 7AF"]}, "geometry": {"type": "Polygon", "coordinates": [[[-3.0337393168632807, 50.825033965484316], [-3.0258865350090347, 50.82376883947731], [-3.027044837952919, 50.821678745045055], [-3.028116118666267, 50.82044892739793], [-3.033588664817146, 50.82117143969207], [-3.0337393168632807, 50.825033965484316]]]}}, {"type": "Feature", "properties": {"type": "postcode-cell", "postcode": "EX13 7JH", "postcodes": ["EX13 7JH"]}, "geometry": {"type": "Polygon", "coordinates": [[[-2.9886064024818664, 50.80321600125229], [-2.984867711697709, 50.80227314374967], [-2.9838128771373804, 50.8013455772866], [-2.9848117748427883, 50.799576694039665], [-2.9889786731525207, 50.79771750889457], [-2.992629989378435, 50.798269994810674], [-2.9943399893795526, 50.798099994810485], [-2.9951699893799613, 50.798289994810645], [-2.9973899893806086, 50.79969999481168], [-2.997498898179301, 50.79984157888401], [-2.9886064024818664, 50.80321600125229]]]}}, {"type": "Feature", "properties": {"type": "postcode-cell", "postcode": "EX13 7TB", "postcodes": ["EX13 7TB"]}, "geometry": {"type": "Polygon", "coordinates": [[[-3.0235045335713155, 50.810822223249254], [-3.012815922709239, 50.814071610183646], [-3.011569607201899, 50.81412628543211], [-3.0090772669434056, 50.81025436363427], [-3.0103599893835558, 50.809649994819246], [-3.0120099893853793, 50.8079799948179], [-3.016099989388276, 50.80713999481718], [-3.0172299893892913, 50.80646999481665], [-3.017009989389626, 50.805519994815924], [-3.014619989388477, 50.80490999481546], [-3.0132399893890116, 50.80212999481333], [-3.016139989390573, 50.802529994813604], [-3.019469989391922, 50.803889994814604], [-3.020459989392144, 50.80465999481518], [-3.021229989392591, 50.804699994815195], [-3.021819989392584, 50.805439994815764], [-3.0226599893932473, 50.80512999481551], [-3.022839989393214, 50.80541999481576], [-3.0241699893940073, 50.80544999481575], [-3.025438750972567, 50.805209551782575], [-3.0235045335713155, 50.810822223249254]]]}}, {"type": "Feature", "properties": {"type": "postcode-cell", "postcode": "EX13 7TD", "postcodes": ["EX13 7TD"]}, "geometry": {"type": "Polygon", "coordinates": [[[-3.029780949536163, 50.81425605709548], [-3.0245565272386656, 50.81756399640953], [-3.012815922709239, 50.814071610183646], [-3.0235045335713155, 50.810822223249254], [-3.0291182398467065, 50.81325469547956], [-3.029780949536163, 50.81425605709548]]]}}, {"type": "Feature", "properties": {"type": "postcode-cell", "postcode": "EX13 7AA", "postcodes": ["EX13 7AA"]}, "geometry": {"type": "Polygon", "coordinates": [[[-3.026279312105611, 50.82522106644915], [-3.025296562406917, 50.825860755584955], [-3.0243073631028556, 50.824298657018254], [-3.0251351039122487, 50.823902678141025], [-3.0254668456562666, 50.82388607013258], [-3.026279312105611, 50.82522106644915]]]}}, {"type": "Feature", "properties": {"type": "postcode-cell", "postcode": "EX13 7JS", "postcodes": ["EX13 7JS"]}, "geometry": {"type": "Polygon", "coordinates": [[[-3.0264108316021807, 50.831170765238795], [-3.0194314063690553, 50.83197932978105], [-3.008331505690227, 50.82737350159397], [-3.010252927352169, 50.825979007164925], [-3.016748667453965, 50.82487717136733], [-3.020369941519394, 50.825704304925445], [-3.024747505965671, 50.82917295957176], [-3.0265085217022243, 50.83105463680848], [-3.0264108316021807, 50.831170765238795]]]}}, {"type": "Feature", "properties": {"type": "postcode-cell", "postcode": "EX13 7JT", "postcodes": ["EX13 7JT"]}, "geometry": {"type": "Polygon", "coordinates": [[[-3.028930125333217, 50.837691090003936], [-3.0148710277793196, 50.83833637818783], [-3.0194314063690553, 50.83197932978105], [-3.0264108316021807, 50.831170765238795], [-3.0289257184822724, 50.83708433277984], [-3.028930125333217, 50.837691090003936]]]}}, {"type": "Feature", "properties": {"type": "postcode-cell", "postcode": "EX13 7UF", "postcodes": ["EX13 7UF"]}, "geometry": {"type": "Polygon", "coordinates": [[[-3.0251351039122487, 50.823902678141025], [-3.0243073631028556, 50.824298657018254], [-3.0226837191664493, 50.82471470292877], [-3.0224779620983573, 50.821764216830985], [-3.0238356190919484, 50.82255819541225], [-3.0251351039122487, 50.823902678141025]]]}}, {"type": "Feature", "properties": {"type": "postcode-cell", "postcode": "EX13 7TG", "postcodes": ["EX13 7TG"]}, "geometry": {"type": "Polygon", "coordinates": [[[-3.027044837952919, 50.821678745045055], [-3.0238356190919484, 50.82255819541225], [-3.0224779620983573, 50.821764216830985], [-3.0217773910078147, 50.82115041849844], [-3.0250491150326946, 50.819065823867085], [-3.028116118666267, 50.82044892739793], [-3.027044837952919, 50.821678745045055]]]}}, {"type": "Feature", "properties": {"type": "postcode-cell", "postcode": "EX13 7TF", "postcodes": ["EX13 7TF"]}, "geometry": {"type": "Polygon", "coordinates": [[[-3.020369941519394, 50.825704304925445], [-3.016748667453965, 50.82487717136733], [-3.0198674827840857, 50.821469348117226], [-3.0217773910078147, 50.82115041849844], [-3.0224779620983573, 50.821764216830985], [-3.0226837191664493, 50.82471470292877], [-3.020369941519394, 50.825704304925445]]]}}, {"type": "Feature", "properties": {"type": "postcode-cell", "postcode": "EX13 7TE", "postcodes": ["EX13 7TE"]}, "geometry": {"type": "Polygon", "coordinates": [[[-3.012815922709239, 50.814071610183646], [-3.0245565272386656, 50.81756399640953], [-3.0250491150326946, 50.819065823867085], [-3.0217773910078147, 50.82115041849844], [-3.0198674827840857, 50.821469348117226], [-3.0116251537326906, 50.81449772126359], [-3.011544431495497, 50.81416222192882], [-3.011569607201899, 50.81412628543211], [-3.012815922709239, 50.814071610183646]]]}}, {"type": "Feature", "properties": {"type": "postcode-cell", "postcode": "EX13 7JY", "postcodes": ["EX13 7JY"]}, "geometry": {"type": "Polygon", "coordinates": [[[-3.0148710277793196, 50.83833637818783], [-3.0116980192350202, 50.83974383481763], [-3.0059267718830234, 50.836508728443434], [-3.004592344975742, 50.83514106459103], [-3.003150735194415, 50.83046576254413], [-3.005038758839905, 50.8282571160985], [-3.008331505690227, 50.82737350159397], [-3.0194314063690553, 50.83197932978105], [-3.0148710277793196, 50.83833637818783]]]}}, {"type": "Feature", "properties": {"type": "postcode-cell", "postcode": "EX13 7JR", "postcodes": ["EX13 7JR"]}, "geometry": {"type": "Polygon", "coordinates": [[[-3.016748667453965, 50.82487717136733], [-3.010252927352169, 50.825979007164925], [-3.0116251537326906, 50.81449772126359], [-3.0198674827840857, 50.821469348117226], [-3.016748667453965, 50.82487717136733]]]}}, {"type": "Feature", "properties": {"type": "postcode-cell", "postcode": "EX13 7JL", "postcodes": ["EX13 7JL"]}, "geometry": {"type": "Polygon", "coordinates": [[[-2.9922020822040074, 50.80808316050559], [-2.993213677389487, 50.80459725638608], [-2.998557299260649, 50.80137580194976], [-2.9986699893800544, 50.80238999481378], [-2.999219989380258, 50.80264999481395], [-3.000928151711394, 50.80568406525059], [-2.9922020822040074, 50.80808316050559]]]}}, {"type": "Feature", "properties": {"type": "postcode-cell", "postcode": "EX13 7JP", "postcodes": ["EX13 7JP"]}, "geometry": {"type": "Polygon", "coordinates": [[[-3.010252927352169, 50.825979007164925], [-3.008331505690227, 50.82737350159397], [-3.005038758839905, 50.8282571160985], [-2.9960126092577566, 50.8205581880703], [-3.0010457641292825, 50.81749365474257], [-3.011544431495497, 50.81416222192882], [-3.0116251537326906, 50.81449772126359], [-3.010252927352169, 50.825979007164925]]]}}, {"type": "Feature", "properties": {"type": "postcode-cell", "postcode": "EX13 7DE", "postcodes": ["EX13 7DE"]}, "geometry": {"type": "Polygon", "coordinates": [[[-2.9812347426935117, 50.845949123788486], [-2.9815569329761566, 50.84592630940101], [-2.988816594515286, 50.84774589378527], [-2.99277042029712, 50.85510333903001], [-2.990569989348846, 50.8556799948555], [-2.987589989346915, 50.855929994855735], [-2.9843599893454336, 50.85495999485503], [-2.980620541136404, 50.85483591070294], [-2.9812347426935117, 50.845949123788486]]]}}, {"type": "Feature", "properties": {"type": "postcode-cell", "postcode": "EX13 7JZ", "postcodes": ["EX13 7JZ"]}, "geometry": {"type": "Polygon", "coordinates": [[[-3.0122029511903845, 50.84263729027582], [-3.0023598802655123, 50.84680973584628], [-2.9959129989909363, 50.84411955942052], [-2.9958026322282727, 50.84378159129176], [-3.0059267718830234, 50.836508728443434], [-3.0116980192350202, 50.83974383481763], [-3.0122029511903845, 50.84263729027582]]]}}, {"type": "Feature", "properties": {"type": "postcode-cell", "postcode": "TA20 3ES", "postcodes": ["TA20 3ES"]}, "geometry": {"type": "Polygon", "coordinates": [[[-3.0023598802655123, 50.84680973584628], [-3.0020185837090647, 50.85199559846409], [-3.001639989357547, 50.851669994852216], [-3.0004899893568386, 50.851689994852244], [-2.998549989356014, 50.85096999485169], [-2.996259989352801, 50.85466999485464], [-2.994439989351459, 50.85514999485503], [-2.9934699893509826, 50.85491999485486], [-2.99277042029712, 50.85510333903001], [-2.988816594515286, 50.84774589378527], [-2.9959129989909363, 50.84411955942052], [-3.0023598802655123, 50.84680973584628]]]}}, {"type": "Feature", "properties": {"type": "postcode-cell", "postcode": "EX13 7DA", "postcodes": ["EX13 7DA"]}, "geometry": {"type": "Polygon", "coordinates": [[[-3.004592344975742, 50.83514106459103], [-2.997613414285836, 50.837314612938656], [-2.9896383139580944, 50.83526815437838], [-2.989688980416911, 50.832013815547626], [-2.9900232893553236, 50.83127555207057], [-3.003150735194415, 50.83046576254413], [-3.004592344975742, 50.83514106459103]]]}}, {"type": "Feature", "properties": {"type": "postcode-cell", "postcode": "EX13 7JW", "postcodes": ["EX13 7JW"]}, "geometry": {"type": "Polygon", "coordinates": [[[-3.011544431495497, 50.81416222192882], [-3.0010457641292825, 50.81749365474257], [-2.9959006986597676, 50.81154828126461], [-3.005407431928378, 50.80935093558754], [-3.0052499893803533, 50.80985999481948], [-3.0062399893807243, 50.8103199948198], [-3.0066199893806353, 50.810969994820326], [-3.0082799893818097, 50.81062999482004], [-3.0090772669434056, 50.81025436363427], [-3.011569607201899, 50.81412628543211], [-3.011544431495497, 50.81416222192882]]]}}, {"type": "Feature", "properties": {"type": "postcode-cell", "postcode": "EX13 7LZ", "postcodes": ["EX13 7LZ"]}, "geometry": {"type": "Polygon", "coordinates": [[[-2.9960126092577566, 50.8205581880703], [-2.994165965061123, 50.820375803273656], [-2.9887174385715474, 50.81398173787092], [-2.9904410873628264, 50.81160170576389], [-2.9908626140088486, 50.81131299715412], [-2.9959006986597676, 50.81154828126461], [-3.0010457641292825, 50.81749365474257], [-2.9960126092577566, 50.8205581880703]]]}}, {"type": "Feature", "properties": {"type": "postcode-cell", "postcode": "EX13 7LA", "postcodes": ["EX13 7LA"]}, "geometry": {"type": "Polygon", "coordinates": [[[-3.0059267718830234, 50.836508728443434], [-2.9958026322282727, 50.84378159129176], [-2.9923980074273504, 50.84073360261046], [-2.997613414285836, 50.837314612938656], [-3.004592344975742, 50.83514106459103], [-3.0059267718830234, 50.836508728443434]]]}}, {"type": "Feature", "properties": {"type": "postcode-cell", "postcode": "EX13 7LB", "postcodes": ["EX13 7LB"]}, "geometry": {"type": "Polygon", "coordinates": [[[-3.005038758839905, 50.8282571160985], [-3.003150735194415, 50.83046576254413], [-2.9900232893553236, 50.83127555207057], [-2.9894147904147497, 50.830893219126125], [-2.988750183601319, 50.82863152865996], [-2.9898493067084053, 50.82346980053127], [-2.9912511281883503, 50.82155073579458], [-2.994165965061123, 50.820375803273656], [-2.9960126092577566, 50.8205581880703], [-3.005038758839905, 50.8282571160985]]]}}, {"type": "Feature", "properties": {"type": "postcode-cell", "postcode": "EX13 7LY", "postcodes": ["EX13 7LY"]}, "geometry": {"type": "Polygon", "coordinates": [[[-2.9922020822040074, 50.80808316050559], [-2.9910970600203, 50.80882413298128], [-2.9892561962183892, 50.80741382617168], [-2.9892217239848415, 50.8039046834991], [-2.993213677389487, 50.80459725638608], [-2.9922020822040074, 50.80808316050559]]]}}, {"type": "Feature", "properties": {"type": "postcode-cell", "postcode": "EX13 7JN", "postcodes": ["EX13 7JN"]}, "geometry": {"type": "Polygon", "coordinates": [[[-2.9959006986597676, 50.81154828126461], [-2.9908626140088486, 50.81131299715412], [-2.9910970600203, 50.80882413298128], [-2.9922020822040074, 50.80808316050559], [-3.000928151711394, 50.80568406525059], [-3.0013199893796894, 50.80637999481684], [-3.002799989380659, 50.80622999481669], [-3.0034099893805455, 50.80720999481744], [-3.0039999893809712, 50.80706999481734], [-3.004239989380717, 50.807879994817945], [-3.0055499893810125, 50.808889994818735], [-3.005407431928378, 50.80935093558754], [-2.9959006986597676, 50.81154828126461]]]}}, {"type": "Feature", "properties": {"type": "postcode-cell", "postcode": "EX13 7LS", "postcodes": ["EX13 7LS"]}, "geometry": {"type": "Polygon", "coordinates": [[[-2.9910970600203, 50.80882413298128], [-2.9908626140088486, 50.81131299715412], [-2.9904410873628264, 50.81160170576389], [-2.983378721674454, 50.809161795341396], [-2.9827446466599152, 50.806872300738874], [-2.9844747487022936, 50.80613549631645], [-2.9892561962183892, 50.80741382617168], [-2.9910970600203, 50.80882413298128]]]}}, {"type": "Feature", "properties": {"type": "postcode-cell", "postcode": "EX13 7DD", "postcodes": ["EX13 7DD"]}, "geometry": {"type": "Polygon", "coordinates": [[[-2.9959129989909363, 50.84411955942052], [-2.988816594515286, 50.84774589378527], [-2.9815569329761566, 50.84592630940101], [-2.9888326443471853, 50.839644014546444], [-2.9923980074273504, 50.84073360261046], [-2.9958026322282727, 50.84378159129176], [-2.9959129989909363, 50.84411955942052]]]}}, {"type": "Feature", "properties": {"type": "postcode-cell", "postcode": "EX13 7DB", "postcodes": ["EX13 7DB"]}, "geometry": {"type": "Polygon", "coordinates": [[[-2.9923980074273504, 50.84073360261046], [-2.9888326443471853, 50.839644014546444], [-2.9881860922973944, 50.83882743018285], [-2.9896383139580944, 50.83526815437838], [-2.997613414285836, 50.837314612938656], [-2.9923980074273504, 50.84073360261046]]]}}, {"type": "Feature", "properties": {"type": "postcode-cell", "postcode": "EX13 7BW", "postcodes": ["EX13 7BW"]}, "geometry": {"type": "Polygon", "coordinates": [[[-2.989688980416911, 50.832013815547626], [-2.9832338316265856, 50.83459230338304], [-2.9823242751150234, 50.83456276102067], [-2.9815325216923445, 50.83437958506455], [-2.9824357352274373, 50.83046916610588], [-2.9894147904147497, 50.830893219126125], [-2.9900232893553236, 50.83127555207057], [-2.989688980416911, 50.832013815547626]]]}}, {"type": "Feature", "properties": {"type": "postcode-cell", "postcode": "EX13 7JJ", "postcodes": ["EX13 7JJ"]}, "geometry": {"type": "Polygon", "coordinates": [[[-2.9886064024818664, 50.80321600125229], [-2.997498898179301, 50.79984157888401], [-2.9980899893805826, 50.800609994812405], [-2.998469989380823, 50.800589994812384], [-2.998557299260649, 50.80137580194976], [-2.993213677389487, 50.80459725638608], [-2.9892217239848415, 50.8039046834991], [-2.9886064024818664, 50.80321600125229]]]}}, {"type": "Feature", "properties": {"type": "postcode-cell", "postcode": "EX13 7LX", "postcodes": ["EX13 7LX"]}, "geometry": {"type": "Polygon", "coordinates": [[[-2.9892217239848415, 50.8039046834991], [-2.9892561962183892, 50.80741382617168], [-2.9844747487022936, 50.80613549631645], [-2.984867711697709, 50.80227314374967], [-2.9886064024818664, 50.80321600125229], [-2.9892217239848415, 50.8039046834991]]]}}, {"type": "Feature", "properties": {"type": "postcode-cell", "postcode": "EX13 7BY", "postcodes": ["EX13 7BY"]}, "geometry": {"type": "Polygon", "coordinates": [[[-2.9896383139580944, 50.83526815437838], [-2.9881860922973944, 50.83882743018285], [-2.9848965149020943, 50.83839106264544], [-2.983226497107073, 50.83560069204795], [-2.9832338316265856, 50.83459230338304], [-2.989688980416911, 50.832013815547626], [-2.9896383139580944, 50.83526815437838]]]}}, {"type": "Feature", "properties": {"type": "postcode-cell", "postcode": "EX13 7LR", "postcodes": ["EX13 7LR"]}, "geometry": {"type": "Polygon", "coordinates": [[[-2.9844747487022936, 50.80613549631645], [-2.9827446466599152, 50.806872300738874], [-2.9781411202265935, 50.806461964609625], [-2.977395503876754, 50.80569310209902], [-2.9833761776554897, 50.801420581149536], [-2.9838128771373804, 50.8013455772866], [-2.984867711697709, 50.80227314374967], [-2.9844747487022936, 50.80613549631645]]]}}, {"type": "Feature", "properties": {"type": "postcode-cell", "postcode": "EX13 7LG", "postcodes": ["EX13 7LG"]}, "geometry": {"type": "Polygon", "coordinates": [[[-2.994165965061123, 50.820375803273656], [-2.9912511281883503, 50.82155073579458], [-2.9784652739443107, 50.82037801193547], [-2.9802247716459753, 50.81621055950993], [-2.984025361149953, 50.81454747126493], [-2.9887174385715474, 50.81398173787092], [-2.994165965061123, 50.820375803273656]]]}}, {"type": "Feature", "properties": {"type": "postcode-cell", "postcode": "EX13 7LF", "postcodes": ["EX13 7LF"]}, "geometry": {"type": "Polygon", "coordinates": [[[-2.981431374815326, 50.82532616362439], [-2.9782216465789455, 50.82498451702175], [-2.9767463046488256, 50.82318891169292], [-2.9778364787157523, 50.82072947250731], [-2.9784652739443107, 50.82037801193547], [-2.9912511281883503, 50.82155073579458], [-2.9898493067084053, 50.82346980053127], [-2.981431374815326, 50.82532616362439]]]}}, {"type": "Feature", "properties": {"type": "postcode-cell", "postcode": "EX13 7LD", "postcodes": ["EX13 7LD"]}, "geometry": {"type": "Polygon", "coordinates": [[[-2.9898493067084053, 50.82346980053127], [-2.988750183601319, 50.82863152865996], [-2.981431374815326, 50.82532616362439], [-2.9898493067084053, 50.82346980053127]]]}}, {"type": "Feature", "properties": {"type": "postcode-cell", "postcode": "EX13 7LU", "postcodes": ["EX13 7LU"]}, "geometry": {"type": "Polygon", "coordinates": [[[-2.984025361149953, 50.81454747126493], [-2.97992158318285, 50.81051418248573], [-2.983378721674454, 50.809161795341396], [-2.9904410873628264, 50.81160170576389], [-2.9887174385715474, 50.81398173787092], [-2.984025361149953, 50.81454747126493]]]}}, {"type": "Feature", "properties": {"type": "postcode-cell", "postcode": "EX13 5UG", "postcodes": ["EX13 5UG"]}, "geometry": {"type": "Polygon", "coordinates": [[[-2.939646831936928, 50.783320452228025], [-2.9404703579976053, 50.77768949809708], [-2.9409599893575997, 50.777449994795354], [-2.94147998935756, 50.77815999479589], [-2.949069989361934, 50.778539994796056], [-2.9473499893600557, 50.78023999479739], [-2.9477892233250804, 50.78253092025186], [-2.939646831936928, 50.783320452228025]]]}}, {"type": "Feature", "properties": {"type": "postcode-cell", "postcode": "EX13 7LE", "postcodes": ["EX13 7LE"]}, "geometry": {"type": "Polygon", "coordinates": [[[-2.981431374815326, 50.82532616362439], [-2.988750183601319, 50.82863152865996], [-2.9894147904147497, 50.830893219126125], [-2.9824357352274373, 50.83046916610588], [-2.9799573290815378, 50.83016388020138], [-2.9779354606334887, 50.829466235771335], [-2.9782216465789455, 50.82498451702175], [-2.981431374815326, 50.82532616362439]]]}}, {"type": "Feature", "properties": {"type": "postcode-cell", "postcode": "EX13 7DG", "postcodes": ["EX13 7DG"]}, "geometry": {"type": "Polygon", "coordinates": [[[-2.9888326443471853, 50.839644014546444], [-2.9815569329761566, 50.84592630940101], [-2.9812347426935117, 50.845949123788486], [-2.979433697822137, 50.84554947391875], [-2.982396596488603, 50.83861727090371], [-2.9830862093458954, 50.838444406767074], [-2.9848965149020943, 50.83839106264544], [-2.9881860922973944, 50.83882743018285], [-2.9888326443471853, 50.839644014546444]]]}}, {"type": "Feature", "properties": {"type": "postcode-cell", "postcode": "EX13 7DF", "postcodes": ["EX13 7DF"]}, "geometry": {"type": "Polygon", "coordinates": [[[-2.979433697822137, 50.84554947391875], [-2.9812347426935117, 50.845949123788486], [-2.980620541136404, 50.85483591070294], [-2.9798399893427656, 50.85480999485498], [-2.97695998934065, 50.85555999485563], [-2.9735899893385573, 50.85565999485575], [-2.9738499893396035, 50.853859994854325], [-2.974629989340826, 50.85233999485315], [-2.9720499893394856, 50.85188999485283], [-2.9711499893391577, 50.851449994852494], [-2.968049989337355, 50.85129999485242], [-2.970099989339431, 50.84960999485107], [-2.9709999893409096, 50.8477199948496], [-2.972569989342694, 50.84602999484823], [-2.9724515578753987, 50.84470357326802], [-2.979433697822137, 50.84554947391875]]]}}, {"type": "Feature", "properties": {"type": "postcode-cell", "postcode": "EX13 7BL", "postcodes": ["EX13 7BL"]}, "geometry": {"type": "Polygon", "coordinates": [[[-2.9780822267116878, 50.833883409779524], [-2.9785253436059276, 50.833900395291096], [-2.978740743895742, 50.83409038513493], [-2.978251092399246, 50.835080857193745], [-2.9690770679119107, 50.83788309186314], [-2.969521891687277, 50.83570719749754], [-2.9780822267116878, 50.833883409779524]]]}}, {"type": "Feature", "properties": {"type": "postcode-cell", "postcode": "EX13 7BG", "postcodes": ["EX13 7BG"]}, "geometry": {"type": "Polygon", "coordinates": [[[-2.9708779580518714, 50.82666751969719], [-2.9735354320299776, 50.83083170912072], [-2.968025143901524, 50.833911234389184], [-2.96632998934504, 50.833639994838656], [-2.9655799893455037, 50.83178999483722], [-2.961689989344135, 50.829799994835724], [-2.9623112152890543, 50.82913781403698], [-2.9708779580518714, 50.82666751969719]]]}}, {"type": "Feature", "properties": {"type": "postcode-cell", "postcode": "EX13 7NA", "postcodes": ["EX13 7NA"]}, "geometry": {"type": "Polygon", "coordinates": [[[-2.984025361149953, 50.81454747126493], [-2.9802247716459753, 50.81621055950993], [-2.9791366972809854, 50.81568226265391], [-2.976806320695417, 50.81236188584684], [-2.97984403331631, 50.810497176530326], [-2.97992158318285, 50.81051418248573], [-2.984025361149953, 50.81454747126493]]]}}, {"type": "Feature", "properties": {"type": "postcode-cell", "postcode": "EX13 7LT", "postcodes": ["EX13 7LT"]}, "geometry": {"type": "Polygon", "coordinates": [[[-2.97992158318285, 50.81051418248573], [-2.97984403331631, 50.810497176530326], [-2.9784440191051695, 50.80949459197374], [-2.977658448107781, 50.80814659497222], [-2.9781411202265935, 50.806461964609625], [-2.9827446466599152, 50.806872300738874], [-2.983378721674454, 50.809161795341396], [-2.97992158318285, 50.81051418248573]]]}}, {"type": "Feature", "properties": {"type": "postcode-cell", "postcode": "EX13 7DQ", "postcodes": ["EX13 7DQ"]}, "geometry": {"type": "Polygon", "coordinates": [[[-2.9812298437975833, 50.83637701985877], [-2.981184487415106, 50.836231460308504], [-2.983226497107073, 50.83560069204795], [-2.9848965149020943, 50.83839106264544], [-2.9830862093458954, 50.838444406767074], [-2.9812298437975833, 50.83637701985877]]]}}, {"type": "Feature", "properties": {"type": "postcode-cell", "postcode": "EX13 7BT", "postcodes": ["EX13 7BT"]}, "geometry": {"type": "Polygon", "coordinates": [[[-2.9830862093458954, 50.838444406767074], [-2.982396596488603, 50.83861727090371], [-2.9740436144984272, 50.83867338873352], [-2.9755266114717163, 50.838019157615896], [-2.9812298437975833, 50.83637701985877], [-2.9830862093458954, 50.838444406767074]]]}}, {"type": "Feature", "properties": {"type": "postcode-cell", "postcode": "EX13 7LP", "postcodes": ["EX13 7LP"]}, "geometry": {"type": "Polygon", "coordinates": [[[-2.977395503876754, 50.80569310209902], [-2.9704607470199207, 50.8035528742602], [-2.970509989362534, 50.803389994815014], [-2.9728899893639564, 50.803419994815], [-2.9717299893636056, 50.80270999481446], [-2.9716899893637603, 50.80234999481417], [-2.974379989365885, 50.80133999481336], [-2.9743993256555217, 50.80033450825446], [-2.9833761776554897, 50.801420581149536], [-2.977395503876754, 50.80569310209902]]]}}, {"type": "Feature", "properties": {"type": "postcode-cell", "postcode": "EX13 5RS", "postcodes": ["EX13 5RS"]}, "geometry": {"type": "Polygon", "coordinates": [[[-2.9838128771373804, 50.8013455772866], [-2.9833761776554897, 50.801420581149536], [-2.9743993256555217, 50.80033450825446], [-2.9743999893664106, 50.80029999481254], [-2.977669989369179, 50.798699994811216], [-2.9789599893699683, 50.7986799948112], [-2.9801799893713237, 50.79742999481021], [-2.9809001705382703, 50.79702415551735], [-2.9848117748427883, 50.799576694039665], [-2.9838128771373804, 50.8013455772866]]]}}, {"type": "Feature", "properties": {"type": "postcode-cell", "postcode": "EX13 7DH", "postcodes": ["EX13 7DH"]}, "geometry": {"type": "Polygon", "coordinates": [[[-2.9812298437975833, 50.83637701985877], [-2.9755266114717163, 50.838019157615896], [-2.9800169808861625, 50.83569914276167], [-2.9810778597071215, 50.83612259592985], [-2.981184487415106, 50.836231460308504], [-2.9812298437975833, 50.83637701985877]]]}}, {"type": "Feature", "properties": {"type": "postcode-cell", "postcode": "EX13 7BP", "postcodes": ["EX13 7BP"]}, "geometry": {"type": "Polygon", "coordinates": [[[-2.9824357352274373, 50.83046916610588], [-2.9815325216923445, 50.83437958506455], [-2.9815079023837066, 50.83437853242077], [-2.980793000362516, 50.834141927989656], [-2.979788311253341, 50.832539470002736], [-2.9799573290815378, 50.83016388020138], [-2.9824357352274373, 50.83046916610588]]]}}, {"type": "Feature", "properties": {"type": "postcode-cell", "postcode": "EX13 7BX", "postcodes": ["EX13 7BX"]}, "geometry": {"type": "Polygon", "coordinates": [[[-2.983226497107073, 50.83560069204795], [-2.981184487415106, 50.836231460308504], [-2.9810778597071215, 50.83612259592985], [-2.9823242751150234, 50.83456276102067], [-2.9832338316265856, 50.83459230338304], [-2.983226497107073, 50.83560069204795]]]}}, {"type": "Feature", "properties": {"type": "postcode-cell", "postcode": "EX13 7BJ", "postcodes": ["EX13 7BJ"]}, "geometry": {"type": "Polygon", "coordinates": [[[-2.9779354606334887, 50.829466235771335], [-2.9799573290815378, 50.83016388020138], [-2.979788311253341, 50.832539470002736], [-2.9785253436059276, 50.833900395291096], [-2.9780822267116878, 50.833883409779524], [-2.976162634570653, 50.83007251058236], [-2.9779354606334887, 50.829466235771335]]]}}, {"type": "Feature", "properties": {"type": "postcode-cell", "postcode": "EX13 7BQ", "postcodes": ["EX13 7BQ"]}, "geometry": {"type": "Polygon", "coordinates": [[[-2.976162634570653, 50.83007251058236], [-2.9735354320299776, 50.83083170912072], [-2.9708779580518714, 50.82666751969719], [-2.9712965166048937, 50.8259793909479], [-2.974083310922006, 50.82369858754734], [-2.9767463046488256, 50.82318891169292], [-2.9782216465789455, 50.82498451702175], [-2.9779354606334887, 50.829466235771335], [-2.976162634570653, 50.83007251058236]]]}}, {"type": "Feature", "properties": {"type": "postcode-cell", "postcode": "EX13 7BS", "postcodes": ["EX13 7BS"]}, "geometry": {"type": "Polygon", "coordinates": [[[-2.9810778597071215, 50.83612259592985], [-2.9800169808861625, 50.83569914276167], [-2.979996137886028, 50.83559506007122], [-2.9800249720617913, 50.83555976151084], [-2.9815079023837066, 50.83437853242077], [-2.9815325216923445, 50.83437958506455], [-2.9823242751150234, 50.83456276102067], [-2.9810778597071215, 50.83612259592985]]]}}, {"type": "Feature", "properties": {"type": "postcode-cell", "postcode": "EX13 7BN", "postcodes": ["EX13 7BN"]}, "geometry": {"type": "Polygon", "coordinates": [[[-2.9800249720617913, 50.83555976151084], [-2.9797395760624816, 50.83434376352318], [-2.980793000362516, 50.834141927989656], [-2.9815079023837066, 50.83437853242077], [-2.9800249720617913, 50.83555976151084]]]}}, {"type": "Feature", "properties": {"type": "postcode-cell", "postcode": "EX13 7BR", "postcodes": ["EX13 7BR"]}, "geometry": {"type": "Polygon", "coordinates": [[[-2.9797395760624816, 50.83434376352318], [-2.979645236685409, 50.83434652253797], [-2.978740743895742, 50.83409038513493], [-2.9785253436059276, 50.833900395291096], [-2.979788311253341, 50.832539470002736], [-2.980793000362516, 50.834141927989656], [-2.9797395760624816, 50.83434376352318]]]}}, {"type": "Feature", "properties": {"type": "postcode-cell", "postcode": "EX13 7BU", "postcodes": ["EX13 7BU"]}, "geometry": {"type": "Polygon", "coordinates": [[[-2.979433697822137, 50.84554947391875], [-2.9724515578753987, 50.84470357326802], [-2.9724199893434333, 50.84434999484692], [-2.9711799893434057, 50.84288999484581], [-2.9693999893428993, 50.841729994844925], [-2.968539989342982, 50.84050999484399], [-2.968776439463917, 50.83935353009358], [-2.9740436144984272, 50.83867338873352], [-2.982396596488603, 50.83861727090371], [-2.979433697822137, 50.84554947391875]]]}}, {"type": "Feature", "properties": {"type": "postcode-cell", "postcode": "EX13 7DJ", "postcodes": ["EX13 7DJ"]}, "geometry": {"type": "Polygon", "coordinates": [[[-2.9800249720617913, 50.83555976151084], [-2.979996137886028, 50.83559506007122], [-2.9790411883868497, 50.83512078082981], [-2.979645236685409, 50.83434652253797], [-2.9797395760624816, 50.83434376352318], [-2.9800249720617913, 50.83555976151084]]]}}, {"type": "Feature", "properties": {"type": "postcode-cell", "postcode": "EX13 5UB", "postcodes": ["EX13 5UB"]}, "geometry": {"type": "Polygon", "coordinates": [[[-2.9636918677754225, 50.8029863465917], [-2.945081600279267, 50.803701718469306], [-2.9450605096577793, 50.80359763225919], [-2.946188142181194, 50.79583996910977], [-2.955755824275691, 50.792818844261284], [-2.956329989358902, 50.79345999480752], [-2.9559699893582825, 50.79426999480815], [-2.9564299893579062, 50.79558999480918], [-2.957009989357744, 50.79661999480996], [-2.9584099893580285, 50.79774999481083], [-2.958519989357647, 50.79864999481152], [-2.9610099893583706, 50.8002199948127], [-2.9617199893587545, 50.80030999481278], [-2.9624799893587666, 50.80120999481343], [-2.9632399893591646, 50.80132999481353], [-2.964249989359368, 50.802149994814144], [-2.964260562224157, 50.802288503137504], [-2.9636918677754225, 50.8029863465917]]]}}, {"type": "Feature", "properties": {"type": "postcode-cell", "postcode": "EX13 7SY", "postcodes": ["EX13 7SY"]}, "geometry": {"type": "Polygon", "coordinates": [[[-2.979996137886028, 50.83559506007122], [-2.9800169808861625, 50.83569914276167], [-2.9755266114717163, 50.838019157615896], [-2.9740436144984272, 50.83867338873352], [-2.968776439463917, 50.83935353009358], [-2.9690770679119107, 50.83788309186314], [-2.978251092399246, 50.835080857193745], [-2.9790411883868497, 50.83512078082981], [-2.979996137886028, 50.83559506007122]]]}}, {"type": "Feature", "properties": {"type": "postcode-cell", "postcode": "EX13 7SX", "postcodes": ["EX13 7SX"]}, "geometry": {"type": "Polygon", "coordinates": [[[-2.979645236685409, 50.83434652253797], [-2.9790411883868497, 50.83512078082981], [-2.978251092399246, 50.835080857193745], [-2.978740743895742, 50.83409038513493], [-2.979645236685409, 50.83434652253797]]]}}, {"type": "Feature", "properties": {"type": "postcode-cell", "postcode": "EX13 7BB", "postcodes": ["EX13 7BB"]}, "geometry": {"type": "Polygon", "coordinates": [[[-2.9802247716459753, 50.81621055950993], [-2.9784652739443107, 50.82037801193547], [-2.9778364787157523, 50.82072947250731], [-2.965706246899817, 50.81654431393245], [-2.966010607799745, 50.81634705309576], [-2.974282168866665, 50.81481900046125], [-2.9791366972809854, 50.81568226265391], [-2.9802247716459753, 50.81621055950993]]]}}, {"type": "Feature", "properties": {"type": "postcode-cell", "postcode": "EX13 7NG", "postcodes": ["EX13 7NG"]}, "geometry": {"type": "Polygon", "coordinates": [[[-2.977658448107781, 50.80814659497222], [-2.970492517220921, 50.810040073589555], [-2.9636748339022296, 50.8031046257514], [-2.9636918677754225, 50.8029863465917], [-2.964260562224157, 50.802288503137504], [-2.96434998935878, 50.80345999481517], [-2.9652299893589653, 50.80415999481569], [-2.966619989359507, 50.804759994816145], [-2.967389989359986, 50.80472999481611], [-2.9673799893598556, 50.8049799948163], [-2.968749989360734, 50.804879994816204], [-2.9685199893608516, 50.8043599948158], [-2.9696299893617892, 50.80381999481535], [-2.9703799893622413, 50.80381999481535], [-2.9704607470199207, 50.8035528742602], [-2.977395503876754, 50.80569310209902], [-2.9781411202265935, 50.806461964609625], [-2.977658448107781, 50.80814659497222]]]}}, {"type": "Feature", "properties": {"type": "postcode-cell", "postcode": "EX13 7NE", "postcodes": ["EX13 7NE"]}, "geometry": {"type": "Polygon", "coordinates": [[[-2.97984403331631, 50.810497176530326], [-2.976806320695417, 50.81236188584684], [-2.9739311827959876, 50.811731267273935], [-2.9736187020616605, 50.811534217776185], [-2.9784440191051695, 50.80949459197374], [-2.97984403331631, 50.810497176530326]]]}}, {"type": "Feature", "properties": {"type": "postcode-cell", "postcode": "EX13 7BH", "postcodes": ["EX13 7BH"]}, "geometry": {"type": "Polygon", "coordinates": [[[-2.9780822267116878, 50.833883409779524], [-2.969521891687277, 50.83570719749754], [-2.9698299893468825, 50.83419999483906], [-2.968025143901524, 50.833911234389184], [-2.9735354320299776, 50.83083170912072], [-2.976162634570653, 50.83007251058236], [-2.9780822267116878, 50.833883409779524]]]}}, {"type": "Feature", "properties": {"type": "postcode-cell", "postcode": "EX13 7NB", "postcodes": ["EX13 7NB"]}, "geometry": {"type": "Polygon", "coordinates": [[[-2.9791366972809854, 50.81568226265391], [-2.974282168866665, 50.81481900046125], [-2.9739311827959876, 50.811731267273935], [-2.976806320695417, 50.81236188584684], [-2.9791366972809854, 50.81568226265391]]]}}, {"type": "Feature", "properties": {"type": "postcode-cell", "postcode": "EX13 7NF", "postcodes": ["EX13 7NF"]}, "geometry": {"type": "Polygon", "coordinates": [[[-2.9784440191051695, 50.80949459197374], [-2.9736187020616605, 50.811534217776185], [-2.9706887420885892, 50.81063152138548], [-2.970492517220921, 50.810040073589555], [-2.977658448107781, 50.80814659497222], [-2.9784440191051695, 50.80949459197374]]]}}, {"type": "Feature", "properties": {"type": "postcode-cell", "postcode": "EX13 7AU", "postcodes": ["EX13 7AU"]}, "geometry": {"type": "Polygon", "coordinates": [[[-2.941549708331462, 50.80863689210724], [-2.951885159271008, 50.810900034054704], [-2.9517810034730734, 50.815437652692836], [-2.9517499893452404, 50.81544999482471], [-2.9509199893449667, 50.81498999482435], [-2.9498299893443045, 50.81499999482438], [-2.949449989343868, 50.81541999482472], [-2.9490399893437544, 50.815149994824516], [-2.947959989342963, 50.81542999482474], [-2.9468399893426964, 50.814609994824124], [-2.9472099893430683, 50.814309994823894], [-2.945679989342263, 50.81406999482372], [-2.9448099893420863, 50.8133699948232], [-2.9441199893416563, 50.81339999482322], [-2.943199989341602, 50.812389994822475], [-2.942719989341309, 50.81239999482248], [-2.9425899893414584, 50.81193999482212], [-2.941509989340912, 50.81172999482198], [-2.9416299893412927, 50.81110999482151], [-2.940739989340754, 50.811109994821514], [-2.9397899893404955, 50.810479994821016], [-2.9390099893400468, 50.810439994821], [-2.939039989340243, 50.81007999482073], [-2.938399989339983, 50.809829994820554], [-2.938165705223153, 50.809865280164004], [-2.941549708331462, 50.80863689210724]]]}}, {"type": "Feature", "properties": {"type": "postcode-cell", "postcode": "EX13 7ND", "postcodes": ["EX13 7ND"]}, "geometry": {"type": "Polygon", "coordinates": [[[-2.9736187020616605, 50.811534217776185], [-2.9739311827959876, 50.811731267273935], [-2.974282168866665, 50.81481900046125], [-2.966010607799745, 50.81634705309576], [-2.9706887420885892, 50.81063152138548], [-2.9736187020616605, 50.811534217776185]]]}}, {"type": "Feature", "properties": {"type": "postcode-cell", "postcode": "EX13 5UA", "postcodes": ["EX13 5UA"]}, "geometry": {"type": "Polygon", "coordinates": [[[-2.9608767471946162, 50.806438322887395], [-2.953817126766599, 50.81050437746078], [-2.951885159271008, 50.810900034054704], [-2.941549708331462, 50.80863689210724], [-2.94448312741307, 50.8043719581768], [-2.945081600279267, 50.803701718469306], [-2.9636918677754225, 50.8029863465917], [-2.9636748339022296, 50.8031046257514], [-2.9608767471946162, 50.806438322887395]]]}}, {"type": "Feature", "properties": {"type": "postcode-cell", "postcode": "EX13 7AR", "postcodes": ["EX13 7AR"]}, "geometry": {"type": "Polygon", "coordinates": [[[-2.9636748339022296, 50.8031046257514], [-2.970492517220921, 50.810040073589555], [-2.9706887420885892, 50.81063152138548], [-2.966010607799745, 50.81634705309576], [-2.965706246899817, 50.81654431393245], [-2.9646529135042514, 50.8167307834684], [-2.9608767471946162, 50.806438322887395], [-2.9636748339022296, 50.8031046257514]]]}}, {"type": "Feature", "properties": {"type": "postcode-cell", "postcode": "EX13 7BA", "postcodes": ["EX13 7BA"]}, "geometry": {"type": "Polygon", "coordinates": [[[-2.9767463046488256, 50.82318891169292], [-2.974083310922006, 50.82369858754734], [-2.9689771863634293, 50.8231084018312], [-2.962626253017054, 50.818081523991026], [-2.963710826203942, 50.81716021777054], [-2.9646529135042514, 50.8167307834684], [-2.965706246899817, 50.81654431393245], [-2.9778364787157523, 50.82072947250731], [-2.9767463046488256, 50.82318891169292]]]}}, {"type": "Feature", "properties": {"type": "postcode-cell", "postcode": "EX13 7AZ", "postcodes": ["EX13 7AZ"]}, "geometry": {"type": "Polygon", "coordinates": [[[-2.9689771863634293, 50.8231084018312], [-2.965698339757723, 50.8253920800496], [-2.961569773150271, 50.82715158048657], [-2.959049989344382, 50.82607999483288], [-2.957549989344094, 50.82482999483192], [-2.9576699893444345, 50.824289994831496], [-2.9559299893440114, 50.82301999483053], [-2.9546529237587182, 50.821552573203135], [-2.962626253017054, 50.818081523991026], [-2.9689771863634293, 50.8231084018312]]]}}, {"type": "Feature", "properties": {"type": "postcode-cell", "postcode": "EX13 7BE", "postcodes": ["EX13 7BE"]}, "geometry": {"type": "Polygon", "coordinates": [[[-2.9623112152890543, 50.82913781403698], [-2.962599989345165, 50.82882999483496], [-2.9629299893459087, 50.82772999483411], [-2.961569773150271, 50.82715158048657], [-2.965698339757723, 50.8253920800496], [-2.9712965166048937, 50.8259793909479], [-2.9708779580518714, 50.82666751969719], [-2.9623112152890543, 50.82913781403698]]]}}, {"type": "Feature", "properties": {"type": "postcode-cell", "postcode": "EX13 7BD", "postcodes": ["EX13 7BD"]}, "geometry": {"type": "Polygon", "coordinates": [[[-2.9712965166048937, 50.8259793909479], [-2.965698339757723, 50.8253920800496], [-2.9689771863634293, 50.8231084018312], [-2.974083310922006, 50.82369858754734], [-2.9712965166048937, 50.8259793909479]]]}}, {"type": "Feature", "properties": {"type": "postcode-cell", "postcode": "EX13 7AT", "postcodes": ["EX13 7AT"]}, "geometry": {"type": "Polygon", "coordinates": [[[-2.9546529237587182, 50.821552573203135], [-2.9543199893439573, 50.82116999482912], [-2.9555099893451637, 50.820179994828315], [-2.9568399893458146, 50.820489994828556], [-2.958169989346864, 50.819989994828134], [-2.9587799893479563, 50.818529994826996], [-2.958389989347898, 50.81816999482671], [-2.957629989347376, 50.81829999482685], [-2.9573699893473426, 50.81804999482665], [-2.9577199893476975, 50.8177599948264], [-2.9580899893477968, 50.818009994826596], [-2.9586299893482484, 50.817759994826396], [-2.9594499893486814, 50.8178799948265], [-2.959179989348831, 50.81724999482599], [-2.959619989349318, 50.81679999482562], [-2.961229989350405, 50.81656999482542], [-2.9615999893508405, 50.816139994825086], [-2.9612999893509517, 50.815549994824636], [-2.9608399893507005, 50.81549999482459], [-2.95998998934974, 50.81639999482531], [-2.9590599893493565, 50.81603999482505], [-2.958429989348829, 50.816339994825285], [-2.9583199893490235, 50.81580999482487], [-2.956609989347967, 50.81585999482495], [-2.954729989347076, 50.815369994824586], [-2.9541099893466227, 50.81552999482473], [-2.9527299893460244, 50.815059994824395], [-2.9517810034730734, 50.815437652692836], [-2.951885159271008, 50.810900034054704], [-2.953817126766599, 50.81050437746078], [-2.963710826203942, 50.81716021777054], [-2.962626253017054, 50.818081523991026], [-2.9546529237587182, 50.821552573203135]]]}}, {"type": "Feature", "properties": {"type": "postcode-cell", "postcode": "EX13 7AS", "postcodes": ["EX13 7AS"]}, "geometry": {"type": "Polygon", "coordinates": [[[-2.963710826203942, 50.81716021777054], [-2.953817126766599, 50.81050437746078], [-2.9608767471946162, 50.806438322887395], [-2.9646529135042514, 50.8167307834684], [-2.963710826203942, 50.81716021777054]]]}}, {"type": "Feature", "properties": {"type": "postcode-cell", "postcode": "EX13 5TY", "postcodes": ["EX13 5TY"]}, "geometry": {"type": "Polygon", "coordinates": [[[-2.945081600279267, 50.803701718469306], [-2.94448312741307, 50.8043719581768], [-2.935996642630325, 50.80148804073598], [-2.93837131747678, 50.80037430389512], [-2.9450605096577793, 50.80359763225919], [-2.945081600279267, 50.803701718469306]]]}}, {"type": "Feature", "properties": {"type": "postcode-cell", "postcode": "EX13 5UD", "postcodes": ["EX13 5UD"]}, "geometry": {"type": "Polygon", "coordinates": [[[-2.946188142181194, 50.79583996910977], [-2.937936946100177, 50.79447253856058], [-2.9370333744626946, 50.79383307578012], [-2.9362378090672925, 50.79044422551451], [-2.9376986560205807, 50.788658061560106], [-2.949996525707251, 50.788771213223725], [-2.950239989357407, 50.789079994804204], [-2.949749989356609, 50.79008999480501], [-2.949969989356364, 50.7908499948056], [-2.952559989357453, 50.791799994806304], [-2.9540599893582726, 50.79196999480642], [-2.955729989358872, 50.792789994806995], [-2.955755824275691, 50.792818844261284], [-2.946188142181194, 50.79583996910977]]]}}, {"type": "Feature", "properties": {"type": "postcode-cell", "postcode": "EX13 5UF", "postcodes": ["EX13 5UF"]}, "geometry": {"type": "Polygon", "coordinates": [[[-2.9376986560205807, 50.788658061560106], [-2.937935497220861, 50.78375052011081], [-2.939646831936928, 50.783320452228025], [-2.9477892233250804, 50.78253092025186], [-2.9478599893590407, 50.78289999479945], [-2.949209989358791, 50.7850399948011], [-2.949829989358067, 50.787249994802806], [-2.9498299893574176, 50.78855999480381], [-2.949996525707251, 50.788771213223725], [-2.9376986560205807, 50.788658061560106]]]}}, {"type": "Feature", "properties": {"type": "postcode-cell", "postcode": "EX13 5XD", "postcodes": ["EX13 5XD"]}, "geometry": {"type": "Polygon", "coordinates": [[[-2.931203676912901, 50.798449873610764], [-2.937766019584216, 50.79476264195992], [-2.937355312428528, 50.795888618148446], [-2.932723734620394, 50.799866949023844], [-2.932249605228681, 50.80009760684389], [-2.931203676912901, 50.798449873610764]]]}}, {"type": "Feature", "properties": {"type": "postcode-cell", "postcode": "EX13 5XJ", "postcodes": ["EX13 5XJ"]}, "geometry": {"type": "Polygon", "coordinates": [[[-2.932249605228681, 50.80009760684389], [-2.9295943043406405, 50.80380654829947], [-2.9266175384131623, 50.79760832494423], [-2.931203676912901, 50.798449873610764], [-2.932249605228681, 50.80009760684389]]]}}, {"type": "Feature", "properties": {"type": "postcode-cell", "postcode": "EX13 5TZ", "postcodes": ["EX13 5TZ"]}, "geometry": {"type": "Polygon", "coordinates": [[[-2.938165705223153, 50.809865280164004], [-2.936739989338858, 50.810079994820775], [-2.93626998933875, 50.8097299948205], [-2.9355199893382484, 50.8098299948206], [-2.9344599893379337, 50.8091799948201], [-2.931589989336225, 50.80913999482012], [-2.931279989336287, 50.80863999481974], [-2.9307299893357732, 50.80900999482003], [-2.929779989335173, 50.8090699948201], [-2.928959989335001, 50.808419994819616], [-2.927652046084177, 50.80840144300586], [-2.929586019721065, 50.80410317655779], [-2.935369889163257, 50.801533597667], [-2.935996642630325, 50.80148804073598], [-2.94448312741307, 50.8043719581768], [-2.941549708331462, 50.80863689210724], [-2.938165705223153, 50.809865280164004]]]}}, {"type": "Feature", "properties": {"type": "postcode-cell", "postcode": "EX13 5GL", "postcodes": ["EX13 5GL"]}, "geometry": {"type": "Polygon", "coordinates": [[[-2.937766019584216, 50.79476264195992], [-2.931203676912901, 50.798449873610764], [-2.9266175384131623, 50.79760832494423], [-2.925425936235969, 50.79644453555532], [-2.9257112013321516, 50.79607678495759], [-2.9272002990242485, 50.79514348797184], [-2.9370333744626946, 50.79383307578012], [-2.937936946100177, 50.79447253856058], [-2.937766019584216, 50.79476264195992]]]}}, {"type": "Feature", "properties": {"type": "postcode-cell", "postcode": "EX13 5XB", "postcodes": ["EX13 5XB"]}, "geometry": {"type": "Polygon", "coordinates": [[[-2.937936946100177, 50.79447253856058], [-2.946188142181194, 50.79583996910977], [-2.9450605096577793, 50.80359763225919], [-2.93837131747678, 50.80037430389512], [-2.9372916413970764, 50.798570184441566], [-2.937355312428528, 50.795888618148446], [-2.937766019584216, 50.79476264195992], [-2.937936946100177, 50.79447253856058]]]}}, {"type": "Feature", "properties": {"type": "postcode-cell", "postcode": "EX13 5UJ", "postcodes": ["EX13 5UJ"]}, "geometry": {"type": "Polygon", "coordinates": [[[-2.939646831936928, 50.783320452228025], [-2.937935497220861, 50.78375052011081], [-2.9368470044599926, 50.78336284796336], [-2.933532771388314, 50.78108253778129], [-2.9404703579976053, 50.77768949809708], [-2.939646831936928, 50.783320452228025]]]}}, {"type": "Feature", "properties": {"type": "postcode-cell", "postcode": "EX13 5XW", "postcodes": ["EX13 5XW"]}, "geometry": {"type": "Polygon", "coordinates": [[[-2.9372916413970764, 50.798570184441566], [-2.9356346410526823, 50.80003349424679], [-2.932723734620394, 50.799866949023844], [-2.937355312428528, 50.795888618148446], [-2.9372916413970764, 50.798570184441566]]]}}, {"type": "Feature", "properties": {"type": "postcode-cell", "postcode": "EX13 5XA", "postcodes": ["EX13 5XA"]}, "geometry": {"type": "Polygon", "coordinates": [[[-2.93837131747678, 50.80037430389512], [-2.935996642630325, 50.80148804073598], [-2.935369889163257, 50.801533597667], [-2.9356346410526823, 50.80003349424679], [-2.9372916413970764, 50.798570184441566], [-2.93837131747678, 50.80037430389512]]]}}, {"type": "Feature", "properties": {"type": "postcode-cell", "postcode": "EX13 5XE", "postcodes": ["EX13 5XE"]}, "geometry": {"type": "Polygon", "coordinates": [[[-2.932249605228681, 50.80009760684389], [-2.932723734620394, 50.799866949023844], [-2.9356346410526823, 50.80003349424679], [-2.935369889163257, 50.801533597667], [-2.929586019721065, 50.80410317655779], [-2.9295943043406405, 50.80380654829947], [-2.932249605228681, 50.80009760684389]]]}}, {"type": "Feature", "properties": {"type": "postcode-cell", "postcode": "EX13 5UE", "postcodes": ["EX13 5UE"]}, "geometry": {"type": "Polygon", "coordinates": [[[-2.9362378090672925, 50.79044422551451], [-2.9311495873373468, 50.789399408177076], [-2.929289189838856, 50.78595750855177], [-2.9368470044599926, 50.78336284796336], [-2.937935497220861, 50.78375052011081], [-2.9376986560205807, 50.788658061560106], [-2.9362378090672925, 50.79044422551451]]]}}, {"type": "Feature", "properties": {"type": "postcode-cell", "postcode": "EX13 5XF", "postcodes": ["EX13 5XF"]}, "geometry": {"type": "Polygon", "coordinates": [[[-2.929586019721065, 50.80410317655779], [-2.927652046084177, 50.80840144300586], [-2.9275499893341634, 50.80839999481964], [-2.9265899893338547, 50.80785999481921], [-2.9262499893334524, 50.80825999481952], [-2.9252799893330064, 50.80797999481932], [-2.924899989332626, 50.808289994819575], [-2.922719989331662, 50.80758999481906], [-2.9219199893315193, 50.806909994818554], [-2.9214496596045625, 50.806848182861465], [-2.920765600672241, 50.79911435518261], [-2.9220850021478126, 50.79741990941631], [-2.925425936235969, 50.79644453555532], [-2.9266175384131623, 50.79760832494423], [-2.9295943043406405, 50.80380654829947], [-2.929586019721065, 50.80410317655779]]]}}, {"type": "Feature", "properties": {"type": "postcode-cell", "postcode": "EX13 5TX", "postcodes": ["EX13 5TX"]}, "geometry": {"type": "Polygon", "coordinates": [[[-2.9272002990242485, 50.79514348797184], [-2.925589843730711, 50.79006272847692], [-2.9311495873373468, 50.789399408177076], [-2.9362378090672925, 50.79044422551451], [-2.9370333744626946, 50.79383307578012], [-2.9272002990242485, 50.79514348797184]]]}}, {"type": "Feature", "properties": {"type": "postcode-cell", "postcode": "EX13 5XQ", "postcodes": ["EX13 5XQ"]}, "geometry": {"type": "Polygon", "coordinates": [[[-2.9214496596045625, 50.806848182861465], [-2.9201699893305837, 50.806679994818396], [-2.918559989330137, 50.80562999481762], [-2.9176199893294292, 50.80591999481785], [-2.9153099893283536, 50.8052899948174], [-2.913589989327317, 50.80529999481745], [-2.913299989327287, 50.80500999481724], [-2.9120899893264425, 50.80524999481742], [-2.91129998932628, 50.804619994816946], [-2.9104918928875483, 50.80463023477466], [-2.9093410973492193, 50.79915780484292], [-2.920765600672241, 50.79911435518261], [-2.9214496596045625, 50.806848182861465]]]}}, {"type": "Feature", "properties": {"type": "postcode-cell", "postcode": "EX13 5XN", "postcodes": ["EX13 5XN"]}, "geometry": {"type": "Polygon", "coordinates": [[[-2.9272002990242485, 50.79514348797184], [-2.9257112013321516, 50.79607678495759], [-2.9190823845398333, 50.79151199786922], [-2.9240460857859354, 50.78950533958967], [-2.925589843730711, 50.79006272847692], [-2.9272002990242485, 50.79514348797184]]]}}, {"type": "Feature", "properties": {"type": "postcode-cell", "postcode": "EX13 5UP", "postcodes": ["EX13 5UP"]}, "geometry": {"type": "Polygon", "coordinates": [[[-2.922510778119741, 50.78446245528802], [-2.9240460857859354, 50.78950533958967], [-2.9190823845398333, 50.79151199786922], [-2.9125944060073623, 50.79206185007368], [-2.9057446781485567, 50.78529123457559], [-2.913559989337652, 50.78448999480128], [-2.9187299893411858, 50.78361999480053], [-2.9213345285020353, 50.78333626502537], [-2.922510778119741, 50.78446245528802]]]}}, {"type": "Feature", "properties": {"type": "postcode-cell", "postcode": "EX13 5UL", "postcodes": ["EX13 5UL"]}, "geometry": {"type": "Polygon", "coordinates": [[[-2.929289189838856, 50.78595750855177], [-2.922510778119741, 50.78446245528802], [-2.9213345285020353, 50.78333626502537], [-2.929649989348331, 50.78242999479941], [-2.932719989350647, 50.78147999479862], [-2.933532771388314, 50.78108253778129], [-2.9368470044599926, 50.78336284796336], [-2.929289189838856, 50.78595750855177]]]}}, {"type": "Feature", "properties": {"type": "postcode-cell", "postcode": "EX13 5RX", "postcodes": ["EX13 5RX"]}, "geometry": {"type": "Polygon", "coordinates": [[[-2.9311495873373468, 50.789399408177076], [-2.925589843730711, 50.79006272847692], [-2.9240460857859354, 50.78950533958967], [-2.922510778119741, 50.78446245528802], [-2.929289189838856, 50.78595750855177], [-2.9311495873373468, 50.789399408177076]]]}}, {"type": "Feature", "properties": {"type": "postcode-cell", "postcode": "EX13 5XH", "postcodes": ["EX13 5XH"]}, "geometry": {"type": "Polygon", "coordinates": [[[-2.920765600672241, 50.79911435518261], [-2.9093410973492193, 50.79915780484292], [-2.909078417077055, 50.798773467171515], [-2.9126332827976307, 50.79352663054865], [-2.9220850021478126, 50.79741990941631], [-2.920765600672241, 50.79911435518261]]]}}, {"type": "Feature", "properties": {"type": "postcode-cell", "postcode": "EX13 5XG", "postcodes": ["EX13 5XG"]}, "geometry": {"type": "Polygon", "coordinates": [[[-2.925425936235969, 50.79644453555532], [-2.9220850021478126, 50.79741990941631], [-2.9126332827976307, 50.79352663054865], [-2.9125944060073623, 50.79206185007368], [-2.9190823845398333, 50.79151199786922], [-2.9257112013321516, 50.79607678495759], [-2.925425936235969, 50.79644453555532]]]}}, {"type": "Feature", "properties": {"type": "postcode-cell", "postcode": "EX13 5XL", "postcodes": ["EX13 5XL"]}, "geometry": {"type": "Polygon", "coordinates": [[[-2.9126332827976307, 50.79352663054865], [-2.909078417077055, 50.798773467171515], [-2.8997136171155127, 50.79758720907685], [-2.8973949627415196, 50.78619001717704], [-2.8974599893271877, 50.786139994802845], [-2.9057446781485567, 50.78529123457559], [-2.9125944060073623, 50.79206185007368], [-2.9126332827976307, 50.79352663054865]]]}}, {"type": "Feature", "properties": {"type": "postcode-cell", "postcode": "EX13 5UT", "postcodes": ["EX13 5UT"]}, "geometry": {"type": "Polygon", "coordinates": [[[-2.8997136171155127, 50.79758720907685], [-2.890336227999938, 50.802957945964764], [-2.8904199893147844, 50.80256999481573], [-2.8898799893146503, 50.80218999481543], [-2.8901999893151316, 50.80160999481495], [-2.889689989315066, 50.80112999481461], [-2.8898099893153613, 50.80067999481425], [-2.8887599893152114, 50.799719994813515], [-2.888809989315895, 50.79840999481251], [-2.8870299893159403, 50.7961799948108], [-2.8866799893164696, 50.79469999480967], [-2.889309989318427, 50.79392999480903], [-2.8877599893177424, 50.79343999480867], [-2.8878199893180376, 50.792919994808265], [-2.887039989317772, 50.792519994807975], [-2.890579989320886, 50.790519994806345], [-2.8937499893231116, 50.78985999480578], [-2.8956399893253986, 50.78753999480395], [-2.8973949627415196, 50.78619001717704], [-2.8997136171155127, 50.79758720907685]]]}}, {"type": "Feature", "properties": {"type": "postcode-cell", "postcode": "EX13 5UU", "postcodes": ["EX13 5UU"]}, "geometry": {"type": "Polygon", "coordinates": [[[-2.8997136171155127, 50.79758720907685], [-2.909078417077055, 50.798773467171515], [-2.9093410973492193, 50.79915780484292], [-2.9104918928875483, 50.80463023477466], [-2.9073499893238846, 50.804669994817054], [-2.9054299893224345, 50.80526999481754], [-2.9026099893210677, 50.80461999481709], [-2.9006599893198386, 50.80473999481723], [-2.8998099893191154, 50.80516999481756], [-2.897189989317869, 50.80451999481709], [-2.8957199893167727, 50.80494999481746], [-2.8950099893165078, 50.80462999481723], [-2.894229989315885, 50.8049399948175], [-2.8928699893151455, 50.80478999481739], [-2.8915599893148647, 50.803779994816644], [-2.890229989314231, 50.80344999481639], [-2.890336227999938, 50.802957945964764], [-2.8997136171155127, 50.79758720907685]]]}}]}